{"type":"FeatureCollection","features":[{"type":"Feature","properties":{"kind":"lift","difficulty":null,"name":"Doppelsesselbahn Aflenz-Bürgeralm","aerialway":"chair_lift","osm":"way/23009125"},"geometry":{"type":"LineString","coordinates":[[15.23647,47.55358],[15.22909,47.56836]]}},{"type":"Feature","properties":{"kind":"lift","difficulty":null,"name":"Paradieslift","aerialway":"t-bar","osm":"way/23009142"},"geometry":{"type":"LineString","coordinates":[[15.23542,47.57752],[15.23069,47.58156]]}},{"type":"Feature","properties":{"kind":"lift","difficulty":null,"name":"Gretlhöhlift","aerialway":"drag_lift","osm":"way/23009157"},"geometry":{"type":"LineString","coordinates":[[15.22882,47.56923],[15.22637,47.56993]]}},{"type":"Feature","properties":{"kind":"piste","difficulty":"easy","name":null,"aerialway":null,"osm":"way/30331426"},"geometry":{"type":"LineString","coordinates":[[15.22877,47.57136],[15.22907,47.57211]]}},{"type":"Feature","properties":{"kind":"piste","difficulty":"easy","name":null,"aerialway":null,"osm":"way/30995863"},"geometry":{"type":"LineString","coordinates":[[15.23079,47.54696],[15.23125,47.54702],[15.23171,47.54728],[15.23176,47.54744],[15.23149,47.54772]]}},{"type":"Feature","properties":{"kind":"piste","difficulty":"easy","name":"Bürgeralmstraße","aerialway":null,"osm":"way/35160061"},"geometry":{"type":"LineString","coordinates":[[15.2272,47.57183],[15.22565,47.57105],[15.21994,47.56967],[15.21961,47.56933],[15.21964,47.56916],[15.2207,47.5683],[15.2208,47.56815],[15.22069,47.56806],[15.21901,47.56896],[15.21881,47.56931],[15.21928,47.5707],[15.21946,47.57092],[15.21972,47.57108],[15.2209,47.5711],[15.22121,47.57123],[15.2212,47.57134],[15.21939,47.57132],[15.21884,47.57107],[15.21821,47.57017],[15.21677,47.56893],[15.21663,47.56852],[15.21739,47.56821],[15.21835,47.56756],[15.21861,47.5662],[15.21879,47.56604],[15.22012,47.56613],[15.22193,47.56652],[15.22223,47.5664],[15.2227,47.56583],[15.2244,47.56564],[15.22537,47.56493],[15.22728,47.56463],[15.22732,47.56411],[15.22713,47.56354],[15.22761,47.56307],[15.22767,47.56281],[15.22707,47.56196],[15.22697,47.55988],[15.22754,47.55904],[15.22835,47.55823],[15.22928,47.55672],[15.22979,47.55562]]}},{"type":"Feature","properties":{"kind":"piste","difficulty":"easy","name":"Bürgeralmstraße","aerialway":null,"osm":"way/90969780"},"geometry":{"type":"LineString","coordinates":[[15.23143,47.54675],[15.23226,47.54692],[15.23271,47.54715],[15.23344,47.54771],[15.23384,47.54847],[15.23452,47.54873],[15.2351,47.54929],[15.23603,47.54923],[15.23662,47.54965]]}},{"type":"Feature","properties":{"kind":"lift","difficulty":null,"name":"Gretlhöh-Kreuz-Lift","aerialway":"drag_lift","osm":"way/243946935"},"geometry":{"type":"LineString","coordinates":[[15.2282,47.56877],[15.22399,47.56954]]}},{"type":"Feature","properties":{"kind":"piste","difficulty":"easy","name":null,"aerialway":null,"osm":"way/243947168"},"geometry":{"type":"LineString","coordinates":[[15.22909,47.56836],[15.22825,47.56862],[15.22815,47.56877]]}},{"type":"Feature","properties":{"kind":"piste","difficulty":"easy","name":null,"aerialway":null,"osm":"way/243947226"},"geometry":{"type":"LineString","coordinates":[[15.22445,47.56945],[15.22825,47.56862]]}},{"type":"Feature","properties":{"kind":"piste","difficulty":"easy","name":null,"aerialway":null,"osm":"way/243947283"},"geometry":{"type":"LineString","coordinates":[[15.22696,47.56976],[15.22704,47.56959],[15.22822,47.56906],[15.22884,47.56918]]}},{"type":"Feature","properties":{"kind":"piste","difficulty":"easy","name":null,"aerialway":null,"osm":"way/243947284"},"geometry":{"type":"LineString","coordinates":[[15.22822,47.56906],[15.22832,47.56897],[15.22829,47.56861]]}},{"type":"Feature","properties":{"kind":"piste","difficulty":"easy","name":null,"aerialway":null,"osm":"way/243947326"},"geometry":{"type":"LineString","coordinates":[[15.22445,47.56945],[15.22696,47.56976]]}},{"type":"Feature","properties":{"kind":"piste","difficulty":"easy","name":null,"aerialway":null,"osm":"way/243947409"},"geometry":{"type":"LineString","coordinates":[[15.22696,47.56976],[15.22706,47.56987],[15.22752,47.56978],[15.22881,47.56933]]}},{"type":"Feature","properties":{"kind":"piste","difficulty":"easy","name":null,"aerialway":null,"osm":"way/243947410"},"geometry":{"type":"LineString","coordinates":[[15.22706,47.56987],[15.22692,47.57015],[15.22741,47.57059],[15.22782,47.57128],[15.22857,47.57167],[15.22907,47.57211]]}},{"type":"Feature","properties":{"kind":"piste","difficulty":"easy","name":null,"aerialway":null,"osm":"way/243947435"},"geometry":{"type":"LineString","coordinates":[[15.22741,47.57059],[15.22855,47.57095],[15.22885,47.57122],[15.22877,47.57136],[15.22902,47.57201]]}},{"type":"Feature","properties":{"kind":"piste","difficulty":"easy","name":null,"aerialway":null,"osm":"way/243947502"},"geometry":{"type":"LineString","coordinates":[[15.22855,47.57095],[15.22946,47.57116],[15.22956,47.57145],[15.22944,47.5718],[15.22907,47.57211]]}},{"type":"Feature","properties":{"kind":"piste","difficulty":"easy","name":null,"aerialway":null,"osm":"way/243947590"},"geometry":{"type":"LineString","coordinates":[[15.22654,47.58124],[15.23073,47.58152],[15.23074,47.58103],[15.2321,47.5796],[15.23463,47.57773],[15.23542,47.57752]]}},{"type":"Feature","properties":{"kind":"piste","difficulty":"easy","name":null,"aerialway":null,"osm":"way/243947628"},"geometry":{"type":"LineString","coordinates":[[15.23073,47.58152],[15.2312,47.58163],[15.2318,47.58148],[15.23217,47.58109],[15.23322,47.58057],[15.23369,47.58016],[15.23396,47.57964],[15.23523,47.57823],[15.2355,47.57784],[15.23542,47.57752]]}},{"type":"Feature","properties":{"kind":"piste","difficulty":"intermediate","name":null,"aerialway":null,"osm":"way/243947914"},"geometry":{"type":"LineString","coordinates":[[15.22661,47.58067],[15.22544,47.57956],[15.2244,47.57825],[15.22347,47.57761],[15.22341,47.57661],[15.22371,47.57585],[15.22616,47.57245],[15.22618,47.57208],[15.22595,47.57189]]}},{"type":"Feature","properties":{"kind":"piste","difficulty":"intermediate","name":null,"aerialway":null,"osm":"way/243947950"},"geometry":{"type":"LineString","coordinates":[[15.22596,47.58004],[15.22641,47.57881],[15.22659,47.57782],[15.22676,47.57765],[15.22732,47.57761]]}},{"type":"Feature","properties":{"kind":"piste","difficulty":"intermediate","name":null,"aerialway":null,"osm":"way/243947955"},"geometry":{"type":"LineString","coordinates":[[15.22408,47.57532],[15.22602,47.57455]]}},{"type":"Feature","properties":{"kind":"piste","difficulty":"intermediate","name":null,"aerialway":null,"osm":"way/243947966"},"geometry":{"type":"LineString","coordinates":[[15.22521,47.57375],[15.22907,47.57211]]}},{"type":"Feature","properties":{"kind":"piste","difficulty":"advanced","name":null,"aerialway":null,"osm":"way/243947977"},"geometry":{"type":"LineString","coordinates":[[15.22636,47.57679],[15.22765,47.57476],[15.22792,47.57385],[15.22843,47.57304],[15.22844,47.5727]]}},{"type":"Feature","properties":{"kind":"piste","difficulty":"easy","name":null,"aerialway":null,"osm":"way/243949331"},"geometry":{"type":"LineString","coordinates":[[15.22542,47.57166],[15.22509,47.57147]]}},{"type":"Feature","properties":{"kind":"piste","difficulty":"easy","name":null,"aerialway":null,"osm":"way/245065838"},"geometry":{"type":"LineString","coordinates":[[15.22531,47.57167],[15.22205,47.57087],[15.22071,47.57081],[15.21972,47.57108]]}},{"type":"Feature","properties":{"kind":"piste","difficulty":"easy","name":null,"aerialway":null,"osm":"way/251610660"},"geometry":{"type":"LineString","coordinates":[[15.23334,47.57449],[15.23073,47.57352]]}},{"type":"Feature","properties":{"kind":"piste","difficulty":"easy","name":null,"aerialway":null,"osm":"way/251610673"},"geometry":{"type":"LineString","coordinates":[[15.23542,47.57752],[15.23448,47.57666]]}},{"type":"Feature","properties":{"kind":"piste","difficulty":"easy","name":null,"aerialway":null,"osm":"way/263722362"},"geometry":{"type":"LineString","coordinates":[[15.2279,47.56874],[15.22691,47.56852],[15.22661,47.56857],[15.22642,47.56868],[15.22629,47.56901]]}},{"type":"Feature","properties":{"kind":"piste","difficulty":"easy","name":null,"aerialway":null,"osm":"way/263722464"},"geometry":{"type":"LineString","coordinates":[[15.22741,47.57059],[15.22784,47.57057],[15.22871,47.56996],[15.22881,47.56933],[15.22873,47.56925]]}},{"type":"Feature","properties":{"kind":"piste","difficulty":"easy","name":null,"aerialway":null,"osm":"way/311139094"},"geometry":{"type":"LineString","coordinates":[[15.22603,47.55144],[15.22594,47.55124],[15.22635,47.54975],[15.22668,47.54939],[15.22719,47.54916],[15.22803,47.54944],[15.22835,47.54943],[15.22945,47.54906],[15.23006,47.54869]]}},{"type":"Feature","properties":{"kind":"lift","difficulty":null,"name":"Eisentallift","aerialway":"drag_lift","osm":"way/535692679"},"geometry":{"type":"LineString","coordinates":[[15.22459,47.5719],[15.22682,47.56998]]}},{"type":"Feature","properties":{"kind":"piste","difficulty":"easy","name":"Bürgeralmstraße","aerialway":null,"osm":"way/535692681"},"geometry":{"type":"LineString","coordinates":[[15.23079,47.54696],[15.23073,47.54685],[15.23089,47.54675],[15.23132,47.54674]]}},{"type":"Feature","properties":{"kind":"piste","difficulty":"easy","name":null,"aerialway":null,"osm":"way/535711976"},"geometry":{"type":"LineString","coordinates":[[15.22841,47.56858],[15.22888,47.56924],[15.2288,47.5693]]}},{"type":"Feature","properties":{"kind":"piste","difficulty":"easy","name":null,"aerialway":null,"osm":"way/535715131"},"geometry":{"type":"LineString","coordinates":[[15.22648,47.57027],[15.22692,47.57015]]}},{"type":"Feature","properties":{"kind":"piste","difficulty":"easy","name":null,"aerialway":null,"osm":"way/551235695"},"geometry":{"type":"LineString","coordinates":[[15.22782,47.57128],[15.22813,47.57176],[15.22761,47.5721],[15.22595,47.57189],[15.22531,47.57167]]}},{"type":"Feature","properties":{"kind":"lift","difficulty":null,"name":"Schönleiten 1","aerialway":"t-bar","osm":"way/754663737"},"geometry":{"type":"LineString","coordinates":[[15.22903,47.57236],[15.22676,47.5781]]}},{"type":"Feature","properties":{"kind":"lift","difficulty":null,"name":"Schönleiten 2","aerialway":"t-bar","osm":"way/754663738"},"geometry":{"type":"LineString","coordinates":[[15.22732,47.57761],[15.22649,47.58147]]}},{"type":"Feature","properties":{"kind":"piste","difficulty":"easy","name":null,"aerialway":null,"osm":"way/759569663"},"geometry":{"type":"LineString","coordinates":[[15.23414,47.57748],[15.23448,47.57666]]}},{"type":"Feature","properties":{"kind":"piste","difficulty":"easy","name":null,"aerialway":null,"osm":"way/759569664"},"geometry":{"type":"LineString","coordinates":[[15.23448,47.57666],[15.23434,47.57628],[15.23461,47.57603]]}},{"type":"Feature","properties":{"kind":"piste","difficulty":"easy","name":null,"aerialway":null,"osm":"way/759569666"},"geometry":{"type":"LineString","coordinates":[[15.23425,47.57526],[15.23352,47.57469],[15.23295,47.57391]]}},{"type":"Feature","properties":{"kind":"piste","difficulty":"easy","name":null,"aerialway":null,"osm":"way/759569667"},"geometry":{"type":"LineString","coordinates":[[15.23461,47.57603],[15.23474,47.57591],[15.23473,47.57564],[15.23425,47.57526]]}},{"type":"Feature","properties":{"kind":"piste","difficulty":"easy","name":null,"aerialway":null,"osm":"way/759569668"},"geometry":{"type":"LineString","coordinates":[[15.22654,47.58124],[15.22661,47.58067],[15.22696,47.58051],[15.22857,47.58028],[15.23048,47.57954],[15.23292,47.57908],[15.23385,47.57835],[15.23414,47.57748]]}},{"type":"Feature","properties":{"kind":"piste","difficulty":"easy","name":null,"aerialway":null,"osm":"way/863578475"},"geometry":{"type":"LineString","coordinates":[[15.23295,47.57391],[15.23224,47.57365],[15.23112,47.57352],[15.23031,47.57357],[15.2297,47.57387],[15.22946,47.57326],[15.22912,47.57283],[15.22907,47.57211]]}},{"type":"Feature","properties":{"kind":"piste","difficulty":"unknown","name":null,"aerialway":null,"osm":"way/863860233"},"geometry":{"type":"LineString","coordinates":[[15.22907,47.57211],[15.22903,47.57236]]}},{"type":"Feature","properties":{"kind":"piste","difficulty":"intermediate","name":null,"aerialway":null,"osm":"way/863860234"},"geometry":{"type":"LineString","coordinates":[[15.22659,47.5779],[15.22626,47.57726],[15.22659,47.57574],[15.22604,47.57495],[15.22602,47.57455],[15.22765,47.57363],[15.228,47.57312],[15.22907,47.57211]]}},{"type":"Feature","properties":{"kind":"piste","difficulty":"unknown","name":null,"aerialway":null,"osm":"way/863860235"},"geometry":{"type":"LineString","coordinates":[[15.22676,47.5781],[15.22711,47.57759]]}},{"type":"Feature","properties":{"kind":"piste","difficulty":"unknown","name":null,"aerialway":null,"osm":"way/863860236"},"geometry":{"type":"LineString","coordinates":[[15.22676,47.5781],[15.22626,47.57726]]}},{"type":"Feature","properties":{"kind":"piste","difficulty":"easy","name":"Bürgeralmstraße","aerialway":null,"osm":"way/1016958875"},"geometry":{"type":"LineString","coordinates":[[15.22603,47.55144],[15.22588,47.55307],[15.2257,47.55317],[15.22557,47.55308],[15.2254,47.55229],[15.22502,47.5517],[15.225,47.55147],[15.22577,47.55004],[15.22585,47.54938],[15.22604,47.54906],[15.22702,47.54852],[15.22734,47.54853],[15.22818,47.54891],[15.22915,47.5487],[15.22996,47.54828],[15.23058,47.54779],[15.23079,47.54696]]}},{"type":"Feature","properties":{"kind":"piste","difficulty":"easy","name":"Bürgeralmstraße","aerialway":null,"osm":"way/1277946001"},"geometry":{"type":"LineString","coordinates":[[15.22972,47.55456],[15.22957,47.55389],[15.22831,47.55247],[15.22796,47.55154],[15.22808,47.5512],[15.22836,47.55097],[15.22972,47.55081],[15.22983,47.55063],[15.22883,47.55063],[15.22753,47.55036],[15.22647,47.55091],[15.22603,47.55144]]}},{"type":"Feature","properties":{"kind":"piste","difficulty":"easy","name":"Bürgeralmstraße","aerialway":null,"osm":"way/1277946003"},"geometry":{"type":"LineString","coordinates":[[15.22979,47.55562],[15.22988,47.55535],[15.22972,47.55456]]}},{"type":"Feature","properties":{"kind":"piste","difficulty":"easy","name":null,"aerialway":null,"osm":"way/1277946005"},"geometry":{"type":"LineString","coordinates":[[15.23006,47.54869],[15.23149,47.54772]]}},{"type":"Feature","properties":{"kind":"piste","difficulty":"easy","name":"Bürgeralmstraße","aerialway":null,"osm":"way/1277946006"},"geometry":{"type":"LineString","coordinates":[[15.23132,47.54674],[15.23143,47.54675]]}},{"type":"Feature","properties":{"kind":"piste","difficulty":"easy","name":"Bürgeralmstraße","aerialway":null,"osm":"way/1277946014"},"geometry":{"type":"LineString","coordinates":[[15.23662,47.54965],[15.23669,47.55003],[15.23654,47.55049],[15.23667,47.55194],[15.2365,47.55296],[15.23658,47.55336],[15.2368,47.55354]]}},{"type":"Feature","properties":{"kind":"piste","difficulty":"easy","name":"Bürgeralmstraße","aerialway":null,"osm":"way/1294600754"},"geometry":{"type":"LineString","coordinates":[[15.22877,47.57136],[15.22793,47.57182],[15.2272,47.57183]]}}]}