{"type":"FeatureCollection","features":[{"type":"Feature","properties":{"kind":"lift","difficulty":null,"name":"Steinwandlift","aerialway":"drag_lift","osm":"way/91667735"},"geometry":{"type":"LineString","coordinates":[[14.74995,48.59342],[14.75247,48.59551]]}},{"type":"Feature","properties":{"kind":"lift","difficulty":null,"name":"Aichelberglift","aerialway":"drag_lift","osm":"way/91667736"},"geometry":{"type":"LineString","coordinates":[[14.75095,48.59599],[14.74433,48.59637]]}},{"type":"Feature","properties":{"kind":"piste","difficulty":"intermediate","name":null,"aerialway":null,"osm":"way/91668169"},"geometry":{"type":"LineString","coordinates":[[14.74433,48.59637],[14.74422,48.59667],[14.74355,48.59713],[14.74375,48.59922],[14.74372,48.59937],[14.74348,48.5993]]}},{"type":"Feature","properties":{"kind":"piste","difficulty":"intermediate","name":null,"aerialway":null,"osm":"way/91668170"},"geometry":{"type":"LineString","coordinates":[[14.74358,48.59758],[14.74431,48.59814],[14.74643,48.59778],[14.74773,48.59782]]}},{"type":"Feature","properties":{"kind":"piste","difficulty":"easy","name":null,"aerialway":null,"osm":"way/91668171"},"geometry":{"type":"LineString","coordinates":[[14.74433,48.59637],[14.7436,48.59587],[14.74281,48.59494],[14.74253,48.59437],[14.74248,48.59393],[14.74249,48.59321],[14.74341,48.59197],[14.74404,48.59144],[14.74499,48.5915],[14.74665,48.59197],[14.74792,48.59311],[14.7495,48.59423],[14.75055,48.59538],[14.7514,48.5958]]}},{"type":"Feature","properties":{"kind":"piste","difficulty":"intermediate","name":null,"aerialway":null,"osm":"way/91786823"},"geometry":{"type":"LineString","coordinates":[[14.74433,48.59637],[14.74496,48.59531],[14.7462,48.59482],[14.7481,48.59505],[14.74901,48.59542],[14.75127,48.59589]]}},{"type":"Feature","properties":{"kind":"piste","difficulty":"advanced","name":null,"aerialway":null,"osm":"way/92138685"},"geometry":{"type":"LineString","coordinates":[[14.74547,48.59802],[14.74617,48.59812],[14.74671,48.59779]]}},{"type":"Feature","properties":{"kind":"piste","difficulty":"easy","name":null,"aerialway":null,"osm":"way/93388732"},"geometry":{"type":"LineString","coordinates":[[14.74372,48.59937],[14.74496,48.59966],[14.74565,48.59949],[14.74636,48.59911],[14.74773,48.59782]]}},{"type":"Feature","properties":{"kind":"piste","difficulty":"easy","name":null,"aerialway":null,"osm":"way/93463316"},"geometry":{"type":"LineString","coordinates":[[14.75,48.59337],[14.75024,48.59332],[14.75219,48.59487],[14.7525,48.59515],[14.75251,48.59544]]}},{"type":"Feature","properties":{"kind":"piste","difficulty":"easy","name":null,"aerialway":null,"osm":"way/93463318"},"geometry":{"type":"LineString","coordinates":[[14.75168,48.59451],[14.75303,48.5941],[14.7532,48.59436],[14.75251,48.59544]]}},{"type":"Feature","properties":{"kind":"piste","difficulty":"easy","name":null,"aerialway":null,"osm":"way/93463322"},"geometry":{"type":"LineString","coordinates":[[14.75078,48.59376],[14.75146,48.59579]]}},{"type":"Feature","properties":{"kind":"piste","difficulty":"expert","name":null,"aerialway":null,"osm":"way/260768564"},"geometry":{"type":"LineString","coordinates":[[14.74432,48.59652],[14.74547,48.59766],[14.74547,48.59802]]}},{"type":"Feature","properties":{"kind":"piste","difficulty":"easy","name":null,"aerialway":null,"osm":"way/260768618"},"geometry":{"type":"LineString","coordinates":[[14.74773,48.59782],[14.74945,48.59712],[14.75143,48.59598]]}}]}