{"type":"FeatureCollection","features":[{"type":"Feature","properties":{"kind":"piste","difficulty":"easy","name":null,"aerialway":null,"osm":"way/28620667"},"geometry":{"type":"LineString","coordinates":[[11.30712,47.14539],[11.30686,47.14534],[11.30549,47.14444],[11.30463,47.1441],[11.30325,47.14393],[11.30132,47.14409],[11.29866,47.14395],[11.29502,47.14479],[11.2923,47.14477]]}},{"type":"Feature","properties":{"kind":"piste","difficulty":"intermediate","name":"11 Zirmach-Hang","aerialway":null,"osm":"way/28628943"},"geometry":{"type":"LineString","coordinates":[[11.29684,47.14911],[11.29493,47.14798],[11.29431,47.14702],[11.29413,47.14667],[11.29404,47.14593],[11.29448,47.14506],[11.2927,47.14488],[11.29248,47.14496],[11.29225,47.14523],[11.29229,47.14546],[11.29286,47.14583],[11.29309,47.14645],[11.29392,47.14761],[11.29633,47.14928],[11.29659,47.14941],[11.29684,47.14911]]}},{"type":"Feature","properties":{"kind":"piste","difficulty":"easy","name":null,"aerialway":null,"osm":"way/29262710"},"geometry":{"type":"LineString","coordinates":[[11.30283,47.15452],[11.30488,47.15552],[11.30634,47.15575],[11.30705,47.1562],[11.3096,47.15672],[11.31218,47.15782],[11.31277,47.15779]]}},{"type":"Feature","properties":{"kind":"piste","difficulty":"easy","name":"7 Burgstall-Abfahrt","aerialway":null,"osm":"way/29262953"},"geometry":{"type":"LineString","coordinates":[[11.2924,47.13896],[11.29187,47.13908],[11.29098,47.1389],[11.2902,47.1391],[11.28912,47.13987],[11.28895,47.14089],[11.28901,47.1416],[11.28795,47.14169],[11.28766,47.14201]]}},{"type":"Feature","properties":{"kind":"piste","difficulty":"easy","name":"16 Talabfahrt","aerialway":null,"osm":"way/29263050"},"geometry":{"type":"LineString","coordinates":[[11.33727,47.15934],[11.33786,47.16005],[11.33894,47.1605],[11.33921,47.16036],[11.33888,47.15981],[11.33894,47.15967],[11.34089,47.16032],[11.341,47.16027],[11.34082,47.15979],[11.34092,47.15975]]}},{"type":"Feature","properties":{"kind":"piste","difficulty":"easy","name":null,"aerialway":null,"osm":"way/29263266"},"geometry":{"type":"LineString","coordinates":[[11.33222,47.15717],[11.33236,47.15717],[11.33203,47.15763]]}},{"type":"Feature","properties":{"kind":"piste","difficulty":"easy","name":null,"aerialway":null,"osm":"way/29263518"},"geometry":{"type":"LineString","coordinates":[[11.29574,47.14486],[11.29584,47.14517],[11.29741,47.14556],[11.29782,47.14579],[11.29903,47.14597],[11.29969,47.14637],[11.29987,47.14681]]}},{"type":"Feature","properties":{"kind":"piste","difficulty":"intermediate","name":"5 Galtalm-Abfahrt","aerialway":null,"osm":"way/29321193"},"geometry":{"type":"LineString","coordinates":[[11.32721,47.15225],[11.32712,47.15205],[11.32735,47.15178],[11.32769,47.15182],[11.32812,47.15219],[11.32923,47.15247],[11.33071,47.15264],[11.33106,47.15292],[11.33186,47.15437],[11.3338,47.15607],[11.33562,47.15691],[11.33548,47.15708],[11.33478,47.15686],[11.33479,47.15694],[11.33448,47.15692],[11.33337,47.15632],[11.33263,47.1558],[11.33117,47.15434],[11.33088,47.15402],[11.33087,47.15368],[11.33055,47.15337],[11.32946,47.15291],[11.32842,47.15273],[11.32761,47.15221],[11.32736,47.15234],[11.32721,47.15225]]}},{"type":"Feature","properties":{"kind":"piste","difficulty":"intermediate","name":"8 Quellen-Abfahrt","aerialway":null,"osm":"way/29321370"},"geometry":{"type":"LineString","coordinates":[[11.29164,47.14231],[11.29229,47.14298],[11.29284,47.14481]]}},{"type":"Feature","properties":{"kind":"piste","difficulty":"intermediate","name":"8 Quellen-Abfahrt","aerialway":null,"osm":"way/29321396"},"geometry":{"type":"LineString","coordinates":[[11.29223,47.13933],[11.29236,47.13965],[11.292,47.14056],[11.29172,47.14088],[11.29164,47.14231]]}},{"type":"Feature","properties":{"kind":"piste","difficulty":"intermediate","name":"9 Zirbenschuss","aerialway":null,"osm":"way/29321429"},"geometry":{"type":"LineString","coordinates":[[11.29236,47.13965],[11.29333,47.14096],[11.29364,47.14163],[11.29363,47.14179],[11.29264,47.14227],[11.29229,47.14298]]}},{"type":"Feature","properties":{"kind":"piste","difficulty":"freeride","name":"1 Skiroute Kreuzjoch","aerialway":null,"osm":"way/29321538"},"geometry":{"type":"LineString","coordinates":[[11.29987,47.14681],[11.30051,47.14849]]}},{"type":"Feature","properties":{"kind":"piste","difficulty":"intermediate","name":"4 Mitterjoch-Abfahrt","aerialway":null,"osm":"way/29389139"},"geometry":{"type":"LineString","coordinates":[[11.29789,47.13989],[11.29852,47.14148],[11.29841,47.14234]]}},{"type":"Feature","properties":{"kind":"piste","difficulty":"easy","name":null,"aerialway":null,"osm":"way/29422174"},"geometry":{"type":"LineString","coordinates":[[11.31277,47.15779],[11.31386,47.15738],[11.31641,47.15691],[11.31768,47.1568],[11.3253,47.15678],[11.32785,47.15661],[11.33036,47.15711],[11.3319,47.15718]]}},{"type":"Feature","properties":{"kind":"piste","difficulty":"intermediate","name":"19 Axamer Abfahrt","aerialway":null,"osm":"way/30926699"},"geometry":{"type":"LineString","coordinates":[[11.27558,47.2014],[11.27493,47.20141],[11.2739,47.20199],[11.27327,47.20259],[11.27247,47.20364],[11.27228,47.20419],[11.27228,47.20471],[11.27201,47.20521],[11.27163,47.20561],[11.27074,47.20612],[11.27052,47.20688],[11.27023,47.20722],[11.27031,47.20799],[11.27,47.20854],[11.27027,47.209],[11.2702,47.21014],[11.26997,47.21067],[11.26978,47.21199],[11.27019,47.21251],[11.27016,47.21365],[11.27032,47.21443],[11.26975,47.21529],[11.26966,47.21601],[11.26981,47.21627],[11.27018,47.21651],[11.2705,47.2172],[11.27178,47.21756],[11.27174,47.218],[11.2722,47.21829],[11.2723,47.2185],[11.27222,47.21895],[11.27171,47.21962],[11.27175,47.21977],[11.27229,47.22006],[11.27223,47.22039],[11.27156,47.2212],[11.27189,47.22139],[11.27228,47.2219],[11.27229,47.2223],[11.27206,47.22264],[11.27327,47.22557],[11.27425,47.22632],[11.27594,47.22681]]}},{"type":"Feature","properties":{"kind":"piste","difficulty":"easy","name":null,"aerialway":null,"osm":"way/30926975"},"geometry":{"type":"LineString","coordinates":[[11.28168,47.18293],[11.28108,47.18177],[11.28078,47.18079],[11.28086,47.17981],[11.28139,47.17895],[11.28228,47.17887],[11.28246,47.17905],[11.28254,47.17988],[11.28286,47.18008],[11.28432,47.17968],[11.28659,47.18005],[11.28763,47.18045],[11.28848,47.18061],[11.28881,47.18104],[11.28881,47.18152],[11.28909,47.18196],[11.28963,47.18239],[11.29124,47.18265],[11.29235,47.18308],[11.29377,47.18428],[11.29515,47.18615],[11.29599,47.18678],[11.2967,47.1871],[11.29882,47.18755],[11.30083,47.18818],[11.30152,47.18853],[11.30241,47.18924],[11.30336,47.19051],[11.30354,47.19202],[11.30312,47.1933],[11.30331,47.19352],[11.30312,47.19389],[11.30354,47.19407]]}},{"type":"Feature","properties":{"kind":"piste","difficulty":"easy","name":null,"aerialway":null,"osm":"way/60201295"},"geometry":{"type":"LineString","coordinates":[[11.32642,47.21161],[11.32672,47.21185],[11.32804,47.21239],[11.32884,47.21253],[11.32934,47.21249],[11.32993,47.21217],[11.33091,47.21193],[11.3315,47.21196],[11.33205,47.2118]]}},{"type":"Feature","properties":{"kind":"piste","difficulty":"advanced","name":null,"aerialway":null,"osm":"way/93697061"},"geometry":{"type":"LineString","coordinates":[[11.28168,47.18293],[11.28251,47.18316],[11.2828,47.18428],[11.28346,47.18522],[11.28382,47.18605],[11.28594,47.18679],[11.28807,47.18717],[11.28847,47.18768],[11.28849,47.18867],[11.28927,47.18907]]}},{"type":"Feature","properties":{"kind":"piste","difficulty":"easy","name":null,"aerialway":null,"osm":"way/93697062"},"geometry":{"type":"LineString","coordinates":[[11.2941,47.19564],[11.29403,47.19418],[11.29527,47.19421]]}},{"type":"Feature","properties":{"kind":"piste","difficulty":"intermediate","name":null,"aerialway":null,"osm":"way/93697063"},"geometry":{"type":"LineString","coordinates":[[11.28574,47.18965],[11.28755,47.19104],[11.28899,47.19291],[11.29051,47.19439]]}},{"type":"Feature","properties":{"kind":"piste","difficulty":"advanced","name":null,"aerialway":null,"osm":"way/93697064"},"geometry":{"type":"LineString","coordinates":[[11.28168,47.18293],[11.28337,47.17991]]}},{"type":"Feature","properties":{"kind":"piste","difficulty":"easy","name":null,"aerialway":null,"osm":"way/93697066"},"geometry":{"type":"LineString","coordinates":[[11.29837,47.19197],[11.29783,47.19318],[11.29527,47.19421]]}},{"type":"Feature","properties":{"kind":"piste","difficulty":"easy","name":null,"aerialway":null,"osm":"way/93697067"},"geometry":{"type":"LineString","coordinates":[[11.30648,47.19301],[11.30622,47.19333],[11.30336,47.19355]]}},{"type":"Feature","properties":{"kind":"piste","difficulty":"intermediate","name":null,"aerialway":null,"osm":"way/93697068"},"geometry":{"type":"LineString","coordinates":[[11.28767,47.19325],[11.29051,47.19439],[11.29232,47.19587],[11.2941,47.19564],[11.2947,47.19596],[11.29495,47.1962],[11.29514,47.19665],[11.29479,47.19751],[11.29478,47.19778],[11.29498,47.198],[11.29536,47.19806],[11.29715,47.19759],[11.29835,47.19704],[11.2985,47.19692],[11.29828,47.1964],[11.30013,47.19636]]}},{"type":"Feature","properties":{"kind":"piste","difficulty":"intermediate","name":null,"aerialway":null,"osm":"way/93697069"},"geometry":{"type":"LineString","coordinates":[[11.28262,47.18884],[11.28328,47.18889]]}},{"type":"Feature","properties":{"kind":"piste","difficulty":"easy","name":null,"aerialway":null,"osm":"way/93697070"},"geometry":{"type":"LineString","coordinates":[[11.29864,47.19562],[11.3008,47.19444],[11.30265,47.19259],[11.30331,47.19264]]}},{"type":"Feature","properties":{"kind":"piste","difficulty":"advanced","name":null,"aerialway":null,"osm":"way/93697072"},"geometry":{"type":"LineString","coordinates":[[11.28525,47.1954],[11.29205,47.19628]]}},{"type":"Feature","properties":{"kind":"piste","difficulty":"intermediate","name":null,"aerialway":null,"osm":"way/93697074"},"geometry":{"type":"LineString","coordinates":[[11.2787,47.19516],[11.28061,47.19593],[11.28332,47.19628],[11.2847,47.19601],[11.28652,47.19356],[11.28669,47.19287],[11.28767,47.19325],[11.28863,47.19418],[11.29054,47.19539],[11.29232,47.19587],[11.29205,47.19628]]}},{"type":"Feature","properties":{"kind":"piste","difficulty":"easy","name":null,"aerialway":null,"osm":"way/93697076"},"geometry":{"type":"LineString","coordinates":[[11.29044,47.192],[11.29051,47.19439]]}},{"type":"Feature","properties":{"kind":"piste","difficulty":"intermediate","name":null,"aerialway":null,"osm":"way/93697078"},"geometry":{"type":"LineString","coordinates":[[11.2873,47.18935],[11.28927,47.18907],[11.29075,47.18927],[11.29308,47.18999],[11.29553,47.19175],[11.29723,47.19212],[11.29837,47.19197],[11.29897,47.18912],[11.30042,47.18807]]}},{"type":"Feature","properties":{"kind":"piste","difficulty":"expert","name":"Olympia Riesenslalom Birgitzköpfl","aerialway":null,"osm":"way/93697079"},"geometry":{"type":"LineString","coordinates":[[11.31652,47.19478],[11.31498,47.1943],[11.31402,47.19429],[11.31249,47.19487],[11.3118,47.19486],[11.31083,47.19441],[11.30853,47.19367],[11.30354,47.19407]]}},{"type":"Feature","properties":{"kind":"piste","difficulty":"expert","name":"Olympiaslalom Birgitzköpfl","aerialway":null,"osm":"way/93697080"},"geometry":{"type":"LineString","coordinates":[[11.31083,47.19441],[11.30955,47.19508],[11.30878,47.19569],[11.30809,47.19575],[11.30502,47.19491],[11.30385,47.19401],[11.30354,47.19407]]}},{"type":"Feature","properties":{"kind":"piste","difficulty":"easy","name":null,"aerialway":null,"osm":"way/93697081"},"geometry":{"type":"LineString","coordinates":[[11.2967,47.1871],[11.29797,47.18693],[11.2978,47.18629],[11.29818,47.18619],[11.29968,47.18667],[11.30083,47.18818]]}},{"type":"Feature","properties":{"kind":"piste","difficulty":"intermediate","name":null,"aerialway":null,"osm":"way/93697083"},"geometry":{"type":"LineString","coordinates":[[11.28328,47.18889],[11.28477,47.18974],[11.2869,47.18941],[11.28809,47.18986],[11.28933,47.1911],[11.29044,47.192],[11.29243,47.19311],[11.2944,47.19338]]}},{"type":"Feature","properties":{"kind":"piste","difficulty":"intermediate","name":null,"aerialway":null,"osm":"way/93697085"},"geometry":{"type":"LineString","coordinates":[[11.28807,47.18717],[11.28967,47.1875],[11.29233,47.18763],[11.29774,47.18849],[11.29897,47.18912]]}},{"type":"Feature","properties":{"kind":"piste","difficulty":"easy","name":null,"aerialway":null,"osm":"way/93697086"},"geometry":{"type":"LineString","coordinates":[[11.30277,47.19421],[11.30238,47.19517]]}},{"type":"Feature","properties":{"kind":"piste","difficulty":"easy","name":null,"aerialway":null,"osm":"way/93697088"},"geometry":{"type":"LineString","coordinates":[[11.30648,47.19301],[11.30635,47.19282],[11.30605,47.19279],[11.30387,47.19314],[11.30342,47.1935]]}},{"type":"Feature","properties":{"kind":"piste","difficulty":"advanced","name":null,"aerialway":null,"osm":"way/93697089"},"geometry":{"type":"LineString","coordinates":[[11.28129,47.18343],[11.28121,47.18354],[11.28137,47.18368],[11.2828,47.18428]]}},{"type":"Feature","properties":{"kind":"piste","difficulty":"intermediate","name":null,"aerialway":null,"osm":"way/93697092"},"geometry":{"type":"LineString","coordinates":[[11.28129,47.18343],[11.28111,47.18343],[11.2806,47.18522],[11.28078,47.18579],[11.28232,47.18668],[11.28255,47.18809],[11.2846,47.18825],[11.28653,47.18896],[11.2873,47.18935],[11.28761,47.18965],[11.28977,47.18962],[11.29299,47.19158],[11.2944,47.19338],[11.29527,47.19421],[11.29735,47.19496],[11.30013,47.19636],[11.30081,47.19615],[11.30175,47.19517],[11.30238,47.19517],[11.30227,47.19538]]}},{"type":"Feature","properties":{"kind":"piste","difficulty":"intermediate","name":null,"aerialway":null,"osm":"way/93697093"},"geometry":{"type":"LineString","coordinates":[[11.28255,47.18809],[11.28269,47.18847],[11.28328,47.18889]]}},{"type":"Feature","properties":{"kind":"piste","difficulty":"easy","name":null,"aerialway":null,"osm":"way/117946729"},"geometry":{"type":"LineString","coordinates":[[11.34242,47.1545],[11.34302,47.1546],[11.34341,47.15505],[11.34371,47.1552]]}},{"type":"Feature","properties":{"kind":"piste","difficulty":"easy","name":null,"aerialway":null,"osm":"way/134513365"},"geometry":{"type":"LineString","coordinates":[[11.34092,47.15975],[11.34179,47.16008],[11.34203,47.16002],[11.34095,47.15822],[11.34083,47.15788],[11.34095,47.15783],[11.34118,47.15816],[11.34191,47.15874],[11.3426,47.15908],[11.34335,47.15967],[11.34385,47.15992],[11.34399,47.15984],[11.34373,47.15946],[11.34372,47.15909],[11.3433,47.15839],[11.34321,47.15799],[11.3427,47.15757],[11.34248,47.15648],[11.34211,47.15612],[11.34219,47.15522],[11.34246,47.15481],[11.34233,47.15467],[11.34242,47.1545]]}},{"type":"Feature","properties":{"kind":"piste","difficulty":"freeride","name":null,"aerialway":null,"osm":"way/149695306"},"geometry":{"type":"LineString","coordinates":[[11.31652,47.19478],[11.31627,47.19666],[11.3166,47.19752],[11.31708,47.19763]]}},{"type":"Feature","properties":{"kind":"piste","difficulty":"easy","name":null,"aerialway":null,"osm":"way/151302214"},"geometry":{"type":"LineString","coordinates":[[11.32413,47.153],[11.32421,47.15318],[11.32412,47.15337],[11.32339,47.15365],[11.32178,47.15385],[11.3211,47.15377],[11.32016,47.15413],[11.31947,47.15409],[11.31712,47.15479]]}},{"type":"Feature","properties":{"kind":"piste","difficulty":"freeride","name":"Götzner Abfahrt","aerialway":null,"osm":"way/307492582"},"geometry":{"type":"LineString","coordinates":[[11.31922,47.20045],[11.31993,47.20054],[11.32052,47.20114],[11.32089,47.20177],[11.32135,47.20209],[11.32165,47.203],[11.32157,47.20357],[11.32178,47.2044],[11.32195,47.20493],[11.32233,47.20543],[11.32313,47.20596],[11.32383,47.20707],[11.32437,47.20752],[11.32505,47.20781],[11.32539,47.2084],[11.32641,47.20922],[11.32662,47.20959],[11.32667,47.21038],[11.32613,47.21127],[11.32597,47.21206]]}},{"type":"Feature","properties":{"kind":"piste","difficulty":"easy","name":"15 Übungswiese Schanzlin","aerialway":null,"osm":"way/324337399"},"geometry":{"type":"LineString","coordinates":[[11.33093,47.15765],[11.33471,47.1589],[11.33503,47.15926],[11.33662,47.15977],[11.33673,47.15957],[11.33712,47.15951],[11.33681,47.1588],[11.33512,47.15819],[11.33509,47.15808],[11.33403,47.15794],[11.33285,47.15757],[11.33093,47.15765]]}},{"type":"Feature","properties":{"kind":"piste","difficulty":"easy","name":null,"aerialway":null,"osm":"way/324339136"},"geometry":{"type":"LineString","coordinates":[[11.33254,47.15679],[11.33316,47.1565]]}},{"type":"Feature","properties":{"kind":"piste","difficulty":"easy","name":null,"aerialway":null,"osm":"way/324339137"},"geometry":{"type":"LineString","coordinates":[[11.33316,47.1565],[11.33362,47.15618]]}},{"type":"Feature","properties":{"kind":"piste","difficulty":"easy","name":"Familienabfahrt","aerialway":null,"osm":"way/324564232"},"geometry":{"type":"LineString","coordinates":[[11.33557,47.21197],[11.33732,47.2132],[11.3385,47.21356],[11.33951,47.21441],[11.33998,47.21464],[11.34113,47.21488],[11.343,47.21617],[11.34496,47.21722],[11.3471,47.2171],[11.348,47.21718],[11.34943,47.21821],[11.34998,47.21842],[11.35762,47.21995],[11.35846,47.21984],[11.36011,47.21912],[11.36108,47.21917],[11.36223,47.21998],[11.36273,47.22066],[11.36329,47.2211],[11.36452,47.22169],[11.36498,47.2218],[11.36639,47.22141],[11.36663,47.22171],[11.3665,47.22225]]}},{"type":"Feature","properties":{"kind":"piste","difficulty":"easy","name":"1 Kreuzjoch-Schlick","aerialway":null,"osm":"way/324758780"},"geometry":{"type":"LineString","coordinates":[[11.30274,47.15417],[11.30325,47.15456],[11.3052,47.1556],[11.30656,47.15575],[11.30718,47.15616],[11.31021,47.15683],[11.31242,47.15778],[11.31395,47.15732],[11.31491,47.1572],[11.31605,47.15675],[11.31902,47.15663],[11.32448,47.1567],[11.3278,47.15655],[11.33114,47.15713],[11.33195,47.15704],[11.33271,47.15655],[11.33314,47.15647],[11.33364,47.15681],[11.33487,47.15694],[11.33608,47.15753],[11.33585,47.15756],[11.33476,47.15706],[11.33329,47.1569],[11.33241,47.15694],[11.3322,47.15726],[11.33192,47.15739],[11.33043,47.15726],[11.32804,47.15675],[11.32683,47.15675],[11.32531,47.15687],[11.32127,47.15684],[11.31992,47.15697],[11.31708,47.1569],[11.31587,47.15711],[11.3151,47.15742],[11.31383,47.15745],[11.31229,47.15787],[11.31011,47.15692],[11.30728,47.15637],[11.30601,47.15578],[11.30525,47.1557],[11.30384,47.15525],[11.3026,47.15456],[11.30148,47.15432],[11.30038,47.15355],[11.29989,47.15302],[11.30041,47.15257],[11.3007,47.15251],[11.30098,47.1527],[11.30158,47.15276],[11.30248,47.15371],[11.30274,47.15417]]}},{"type":"Feature","properties":{"kind":"piste","difficulty":"easy","name":"6 Wasserfall-Abfahrt","aerialway":null,"osm":"way/324758783"},"geometry":{"type":"LineString","coordinates":[[11.29052,47.14088],[11.29031,47.14098],[11.29004,47.1415],[11.28948,47.14202],[11.28808,47.14227],[11.28777,47.14257],[11.28837,47.14297],[11.29018,47.14293],[11.29117,47.14364],[11.29179,47.14383],[11.29235,47.14417],[11.29272,47.14463],[11.29269,47.14482]]}},{"type":"Feature","properties":{"kind":"piste","difficulty":"advanced","name":"10 Latschen-Abfahrt","aerialway":null,"osm":"way/324758784"},"geometry":{"type":"LineString","coordinates":[[11.29636,47.14162],[11.29603,47.14221],[11.29459,47.14334],[11.29363,47.14478]]}},{"type":"Feature","properties":{"kind":"piste","difficulty":"intermediate","name":"5a Kanonenrohr","aerialway":null,"osm":"way/324758785"},"geometry":{"type":"LineString","coordinates":[[11.29561,47.14089],[11.29514,47.14137],[11.29471,47.14157],[11.29363,47.14179]]}},{"type":"Feature","properties":{"kind":"piste","difficulty":"intermediate","name":"5 Zirmach-Abfahrt","aerialway":null,"osm":"way/324758789"},"geometry":{"type":"LineString","coordinates":[[11.29507,47.13802],[11.29481,47.1381],[11.29462,47.13924],[11.29442,47.13958],[11.29461,47.14028],[11.29489,47.14087],[11.29573,47.1416],[11.29693,47.14216],[11.2972,47.14256],[11.29664,47.14381],[11.29601,47.14427],[11.2961,47.14435],[11.29758,47.14395],[11.29768,47.14343],[11.29746,47.14301],[11.29743,47.14193],[11.29721,47.14174],[11.29659,47.14161],[11.29578,47.14033],[11.29521,47.13805],[11.29507,47.13802]]}},{"type":"Feature","properties":{"kind":"piste","difficulty":"easy","name":"1 Kreuzjoch-Schlick","aerialway":null,"osm":"way/324758790"},"geometry":{"type":"LineString","coordinates":[[11.29216,47.14469],[11.29237,47.14488],[11.29508,47.1451],[11.29859,47.14396],[11.3002,47.14405],[11.29868,47.14381],[11.29784,47.14408],[11.29758,47.14395],[11.29597,47.14438],[11.2943,47.14456],[11.29418,47.14472],[11.29345,47.14467],[11.29312,47.14446],[11.29294,47.14464],[11.29216,47.14469]]}},{"type":"Feature","properties":{"kind":"piste","difficulty":"easy","name":"1 - Panorama-Abfahrt-Talschluss","aerialway":null,"osm":"way/324758792"},"geometry":{"type":"LineString","coordinates":[[11.28995,47.14454],[11.28999,47.1448],[11.29072,47.14548],[11.29121,47.14616],[11.29346,47.14803],[11.29413,47.14839],[11.29583,47.14896],[11.29659,47.14941],[11.29964,47.15175],[11.30041,47.15257]]}},{"type":"Feature","properties":{"kind":"piste","difficulty":"easy","name":null,"aerialway":null,"osm":"way/324758796"},"geometry":{"type":"LineString","coordinates":[[11.30264,47.15408],[11.30293,47.15405]]}},{"type":"Feature","properties":{"kind":"piste","difficulty":"easy","name":null,"aerialway":null,"osm":"way/397708901"},"geometry":{"type":"LineString","coordinates":[[11.30668,47.14463],[11.30683,47.14467],[11.30678,47.145],[11.30642,47.14503]]}},{"type":"Feature","properties":{"kind":"piste","difficulty":"intermediate","name":"Familienabfahrt Götzens","aerialway":null,"osm":"way/411501498"},"geometry":{"type":"LineString","coordinates":[[11.32906,47.21001],[11.32806,47.21085],[11.3256,47.21228],[11.32517,47.21268],[11.32446,47.21427],[11.32444,47.2151],[11.32468,47.21572],[11.32444,47.21688],[11.3239,47.21787],[11.32214,47.21988],[11.32086,47.22062],[11.31948,47.22108],[11.31964,47.22165],[11.32029,47.22192],[11.31959,47.22187],[11.31718,47.22254],[11.31653,47.2229],[11.31626,47.22319],[11.31537,47.22564],[11.3153,47.22617],[11.31543,47.22676],[11.3159,47.22724],[11.31652,47.22811],[11.31658,47.22837],[11.31623,47.2294],[11.31558,47.23072],[11.31546,47.23151],[11.3146,47.23187]]}},{"type":"Feature","properties":{"kind":"piste","difficulty":"easy","name":"Skiweg Axamer Lizum","aerialway":null,"osm":"way/411501499"},"geometry":{"type":"LineString","coordinates":[[11.33205,47.2118],[11.33283,47.21161]]}},{"type":"Feature","properties":{"kind":"piste","difficulty":"intermediate","name":"Priemesköpfl Abfahrt","aerialway":null,"osm":"way/411501501"},"geometry":{"type":"LineString","coordinates":[[11.32871,47.2076],[11.32892,47.20749],[11.3292,47.20772],[11.32969,47.20885],[11.33017,47.20904],[11.33102,47.20972],[11.33155,47.21075],[11.33203,47.21135],[11.33502,47.21207],[11.33557,47.21197]]}},{"type":"Feature","properties":{"kind":"piste","difficulty":"easy","name":"Priemesköpfl Umfahrung","aerialway":null,"osm":"way/411501502"},"geometry":{"type":"LineString","coordinates":[[11.32871,47.2076],[11.3282,47.20713],[11.32791,47.20704],[11.3273,47.20703],[11.32713,47.20717],[11.3275,47.2077],[11.32792,47.20802],[11.3291,47.20883],[11.32948,47.20892],[11.329,47.20974],[11.32906,47.21001],[11.33055,47.21061],[11.33155,47.21075]]}},{"type":"Feature","properties":{"kind":"piste","difficulty":"intermediate","name":"FIS-Abfahrt","aerialway":null,"osm":"way/411501503"},"geometry":{"type":"LineString","coordinates":[[11.33536,47.21286],[11.3373,47.21388],[11.33816,47.21462],[11.33961,47.21542],[11.34034,47.21595],[11.34105,47.21691],[11.34156,47.21727],[11.34402,47.21819],[11.34844,47.21891]]}},{"type":"Feature","properties":{"kind":"piste","difficulty":"easy","name":null,"aerialway":null,"osm":"way/567954080"},"geometry":{"type":"LineString","coordinates":[[11.33316,47.1565],[11.33361,47.15683]]}},{"type":"Feature","properties":{"kind":"piste","difficulty":"easy","name":null,"aerialway":null,"osm":"way/567954081"},"geometry":{"type":"LineString","coordinates":[[11.33107,47.15769],[11.33126,47.15753],[11.33194,47.15752],[11.33222,47.15717]]}},{"type":"Feature","properties":{"kind":"piste","difficulty":"intermediate","name":"Speed Check","aerialway":null,"osm":"way/567954088"},"geometry":{"type":"LineString","coordinates":[[11.29729,47.14082],[11.29764,47.14183]]}},{"type":"Feature","properties":{"kind":"piste","difficulty":"advanced","name":"3 Panoramaschuss","aerialway":null,"osm":"way/567954104"},"geometry":{"type":"LineString","coordinates":[[11.30629,47.14494],[11.30486,47.14516],[11.30408,47.14559],[11.29999,47.14692],[11.29989,47.14682],[11.30005,47.14677]]}},{"type":"Feature","properties":{"kind":"piste","difficulty":"intermediate","name":null,"aerialway":null,"osm":"way/567954105"},"geometry":{"type":"LineString","coordinates":[[11.29859,47.14396],[11.29881,47.1447]]}},{"type":"Feature","properties":{"kind":"piste","difficulty":"intermediate","name":"2 Hohes Laub-Abfahrt","aerialway":null,"osm":"way/567954106"},"geometry":{"type":"LineString","coordinates":[[11.30607,47.1448],[11.30454,47.14472],[11.30406,47.14498],[11.30254,47.14511],[11.30069,47.14501],[11.29881,47.1447],[11.29828,47.14521],[11.2983,47.1454],[11.29934,47.14589],[11.29949,47.14622]]}},{"type":"Feature","properties":{"kind":"piste","difficulty":"easy","name":null,"aerialway":null,"osm":"way/567954107"},"geometry":{"type":"LineString","coordinates":[[11.2977,47.15147],[11.29786,47.15142],[11.29913,47.15206],[11.30008,47.15278]]}},{"type":"Feature","properties":{"kind":"piste","difficulty":"freeride","name":"Skiroute Kreuzjoch","aerialway":null,"osm":"way/567954111"},"geometry":{"type":"LineString","coordinates":[[11.3021,47.14615],[11.30226,47.14654],[11.30157,47.14734],[11.30152,47.14767],[11.30101,47.1482],[11.30043,47.14853],[11.30037,47.14901],[11.299,47.15049],[11.29969,47.15119],[11.29964,47.15175]]}},{"type":"Feature","properties":{"kind":"piste","difficulty":"easy","name":"Übungshang Almboden","aerialway":null,"osm":"way/657212838"},"geometry":{"type":"LineString","coordinates":[[11.33283,47.21161],[11.33536,47.21286],[11.33511,47.21322]]}},{"type":"Feature","properties":{"kind":"piste","difficulty":"advanced","name":"Rennstrecke","aerialway":null,"osm":"way/657212840"},"geometry":{"type":"LineString","coordinates":[[11.32871,47.2076],[11.32934,47.20726],[11.33076,47.20914],[11.33127,47.2096],[11.33206,47.20993],[11.33314,47.21072],[11.33406,47.21105],[11.33557,47.21197]]}},{"type":"Feature","properties":{"kind":"piste","difficulty":"freeride","name":"Götzner Abfahrt","aerialway":null,"osm":"way/657212841"},"geometry":{"type":"LineString","coordinates":[[11.3166,47.19752],[11.31698,47.19894],[11.31894,47.20111],[11.31912,47.20106],[11.31922,47.20045]]}},{"type":"Feature","properties":{"kind":"piste","difficulty":"intermediate","name":null,"aerialway":null,"osm":"way/675853318"},"geometry":{"type":"LineString","coordinates":[[11.29764,47.14183],[11.29766,47.14195]]}},{"type":"Feature","properties":{"kind":"piste","difficulty":"intermediate","name":null,"aerialway":null,"osm":"way/675853319"},"geometry":{"type":"LineString","coordinates":[[11.2972,47.14084],[11.29729,47.14082]]}},{"type":"Feature","properties":{"kind":"piste","difficulty":"intermediate","name":"4 Mitterjoch-Abfahrt","aerialway":null,"osm":"way/675853320"},"geometry":{"type":"LineString","coordinates":[[11.29789,47.13989],[11.2972,47.14084],[11.29752,47.1418]]}},{"type":"Feature","properties":{"kind":"piste","difficulty":"intermediate","name":"4 Mitterjoch-Abfahrt","aerialway":null,"osm":"way/675853321"},"geometry":{"type":"LineString","coordinates":[[11.29752,47.1418],[11.298,47.14247],[11.29825,47.14314]]}},{"type":"Feature","properties":{"kind":"piste","difficulty":"intermediate","name":null,"aerialway":null,"osm":"way/675853322"},"geometry":{"type":"LineString","coordinates":[[11.29841,47.14234],[11.29852,47.14272],[11.29803,47.14349],[11.29784,47.14408]]}},{"type":"Feature","properties":{"kind":"piste","difficulty":"intermediate","name":null,"aerialway":null,"osm":"way/675853323"},"geometry":{"type":"LineString","coordinates":[[11.2958,47.13812],[11.29578,47.13803],[11.29603,47.138],[11.29703,47.1384],[11.29763,47.13895],[11.29789,47.13989]]}},{"type":"Feature","properties":{"kind":"piste","difficulty":"easy","name":null,"aerialway":null,"osm":"way/675853324"},"geometry":{"type":"LineString","coordinates":[[11.28736,47.14234],[11.28769,47.14237],[11.28804,47.14212],[11.28766,47.14201],[11.28736,47.14234]]}},{"type":"Feature","properties":{"kind":"piste","difficulty":"novice","name":null,"aerialway":null,"osm":"way/675853325"},"geometry":{"type":"LineString","coordinates":[[11.33243,47.1562],[11.33265,47.15629]]}},{"type":"Feature","properties":{"kind":"piste","difficulty":"intermediate","name":null,"aerialway":null,"osm":"way/675853326"},"geometry":{"type":"LineString","coordinates":[[11.33277,47.15556],[11.33264,47.15589],[11.33291,47.15646],[11.3324,47.15664]]}},{"type":"Feature","properties":{"kind":"piste","difficulty":"freeride","name":"1 Skiroute Kreuzjoch","aerialway":null,"osm":"way/675853333"},"geometry":{"type":"LineString","coordinates":[[11.299,47.15049],[11.29881,47.15116]]}},{"type":"Feature","properties":{"kind":"piste","difficulty":"easy","name":"Schlicker Wellenbahn","aerialway":null,"osm":"way/675853334"},"geometry":{"type":"LineString","coordinates":[[11.29684,47.14962],[11.29722,47.14956],[11.29795,47.14975],[11.29848,47.15027],[11.30032,47.15154],[11.30274,47.15374],[11.30254,47.15413]]}},{"type":"Feature","properties":{"kind":"piste","difficulty":"easy","name":null,"aerialway":null,"osm":"way/679906897"},"geometry":{"type":"LineString","coordinates":[[11.33667,47.15974],[11.33679,47.15978],[11.33712,47.15951],[11.33667,47.15974]]}},{"type":"Feature","properties":{"kind":"piste","difficulty":"easy","name":null,"aerialway":null,"osm":"way/684578959"},"geometry":{"type":"LineString","coordinates":[[11.33509,47.15808],[11.33508,47.1583],[11.33573,47.15868],[11.33635,47.15887],[11.33664,47.15872]]}},{"type":"Feature","properties":{"kind":"piste","difficulty":"easy","name":"15 Übungswiese Schanzlin","aerialway":null,"osm":"way/684578960"},"geometry":{"type":"LineString","coordinates":[[11.33091,47.15772],[11.33182,47.1578],[11.3339,47.15836],[11.33541,47.15903],[11.3368,47.15946],[11.33671,47.15961]]}},{"type":"Feature","properties":{"kind":"piste","difficulty":"easy","name":null,"aerialway":null,"osm":"way/684578962"},"geometry":{"type":"LineString","coordinates":[[11.3319,47.15718],[11.33222,47.15717]]}},{"type":"Feature","properties":{"kind":"piste","difficulty":"easy","name":null,"aerialway":null,"osm":"way/684578963"},"geometry":{"type":"LineString","coordinates":[[11.33222,47.15717],[11.33223,47.15703]]}},{"type":"Feature","properties":{"kind":"piste","difficulty":"intermediate","name":"11 Zirmach-Hang","aerialway":null,"osm":"way/684578965"},"geometry":{"type":"LineString","coordinates":[[11.29329,47.14479],[11.29347,47.14614],[11.2938,47.147],[11.29494,47.14815],[11.29611,47.14889],[11.29633,47.14928]]}},{"type":"Feature","properties":{"kind":"piste","difficulty":"easy","name":null,"aerialway":null,"osm":"way/684578968"},"geometry":{"type":"LineString","coordinates":[[11.29574,47.14511],[11.29566,47.14535],[11.29528,47.14545],[11.29448,47.14478]]}},{"type":"Feature","properties":{"kind":"piste","difficulty":"easy","name":"1 Kreuzjoch-Schlick","aerialway":null,"osm":"way/776772092"},"geometry":{"type":"LineString","coordinates":[[11.30678,47.14526],[11.30663,47.14526],[11.30581,47.14464],[11.30443,47.14413],[11.30313,47.14409],[11.3023,47.14434],[11.29944,47.14403],[11.3002,47.14405],[11.29996,47.14394],[11.30114,47.144],[11.30204,47.14374],[11.30456,47.14399],[11.3056,47.14438],[11.30629,47.14488],[11.30691,47.14514],[11.30678,47.14526]]}},{"type":"Feature","properties":{"kind":"piste","difficulty":"easy","name":null,"aerialway":null,"osm":"way/776772093"},"geometry":{"type":"LineString","coordinates":[[11.30685,47.1448],[11.30627,47.14493]]}},{"type":"Feature","properties":{"kind":"piste","difficulty":"advanced","name":null,"aerialway":null,"osm":"way/776772095"},"geometry":{"type":"LineString","coordinates":[[11.30636,47.14498],[11.30346,47.14577],[11.30284,47.14621],[11.30179,47.14644],[11.30108,47.14669],[11.30088,47.14689],[11.29993,47.14696],[11.30261,47.14565],[11.30325,47.14567],[11.30412,47.1455],[11.30474,47.14502],[11.30616,47.14486],[11.30636,47.14498]]}},{"type":"Feature","properties":{"kind":"piste","difficulty":"intermediate","name":null,"aerialway":null,"osm":"way/776772096"},"geometry":{"type":"LineString","coordinates":[[11.3061,47.14482],[11.30546,47.14491],[11.30481,47.14477],[11.3044,47.14507],[11.30386,47.14525],[11.30084,47.14513],[11.29974,47.14486],[11.29896,47.14482],[11.29847,47.14531],[11.29955,47.14588],[11.29969,47.14637],[11.29916,47.1459],[11.29808,47.14542],[11.29862,47.14463],[11.29843,47.14407],[11.29859,47.14396],[11.29899,47.14402],[11.29887,47.14423],[11.29892,47.14462],[11.29988,47.14465],[11.30178,47.14499],[11.30379,47.14494],[11.30459,47.14456],[11.30581,47.14464],[11.3061,47.14482]]}},{"type":"Feature","properties":{"kind":"piste","difficulty":"intermediate","name":null,"aerialway":null,"osm":"way/776772097"},"geometry":{"type":"LineString","coordinates":[[11.29785,47.14058],[11.2972,47.14084],[11.29768,47.14198],[11.29749,47.14215],[11.29743,47.14193],[11.29697,47.14148],[11.29646,47.14145],[11.2962,47.14095],[11.2969,47.14117],[11.29706,47.14032],[11.29758,47.14001],[11.29785,47.14058]]}},{"type":"Feature","properties":{"kind":"piste","difficulty":"intermediate","name":"2 Sennjoch-Abfahrt","aerialway":null,"osm":"way/776772098"},"geometry":{"type":"LineString","coordinates":[[11.29527,47.13839],[11.29627,47.13854],[11.2959,47.13809],[11.29619,47.1379],[11.29768,47.13857],[11.29807,47.13906],[11.29809,47.13978],[11.29855,47.14065],[11.29853,47.14105],[11.29872,47.14146],[11.29868,47.14309],[11.29848,47.14355],[11.29815,47.14371],[11.29784,47.14408],[11.29758,47.14395],[11.29768,47.14343],[11.29746,47.14301],[11.29749,47.14215],[11.29821,47.14144],[11.29789,47.14092],[11.29758,47.14001],[11.29759,47.13966],[11.29724,47.13909],[11.29674,47.13877],[11.29641,47.13871],[11.29539,47.13896],[11.29527,47.13839]]}},{"type":"Feature","properties":{"kind":"piste","difficulty":"intermediate","name":"9 Zirbenschuss","aerialway":null,"osm":"way/776772099"},"geometry":{"type":"LineString","coordinates":[[11.29388,47.14194],[11.29391,47.1416],[11.29256,47.1418],[11.29235,47.14203],[11.29214,47.14268],[11.29258,47.14292],[11.29303,47.14219],[11.29388,47.14194]]}},{"type":"Feature","properties":{"kind":"piste","difficulty":"easy","name":null,"aerialway":null,"osm":"way/776772100"},"geometry":{"type":"LineString","coordinates":[[11.29042,47.14126],[11.28948,47.1421],[11.28823,47.14231],[11.28807,47.14242],[11.28814,47.14268],[11.2884,47.14286],[11.28895,47.14297],[11.2899,47.14281],[11.29037,47.14289],[11.29116,47.14357],[11.29252,47.14413],[11.29272,47.14463],[11.29261,47.1447],[11.29239,47.14425],[11.29196,47.14397],[11.29127,47.14379],[11.29013,47.14297],[11.28879,47.14308],[11.28824,47.14299],[11.28767,47.14272],[11.2875,47.14236],[11.28769,47.14237],[11.28804,47.14212],[11.28943,47.14197],[11.28975,47.14175],[11.29024,47.14075],[11.29042,47.14126]]}},{"type":"Feature","properties":{"kind":"piste","difficulty":"intermediate","name":null,"aerialway":null,"osm":"way/776772101"},"geometry":{"type":"LineString","coordinates":[[11.29042,47.14126],[11.29077,47.14107],[11.29105,47.14161],[11.2913,47.14168],[11.29167,47.14218],[11.29199,47.14235],[11.29214,47.14268],[11.29258,47.14292],[11.29256,47.14316],[11.29275,47.14357],[11.2932,47.14377],[11.29324,47.14439],[11.29294,47.14464],[11.29272,47.14463],[11.29197,47.1427],[11.29125,47.14224],[11.29099,47.14176],[11.29048,47.14148],[11.29042,47.14126]]}},{"type":"Feature","properties":{"kind":"piste","difficulty":"easy","name":null,"aerialway":null,"osm":"way/776772102"},"geometry":{"type":"LineString","coordinates":[[11.29205,47.13911],[11.29094,47.13896],[11.29035,47.13912],[11.28932,47.1401],[11.28931,47.14121],[11.28916,47.14167],[11.28881,47.14179],[11.28802,47.14176],[11.28841,47.14212],[11.28766,47.14201],[11.28736,47.14234],[11.2875,47.14236],[11.28721,47.14256],[11.2875,47.14321],[11.28809,47.14362],[11.28837,47.14409],[11.29008,47.14398],[11.29035,47.14425],[11.28963,47.14431],[11.28943,47.1445],[11.28867,47.14446],[11.28834,47.14466],[11.28728,47.14345],[11.28681,47.14239],[11.28729,47.14222],[11.28764,47.14176],[11.28802,47.14157],[11.28885,47.14156],[11.28866,47.1407],[11.28895,47.13963],[11.29009,47.13903],[11.29088,47.13886],[11.29192,47.13897],[11.29205,47.13911]]}},{"type":"Feature","properties":{"kind":"piste","difficulty":"easy","name":"1 Kreuzjoch-Schlick","aerialway":null,"osm":"way/776772105"},"geometry":{"type":"LineString","coordinates":[[11.30002,47.15286],[11.29787,47.15148],[11.29809,47.15134],[11.29783,47.15082],[11.29678,47.14995],[11.29533,47.14909],[11.2953,47.14897],[11.29414,47.1486],[11.29295,47.14799],[11.29146,47.14661],[11.29099,47.14655],[11.28989,47.14486],[11.28943,47.1445],[11.28963,47.14431],[11.29035,47.14425],[11.29159,47.14449],[11.2923,47.14477],[11.29237,47.14488],[11.29033,47.14443],[11.29011,47.14454],[11.29027,47.14486],[11.29097,47.14542],[11.29196,47.14656],[11.29385,47.14806],[11.29559,47.14876],[11.29659,47.14941],[11.29684,47.14911],[11.29707,47.14925],[11.2972,47.14939],[11.29715,47.14956],[11.29941,47.15123],[11.30061,47.15254],[11.30002,47.15286]]}},{"type":"Feature","properties":{"kind":"piste","difficulty":"freeride","name":null,"aerialway":null,"osm":"way/867526841"},"geometry":{"type":"LineString","coordinates":[[11.27937,47.1939],[11.28525,47.1954]]}},{"type":"Feature","properties":{"kind":"piste","difficulty":"easy","name":null,"aerialway":null,"osm":"way/867753211"},"geometry":{"type":"LineString","coordinates":[[11.27154,47.22399],[11.27111,47.22465],[11.27139,47.22594],[11.2722,47.22687],[11.27302,47.22733],[11.27335,47.2277]]}},{"type":"Feature","properties":{"kind":"piste","difficulty":"easy","name":null,"aerialway":null,"osm":"way/867753212"},"geometry":{"type":"LineString","coordinates":[[11.27111,47.22465],[11.27327,47.22557],[11.27396,47.22726],[11.27335,47.2277]]}},{"type":"Feature","properties":{"kind":"piste","difficulty":"easy","name":null,"aerialway":null,"osm":"way/867753213"},"geometry":{"type":"LineString","coordinates":[[11.30763,47.22982],[11.30582,47.23187],[11.30419,47.23254],[11.30247,47.23268]]}},{"type":"Feature","properties":{"kind":"piste","difficulty":"freeride","name":null,"aerialway":null,"osm":"way/869930192"},"geometry":{"type":"LineString","coordinates":[[11.31665,47.19469],[11.31697,47.19465],[11.31726,47.19563],[11.31724,47.1976],[11.31708,47.19763]]}},{"type":"Feature","properties":{"kind":"piste","difficulty":"easy","name":null,"aerialway":null,"osm":"way/877635174"},"geometry":{"type":"LineString","coordinates":[[11.29583,47.14483],[11.29578,47.14506],[11.29591,47.14516],[11.29636,47.14513],[11.29693,47.14538],[11.29733,47.1454],[11.29805,47.14577],[11.29916,47.1459],[11.3001,47.14662],[11.29979,47.14686],[11.29954,47.14634],[11.29904,47.14608],[11.29774,47.14585],[11.29634,47.14526],[11.2957,47.14522],[11.29558,47.14492],[11.29583,47.14483]]}},{"type":"Feature","properties":{"kind":"piste","difficulty":"easy","name":null,"aerialway":null,"osm":"way/877635175"},"geometry":{"type":"LineString","coordinates":[[11.29576,47.14463],[11.29574,47.14486]]}},{"type":"Feature","properties":{"kind":"piste","difficulty":"easy","name":null,"aerialway":null,"osm":"way/877635178"},"geometry":{"type":"LineString","coordinates":[[11.29258,47.14481],[11.29207,47.14459]]}},{"type":"Feature","properties":{"kind":"piste","difficulty":"intermediate","name":"9 Zirbenschuss","aerialway":null,"osm":"way/877635180"},"geometry":{"type":"LineString","coordinates":[[11.29269,47.1396],[11.29271,47.13982],[11.29368,47.14128],[11.29374,47.14161],[11.29356,47.14168],[11.29334,47.14147],[11.29305,47.14075],[11.29253,47.14009],[11.29256,47.1398],[11.29236,47.13965],[11.29269,47.1396]]}},{"type":"Feature","properties":{"kind":"piste","difficulty":"intermediate","name":null,"aerialway":null,"osm":"way/877635181"},"geometry":{"type":"LineString","coordinates":[[11.2921,47.13967],[11.29161,47.14071],[11.29125,47.14089],[11.29144,47.14157],[11.2913,47.14168],[11.29191,47.14232],[11.29188,47.14191],[11.292,47.14178],[11.29186,47.14158],[11.29184,47.14114],[11.292,47.14109],[11.29209,47.14059],[11.29245,47.14042],[11.29256,47.1398],[11.29236,47.13965],[11.2921,47.13967]]}},{"type":"Feature","properties":{"kind":"piste","difficulty":"intermediate","name":"5 Zirmach-Abfahrt","aerialway":null,"osm":"way/877635183"},"geometry":{"type":"LineString","coordinates":[[11.29507,47.13802],[11.295,47.13937],[11.29518,47.14015],[11.29605,47.14138],[11.29713,47.142],[11.29736,47.1424],[11.297,47.14428]]}},{"type":"Feature","properties":{"kind":"piste","difficulty":"easy","name":null,"aerialway":null,"osm":"way/892776153"},"geometry":{"type":"LineString","coordinates":[[11.30008,47.15278],[11.30278,47.15436]]}},{"type":"Feature","properties":{"kind":"piste","difficulty":"easy","name":null,"aerialway":null,"osm":"way/892776154"},"geometry":{"type":"LineString","coordinates":[[11.30002,47.15286],[11.30064,47.15311]]}},{"type":"Feature","properties":{"kind":"piste","difficulty":"easy","name":null,"aerialway":null,"osm":"way/892776155"},"geometry":{"type":"LineString","coordinates":[[11.30015,47.15293],[11.30028,47.15324],[11.3017,47.15419]]}},{"type":"Feature","properties":{"kind":"piste","difficulty":"easy","name":null,"aerialway":null,"osm":"way/892776156"},"geometry":{"type":"LineString","coordinates":[[11.30221,47.15408],[11.30215,47.15427]]}},{"type":"Feature","properties":{"kind":"piste","difficulty":"easy","name":null,"aerialway":null,"osm":"way/892776157"},"geometry":{"type":"LineString","coordinates":[[11.33203,47.15763],[11.33207,47.15787]]}},{"type":"Feature","properties":{"kind":"piste","difficulty":"easy","name":null,"aerialway":null,"osm":"way/892776158"},"geometry":{"type":"LineString","coordinates":[[11.33665,47.15923],[11.33706,47.15934]]}},{"type":"Feature","properties":{"kind":"piste","difficulty":"easy","name":null,"aerialway":null,"osm":"way/892776159"},"geometry":{"type":"LineString","coordinates":[[11.33645,47.15887],[11.33691,47.15932]]}},{"type":"Feature","properties":{"kind":"piste","difficulty":"intermediate","name":null,"aerialway":null,"osm":"way/895948216"},"geometry":{"type":"LineString","coordinates":[[11.28262,47.18884],[11.28329,47.18901],[11.28436,47.18981],[11.28582,47.19121],[11.28654,47.19174],[11.28767,47.19325]]}},{"type":"Feature","properties":{"kind":"piste","difficulty":"easy","name":null,"aerialway":null,"osm":"way/903957944"},"geometry":{"type":"LineString","coordinates":[[11.29077,47.14107],[11.29042,47.14126],[11.2902,47.14048],[11.29072,47.13922],[11.2918,47.13921],[11.2924,47.13896],[11.2927,47.139],[11.29291,47.13926],[11.29293,47.13953],[11.29147,47.13968],[11.29082,47.14],[11.29069,47.14064],[11.29077,47.14107]]}},{"type":"Feature","properties":{"kind":"piste","difficulty":"easy","name":"6 Wasserfall-Abfahrt","aerialway":null,"osm":"way/903957945"},"geometry":{"type":"LineString","coordinates":[[11.2924,47.13896],[11.29223,47.13933],[11.29088,47.13967],[11.29068,47.13985],[11.29051,47.14034],[11.29052,47.14088]]}},{"type":"Feature","properties":{"kind":"piste","difficulty":"intermediate","name":"3a Kanonenrohr","aerialway":null,"osm":"way/904815525"},"geometry":{"type":"LineString","coordinates":[[11.29388,47.14194],[11.294,47.14179],[11.2949,47.14187],[11.29551,47.14176],[11.29573,47.1416],[11.29489,47.14087],[11.29455,47.14081],[11.2947,47.14101],[11.29467,47.14131],[11.29391,47.1416],[11.29388,47.14194]]}},{"type":"Feature","properties":{"kind":"piste","difficulty":"easy","name":null,"aerialway":null,"osm":"way/906761037"},"geometry":{"type":"LineString","coordinates":[[11.30041,47.15257],[11.3019,47.15353],[11.30278,47.15436]]}},{"type":"Feature","properties":{"kind":"piste","difficulty":"easy","name":null,"aerialway":null,"osm":"way/934676819"},"geometry":{"type":"LineString","coordinates":[[11.24887,47.22684],[11.24907,47.22692],[11.24928,47.22729],[11.24929,47.22779],[11.24918,47.22817],[11.24885,47.22854]]}},{"type":"Feature","properties":{"kind":"piste","difficulty":"easy","name":null,"aerialway":null,"osm":"way/1028588544"},"geometry":{"type":"LineString","coordinates":[[11.3323,47.15696],[11.33253,47.15644]]}},{"type":"Feature","properties":{"kind":"piste","difficulty":"easy","name":null,"aerialway":null,"osm":"way/1028588545"},"geometry":{"type":"LineString","coordinates":[[11.28766,47.14201],[11.28794,47.14234]]}},{"type":"Feature","properties":{"kind":"piste","difficulty":"intermediate","name":"FIS-Abfahrt","aerialway":null,"osm":"way/1042907856"},"geometry":{"type":"LineString","coordinates":[[11.34844,47.21891],[11.34965,47.2189],[11.3506,47.21857]]}},{"type":"Feature","properties":{"kind":"piste","difficulty":"easy","name":null,"aerialway":null,"osm":"way/1060271265"},"geometry":{"type":"LineString","coordinates":[[11.30321,47.1929],[11.30344,47.1932],[11.3036,47.19318]]}},{"type":"Feature","properties":{"kind":"piste","difficulty":"easy","name":null,"aerialway":null,"osm":"way/1060271266"},"geometry":{"type":"LineString","coordinates":[[11.30375,47.19189],[11.30354,47.19202]]}},{"type":"Feature","properties":{"kind":"piste","difficulty":"easy","name":null,"aerialway":null,"osm":"way/1135761143"},"geometry":{"type":"LineString","coordinates":[[11.33207,47.15787],[11.33282,47.15777],[11.33322,47.15784],[11.33665,47.15923]]}},{"type":"Feature","properties":{"kind":"piste","difficulty":"easy","name":null,"aerialway":null,"osm":"way/1149362830"},"geometry":{"type":"LineString","coordinates":[[11.30312,47.19389],[11.30289,47.19402]]}},{"type":"Feature","properties":{"kind":"piste","difficulty":"easy","name":null,"aerialway":null,"osm":"way/1149362831"},"geometry":{"type":"LineString","coordinates":[[11.30289,47.19402],[11.30277,47.19421]]}},{"type":"Feature","properties":{"kind":"piste","difficulty":"unknown","name":"Golden Roof Funpark","aerialway":null,"osm":"way/1149365174"},"geometry":{"type":"LineString","coordinates":[[11.28262,47.18884],[11.2823,47.18895],[11.28328,47.18985],[11.28537,47.191],[11.28565,47.19103]]}},{"type":"Feature","properties":{"kind":"piste","difficulty":"easy","name":null,"aerialway":null,"osm":"way/1149443763"},"geometry":{"type":"LineString","coordinates":[[11.28977,47.18962],[11.29122,47.18943]]}},{"type":"Feature","properties":{"kind":"piste","difficulty":"intermediate","name":"Galtalm-Abfahrt","aerialway":null,"osm":"way/1214995329"},"geometry":{"type":"LineString","coordinates":[[11.32662,47.15157],[11.32855,47.15256],[11.33045,47.15289],[11.33084,47.15311],[11.33158,47.15439],[11.33277,47.15556],[11.33408,47.1565],[11.33545,47.15695],[11.33559,47.15682]]}},{"type":"Feature","properties":{"kind":"piste","difficulty":"advanced","name":"Galtberghang","aerialway":null,"osm":"way/1214995330"},"geometry":{"type":"LineString","coordinates":[[11.3232,47.15111],[11.32369,47.15103],[11.32533,47.15156],[11.32727,47.15194]]}},{"type":"Feature","properties":{"kind":"piste","difficulty":"intermediate","name":null,"aerialway":null,"osm":"way/1227426602"},"geometry":{"type":"LineString","coordinates":[[11.33408,47.1565],[11.33475,47.15702]]}},{"type":"Feature","properties":{"kind":"piste","difficulty":"freeride","name":"2 Skiroute Sennjoch","aerialway":null,"osm":"way/1227426604"},"geometry":{"type":"LineString","coordinates":[[11.29497,47.13777],[11.29466,47.13814],[11.29447,47.13878],[11.2934,47.1442],[11.29294,47.1448]]}},{"type":"Feature","properties":{"kind":"piste","difficulty":"intermediate","name":"Götzner Abfahrt","aerialway":null,"osm":"way/1312412009"},"geometry":{"type":"LineString","coordinates":[[11.3256,47.21228],[11.32491,47.2124],[11.32469,47.21231]]}},{"type":"Feature","properties":{"kind":"piste","difficulty":"easy","name":null,"aerialway":null,"osm":"way/1337702623"},"geometry":{"type":"LineString","coordinates":[[11.30312,47.19389],[11.303,47.19383]]}},{"type":"Feature","properties":{"kind":"piste","difficulty":"easy","name":null,"aerialway":null,"osm":"way/1337702637"},"geometry":{"type":"LineString","coordinates":[[11.30238,47.19517],[11.30248,47.19524],[11.30248,47.1957]]}},{"type":"Feature","properties":{"kind":"piste","difficulty":"intermediate","name":null,"aerialway":null,"osm":"way/1337744134"},"geometry":{"type":"LineString","coordinates":[[11.32205,47.14831],[11.32275,47.14878],[11.32387,47.14991],[11.32579,47.15077],[11.32662,47.15157]]}},{"type":"Feature","properties":{"kind":"piste","difficulty":"intermediate","name":null,"aerialway":null,"osm":"way/1337744135"},"geometry":{"type":"LineString","coordinates":[[11.3233,47.15089],[11.32275,47.15009],[11.32254,47.14909],[11.32205,47.14831]]}},{"type":"Feature","properties":{"kind":"piste","difficulty":"easy","name":"Waxeck-Abfahrt","aerialway":null,"osm":"way/1337744137"},"geometry":{"type":"LineString","coordinates":[[11.31712,47.15479],[11.31682,47.15514],[11.31668,47.15569],[11.31722,47.15657],[11.31768,47.1568]]}},{"type":"Feature","properties":{"kind":"piste","difficulty":"easy","name":"Waxeck-Abfahrt","aerialway":null,"osm":"way/1337744139"},"geometry":{"type":"LineString","coordinates":[[11.3201,47.15033],[11.31984,47.15031],[11.31964,47.15057],[11.32042,47.15102],[11.32108,47.15102],[11.32159,47.15074],[11.32182,47.15075],[11.32275,47.1519],[11.32315,47.15227],[11.32403,47.15266],[11.32413,47.153]]}},{"type":"Feature","properties":{"kind":"piste","difficulty":"intermediate","name":"Galtalm-Abfahrt","aerialway":null,"osm":"way/1337744140"},"geometry":{"type":"LineString","coordinates":[[11.32225,47.1512],[11.32293,47.15123],[11.3232,47.15111],[11.3233,47.15089]]}},{"type":"Feature","properties":{"kind":"piste","difficulty":"easy","name":"1b - Panorama-Abfahrt-Talschluss","aerialway":null,"osm":"way/1348257373"},"geometry":{"type":"LineString","coordinates":[[11.2923,47.14477],[11.2904,47.14433],[11.28995,47.14454]]}},{"type":"Feature","properties":{"kind":"piste","difficulty":"easy","name":"7a Seespitz-Abfahrt","aerialway":null,"osm":"way/1348257374"},"geometry":{"type":"LineString","coordinates":[[11.28766,47.14201],[11.28707,47.14258],[11.2873,47.14286],[11.28736,47.14318],[11.28824,47.1443],[11.2893,47.14424],[11.28995,47.14454]]}},{"type":"Feature","properties":{"kind":"piste","difficulty":"easy","name":null,"aerialway":null,"osm":"way/1348257375"},"geometry":{"type":"LineString","coordinates":[[11.28789,47.14239],[11.28741,47.14228]]}},{"type":"Feature","properties":{"kind":"piste","difficulty":"novice","name":null,"aerialway":null,"osm":"way/1349272024"},"geometry":{"type":"LineString","coordinates":[[11.33593,47.15957],[11.3363,47.15957],[11.33668,47.1598]]}},{"type":"Feature","properties":{"kind":"piste","difficulty":"easy","name":null,"aerialway":null,"osm":"way/1349638024"},"geometry":{"type":"LineString","coordinates":[[11.31727,47.15475],[11.31702,47.15509],[11.31705,47.15604],[11.31724,47.15641],[11.31765,47.15667],[11.31715,47.15669],[11.31638,47.15596],[11.31678,47.1549],[11.31727,47.15475]]}},{"type":"Feature","properties":{"kind":"piste","difficulty":"intermediate","name":"5 Zirmach-Abfahrt","aerialway":null,"osm":"way/1349638025"},"geometry":{"type":"LineString","coordinates":[[11.29588,47.1412],[11.29708,47.1413],[11.29752,47.1418]]}},{"type":"Feature","properties":{"kind":"piste","difficulty":"intermediate","name":"6a Carving-Abfahrt","aerialway":null,"osm":"way/1349638026"},"geometry":{"type":"LineString","coordinates":[[11.29052,47.14088],[11.29067,47.14143],[11.29111,47.14172],[11.29164,47.14231]]}},{"type":"Feature","properties":{"kind":"piste","difficulty":"freeride","name":null,"aerialway":null,"osm":"way/1349638030"},"geometry":{"type":"LineString","coordinates":[[11.32309,47.15221],[11.32299,47.15164],[11.32326,47.1511]]}},{"type":"Feature","properties":{"kind":"piste","difficulty":"easy","name":null,"aerialway":null,"osm":"way/1350037932"},"geometry":{"type":"LineString","coordinates":[[11.30679,47.14527],[11.30712,47.14539]]}},{"type":"Feature","properties":{"kind":"piste","difficulty":"freeride","name":null,"aerialway":null,"osm":"way/1353183283"},"geometry":{"type":"LineString","coordinates":[[11.29324,47.14439],[11.29312,47.14446],[11.29345,47.14467],[11.29358,47.14439],[11.29355,47.14396],[11.29398,47.14188],[11.29377,47.14196],[11.29324,47.14439]]}},{"type":"Feature","properties":{"kind":"piste","difficulty":"freeride","name":null,"aerialway":null,"osm":"way/1353183284"},"geometry":{"type":"LineString","coordinates":[[11.29418,47.14152],[11.29404,47.14139],[11.29437,47.13976],[11.2946,47.13928],[11.29453,47.13915],[11.29469,47.13819],[11.29496,47.13794],[11.29479,47.1378],[11.29456,47.13781],[11.29401,47.14086],[11.29383,47.14133],[11.29385,47.1416],[11.29418,47.14152]]}},{"type":"Feature","properties":{"kind":"piste","difficulty":"easy","name":null,"aerialway":null,"osm":"way/1359868784"},"geometry":{"type":"LineString","coordinates":[[11.33706,47.15934],[11.33727,47.15934]]}},{"type":"Feature","properties":{"kind":"piste","difficulty":"novice","name":null,"aerialway":null,"osm":"way/1359868787"},"geometry":{"type":"LineString","coordinates":[[11.33664,47.1597],[11.337,47.1596],[11.33701,47.15947],[11.3368,47.15946]]}},{"type":"Feature","properties":{"kind":"piste","difficulty":"easy","name":null,"aerialway":null,"osm":"way/1359868788"},"geometry":{"type":"LineString","coordinates":[[11.33701,47.15947],[11.33701,47.15933]]}},{"type":"Feature","properties":{"kind":"piste","difficulty":"intermediate","name":"Familienabfahrt Götzens","aerialway":null,"osm":"way/1396186725"},"geometry":{"type":"LineString","coordinates":[[11.31964,47.22165],[11.31959,47.22187]]}},{"type":"Feature","properties":{"kind":"piste","difficulty":"intermediate","name":"Familienabfahrt Götzens","aerialway":null,"osm":"way/1396186726"},"geometry":{"type":"LineString","coordinates":[[11.32948,47.20892],[11.32969,47.20885]]}},{"type":"Feature","properties":{"kind":"piste","difficulty":"intermediate","name":"Priemesköpfl Abfahrt","aerialway":null,"osm":"way/1396186727"},"geometry":{"type":"LineString","coordinates":[[11.33557,47.21197],[11.3357,47.21196],[11.33562,47.2119]]}},{"type":"Feature","properties":{"kind":"piste","difficulty":"intermediate","name":null,"aerialway":null,"osm":"way/1396186728"},"geometry":{"type":"LineString","coordinates":[[11.33557,47.21197],[11.3357,47.21196],[11.33562,47.2119]]}},{"type":"Feature","properties":{"kind":"piste","difficulty":"intermediate","name":null,"aerialway":null,"osm":"way/1396186729"},"geometry":{"type":"LineString","coordinates":[[11.33314,47.21072],[11.33317,47.21094],[11.33277,47.21147],[11.33283,47.21161]]}},{"type":"Feature","properties":{"kind":"piste","difficulty":"easy","name":"16 Talabfahrt","aerialway":null,"osm":"way/1466768133"},"geometry":{"type":"LineString","coordinates":[[11.33246,47.15678],[11.33323,47.15678],[11.33475,47.15702],[11.33608,47.15753],[11.33684,47.15853],[11.33727,47.15934]]}},{"type":"Feature","properties":{"kind":"piste","difficulty":"easy","name":null,"aerialway":null,"osm":"way/1466768134"},"geometry":{"type":"LineString","coordinates":[[11.33647,47.15937],[11.33665,47.15923]]}},{"type":"Feature","properties":{"kind":"piste","difficulty":"easy","name":null,"aerialway":null,"osm":"way/1466768135"},"geometry":{"type":"LineString","coordinates":[[11.3319,47.15718],[11.33246,47.15678]]}},{"type":"Feature","properties":{"kind":"piste","difficulty":"easy","name":null,"aerialway":null,"osm":"way/1466768136"},"geometry":{"type":"LineString","coordinates":[[11.30278,47.15436],[11.30283,47.15452]]}},{"type":"Feature","properties":{"kind":"piste","difficulty":"easy","name":null,"aerialway":null,"osm":"way/1466768142"},"geometry":{"type":"LineString","coordinates":[[11.3017,47.15419],[11.30283,47.15452]]}},{"type":"Feature","properties":{"kind":"piste","difficulty":"intermediate","name":null,"aerialway":null,"osm":"way/1467556345"},"geometry":{"type":"LineString","coordinates":[[11.27988,47.19328],[11.27899,47.19447],[11.2787,47.19516]]}},{"type":"Feature","properties":{"kind":"piste","difficulty":"intermediate","name":null,"aerialway":null,"osm":"way/1467556347"},"geometry":{"type":"LineString","coordinates":[[11.28001,47.19314],[11.27988,47.19328]]}},{"type":"Feature","properties":{"kind":"piste","difficulty":"intermediate","name":"19 Axamer Abfahrt","aerialway":null,"osm":"way/1552518899"},"geometry":{"type":"LineString","coordinates":[[11.2787,47.19516],[11.27879,47.19597],[11.27922,47.19647],[11.27925,47.19686],[11.27886,47.1973],[11.27804,47.1978],[11.27686,47.19997],[11.27558,47.2014]]}},{"type":"Feature","properties":{"kind":"piste","difficulty":"advanced","name":"3b Latschen-Abfahrt","aerialway":null,"osm":"relation/18531670"},"geometry":{"type":"LineString","coordinates":[[11.29431,47.14295],[11.29416,47.14306],[11.29345,47.14467],[11.29418,47.14472],[11.2943,47.14456],[11.29453,47.14459],[11.29494,47.14336],[11.29565,47.14314],[11.29607,47.14273],[11.29612,47.14232],[11.29677,47.14206],[11.29573,47.1416],[11.29551,47.14176],[11.29592,47.14201],[11.29548,47.14243],[11.29515,47.14247],[11.29503,47.14262],[11.29456,47.1426],[11.29431,47.14295]]}},{"type":"Feature","properties":{"kind":"lift","difficulty":null,"name":"Karleiten","aerialway":"chair_lift","osm":"way/24568282"},"geometry":{"type":"LineString","coordinates":[[11.29051,47.19439],[11.28262,47.18884]]}},{"type":"Feature","properties":{"kind":"lift","difficulty":null,"name":"Birgitzköpfl","aerialway":"chair_lift","osm":"way/25298607"},"geometry":{"type":"LineString","coordinates":[[11.30354,47.19407],[11.31652,47.19478]]}},{"type":"Feature","properties":{"kind":"lift","difficulty":null,"name":"Kreuzjochbahn","aerialway":"gondola","osm":"way/26506233"},"geometry":{"type":"LineString","coordinates":[[11.33271,47.15645],[11.30712,47.14539]]}},{"type":"Feature","properties":{"kind":"lift","difficulty":null,"name":"Muttereralmbahn","aerialway":"gondola","osm":"way/26746748"},"geometry":{"type":"LineString","coordinates":[[11.36627,47.22244],[11.33371,47.21157]]}},{"type":"Feature","properties":{"kind":"lift","difficulty":null,"name":"Nockspitzbahn","aerialway":"gondola","osm":"way/26746897"},"geometry":{"type":"LineString","coordinates":[[11.3146,47.23187],[11.32841,47.20768]]}},{"type":"Feature","properties":{"kind":"lift","difficulty":null,"name":"Pfriemesköpfl","aerialway":"chair_lift","osm":"way/26746906"},"geometry":{"type":"LineString","coordinates":[[11.33562,47.2119],[11.32871,47.2076]]}},{"type":"Feature","properties":{"kind":"lift","difficulty":null,"name":"Vierersesselbahn Sennjoch","aerialway":"chair_lift","osm":"way/29262933"},"geometry":{"type":"LineString","coordinates":[[11.30293,47.15405],[11.2958,47.13812]]}},{"type":"Feature","properties":{"kind":"lift","difficulty":null,"name":"Ron's Tellerlift","aerialway":"platter","osm":"way/29263186"},"geometry":{"type":"LineString","coordinates":[[11.33672,47.15875],[11.33477,47.15795]]}},{"type":"Feature","properties":{"kind":"lift","difficulty":null,"name":"Schanzlin","aerialway":"t-bar","osm":"way/29263205"},"geometry":{"type":"LineString","coordinates":[[11.33682,47.15965],[11.33028,47.15752]]}},{"type":"Feature","properties":{"kind":"lift","difficulty":null,"name":"Panoramabahn","aerialway":"chair_lift","osm":"way/29263441"},"geometry":{"type":"LineString","coordinates":[[11.30005,47.14677],[11.30668,47.14463]]}},{"type":"Feature","properties":{"kind":"lift","difficulty":null,"name":"Schlickerboden","aerialway":"t-bar","osm":"way/29321276"},"geometry":{"type":"LineString","coordinates":[[11.30225,47.15434],[11.29747,47.15133]]}},{"type":"Feature","properties":{"kind":"lift","difficulty":null,"name":"Übungslift Birgitz","aerialway":"t-bar","osm":"way/47089281"},"geometry":{"type":"LineString","coordinates":[[11.30216,47.23265],[11.30796,47.22947]]}},{"type":"Feature","properties":{"kind":"lift","difficulty":null,"name":"Talboden","aerialway":"platter","osm":"way/93697082"},"geometry":{"type":"LineString","coordinates":[[11.30359,47.19323],[11.30376,47.19177]]}},{"type":"Feature","properties":{"kind":"lift","difficulty":null,"name":"Götzner Grube","aerialway":"t-bar","osm":"way/93697084"},"geometry":{"type":"LineString","coordinates":[[11.31709,47.19768],[11.31655,47.19394]]}},{"type":"Feature","properties":{"kind":"lift","difficulty":null,"name":"Kaserwald I","aerialway":"t-bar","osm":"way/93697087"},"geometry":{"type":"LineString","coordinates":[[11.30334,47.19351],[11.307,47.19293]]}},{"type":"Feature","properties":{"kind":"lift","difficulty":null,"name":"Sonnenlift","aerialway":"t-bar","osm":"way/124436839"},"geometry":{"type":"LineString","coordinates":[[11.27335,47.2277],[11.27129,47.22349]]}},{"type":"Feature","properties":{"kind":"lift","difficulty":null,"name":"Pleisen","aerialway":"chair_lift","osm":"way/144280300"},"geometry":{"type":"LineString","coordinates":[[11.29205,47.19628],[11.28001,47.19314]]}},{"type":"Feature","properties":{"kind":"lift","difficulty":null,"name":"Almbodenlift","aerialway":"platter","osm":"way/153958730"},"geometry":{"type":"LineString","coordinates":[[11.33511,47.21322],[11.3296,47.21032]]}},{"type":"Feature","properties":{"kind":"lift","difficulty":null,"name":"Mooslift","aerialway":"t-bar","osm":"way/240831793"},"geometry":{"type":"LineString","coordinates":[[11.24885,47.22854],[11.24887,47.22672]]}},{"type":"Feature","properties":{"kind":"lift","difficulty":null,"name":"Zirmachbahn","aerialway":"chair_lift","osm":"way/324328520"},"geometry":{"type":"LineString","coordinates":[[11.29207,47.14459],[11.29474,47.13751]]}},{"type":"Feature","properties":{"kind":"lift","difficulty":null,"name":null,"aerialway":"magic_carpet","osm":"way/567954112"},"geometry":{"type":"LineString","coordinates":[[11.33267,47.15629],[11.33242,47.15619]]}},{"type":"Feature","properties":{"kind":"lift","difficulty":null,"name":null,"aerialway":"magic_carpet","osm":"way/567954113"},"geometry":{"type":"LineString","coordinates":[[11.33227,47.15646],[11.3321,47.15638]]}},{"type":"Feature","properties":{"kind":"lift","difficulty":null,"name":null,"aerialway":"magic_carpet","osm":"way/567954114"},"geometry":{"type":"LineString","coordinates":[[11.33221,47.15653],[11.33204,47.15645]]}},{"type":"Feature","properties":{"kind":"lift","difficulty":null,"name":null,"aerialway":"magic_carpet","osm":"way/567954115"},"geometry":{"type":"LineString","coordinates":[[11.33204,47.15677],[11.3316,47.15638]]}},{"type":"Feature","properties":{"kind":"lift","difficulty":null,"name":null,"aerialway":"magic_carpet","osm":"way/657212836"},"geometry":{"type":"LineString","coordinates":[[11.32815,47.20684],[11.3288,47.2073]]}},{"type":"Feature","properties":{"kind":"lift","difficulty":null,"name":null,"aerialway":"magic_carpet","osm":"way/679906896"},"geometry":{"type":"LineString","coordinates":[[11.33668,47.1598],[11.33593,47.15957]]}},{"type":"Feature","properties":{"kind":"lift","difficulty":null,"name":null,"aerialway":"magic_carpet","osm":"way/807878117"},"geometry":{"type":"LineString","coordinates":[[11.30339,47.19394],[11.30423,47.19391]]}},{"type":"Feature","properties":{"kind":"lift","difficulty":null,"name":null,"aerialway":"magic_carpet","osm":"way/893773372"},"geometry":{"type":"LineString","coordinates":[[11.3346,47.21126],[11.33394,47.21082]]}},{"type":"Feature","properties":{"kind":"lift","difficulty":null,"name":"Hoadlbahn","aerialway":"gondola","osm":"way/1064844583"},"geometry":{"type":"LineString","coordinates":[[11.3021,47.19537],[11.28974,47.18961]]}},{"type":"Feature","properties":{"kind":"lift","difficulty":null,"name":"Galtbergbahn","aerialway":"gondola","osm":"way/1214995327"},"geometry":{"type":"LineString","coordinates":[[11.33559,47.15682],[11.3201,47.15033]]}},{"type":"Feature","properties":{"kind":"lift","difficulty":null,"name":"Hoadlbahn","aerialway":"gondola","osm":"way/1526166177"},"geometry":{"type":"LineString","coordinates":[[11.28974,47.18961],[11.2814,47.18353]]}},{"type":"Feature","properties":{"kind":"lift","difficulty":null,"name":"Kreuzjochbahn","aerialway":"gondola","osm":"way/1526166754"},"geometry":{"type":"LineString","coordinates":[[11.34354,47.1553],[11.33271,47.15645]]}}]}