{"type":"FeatureCollection","features":[{"type":"Feature","properties":{"kind":"lift","difficulty":null,"name":"Schilift SG. Weißenbach","aerialway":"drag_lift","osm":"way/25442919"},"geometry":{"type":"LineString","coordinates":[[14.20141,47.57107],[14.1976,47.57164]]}},{"type":"Feature","properties":{"kind":"lift","difficulty":null,"name":"Schilift SG. Weißenbach","aerialway":"magic_carpet","osm":"way/1361218694"},"geometry":{"type":"LineString","coordinates":[[14.20156,47.57093],[14.20115,47.5709]]}}]}