{"type":"FeatureCollection","features":[{"type":"Feature","properties":{"kind":"lift","difficulty":null,"name":null,"aerialway":"drag_lift","osm":"way/59203736"},"geometry":{"type":"LineString","coordinates":[[15.89756,48.01986],[15.89886,48.01711]]}},{"type":"Feature","properties":{"kind":"piste","difficulty":"easy","name":"Abfahrt 1","aerialway":null,"osm":"way/741022501"},"geometry":{"type":"LineString","coordinates":[[15.89886,48.01711],[15.8993,48.01729],[15.89793,48.01975],[15.89756,48.01986]]}},{"type":"Feature","properties":{"kind":"piste","difficulty":"easy","name":"Abfahrt 2","aerialway":null,"osm":"way/741022502"},"geometry":{"type":"LineString","coordinates":[[15.89886,48.01711],[15.9,48.0172],[15.9007,48.01765],[15.90248,48.01822],[15.90243,48.01841],[15.90163,48.01911],[15.90034,48.01989],[15.89965,48.02007],[15.89838,48.02008],[15.89756,48.01986]]}},{"type":"Feature","properties":{"kind":"piste","difficulty":"easy","name":null,"aerialway":null,"osm":"way/741022503"},"geometry":{"type":"LineString","coordinates":[[15.89902,48.01779],[15.89988,48.01805],[15.90107,48.01777]]}}]}