{"type":"FeatureCollection","features":[{"type":"Feature","properties":{"kind":"lift","difficulty":null,"name":"Buchsteinlift","aerialway":"t-bar","osm":"way/239578243"},"geometry":{"type":"LineString","coordinates":[[14.64818,47.66691],[14.64244,47.6645]]}},{"type":"Feature","properties":{"kind":"piste","difficulty":"easy","name":"Buchsteinlift","aerialway":null,"osm":"way/239578488"},"geometry":{"type":"LineString","coordinates":[[14.64244,47.6645],[14.64478,47.66476],[14.64715,47.66617],[14.64814,47.66652],[14.64818,47.66691]]}}]}