{"type":"FeatureCollection","features":[{"type":"Feature","properties":{"kind":"lift","difficulty":null,"name":"Kinderschilift","aerialway":"magic_carpet","osm":"way/244597316"},"geometry":{"type":"LineString","coordinates":[[16.25582,48.17955],[16.25451,48.17967]]}},{"type":"Feature","properties":{"kind":"piste","difficulty":"novice","name":"Dollwiese","aerialway":null,"osm":"way/907376800"},"geometry":{"type":"LineString","coordinates":[[16.25451,48.17967],[16.25436,48.17953],[16.25466,48.17928],[16.25546,48.17927],[16.25562,48.17912],[16.25595,48.17949],[16.25451,48.17967]]}}]}