{"type":"FeatureCollection","features":[{"type":"Feature","properties":{"kind":"lift","difficulty":null,"name":"Feistritzsattellift","aerialway":"t-bar","osm":"way/305955741"},"geometry":{"type":"LineString","coordinates":[[15.85565,47.57713],[15.84982,47.57609]]}},{"type":"Feature","properties":{"kind":"piste","difficulty":"intermediate","name":null,"aerialway":null,"osm":"way/305955744"},"geometry":{"type":"LineString","coordinates":[[15.84982,47.57609],[15.8503,47.57646],[15.85382,47.57768],[15.85511,47.57761],[15.85556,47.5774]]}},{"type":"Feature","properties":{"kind":"piste","difficulty":"intermediate","name":null,"aerialway":null,"osm":"way/305955745"},"geometry":{"type":"LineString","coordinates":[[15.84982,47.57609],[15.8504,47.5754],[15.85056,47.57477],[15.85075,47.57461],[15.85224,47.57469],[15.85331,47.57509],[15.85434,47.57588],[15.85552,47.57706]]}}]}