{"type":"FeatureCollection","features":[{"type":"Feature","properties":{"kind":"lift","difficulty":null,"name":"Frauenstaffel","aerialway":"drag_lift","osm":"way/208304824"},"geometry":{"type":"LineString","coordinates":[[15.34111,48.79263],[15.34965,48.79314]]}},{"type":"Feature","properties":{"kind":"piste","difficulty":"unknown","name":null,"aerialway":null,"osm":"way/208327328"},"geometry":{"type":"LineString","coordinates":[[15.34965,48.79314],[15.34923,48.79326],[15.34436,48.79308],[15.34158,48.79333],[15.3412,48.79319],[15.34111,48.79263]]}}]}