{"type":"FeatureCollection","features":[{"type":"Feature","properties":{"kind":"lift","difficulty":null,"name":null,"aerialway":"drag_lift","osm":"way/238899984"},"geometry":{"type":"LineString","coordinates":[[14.9268,47.10846],[14.91719,47.10647]]}},{"type":"Feature","properties":{"kind":"lift","difficulty":null,"name":"Slalom Lift","aerialway":"drag_lift","osm":"way/238900083"},"geometry":{"type":"LineString","coordinates":[[14.9259,47.11004],[14.917,47.10694]]}},{"type":"Feature","properties":{"kind":"piste","difficulty":"advanced","name":"Stallwiese","aerialway":null,"osm":"way/1263685529"},"geometry":{"type":"LineString","coordinates":[[14.91708,47.10697],[14.91957,47.10825],[14.92119,47.10805],[14.92163,47.10784]]}},{"type":"Feature","properties":{"kind":"piste","difficulty":"intermediate","name":"Slalom","aerialway":null,"osm":"way/1263685530"},"geometry":{"type":"LineString","coordinates":[[14.91708,47.10697],[14.91788,47.1069],[14.91891,47.10732],[14.9199,47.10736],[14.92038,47.1076],[14.92393,47.10846],[14.92542,47.10925],[14.9259,47.11004]]}},{"type":"Feature","properties":{"kind":"piste","difficulty":"intermediate","name":"Jungmoas","aerialway":null,"osm":"way/1263685531"},"geometry":{"type":"LineString","coordinates":[[14.92113,47.10676],[14.92215,47.10689],[14.92447,47.10764],[14.9265,47.10805],[14.9268,47.10846]]}},{"type":"Feature","properties":{"kind":"piste","difficulty":"intermediate","name":"Standard","aerialway":null,"osm":"way/1263685532"},"geometry":{"type":"LineString","coordinates":[[14.91868,47.1062],[14.91913,47.1064],[14.92113,47.10676],[14.922,47.10639],[14.92246,47.10605],[14.92355,47.10588],[14.92434,47.10597],[14.92621,47.10679],[14.92624,47.10728],[14.9268,47.10846]]}},{"type":"Feature","properties":{"kind":"piste","difficulty":"intermediate","name":"Alte Lifttrasse","aerialway":null,"osm":"way/1263685534"},"geometry":{"type":"LineString","coordinates":[[14.91868,47.1062],[14.91926,47.10599],[14.92008,47.10595],[14.92246,47.10605]]}},{"type":"Feature","properties":{"kind":"piste","difficulty":"advanced","name":"Schönfelder Piste","aerialway":null,"osm":"way/1263685536"},"geometry":{"type":"LineString","coordinates":[[14.91732,47.1065],[14.91801,47.10566],[14.9189,47.10541],[14.92073,47.10526],[14.92329,47.10553]]}},{"type":"Feature","properties":{"kind":"piste","difficulty":"novice","name":null,"aerialway":null,"osm":"way/1263685537"},"geometry":{"type":"LineString","coordinates":[[14.92329,47.10553],[14.92536,47.10573],[14.92656,47.10565],[14.92664,47.10583],[14.92644,47.1071],[14.92675,47.10784],[14.9268,47.10846]]}},{"type":"Feature","properties":{"kind":"piste","difficulty":"easy","name":"Skihaserlabfahrt Sektion 1","aerialway":null,"osm":"way/1263685542"},"geometry":{"type":"LineString","coordinates":[[14.91732,47.1065],[14.91789,47.10653],[14.91868,47.10581],[14.91913,47.105],[14.91916,47.10342],[14.91966,47.10237],[14.92027,47.10154],[14.92042,47.1016],[14.92001,47.10304],[14.92003,47.10373],[14.9206,47.10452],[14.92172,47.10536]]}},{"type":"Feature","properties":{"kind":"piste","difficulty":"easy","name":"Schneehaserlabfahrt Sektion 2","aerialway":null,"osm":"way/1263685543"},"geometry":{"type":"LineString","coordinates":[[14.92146,47.10508],[14.92157,47.10497],[14.921,47.10428],[14.92108,47.10307],[14.92138,47.10281],[14.92338,47.10226],[14.92338,47.10198],[14.92301,47.10157],[14.92277,47.10102],[14.9229,47.10096],[14.92309,47.10127],[14.92404,47.10175],[14.92423,47.10203],[14.9239,47.10304],[14.92353,47.10348],[14.92311,47.10356],[14.92306,47.10371],[14.92393,47.10431],[14.92665,47.1047],[14.92786,47.1053],[14.92769,47.10584],[14.92691,47.10723],[14.92697,47.10765],[14.92675,47.10799]]}}]}