{"type":"FeatureCollection","features":[{"type":"Feature","properties":{"kind":"lift","difficulty":null,"name":"Bodenbauer-Express","aerialway":"chair_lift","osm":"way/28201319"},"geometry":{"type":"LineString","coordinates":[[15.289,47.81061],[15.26084,47.80961]]}},{"type":"Feature","properties":{"kind":"lift","difficulty":null,"name":"Gipfelbahn","aerialway":"chair_lift","osm":"way/28201320"},"geometry":{"type":"LineString","coordinates":[[15.26008,47.80961],[15.2482,47.81157]]}},{"type":"Feature","properties":{"kind":"piste","difficulty":"easy","name":null,"aerialway":null,"osm":"way/28201716"},"geometry":{"type":"LineString","coordinates":[[15.25763,47.80834],[15.2584,47.80858],[15.25905,47.80858],[15.25998,47.80841],[15.26192,47.80778],[15.26395,47.80794],[15.26494,47.80759],[15.26392,47.80739],[15.26347,47.80697],[15.26418,47.8072],[15.26652,47.80663],[15.2675,47.80653],[15.26808,47.80671],[15.26905,47.80743],[15.27069,47.80728]]}},{"type":"Feature","properties":{"kind":"piste","difficulty":"easy","name":null,"aerialway":null,"osm":"way/132758943"},"geometry":{"type":"LineString","coordinates":[[15.2481,47.81138],[15.24869,47.81141],[15.24954,47.81229],[15.25038,47.81279],[15.25048,47.81313],[15.25031,47.81371],[15.2504,47.81376],[15.25109,47.81291],[15.25114,47.81243],[15.25051,47.81142],[15.25048,47.81011],[15.25031,47.80952],[15.24998,47.80909],[15.24919,47.80863],[15.25078,47.80893],[15.25255,47.80997],[15.25229,47.80928],[15.25161,47.80816],[15.25126,47.80782],[15.25274,47.8085],[15.25419,47.80902],[15.25434,47.80895],[15.25337,47.80781],[15.25282,47.80705],[15.25273,47.80674],[15.2531,47.80705],[15.25535,47.80744],[15.25707,47.80812]]}},{"type":"Feature","properties":{"kind":"piste","difficulty":"easy","name":null,"aerialway":null,"osm":"way/132758991"},"geometry":{"type":"LineString","coordinates":[[15.27095,47.80726],[15.27121,47.80729]]}},{"type":"Feature","properties":{"kind":"piste","difficulty":"intermediate","name":null,"aerialway":null,"osm":"way/641560927"},"geometry":{"type":"LineString","coordinates":[[15.28584,47.81003],[15.28606,47.81015]]}},{"type":"Feature","properties":{"kind":"lift","difficulty":null,"name":null,"aerialway":"platter","osm":"way/641560929"},"geometry":{"type":"LineString","coordinates":[[15.28803,47.80952],[15.28571,47.80993]]}},{"type":"Feature","properties":{"kind":"piste","difficulty":"novice","name":null,"aerialway":null,"osm":"way/641560931"},"geometry":{"type":"LineString","coordinates":[[15.28571,47.80993],[15.28608,47.81007],[15.28778,47.8098],[15.28813,47.8097],[15.28803,47.80952]]}},{"type":"Feature","properties":{"kind":"piste","difficulty":"easy","name":null,"aerialway":null,"osm":"way/641560938"},"geometry":{"type":"LineString","coordinates":[[15.25707,47.80812],[15.25763,47.80834]]}},{"type":"Feature","properties":{"kind":"piste","difficulty":"intermediate","name":null,"aerialway":null,"osm":"way/641560940"},"geometry":{"type":"LineString","coordinates":[[15.268,47.80927],[15.26867,47.80924],[15.27005,47.80751],[15.27069,47.80728],[15.27148,47.80649]]}},{"type":"Feature","properties":{"kind":"piste","difficulty":"easy","name":null,"aerialway":null,"osm":"way/641560946"},"geometry":{"type":"LineString","coordinates":[[15.27148,47.80649],[15.27168,47.80648],[15.27241,47.80721],[15.27308,47.80756],[15.27417,47.8088]]}},{"type":"Feature","properties":{"kind":"piste","difficulty":"easy","name":null,"aerialway":null,"osm":"way/641560949"},"geometry":{"type":"LineString","coordinates":[[15.26562,47.80683],[15.2675,47.80664],[15.26755,47.80672]]}},{"type":"Feature","properties":{"kind":"piste","difficulty":"intermediate","name":null,"aerialway":null,"osm":"way/641560951"},"geometry":{"type":"LineString","coordinates":[[15.26783,47.80688],[15.26829,47.80689]]}},{"type":"Feature","properties":{"kind":"piste","difficulty":"easy","name":null,"aerialway":null,"osm":"way/641560953"},"geometry":{"type":"LineString","coordinates":[[15.27121,47.80729],[15.2718,47.80769],[15.27148,47.80649]]}},{"type":"Feature","properties":{"kind":"piste","difficulty":"easy","name":null,"aerialway":null,"osm":"way/641560956"},"geometry":{"type":"LineString","coordinates":[[15.27417,47.8088],[15.27433,47.80899]]}},{"type":"Feature","properties":{"kind":"piste","difficulty":"easy","name":null,"aerialway":null,"osm":"way/641560957"},"geometry":{"type":"LineString","coordinates":[[15.27433,47.80899],[15.27429,47.80926],[15.27442,47.80933],[15.27463,47.80882],[15.27446,47.80755],[15.27425,47.80701],[15.27607,47.80854],[15.2768,47.80881]]}},{"type":"Feature","properties":{"kind":"piste","difficulty":"easy","name":null,"aerialway":null,"osm":"way/641560958"},"geometry":{"type":"LineString","coordinates":[[15.2768,47.80881],[15.27711,47.80882]]}},{"type":"Feature","properties":{"kind":"piste","difficulty":"easy","name":null,"aerialway":null,"osm":"way/641560959"},"geometry":{"type":"LineString","coordinates":[[15.27069,47.80728],[15.27095,47.80726]]}},{"type":"Feature","properties":{"kind":"piste","difficulty":"advanced","name":null,"aerialway":null,"osm":"way/641560960"},"geometry":{"type":"LineString","coordinates":[[15.25511,47.80977],[15.25608,47.80967],[15.25845,47.80985],[15.25942,47.80972],[15.26078,47.80974]]}},{"type":"Feature","properties":{"kind":"piste","difficulty":"easy","name":null,"aerialway":null,"osm":"way/641560962"},"geometry":{"type":"LineString","coordinates":[[15.26084,47.80961],[15.2607,47.8096],[15.26078,47.80974],[15.26447,47.80941],[15.26599,47.80907],[15.268,47.80927]]}},{"type":"Feature","properties":{"kind":"piste","difficulty":"intermediate","name":null,"aerialway":null,"osm":"way/641560963"},"geometry":{"type":"LineString","coordinates":[[15.25099,47.81217],[15.25102,47.81201],[15.25127,47.81192],[15.25227,47.81193],[15.25396,47.8111],[15.25593,47.8104],[15.26078,47.80974]]}},{"type":"Feature","properties":{"kind":"piste","difficulty":"advanced","name":null,"aerialway":null,"osm":"way/641560964"},"geometry":{"type":"LineString","coordinates":[[15.2486,47.81136],[15.25048,47.81113],[15.25347,47.8104],[15.25511,47.80977],[15.25752,47.80843],[15.25777,47.80841]]}},{"type":"Feature","properties":{"kind":"piste","difficulty":"easy","name":null,"aerialway":null,"osm":"way/641560966"},"geometry":{"type":"LineString","coordinates":[[15.2484,47.81153],[15.24804,47.81149],[15.2481,47.81138]]}},{"type":"Feature","properties":{"kind":"piste","difficulty":"intermediate","name":null,"aerialway":null,"osm":"way/641560968"},"geometry":{"type":"LineString","coordinates":[[15.26566,47.8091],[15.26633,47.80812],[15.26783,47.80688],[15.26755,47.80672]]}},{"type":"Feature","properties":{"kind":"piste","difficulty":"intermediate","name":null,"aerialway":null,"osm":"way/641560969"},"geometry":{"type":"LineString","coordinates":[[15.27417,47.8088],[15.27463,47.80895],[15.27726,47.8088],[15.27777,47.80862],[15.27868,47.80803],[15.2794,47.80781],[15.28178,47.80856],[15.28325,47.80914],[15.28457,47.80983],[15.28641,47.81022],[15.28895,47.81045],[15.28909,47.81052],[15.289,47.81061]]}},{"type":"Feature","properties":{"kind":"lift","difficulty":null,"name":"Birkischlepper","aerialway":"t-bar","osm":"way/641560972"},"geometry":{"type":"LineString","coordinates":[[15.26755,47.80672],[15.26001,47.80972]]}}]}