{"type":"FeatureCollection","features":[{"type":"Feature","properties":{"kind":"lift","difficulty":null,"name":"Hauereck Schlepplift","aerialway":"drag_lift","osm":"way/132069864"},"geometry":{"type":"LineString","coordinates":[[15.69379,47.51386],[15.69118,47.51765]]}},{"type":"Feature","properties":{"kind":"lift","difficulty":null,"name":"Hauerecklift","aerialway":"chair_lift","osm":"way/132069865"},"geometry":{"type":"LineString","coordinates":[[15.69818,47.50763],[15.69157,47.51733]]}},{"type":"Feature","properties":{"kind":"piste","difficulty":"intermediate","name":"Hahngrabenabfahrt","aerialway":null,"osm":"way/132070812"},"geometry":{"type":"LineString","coordinates":[[15.69154,47.51741],[15.69203,47.51753],[15.69266,47.51794],[15.69341,47.51794],[15.69464,47.51761],[15.69511,47.51717],[15.69556,47.5159],[15.69528,47.51481],[15.69588,47.51409],[15.69687,47.51323],[15.69693,47.51248],[15.69671,47.51139]]}},{"type":"Feature","properties":{"kind":"piste","difficulty":"intermediate","name":"Steinwandabfahrt","aerialway":null,"osm":"way/132070813"},"geometry":{"type":"LineString","coordinates":[[15.69157,47.51733],[15.69154,47.51741],[15.69121,47.51726],[15.69114,47.51706],[15.69139,47.51555],[15.6921,47.51346],[15.69242,47.51302],[15.69303,47.51233],[15.69456,47.51256],[15.69538,47.51237]]}},{"type":"Feature","properties":{"kind":"piste","difficulty":"intermediate","name":"Hauereckabfahrt","aerialway":null,"osm":"way/132070814"},"geometry":{"type":"LineString","coordinates":[[15.69154,47.51741],[15.69271,47.51745],[15.69305,47.51732],[15.69403,47.51598],[15.69448,47.51391],[15.69538,47.51237],[15.69717,47.51109],[15.69783,47.51014],[15.69815,47.50932],[15.69826,47.50793],[15.69842,47.50764],[15.69818,47.50763]]}}]}