{"type":"FeatureCollection","features":[{"type":"Feature","properties":{"kind":"lift","difficulty":null,"name":"Großes Kar","aerialway":"chair_lift","osm":"way/15943687"},"geometry":{"type":"LineString","coordinates":[[14.91116,47.7217],[14.90626,47.71057]]}},{"type":"Feature","properties":{"kind":"lift","difficulty":null,"name":"Draxlerloch","aerialway":"chair_lift","osm":"way/15943690"},"geometry":{"type":"LineString","coordinates":[[14.91198,47.72181],[14.91228,47.71703]]}},{"type":"Feature","properties":{"kind":"lift","difficulty":null,"name":"Hochkarbahn","aerialway":"chair_lift","osm":"way/15943691"},"geometry":{"type":"LineString","coordinates":[[14.91838,47.7185],[14.90954,47.71086]]}},{"type":"Feature","properties":{"kind":"lift","difficulty":null,"name":"Häsing","aerialway":"chair_lift","osm":"way/15943692"},"geometry":{"type":"LineString","coordinates":[[14.91895,47.71859],[14.92366,47.71126]]}},{"type":"Feature","properties":{"kind":"lift","difficulty":null,"name":"Almlift","aerialway":"chair_lift","osm":"way/15943694"},"geometry":{"type":"LineString","coordinates":[[14.91906,47.71871],[14.92468,47.71625]]}},{"type":"Feature","properties":{"kind":"lift","difficulty":null,"name":"Leckerplan","aerialway":"chair_lift","osm":"way/15943696"},"geometry":{"type":"LineString","coordinates":[[14.91752,47.72215],[14.92937,47.7192]]}},{"type":"Feature","properties":{"kind":"lift","difficulty":null,"name":"Sonnenlift","aerialway":"t-bar","osm":"way/15943697"},"geometry":{"type":"LineString","coordinates":[[14.92478,47.71553],[14.93002,47.71926]]}},{"type":"Feature","properties":{"kind":"piste","difficulty":"intermediate","name":"Standardabfahrt Stützenhang (unterer Teil)","aerialway":null,"osm":"way/23238872"},"geometry":{"type":"LineString","coordinates":[[14.91587,47.7172],[14.91565,47.71851],[14.91502,47.71894],[14.91474,47.7193],[14.91451,47.72006],[14.91464,47.72156],[14.9143,47.72191],[14.91335,47.72221],[14.91251,47.72225],[14.91204,47.72219],[14.91116,47.7217]]}},{"type":"Feature","properties":{"kind":"piste","difficulty":"intermediate","name":"Familienabfahrt","aerialway":null,"osm":"way/23238883"},"geometry":{"type":"LineString","coordinates":[[14.91376,47.71353],[14.91589,47.71412],[14.91722,47.71431],[14.91865,47.71469]]}},{"type":"Feature","properties":{"kind":"piste","difficulty":"easy","name":"Familienabfahrt (unterer Teil)","aerialway":null,"osm":"way/23238884"},"geometry":{"type":"LineString","coordinates":[[14.91574,47.71132],[14.91715,47.71213],[14.91805,47.71307],[14.91812,47.71381],[14.91865,47.71469],[14.91957,47.71558],[14.91965,47.71585],[14.91917,47.71715],[14.91906,47.71813],[14.91862,47.71866],[14.91895,47.71859]]}},{"type":"Feature","properties":{"kind":"piste","difficulty":"advanced","name":"Häsing Steilhang","aerialway":null,"osm":"way/23238897"},"geometry":{"type":"LineString","coordinates":[[14.92366,47.71126],[14.92327,47.71131],[14.92347,47.71338],[14.92329,47.71403]]}},{"type":"Feature","properties":{"kind":"piste","difficulty":"easy","name":"Familienabfahrt","aerialway":null,"osm":"way/23238903"},"geometry":{"type":"LineString","coordinates":[[14.90626,47.71057],[14.9065,47.71039],[14.90743,47.71035],[14.9082,47.71049],[14.90939,47.71111]]}},{"type":"Feature","properties":{"kind":"piste","difficulty":"intermediate","name":"Sonnenhang","aerialway":null,"osm":"way/23238922"},"geometry":{"type":"LineString","coordinates":[[14.92938,47.71911],[14.92846,47.71863],[14.92512,47.71633],[14.92448,47.71553]]}},{"type":"Feature","properties":{"kind":"piste","difficulty":"intermediate","name":"Blachlbodenabfahrt","aerialway":null,"osm":"way/23238944"},"geometry":{"type":"LineString","coordinates":[[14.92937,47.7192],[14.93033,47.71964],[14.93044,47.71994],[14.93029,47.72023],[14.92974,47.72064],[14.92657,47.72102],[14.92541,47.72133],[14.924,47.72275],[14.92262,47.72293],[14.92208,47.72285],[14.92187,47.72257],[14.92178,47.72209],[14.92193,47.72162],[14.92172,47.72088],[14.92153,47.72049],[14.92106,47.72003],[14.92074,47.71923]]}},{"type":"Feature","properties":{"kind":"piste","difficulty":"intermediate","name":"Leckerplanabfahrt Schutzhausleitn (oberer Teil)","aerialway":null,"osm":"way/23238952"},"geometry":{"type":"LineString","coordinates":[[14.92074,47.71923],[14.92012,47.71974],[14.91988,47.72081],[14.91958,47.72111],[14.91814,47.72158],[14.91738,47.72208],[14.91752,47.72215]]}},{"type":"Feature","properties":{"kind":"piste","difficulty":"easy","name":"Schiweg","aerialway":null,"osm":"way/28276547"},"geometry":{"type":"LineString","coordinates":[[14.91292,47.71687],[14.9137,47.7168],[14.91543,47.71694],[14.91571,47.71702],[14.916,47.71735],[14.91721,47.71758],[14.91818,47.71742],[14.9186,47.7176],[14.91906,47.71813]]}},{"type":"Feature","properties":{"kind":"piste","difficulty":"easy","name":null,"aerialway":null,"osm":"way/28914549"},"geometry":{"type":"LineString","coordinates":[[14.90954,47.71086],[14.90883,47.71076]]}},{"type":"Feature","properties":{"kind":"piste","difficulty":"easy","name":"Almhang (Flutlicht)","aerialway":null,"osm":"way/28914629"},"geometry":{"type":"LineString","coordinates":[[14.92512,47.71633],[14.92477,47.71667],[14.92022,47.71855]]}},{"type":"Feature","properties":{"kind":"piste","difficulty":"intermediate","name":null,"aerialway":null,"osm":"way/28914706"},"geometry":{"type":"LineString","coordinates":[[14.92657,47.72102],[14.92633,47.72182],[14.92592,47.72227],[14.924,47.72275]]}},{"type":"Feature","properties":{"kind":"piste","difficulty":"advanced","name":"Thomas Sykora Hang","aerialway":null,"osm":"way/28914733"},"geometry":{"type":"LineString","coordinates":[[14.92118,47.72324],[14.92034,47.72291],[14.91935,47.72221],[14.91768,47.7219]]}},{"type":"Feature","properties":{"kind":"piste","difficulty":"intermediate","name":"Draxlerloch Rennpiste","aerialway":null,"osm":"way/47719131"},"geometry":{"type":"LineString","coordinates":[[14.91228,47.71703],[14.91187,47.7167],[14.91123,47.71661],[14.91071,47.71671],[14.91021,47.71725],[14.91011,47.71772],[14.91058,47.71977],[14.91159,47.7216]]}},{"type":"Feature","properties":{"kind":"piste","difficulty":"intermediate","name":"Draxlerloch Abfahrt","aerialway":null,"osm":"way/47719144"},"geometry":{"type":"LineString","coordinates":[[14.91228,47.71703],[14.91292,47.71687],[14.91338,47.71692],[14.91421,47.7173],[14.91456,47.71758],[14.91464,47.7182],[14.91452,47.71876],[14.91428,47.71904],[14.91327,47.71951],[14.91253,47.71964],[14.91191,47.71993],[14.91162,47.72173]]}},{"type":"Feature","properties":{"kind":"piste","difficulty":"advanced","name":"Draxlerloch Steilhang","aerialway":null,"osm":"way/47720481"},"geometry":{"type":"LineString","coordinates":[[14.91228,47.71703],[14.91109,47.71773],[14.9109,47.71839],[14.91044,47.71904]]}},{"type":"Feature","properties":{"kind":"piste","difficulty":"intermediate","name":"Häsing (oberer Teil)","aerialway":null,"osm":"way/47723144"},"geometry":{"type":"LineString","coordinates":[[14.92366,47.71126],[14.9256,47.71113],[14.92611,47.71122],[14.92697,47.71189],[14.92722,47.71249],[14.92718,47.7132],[14.92642,47.71429],[14.92556,47.71506],[14.92448,47.71553]]}},{"type":"Feature","properties":{"kind":"piste","difficulty":"easy","name":"Skiweg Luderweg","aerialway":null,"osm":"way/47723148"},"geometry":{"type":"LineString","coordinates":[[14.91574,47.71132],[14.91618,47.71127],[14.9181,47.71185],[14.91978,47.71275],[14.92084,47.71304],[14.92329,47.71403]]}},{"type":"Feature","properties":{"kind":"piste","difficulty":"easy","name":"Almhang (Flutlicht)","aerialway":null,"osm":"way/47723982"},"geometry":{"type":"LineString","coordinates":[[14.92022,47.71855],[14.91922,47.7189],[14.91875,47.71881],[14.91838,47.7185]]}},{"type":"Feature","properties":{"kind":"piste","difficulty":"intermediate","name":"Leckerplanabfahrt Schutzhausleitn (oberer Teil)","aerialway":null,"osm":"way/47727120"},"geometry":{"type":"LineString","coordinates":[[14.92938,47.71911],[14.92777,47.71908],[14.92651,47.71927],[14.92576,47.71925],[14.925,47.7191],[14.92355,47.71849],[14.92258,47.71823],[14.92224,47.71824],[14.92094,47.71869],[14.92074,47.71887],[14.92074,47.71923]]}},{"type":"Feature","properties":{"kind":"piste","difficulty":"easy","name":"Leckerplanabfahrt (unterer Teil)","aerialway":null,"osm":"way/135169679"},"geometry":{"type":"LineString","coordinates":[[14.91414,47.72315],[14.9138,47.72311]]}},{"type":"Feature","properties":{"kind":"piste","difficulty":"intermediate","name":"Leckerplanabfahrt (unterer Teil)","aerialway":null,"osm":"way/135169681"},"geometry":{"type":"LineString","coordinates":[[14.9138,47.72311],[14.9133,47.72299],[14.91204,47.72219]]}},{"type":"Feature","properties":{"kind":"piste","difficulty":"intermediate","name":"Draxlerloch Abfahrt","aerialway":null,"osm":"way/135169684"},"geometry":{"type":"LineString","coordinates":[[14.91162,47.72173],[14.9116,47.72199],[14.91198,47.72181]]}},{"type":"Feature","properties":{"kind":"piste","difficulty":"easy","name":"Skiweg Luderweg","aerialway":null,"osm":"way/135169688"},"geometry":{"type":"LineString","coordinates":[[14.92329,47.71403],[14.92446,47.71483],[14.92466,47.7152],[14.92448,47.71553]]}},{"type":"Feature","properties":{"kind":"piste","difficulty":"easy","name":"Häsing Autobahn","aerialway":null,"osm":"way/135169689"},"geometry":{"type":"LineString","coordinates":[[14.92329,47.71403],[14.92032,47.71721],[14.91906,47.71813]]}},{"type":"Feature","properties":{"kind":"piste","difficulty":"intermediate","name":"Carvingstrecke","aerialway":null,"osm":"way/135169693"},"geometry":{"type":"LineString","coordinates":[[14.92938,47.71911],[14.92955,47.71824],[14.92948,47.71775],[14.92925,47.7172],[14.92874,47.71673],[14.92562,47.71551],[14.92498,47.71544],[14.92448,47.71553],[14.92487,47.71559]]}},{"type":"Feature","properties":{"kind":"lift","difficulty":null,"name":"Übungslift Zagerlboden","aerialway":"magic_carpet","osm":"way/135169694"},"geometry":{"type":"LineString","coordinates":[[14.91731,47.72129],[14.91825,47.72074]]}},{"type":"Feature","properties":{"kind":"piste","difficulty":"easy","name":"Familienabfahrt","aerialway":null,"osm":"way/135330192"},"geometry":{"type":"LineString","coordinates":[[14.90954,47.71086],[14.9093,47.71094],[14.90939,47.71111],[14.9102,47.7115]]}},{"type":"Feature","properties":{"kind":"piste","difficulty":"advanced","name":"Karabfahrt","aerialway":null,"osm":"way/135330193"},"geometry":{"type":"LineString","coordinates":[[14.90883,47.71076],[14.90806,47.71095],[14.90735,47.71146],[14.90787,47.71247],[14.90775,47.71289],[14.90788,47.71367],[14.90877,47.71464],[14.90942,47.7157],[14.91047,47.71686]]}},{"type":"Feature","properties":{"kind":"piste","difficulty":"easy","name":"Übunghang Zagerlboden","aerialway":null,"osm":"way/135330205"},"geometry":{"type":"LineString","coordinates":[[14.91825,47.72074],[14.91779,47.72074],[14.91684,47.7212],[14.91731,47.72129]]}},{"type":"Feature","properties":{"kind":"lift","difficulty":null,"name":"Zauberteppich","aerialway":"magic_carpet","osm":"way/207559812"},"geometry":{"type":"LineString","coordinates":[[14.91671,47.72104],[14.91714,47.72084]]}},{"type":"Feature","properties":{"kind":"piste","difficulty":"intermediate","name":"Skiabfahrt vom Gipfel Schmalzmauer","aerialway":null,"osm":"way/410951472"},"geometry":{"type":"LineString","coordinates":[[14.94158,47.72584],[14.9413,47.72518],[14.94005,47.72439],[14.93654,47.72385],[14.93585,47.72427]]}},{"type":"Feature","properties":{"kind":"piste","difficulty":"intermediate","name":"Draxlerloch Abfahrt","aerialway":null,"osm":"way/561686115"},"geometry":{"type":"LineString","coordinates":[[14.91327,47.71951],[14.91281,47.71988],[14.91205,47.72109],[14.91159,47.7216]]}},{"type":"Feature","properties":{"kind":"piste","difficulty":"intermediate","name":null,"aerialway":null,"osm":"way/561686116"},"geometry":{"type":"LineString","coordinates":[[14.91382,47.72206],[14.91327,47.72175],[14.91284,47.72126],[14.91205,47.72109]]}},{"type":"Feature","properties":{"kind":"piste","difficulty":"intermediate","name":null,"aerialway":null,"osm":"way/561686117"},"geometry":{"type":"LineString","coordinates":[[14.91587,47.7172],[14.91525,47.71731],[14.91459,47.71784]]}},{"type":"Feature","properties":{"kind":"piste","difficulty":"freeride","name":null,"aerialway":null,"osm":"way/561687863"},"geometry":{"type":"LineString","coordinates":[[14.90613,47.71136],[14.90565,47.71401],[14.90592,47.71466],[14.90687,47.71559],[14.90715,47.71661],[14.90974,47.71621],[14.90931,47.71577],[14.9087,47.71473],[14.90802,47.71408],[14.90751,47.71335],[14.90771,47.71237],[14.90717,47.71162],[14.90718,47.71131],[14.9074,47.71104],[14.9063,47.71114],[14.90613,47.71136]]}},{"type":"Feature","properties":{"kind":"piste","difficulty":"easy","name":"Leckerplanabfahrt (unterer Teil)","aerialway":null,"osm":"way/561687864"},"geometry":{"type":"LineString","coordinates":[[14.91738,47.72208],[14.91695,47.72232],[14.91641,47.72294],[14.91414,47.72315]]}},{"type":"Feature","properties":{"kind":"piste","difficulty":"easy","name":null,"aerialway":null,"osm":"way/561687865"},"geometry":{"type":"LineString","coordinates":[[14.91995,47.72036],[14.91949,47.72055],[14.91825,47.72074]]}},{"type":"Feature","properties":{"kind":"piste","difficulty":"advanced","name":"Draxlerloch Steilhang","aerialway":null,"osm":"way/561690643"},"geometry":{"type":"LineString","coordinates":[[14.91206,47.71695],[14.91211,47.7172],[14.91123,47.71787],[14.91086,47.71881],[14.91066,47.71849],[14.91089,47.71774],[14.91109,47.71746],[14.91206,47.71695]]}},{"type":"Feature","properties":{"kind":"piste","difficulty":"intermediate","name":"Draxlerloch Rennpiste","aerialway":null,"osm":"way/561690644"},"geometry":{"type":"LineString","coordinates":[[14.91229,47.71688],[14.91192,47.71656],[14.91074,47.71649],[14.9102,47.71694],[14.90989,47.71773],[14.90989,47.71795],[14.91004,47.7181],[14.91015,47.71953],[14.91043,47.72026],[14.91139,47.72159],[14.91166,47.72146],[14.91139,47.72055],[14.91097,47.72002],[14.91091,47.71888],[14.9104,47.71794],[14.91041,47.71754],[14.91074,47.7169],[14.91126,47.7168],[14.91206,47.71695],[14.91229,47.71688]]}},{"type":"Feature","properties":{"kind":"piste","difficulty":"advanced","name":"Karabfahrt","aerialway":null,"osm":"way/561690645"},"geometry":{"type":"LineString","coordinates":[[14.90807,47.7105],[14.90883,47.71097],[14.90774,47.71139],[14.90763,47.71164],[14.908,47.71246],[14.90803,47.71353],[14.90893,47.71466],[14.9095,47.71568],[14.91052,47.71665],[14.91033,47.71681],[14.90931,47.71577],[14.9089,47.71499],[14.90802,47.71408],[14.90751,47.71335],[14.90771,47.71237],[14.90717,47.71162],[14.90718,47.71131],[14.9074,47.71104],[14.90789,47.71081],[14.90807,47.7105]]}},{"type":"Feature","properties":{"kind":"piste","difficulty":"easy","name":"Familienabfahrt (unterer Teil)","aerialway":null,"osm":"way/563864852"},"geometry":{"type":"LineString","coordinates":[[14.91587,47.71124],[14.91629,47.71158],[14.91788,47.7121],[14.918,47.71228],[14.91798,47.71259],[14.91823,47.71296],[14.91821,47.71375],[14.91975,47.71564],[14.91979,47.71656],[14.91917,47.71784],[14.91895,47.71782],[14.91886,47.71715],[14.9194,47.71623],[14.91952,47.7158],[14.91815,47.71425],[14.91793,47.71392],[14.91785,47.71325],[14.91727,47.71243],[14.91671,47.71199],[14.91557,47.71151],[14.91587,47.71124]]}},{"type":"Feature","properties":{"kind":"piste","difficulty":"intermediate","name":"Standardabfahrt","aerialway":null,"osm":"way/563864854"},"geometry":{"type":"LineString","coordinates":[[14.91057,47.7117],[14.91069,47.71157],[14.91319,47.71233],[14.91398,47.71337],[14.91399,47.71406],[14.91409,47.71416],[14.91503,47.71463],[14.91734,47.71521],[14.91774,47.71554],[14.91756,47.71607],[14.91703,47.71635],[14.9162,47.71706],[14.91613,47.71726],[14.91576,47.71695],[14.91654,47.71613],[14.91715,47.71591],[14.91728,47.71578],[14.91722,47.71553],[14.91683,47.71535],[14.91505,47.71511],[14.91393,47.71435],[14.91358,47.71382],[14.91347,47.71327],[14.91305,47.71245],[14.91057,47.7117]]}},{"type":"Feature","properties":{"kind":"piste","difficulty":"intermediate","name":"Standardabfahrt Stützenhang (unterer Teil)","aerialway":null,"osm":"way/563864855"},"geometry":{"type":"LineString","coordinates":[[14.9162,47.71753],[14.91601,47.71777],[14.91652,47.71751],[14.91612,47.71779],[14.91575,47.7186],[14.9152,47.7189],[14.91486,47.71942],[14.91466,47.72015],[14.91476,47.72137],[14.91456,47.72188],[14.91349,47.72229],[14.91274,47.72238],[14.91202,47.72231],[14.9116,47.72212],[14.91188,47.72201],[14.9122,47.72214],[14.91324,47.72217],[14.91441,47.72166],[14.91452,47.72155],[14.91451,47.72126],[14.91411,47.72021],[14.9144,47.71999],[14.91483,47.71883],[14.91544,47.71846],[14.91572,47.71736],[14.9162,47.71753]]}},{"type":"Feature","properties":{"kind":"piste","difficulty":"intermediate","name":"Draxlerloch Abfahrt","aerialway":null,"osm":"way/563864856"},"geometry":{"type":"LineString","coordinates":[[14.91159,47.72042],[14.91165,47.72012],[14.9115,47.71988],[14.91093,47.7195],[14.91092,47.71904],[14.91167,47.71975],[14.91303,47.71945],[14.91268,47.71975],[14.91217,47.71989],[14.9119,47.721],[14.91166,47.72146],[14.91139,47.72055],[14.91159,47.72042]]}},{"type":"Feature","properties":{"kind":"piste","difficulty":"intermediate","name":null,"aerialway":null,"osm":"way/563864857"},"geometry":{"type":"LineString","coordinates":[[14.91303,47.71945],[14.91425,47.71892],[14.91444,47.71851],[14.91437,47.7179],[14.91427,47.71757],[14.91371,47.71717],[14.91296,47.71696],[14.91241,47.71712],[14.91229,47.71688],[14.91312,47.71671],[14.91406,47.71705],[14.91476,47.7175],[14.9155,47.71707],[14.91563,47.71713],[14.9157,47.7173],[14.91525,47.71736],[14.91497,47.71761],[14.91526,47.7186],[14.91483,47.71883],[14.9147,47.71867],[14.91442,47.71909],[14.91338,47.71956],[14.91289,47.72],[14.91228,47.72129],[14.91194,47.72157],[14.91166,47.72146],[14.91237,47.72011],[14.91303,47.71945]]}},{"type":"Feature","properties":{"kind":"piste","difficulty":"advanced","name":"Thomas Sykora Hang","aerialway":null,"osm":"way/563919221"},"geometry":{"type":"LineString","coordinates":[[14.92115,47.72344],[14.92005,47.7231],[14.91873,47.72212],[14.91768,47.72196],[14.91784,47.72184],[14.91848,47.72188],[14.91956,47.72208],[14.92135,47.72307],[14.92115,47.72344]]}},{"type":"Feature","properties":{"kind":"piste","difficulty":"intermediate","name":"Blachlbodenabfahrt","aerialway":null,"osm":"way/563919222"},"geometry":{"type":"LineString","coordinates":[[14.92956,47.71944],[14.92981,47.71916],[14.93028,47.71929],[14.93065,47.71963],[14.93065,47.72013],[14.93006,47.72062],[14.92968,47.72072],[14.9296,47.72062],[14.93012,47.72028],[14.9302,47.71981],[14.93004,47.71962],[14.92956,47.71944]]}},{"type":"Feature","properties":{"kind":"piste","difficulty":"intermediate","name":"Leckerplanabfahrt","aerialway":null,"osm":"way/563919223"},"geometry":{"type":"LineString","coordinates":[[14.92063,47.71925],[14.92063,47.71885],[14.92018,47.71866],[14.92049,47.71855],[14.92074,47.71865],[14.92261,47.71815],[14.92412,47.71846],[14.9259,47.71921],[14.92857,47.7189],[14.92884,47.71904],[14.92613,47.71939],[14.92436,47.71913],[14.92336,47.71869],[14.92232,47.71843],[14.9212,47.71871],[14.92092,47.71885],[14.92082,47.71916],[14.92063,47.71925]]}},{"type":"Feature","properties":{"kind":"piste","difficulty":"easy","name":"Almhang (Flutlicht)","aerialway":null,"osm":"way/563919224"},"geometry":{"type":"LineString","coordinates":[[14.92488,47.71695],[14.92531,47.71673],[14.925,47.71637],[14.92404,47.71666],[14.91976,47.71859],[14.91866,47.71892],[14.91875,47.7191],[14.91911,47.71916],[14.92031,47.71861],[14.92488,47.71695]]}},{"type":"Feature","properties":{"kind":"piste","difficulty":"intermediate","name":"Sonnenhang","aerialway":null,"osm":"way/563919225"},"geometry":{"type":"LineString","coordinates":[[14.92884,47.71904],[14.9279,47.71856],[14.92531,47.71673],[14.92442,47.71567],[14.92459,47.71559],[14.92915,47.71888],[14.92884,47.71904]]}},{"type":"Feature","properties":{"kind":"piste","difficulty":"easy","name":"Häsing Autobahn","aerialway":null,"osm":"way/563919228"},"geometry":{"type":"LineString","coordinates":[[14.92325,47.71472],[14.91944,47.71806],[14.92012,47.71694],[14.92176,47.71545],[14.92245,47.71445],[14.92285,47.71409],[14.92289,47.71382],[14.92383,47.71414],[14.92325,47.71472]]}},{"type":"Feature","properties":{"kind":"piste","difficulty":"advanced","name":"Häsing Steilhang","aerialway":null,"osm":"way/563919229"},"geometry":{"type":"LineString","coordinates":[[14.92288,47.71141],[14.92289,47.71382],[14.92383,47.71414],[14.92381,47.71328],[14.9235,47.71167],[14.92326,47.71137],[14.92288,47.71141]]}},{"type":"Feature","properties":{"kind":"piste","difficulty":"intermediate","name":"Leckerplanabfahrt","aerialway":null,"osm":"way/564223767"},"geometry":{"type":"LineString","coordinates":[[14.92074,47.71887],[14.92022,47.71855]]}},{"type":"Feature","properties":{"kind":"piste","difficulty":"intermediate","name":"Blachlbodenabfahrt","aerialway":null,"osm":"way/564223768"},"geometry":{"type":"LineString","coordinates":[[14.92073,47.71928],[14.92034,47.71974],[14.92,47.721],[14.91816,47.7216],[14.91768,47.72196],[14.91736,47.72201],[14.91818,47.72148],[14.91966,47.72087],[14.91996,47.71971],[14.92073,47.71928]]}},{"type":"Feature","properties":{"kind":"piste","difficulty":"easy","name":"Almhang (Flutlicht)","aerialway":null,"osm":"way/1074610503"},"geometry":{"type":"LineString","coordinates":[[14.91922,47.7189],[14.91899,47.71886],[14.91906,47.71871]]}},{"type":"Feature","properties":{"kind":"piste","difficulty":"unknown","name":null,"aerialway":null,"osm":"way/1125691510"},"geometry":{"type":"LineString","coordinates":[[14.91855,47.72068],[14.91757,47.72125],[14.9177,47.72142],[14.91819,47.72144],[14.91814,47.72158]]}},{"type":"Feature","properties":{"kind":"piste","difficulty":"intermediate","name":"Blachlbodenabfahrt","aerialway":null,"osm":"way/1150077243"},"geometry":{"type":"LineString","coordinates":[[14.92937,47.7192],[14.92938,47.71911]]}},{"type":"Feature","properties":{"kind":"piste","difficulty":"intermediate","name":"Leckerplanabfahrt","aerialway":null,"osm":"way/1282102891"},"geometry":{"type":"LineString","coordinates":[[14.92696,47.71918],[14.92596,47.71891],[14.92539,47.71855],[14.92385,47.71706]]}},{"type":"Feature","properties":{"kind":"piste","difficulty":"intermediate","name":null,"aerialway":null,"osm":"way/1339008375"},"geometry":{"type":"LineString","coordinates":[[14.91753,47.71559],[14.91776,47.71545],[14.91823,47.71543],[14.91887,47.7149]]}},{"type":"Feature","properties":{"kind":"piste","difficulty":"easy","name":"Schiweg","aerialway":null,"osm":"way/1340964798"},"geometry":{"type":"LineString","coordinates":[[14.92366,47.71126],[14.92162,47.71149],[14.91706,47.71113],[14.91574,47.71132]]}},{"type":"Feature","properties":{"kind":"piste","difficulty":"intermediate","name":null,"aerialway":null,"osm":"way/1344800752"},"geometry":{"type":"LineString","coordinates":[[14.92955,47.71824],[14.92998,47.7174],[14.92994,47.717],[14.92937,47.71635],[14.92843,47.71563],[14.92809,47.7151],[14.92642,47.71429]]}},{"type":"Feature","properties":{"kind":"piste","difficulty":"intermediate","name":null,"aerialway":null,"osm":"way/1344800753"},"geometry":{"type":"LineString","coordinates":[[14.92937,47.7192],[14.92938,47.71938],[14.92701,47.71987],[14.92572,47.71988],[14.92494,47.72027],[14.92436,47.72026],[14.92406,47.72001],[14.92422,47.7188]]}},{"type":"Feature","properties":{"kind":"piste","difficulty":"intermediate","name":null,"aerialway":null,"osm":"way/1344800754"},"geometry":{"type":"LineString","coordinates":[[14.92534,47.72012],[14.92677,47.7206],[14.92684,47.72079],[14.92657,47.72102]]}},{"type":"Feature","properties":{"kind":"piste","difficulty":"freeride","name":null,"aerialway":null,"osm":"way/1344800755"},"geometry":{"type":"LineString","coordinates":[[14.92555,47.71087],[14.92671,47.71073],[14.92713,47.71079],[14.92813,47.71123],[14.92899,47.71209],[14.92906,47.71242],[14.92895,47.71275],[14.92856,47.71327],[14.92782,47.71373],[14.927,47.71384],[14.92755,47.71281],[14.9275,47.71231],[14.92698,47.71157],[14.9262,47.71089],[14.92555,47.71087]]}},{"type":"Feature","properties":{"kind":"piste","difficulty":"intermediate","name":null,"aerialway":null,"osm":"way/1345414963"},"geometry":{"type":"LineString","coordinates":[[14.92309,47.72292],[14.92175,47.72329],[14.92118,47.72324]]}},{"type":"Feature","properties":{"kind":"piste","difficulty":"intermediate","name":null,"aerialway":null,"osm":"way/1345414964"},"geometry":{"type":"LineString","coordinates":[[14.924,47.72275],[14.9244,47.72351],[14.92421,47.72388],[14.92401,47.72395],[14.92255,47.72379],[14.92133,47.7233]]}},{"type":"Feature","properties":{"kind":"piste","difficulty":"freeride","name":null,"aerialway":null,"osm":"way/1345414965"},"geometry":{"type":"LineString","coordinates":[[14.91949,47.71712],[14.92012,47.71694],[14.92081,47.71626],[14.92128,47.71598],[14.92285,47.71409],[14.92295,47.71335],[14.92288,47.71141],[14.9221,47.71146],[14.92157,47.71203],[14.92161,47.71311],[14.92107,47.71473],[14.91977,47.71618],[14.91979,47.71656],[14.91949,47.71712]]}},{"type":"Feature","properties":{"kind":"piste","difficulty":"freeride","name":null,"aerialway":null,"osm":"way/1345414966"},"geometry":{"type":"LineString","coordinates":[[14.90997,47.71743],[14.90955,47.71771],[14.90915,47.71841],[14.90899,47.71896],[14.90918,47.71978],[14.90985,47.72057],[14.91094,47.72083],[14.91043,47.72026],[14.91015,47.71953],[14.91004,47.7181],[14.90989,47.71795],[14.90997,47.71743]]}},{"type":"Feature","properties":{"kind":"piste","difficulty":"intermediate","name":"Leckerplanabfahrt","aerialway":null,"osm":"way/1347541209"},"geometry":{"type":"LineString","coordinates":[[14.92724,47.71898],[14.92712,47.71886],[14.92648,47.71875],[14.92613,47.7188],[14.92524,47.71812],[14.92433,47.71717],[14.92401,47.71729],[14.92423,47.71783],[14.92466,47.71799],[14.92586,47.71904],[14.92652,47.71919],[14.9273,47.71906],[14.92724,47.71898]]}},{"type":"Feature","properties":{"kind":"piste","difficulty":"easy","name":null,"aerialway":null,"osm":"way/1347541210"},"geometry":{"type":"LineString","coordinates":[[14.91683,47.72244],[14.91555,47.72252]]}},{"type":"Feature","properties":{"kind":"piste","difficulty":"intermediate","name":"Häsing (unterer Teil)","aerialway":null,"osm":"way/1347541211"},"geometry":{"type":"LineString","coordinates":[[14.92473,47.71552],[14.92266,47.71647],[14.92121,47.71651],[14.92156,47.71622],[14.9222,47.71619],[14.92456,47.71526],[14.92473,47.71552]]}},{"type":"Feature","properties":{"kind":"piste","difficulty":"intermediate","name":"Häsing (unterer Teil)","aerialway":null,"osm":"way/1347541212"},"geometry":{"type":"LineString","coordinates":[[14.92448,47.71553],[14.92241,47.71629],[14.92164,47.71632],[14.92098,47.71655]]}},{"type":"Feature","properties":{"kind":"piste","difficulty":"easy","name":"Skiweg Fredl","aerialway":null,"osm":"way/1347541213"},"geometry":{"type":"LineString","coordinates":[[14.92418,47.71564],[14.92269,47.7152],[14.91988,47.71633],[14.91943,47.71635],[14.91735,47.71723],[14.91673,47.71736],[14.91582,47.71798]]}},{"type":"Feature","properties":{"kind":"piste","difficulty":"easy","name":null,"aerialway":null,"osm":"way/1347541214"},"geometry":{"type":"LineString","coordinates":[[14.92383,47.71414],[14.92513,47.71509],[14.92456,47.71526],[14.92415,47.71487],[14.92325,47.71472],[14.92383,47.71414]]}},{"type":"Feature","properties":{"kind":"piste","difficulty":"intermediate","name":null,"aerialway":null,"osm":"way/1347541215"},"geometry":{"type":"LineString","coordinates":[[14.91835,47.71501],[14.91833,47.71489],[14.91857,47.71478],[14.91879,47.71507],[14.91844,47.71547],[14.91774,47.71554],[14.91759,47.71537],[14.91817,47.71538],[14.91835,47.71501]]}},{"type":"Feature","properties":{"kind":"piste","difficulty":"easy","name":"Familienabfahrt (oberer Teil)","aerialway":null,"osm":"way/1347541216"},"geometry":{"type":"LineString","coordinates":[[14.91557,47.71151],[14.91448,47.71112],[14.91243,47.71093],[14.91215,47.71096],[14.91163,47.7113],[14.91089,47.71142],[14.91057,47.7117],[14.90973,47.71153],[14.90807,47.7105],[14.90643,47.7105],[14.90636,47.71038],[14.90739,47.71031],[14.90933,47.71072],[14.90939,47.711],[14.91023,47.71146],[14.91207,47.71078],[14.91295,47.71074],[14.91361,47.71091],[14.91485,47.71091],[14.91587,47.71124],[14.91557,47.71151]]}},{"type":"Feature","properties":{"kind":"piste","difficulty":"easy","name":"Familienabfahrt (oberer Teil)","aerialway":null,"osm":"way/1347541217"},"geometry":{"type":"LineString","coordinates":[[14.9102,47.7115],[14.91256,47.71081],[14.91366,47.711],[14.9143,47.71094],[14.91574,47.71132]]}},{"type":"Feature","properties":{"kind":"piste","difficulty":"intermediate","name":"Standardabfahrt Stützenhang (oberer Teil)","aerialway":null,"osm":"way/1347541219"},"geometry":{"type":"LineString","coordinates":[[14.9102,47.7115],[14.9131,47.7124],[14.91376,47.71353],[14.91389,47.71411],[14.9143,47.7145],[14.91577,47.71511],[14.91713,47.71531],[14.91749,47.7155],[14.91738,47.71592],[14.91675,47.71627],[14.91587,47.7172]]}},{"type":"Feature","properties":{"kind":"piste","difficulty":"intermediate","name":"Familienabfahrt","aerialway":null,"osm":"way/1347541220"},"geometry":{"type":"LineString","coordinates":[[14.91851,47.71481],[14.91807,47.71488],[14.91781,47.71462],[14.91566,47.71421],[14.91498,47.71392],[14.91398,47.71371],[14.91398,47.71337],[14.91597,47.71399],[14.91815,47.71425],[14.91851,47.71481]]}},{"type":"Feature","properties":{"kind":"piste","difficulty":"freeride","name":"Skiabfahrt Heuwies","aerialway":null,"osm":"way/1361952381"},"geometry":{"type":"LineString","coordinates":[[14.93829,47.72995],[14.9377,47.7299],[14.93718,47.73012],[14.93706,47.73055],[14.93604,47.73057],[14.9346,47.73114],[14.93403,47.73149],[14.93344,47.73219],[14.93288,47.73383],[14.93267,47.73713]]}},{"type":"Feature","properties":{"kind":"piste","difficulty":"freeride","name":"Skiabfahrt Heuwies","aerialway":null,"osm":"way/1361952382"},"geometry":{"type":"LineString","coordinates":[[14.93829,47.72995],[14.93886,47.72998],[14.93902,47.73036],[14.93854,47.73311],[14.93733,47.73623],[14.93642,47.73751]]}},{"type":"Feature","properties":{"kind":"piste","difficulty":"novice","name":"Übungshang","aerialway":null,"osm":"way/1370312443"},"geometry":{"type":"LineString","coordinates":[[14.91779,47.72074],[14.91708,47.72075],[14.9166,47.72094],[14.91671,47.72104]]}},{"type":"Feature","properties":{"kind":"piste","difficulty":"unknown","name":null,"aerialway":null,"osm":"way/1370312444"},"geometry":{"type":"LineString","coordinates":[[14.91684,47.7212],[14.91671,47.72104]]}},{"type":"Feature","properties":{"kind":"piste","difficulty":"unknown","name":"Parkplatzzufahrt","aerialway":null,"osm":"way/1370312445"},"geometry":{"type":"LineString","coordinates":[[14.91451,47.72019],[14.91561,47.72058]]}},{"type":"Feature","properties":{"kind":"piste","difficulty":"novice","name":"Kinderland Hochkar","aerialway":null,"osm":"way/1370312446"},"geometry":{"type":"LineString","coordinates":[[14.91643,47.72083],[14.91683,47.7213],[14.91732,47.72134],[14.91832,47.72077],[14.91825,47.72064],[14.91702,47.72065],[14.91643,47.72083]]}},{"type":"Feature","properties":{"kind":"piste","difficulty":"intermediate","name":"Häsing (oberer Teil)","aerialway":null,"osm":"relation/8051978"},"geometry":{"type":"MultiLineString","coordinates":[[[14.92456,47.71526],[14.92552,47.71497],[14.92596,47.71456],[14.92689,47.7133],[14.92664,47.71246],[14.926,47.71151],[14.92569,47.71136],[14.92397,47.71132],[14.92397,47.71115],[14.92555,47.71087],[14.9262,47.71089],[14.92698,47.71157],[14.9275,47.71231],[14.92755,47.71281],[14.92691,47.71398],[14.9262,47.71477],[14.92473,47.71552],[14.92456,47.71526]],[[14.92692,47.71273],[14.9268,47.71225],[14.92689,47.71219],[14.92701,47.71265],[14.92692,47.71273]]]}}]}