{"type":"FeatureCollection","features":[{"type":"Feature","properties":{"kind":"lift","difficulty":null,"name":"Gipfelbahn Hochwurzen","aerialway":"gondola","osm":"way/39782705"},"geometry":{"type":"LineString","coordinates":[[13.654,47.37611],[13.63936,47.36037]]}},{"type":"Feature","properties":{"kind":"lift","difficulty":null,"name":"Hochwurzen 2","aerialway":"chair_lift","osm":"way/51510455"},"geometry":{"type":"LineString","coordinates":[[13.63205,47.37547],[13.63903,47.3601]]}},{"type":"Feature","properties":{"kind":"lift","difficulty":null,"name":"Hochwurzen 1","aerialway":"gondola","osm":"way/51566461"},"geometry":{"type":"LineString","coordinates":[[13.61289,47.38586],[13.63266,47.37537]]}},{"type":"Feature","properties":{"kind":"lift","difficulty":null,"name":"Rohrmoos I","aerialway":"gondola","osm":"way/51735905"},"geometry":{"type":"LineString","coordinates":[[13.67727,47.39005],[13.6666,47.38489]]}},{"type":"Feature","properties":{"kind":"piste","difficulty":"intermediate","name":"FIS Abfahrt","aerialway":null,"osm":"way/82261474"},"geometry":{"type":"LineString","coordinates":[[13.63903,47.3601],[13.63932,47.3602],[13.63879,47.36037],[13.63802,47.36107],[13.63716,47.3622],[13.63636,47.3645],[13.63547,47.36554],[13.6352,47.36677],[13.63482,47.36713],[13.63291,47.36795],[13.6326,47.36837],[13.63262,47.3686],[13.63337,47.36941],[13.63401,47.36985],[13.63518,47.37025],[13.63757,47.372],[13.63787,47.37235],[13.63793,47.37267],[13.63783,47.3729],[13.63644,47.37411],[13.63594,47.37469],[13.63562,47.3754],[13.63353,47.37548],[13.63257,47.37572],[13.63195,47.3757],[13.63205,47.37547]]}},{"type":"Feature","properties":{"kind":"piste","difficulty":"intermediate","name":"Ostabfahrt","aerialway":null,"osm":"way/91414482"},"geometry":{"type":"LineString","coordinates":[[13.63936,47.36037],[13.63932,47.3602],[13.63964,47.36036],[13.64063,47.36027],[13.64155,47.3604],[13.64199,47.36078],[13.64229,47.36136],[13.64218,47.36163],[13.6411,47.36187],[13.64091,47.36215],[13.64099,47.36278],[13.63963,47.36561],[13.63956,47.36584],[13.63973,47.36605],[13.64101,47.36665],[13.6421,47.36667],[13.6427,47.36682],[13.64397,47.36768],[13.64586,47.36805],[13.64706,47.36809],[13.64865,47.37098],[13.64924,47.37162],[13.65083,47.37257],[13.65191,47.37377],[13.65345,47.37618]]}},{"type":"Feature","properties":{"kind":"piste","difficulty":"easy","name":"Verbindungsabfahrt","aerialway":null,"osm":"way/91414498"},"geometry":{"type":"LineString","coordinates":[[13.6449,47.37025],[13.64419,47.37103],[13.64205,47.37254],[13.64113,47.37338],[13.63878,47.37433],[13.63706,47.37524],[13.63562,47.3754]]}},{"type":"Feature","properties":{"kind":"piste","difficulty":"easy","name":"Primpsabfahrt","aerialway":null,"osm":"way/91414545"},"geometry":{"type":"LineString","coordinates":[[13.63266,47.37537],[13.63347,47.37575],[13.63505,47.37596],[13.63741,47.37648],[13.63922,47.37713],[13.64006,47.37715],[13.64374,47.37678],[13.64662,47.37698],[13.65131,47.3767],[13.6519,47.37654]]}},{"type":"Feature","properties":{"kind":"lift","difficulty":null,"name":"Schütterlift","aerialway":"platter","osm":"way/91414566"},"geometry":{"type":"LineString","coordinates":[[13.67447,47.38523],[13.66974,47.38379]]}},{"type":"Feature","properties":{"kind":"piste","difficulty":"intermediate","name":"FIS Abfahrt","aerialway":null,"osm":"way/91414568"},"geometry":{"type":"LineString","coordinates":[[13.63536,47.3663],[13.63589,47.36653],[13.63632,47.36648],[13.63828,47.36586],[13.63973,47.36605]]}},{"type":"Feature","properties":{"kind":"lift","difficulty":null,"name":"Rohrmoos II","aerialway":"chair_lift","osm":"way/91414574"},"geometry":{"type":"LineString","coordinates":[[13.66514,47.38542],[13.65184,47.37637]]}},{"type":"Feature","properties":{"kind":"piste","difficulty":"easy","name":"Rohrmooser Plateau","aerialway":null,"osm":"way/91486803"},"geometry":{"type":"LineString","coordinates":[[13.65291,47.37729],[13.65225,47.37836],[13.65249,47.37895],[13.65809,47.3804],[13.65874,47.38161],[13.65925,47.38184],[13.66175,47.38208],[13.66429,47.38299],[13.66629,47.38451],[13.66627,47.38518],[13.66514,47.38542]]}},{"type":"Feature","properties":{"kind":"piste","difficulty":"intermediate","name":"Golden Line","aerialway":null,"osm":"way/91486806"},"geometry":{"type":"LineString","coordinates":[[13.66627,47.38518],[13.66654,47.38605],[13.66636,47.38678]]}},{"type":"Feature","properties":{"kind":"piste","difficulty":"easy","name":"Rohrmooser Plateau","aerialway":null,"osm":"way/91486808"},"geometry":{"type":"LineString","coordinates":[[13.65809,47.3804],[13.6593,47.38026],[13.66075,47.38041]]}},{"type":"Feature","properties":{"kind":"piste","difficulty":"easy","name":"Rohrmooser Plateau","aerialway":null,"osm":"way/91486809"},"geometry":{"type":"LineString","coordinates":[[13.66429,47.38299],[13.66553,47.38323],[13.66834,47.38337],[13.66922,47.38383],[13.66971,47.38386],[13.67216,47.38496],[13.67359,47.38532],[13.67447,47.38523]]}},{"type":"Feature","properties":{"kind":"piste","difficulty":"easy","name":null,"aerialway":null,"osm":"way/91486810"},"geometry":{"type":"LineString","coordinates":[[13.6666,47.38489],[13.66689,47.3847],[13.66629,47.38451]]}},{"type":"Feature","properties":{"kind":"lift","difficulty":null,"name":"Hopsilift","aerialway":"platter","osm":"way/91486811"},"geometry":{"type":"LineString","coordinates":[[13.66084,47.38042],[13.65825,47.38039]]}},{"type":"Feature","properties":{"kind":"piste","difficulty":"easy","name":null,"aerialway":null,"osm":"way/91486813"},"geometry":{"type":"LineString","coordinates":[[13.66974,47.38379],[13.66971,47.38386]]}},{"type":"Feature","properties":{"kind":"piste","difficulty":"intermediate","name":null,"aerialway":null,"osm":"way/92335799"},"geometry":{"type":"LineString","coordinates":[[13.64776,47.36768],[13.64746,47.36757],[13.64706,47.36809]]}},{"type":"Feature","properties":{"kind":"lift","difficulty":null,"name":"Obertalbahn","aerialway":"mixed_lift","osm":"way/92335800"},"geometry":{"type":"LineString","coordinates":[[13.66249,47.37544],[13.64776,47.36768]]}},{"type":"Feature","properties":{"kind":"piste","difficulty":"easy","name":"Rohrmooser Weide","aerialway":null,"osm":"way/92335801"},"geometry":{"type":"LineString","coordinates":[[13.65194,47.37623],[13.65226,47.37594],[13.65418,47.37538],[13.6555,47.37574],[13.66138,47.37613],[13.66255,47.37594],[13.66293,47.37565],[13.66266,47.37536]]}},{"type":"Feature","properties":{"kind":"piste","difficulty":"easy","name":"Verbindungsabfahrt","aerialway":null,"osm":"way/147250728"},"geometry":{"type":"LineString","coordinates":[[13.63562,47.3754],[13.6355,47.37565],[13.63557,47.37587],[13.63619,47.37621]]}},{"type":"Feature","properties":{"kind":"piste","difficulty":"easy","name":"Golden Line","aerialway":null,"osm":"way/204981038"},"geometry":{"type":"LineString","coordinates":[[13.66629,47.38451],[13.66689,47.3847],[13.66977,47.38507],[13.66997,47.38549],[13.67,47.38587],[13.66989,47.38605],[13.66912,47.38641],[13.66715,47.38649],[13.66636,47.38678],[13.66612,47.38755],[13.66678,47.38804],[13.66824,47.38846],[13.66924,47.38908],[13.66992,47.38932],[13.6719,47.38945],[13.67385,47.38976],[13.67525,47.38973],[13.67727,47.39005]]}},{"type":"Feature","properties":{"kind":"piste","difficulty":"easy","name":null,"aerialway":null,"osm":"way/220473928"},"geometry":{"type":"LineString","coordinates":[[13.64034,47.35948],[13.64136,47.36036]]}},{"type":"Feature","properties":{"kind":"piste","difficulty":"easy","name":"Rohrmooser Plateau","aerialway":null,"osm":"way/323759070"},"geometry":{"type":"LineString","coordinates":[[13.65874,47.38161],[13.65918,47.38219],[13.66182,47.38441],[13.66314,47.38501],[13.66479,47.38553],[13.66526,47.38552],[13.66565,47.38529]]}},{"type":"Feature","properties":{"kind":"piste","difficulty":"easy","name":null,"aerialway":null,"osm":"way/385256120"},"geometry":{"type":"LineString","coordinates":[[13.65345,47.37618],[13.65306,47.3766]]}},{"type":"Feature","properties":{"kind":"piste","difficulty":"intermediate","name":"Sepp-Walcher-Abfahrt","aerialway":null,"osm":"way/385256121"},"geometry":{"type":"LineString","coordinates":[[13.65048,47.37626],[13.65144,47.37618],[13.65226,47.37594]]}},{"type":"Feature","properties":{"kind":"piste","difficulty":"intermediate","name":"Sepp Walcher Abfahrt","aerialway":null,"osm":"way/385256122"},"geometry":{"type":"LineString","coordinates":[[13.6449,47.37025],[13.64509,47.37119],[13.64568,47.37262],[13.64692,47.3737],[13.6475,47.37465],[13.64779,47.37486],[13.64929,47.3755],[13.65012,47.37593],[13.65048,47.37626],[13.65115,47.37653],[13.6519,47.37654],[13.654,47.37611]]}},{"type":"Feature","properties":{"kind":"piste","difficulty":"intermediate","name":"Obertalabfahrt","aerialway":null,"osm":"way/385256123"},"geometry":{"type":"LineString","coordinates":[[13.64706,47.36809],[13.6481,47.36804],[13.64968,47.36876],[13.65063,47.36944],[13.6517,47.3706],[13.65256,47.37122],[13.65314,47.37192],[13.65368,47.37213],[13.65554,47.37223],[13.65617,47.37241],[13.65742,47.37296],[13.65877,47.37375],[13.66228,47.37507],[13.66263,47.37524],[13.66266,47.37536],[13.66249,47.37544]]}},{"type":"Feature","properties":{"kind":"piste","difficulty":"intermediate","name":"Mittelabfahrt","aerialway":null,"osm":"way/450680024"},"geometry":{"type":"LineString","coordinates":[[13.63868,47.36605],[13.63881,47.36639],[13.63871,47.36658],[13.6381,47.36703],[13.63801,47.36728],[13.63821,47.36888],[13.63814,47.36925],[13.63831,47.36961],[13.63868,47.36988],[13.63894,47.37027],[13.63787,47.37235]]}},{"type":"Feature","properties":{"kind":"piste","difficulty":"intermediate","name":"MIttelabfahrt","aerialway":null,"osm":"way/450680025"},"geometry":{"type":"LineString","coordinates":[[13.6411,47.36187],[13.6395,47.36268],[13.63854,47.36532],[13.63868,47.36605]]}},{"type":"Feature","properties":{"kind":"piste","difficulty":"intermediate","name":"Abfahrt Pichl","aerialway":null,"osm":"way/577860771"},"geometry":{"type":"LineString","coordinates":[[13.62437,47.37872],[13.62444,47.37889]]}},{"type":"Feature","properties":{"kind":"piste","difficulty":"intermediate","name":"Abfahrt Pichl","aerialway":null,"osm":"way/577860772"},"geometry":{"type":"LineString","coordinates":[[13.63195,47.3757],[13.63117,47.37567],[13.63042,47.37649],[13.62749,47.37793],[13.62706,47.37804],[13.62516,47.378],[13.62451,47.37836],[13.62437,47.37872]]}},{"type":"Feature","properties":{"kind":"piste","difficulty":"easy","name":null,"aerialway":null,"osm":"way/847406908"},"geometry":{"type":"LineString","coordinates":[[13.6666,47.38489],[13.66922,47.38383],[13.66971,47.38386]]}},{"type":"Feature","properties":{"kind":"piste","difficulty":"easy","name":"Rohrmooser Plateau","aerialway":null,"osm":"way/1330124352"},"geometry":{"type":"LineString","coordinates":[[13.66869,47.38404],[13.66894,47.38443],[13.66977,47.38507],[13.67092,47.38532],[13.67263,47.38519],[13.67359,47.38532]]}},{"type":"Feature","properties":{"kind":"piste","difficulty":"easy","name":"Verbindungsabfahrt","aerialway":null,"osm":"way/1330124353"},"geometry":{"type":"LineString","coordinates":[[13.64706,47.36809],[13.64672,47.36897],[13.6455,47.36963],[13.6449,47.37025]]}},{"type":"Feature","properties":{"kind":"piste","difficulty":"easy","name":"Rohrmooser Plateau","aerialway":null,"osm":"way/1442980230"},"geometry":{"type":"LineString","coordinates":[[13.65285,47.37717],[13.65291,47.37729]]}},{"type":"Feature","properties":{"kind":"piste","difficulty":"easy","name":"Rohrmooser Plateau","aerialway":null,"osm":"way/1442980231"},"geometry":{"type":"LineString","coordinates":[[13.65184,47.37637],[13.65175,47.37629],[13.65194,47.37623],[13.65306,47.3766],[13.65285,47.37717]]}},{"type":"Feature","properties":{"kind":"piste","difficulty":"advanced","name":"Skiroute 43","aerialway":null,"osm":"way/1483892240"},"geometry":{"type":"LineString","coordinates":[[13.66266,47.37536],[13.66401,47.37558],[13.66478,47.37592],[13.6664,47.37614],[13.66847,47.37548],[13.67022,47.3739],[13.67095,47.3739],[13.67214,47.37359],[13.67272,47.37312],[13.67285,47.37233],[13.67665,47.37357]]}},{"type":"Feature","properties":{"kind":"piste","difficulty":"advanced","name":"Skiroute","aerialway":null,"osm":"way/1483892241"},"geometry":{"type":"LineString","coordinates":[[13.65947,47.37398],[13.66087,47.37228],[13.66059,47.37073],[13.66259,47.36952],[13.663,47.36804],[13.66425,47.36704],[13.66544,47.36446]]}},{"type":"Feature","properties":{"kind":"piste","difficulty":"easy","name":null,"aerialway":null,"osm":"way/1483892242"},"geometry":{"type":"LineString","coordinates":[[13.6666,47.38489],[13.66627,47.38518]]}}]}