{"type":"FeatureCollection","features":[{"type":"Feature","properties":{"kind":"lift","difficulty":null,"name":"Tauernlift","aerialway":"t-bar","osm":"way/81283338"},"geometry":{"type":"LineString","coordinates":[[14.48133,47.43319],[14.47933,47.4267]]}},{"type":"Feature","properties":{"kind":"lift","difficulty":null,"name":"Wirtsalmlift 2","aerialway":"t-bar","osm":"way/81283339"},"geometry":{"type":"LineString","coordinates":[[14.47269,47.42494],[14.47937,47.42096]]}},{"type":"Feature","properties":{"kind":"lift","difficulty":null,"name":"Edelrautelift","aerialway":"t-bar","osm":"way/129010788"},"geometry":{"type":"LineString","coordinates":[[14.46652,47.42629],[14.47086,47.42696]]}},{"type":"Feature","properties":{"kind":"lift","difficulty":null,"name":"Wirtsalmlift 1","aerialway":"t-bar","osm":"way/177645804"},"geometry":{"type":"LineString","coordinates":[[14.46322,47.42519],[14.47277,47.42451]]}},{"type":"Feature","properties":{"kind":"lift","difficulty":null,"name":"Übungslift","aerialway":"platter","osm":"way/177645806"},"geometry":{"type":"LineString","coordinates":[[14.46335,47.42521],[14.4675,47.42494]]}},{"type":"Feature","properties":{"kind":"piste","difficulty":"intermediate","name":"Tauernpiste","aerialway":null,"osm":"way/224094071"},"geometry":{"type":"LineString","coordinates":[[14.47945,47.42709],[14.47925,47.42722],[14.47919,47.42749],[14.47941,47.42922],[14.48011,47.43036],[14.48073,47.43279],[14.48133,47.43319]]}},{"type":"Feature","properties":{"kind":"piste","difficulty":"advanced","name":"Buckelpiste","aerialway":null,"osm":"way/224095956"},"geometry":{"type":"LineString","coordinates":[[14.47743,47.42365],[14.47555,47.42412],[14.47466,47.42494],[14.47288,47.42518]]}},{"type":"Feature","properties":{"kind":"piste","difficulty":"easy","name":"Übungshang","aerialway":null,"osm":"way/224095958"},"geometry":{"type":"LineString","coordinates":[[14.4675,47.42494],[14.46748,47.4252],[14.46665,47.42536],[14.46379,47.42535],[14.46335,47.42521]]}},{"type":"Feature","properties":{"kind":"piste","difficulty":"intermediate","name":"Tauernabfahrt","aerialway":null,"osm":"relation/2975132"},"geometry":{"type":"MultiLineString","coordinates":[[[14.47575,47.42821],[14.47631,47.42882],[14.47978,47.43133],[14.48034,47.43219],[14.48046,47.4327],[14.48073,47.43279]],[[14.47602,47.42643],[14.47566,47.42783],[14.47575,47.42821]],[[14.47602,47.42643],[14.47517,47.42615],[14.47517,47.42603],[14.4766,47.42603],[14.47771,47.42566]],[[14.4778,47.42303],[14.47743,47.42365],[14.47828,47.42436],[14.47854,47.42483],[14.47847,47.42519],[14.47771,47.42566]],[[14.47875,47.42132],[14.47824,47.42184],[14.4778,47.42303]]]}},{"type":"Feature","properties":{"kind":"piste","difficulty":"intermediate","name":"Familienabfahrt","aerialway":null,"osm":"relation/2975136"},"geometry":{"type":"MultiLineString","coordinates":[[[14.47205,47.42456],[14.47186,47.4242],[14.47204,47.42341]],[[14.47204,47.42341],[14.47168,47.42322],[14.47095,47.42317],[14.46933,47.4233],[14.46739,47.42382],[14.46587,47.42457],[14.46501,47.42478],[14.46345,47.42493],[14.46322,47.42519]]]}},{"type":"Feature","properties":{"kind":"piste","difficulty":"intermediate","name":"Moscherpiste","aerialway":null,"osm":"relation/2975160"},"geometry":{"type":"MultiLineString","coordinates":[[[14.47205,47.42456],[14.47255,47.4249]],[[14.47255,47.4249],[14.47288,47.42518]],[[14.47288,47.42518],[14.47152,47.42578],[14.46996,47.42607],[14.46459,47.42564]]]}},{"type":"Feature","properties":{"kind":"piste","difficulty":"easy","name":"Skiweg","aerialway":null,"osm":"relation/2975184"},"geometry":{"type":"MultiLineString","coordinates":[[[14.47901,47.43177],[14.48046,47.4327]],[[14.47901,47.43177],[14.47875,47.43118],[14.47734,47.43001],[14.47483,47.42996],[14.4742,47.4297],[14.4737,47.42906],[14.47264,47.42904]],[[14.47264,47.42904],[14.47218,47.42892],[14.47217,47.42797],[14.47148,47.42761]],[[14.47148,47.42761],[14.47248,47.42781],[14.47348,47.42819],[14.47481,47.428],[14.47537,47.42818]],[[14.47537,47.42818],[14.47575,47.42821],[14.47664,47.42791],[14.47756,47.42735],[14.47893,47.42743],[14.47951,47.42717]]]}},{"type":"Feature","properties":{"kind":"piste","difficulty":"intermediate","name":"Wirtshausabfahrt","aerialway":null,"osm":"relation/2975185"},"geometry":{"type":"MultiLineString","coordinates":[[[14.47743,47.42365],[14.47646,47.42448],[14.47265,47.42674]],[[14.47283,47.42686],[14.4738,47.4274],[14.47405,47.42768],[14.47499,47.42788],[14.47537,47.42818]],[[14.47148,47.42761],[14.47248,47.42781],[14.47348,47.42819],[14.47481,47.428],[14.47537,47.42818]],[[14.47148,47.42761],[14.47094,47.42737]],[[14.47265,47.42674],[14.4707,47.42729],[14.46992,47.42738],[14.46875,47.42726],[14.46776,47.42701],[14.46613,47.42596],[14.4637,47.42549],[14.46322,47.42519]]]}}]}