{"type":"FeatureCollection","features":[{"type":"Feature","properties":{"kind":"lift","difficulty":null,"name":null,"aerialway":"drag_lift","osm":"way/233217962"},"geometry":{"type":"LineString","coordinates":[[15.68613,47.88942],[15.68809,47.88885]]}},{"type":"Feature","properties":{"kind":"lift","difficulty":null,"name":null,"aerialway":"drag_lift","osm":"way/790684594"},"geometry":{"type":"LineString","coordinates":[[15.68516,47.88939],[15.68426,47.8897]]}},{"type":"Feature","properties":{"kind":"piste","difficulty":"unknown","name":null,"aerialway":null,"osm":"way/790684595"},"geometry":{"type":"LineString","coordinates":[[15.68429,47.88973],[15.68521,47.88947]]}},{"type":"Feature","properties":{"kind":"piste","difficulty":"unknown","name":null,"aerialway":null,"osm":"way/790684596"},"geometry":{"type":"LineString","coordinates":[[15.68798,47.88892],[15.68806,47.88911],[15.68797,47.8893],[15.68774,47.88952],[15.68736,47.88963],[15.68669,47.88967],[15.68631,47.88928],[15.68614,47.88928]]}},{"type":"Feature","properties":{"kind":"piste","difficulty":"unknown","name":null,"aerialway":null,"osm":"way/790684597"},"geometry":{"type":"LineString","coordinates":[[15.68792,47.88886],[15.68726,47.88875],[15.68674,47.88883],[15.68633,47.88903],[15.68614,47.88928]]}}]}