{"type":"FeatureCollection","features":[{"type":"Feature","properties":{"kind":"lift","difficulty":null,"name":null,"aerialway":"t-bar","osm":"way/238289074"},"geometry":{"type":"LineString","coordinates":[[15.03956,46.90811],[15.03074,46.9062]]}},{"type":"Feature","properties":{"kind":"lift","difficulty":null,"name":"Klug Lifte","aerialway":"t-bar","osm":"way/238289075"},"geometry":{"type":"LineString","coordinates":[[15.03944,46.90815],[15.03077,46.90628]]}},{"type":"Feature","properties":{"kind":"lift","difficulty":null,"name":"Übungslift","aerialway":"platter","osm":"way/238289077"},"geometry":{"type":"LineString","coordinates":[[15.03538,46.90888],[15.03339,46.90769]]}},{"type":"Feature","properties":{"kind":"piste","difficulty":"easy","name":"Hauptpiste","aerialway":null,"osm":"way/238429967"},"geometry":{"type":"LineString","coordinates":[[15.03147,46.90643],[15.03124,46.90659],[15.03616,46.90815],[15.0378,46.90851],[15.03912,46.90849],[15.03944,46.90815]]}},{"type":"Feature","properties":{"kind":"piste","difficulty":"unknown","name":"Hupferpiste","aerialway":null,"osm":"way/238429968"},"geometry":{"type":"LineString","coordinates":[[15.03124,46.90659],[15.03141,46.90678],[15.03322,46.90748],[15.0337,46.90739]]}},{"type":"Feature","properties":{"kind":"piste","difficulty":"easy","name":"Pokemonabfahrt","aerialway":null,"osm":"way/238429973"},"geometry":{"type":"LineString","coordinates":[[15.03124,46.90659],[15.03033,46.90758],[15.03052,46.9082],[15.03172,46.90928],[15.03339,46.90947]]}},{"type":"Feature","properties":{"kind":"piste","difficulty":"easy","name":"Waldabfahrt I","aerialway":null,"osm":"way/319607467"},"geometry":{"type":"LineString","coordinates":[[15.03339,46.90947],[15.03617,46.90864],[15.0378,46.90851]]}},{"type":"Feature","properties":{"kind":"piste","difficulty":"intermediate","name":"Waldabfahrt I","aerialway":null,"osm":"way/319612402"},"geometry":{"type":"LineString","coordinates":[[15.03088,46.90704],[15.0317,46.90797],[15.03188,46.90862],[15.03209,46.90887],[15.03339,46.90947]]}},{"type":"Feature","properties":{"kind":"piste","difficulty":"intermediate","name":"Waldabfahrt II","aerialway":null,"osm":"way/319612403"},"geometry":{"type":"LineString","coordinates":[[15.03041,46.90789],[15.03209,46.90887]]}},{"type":"Feature","properties":{"kind":"piste","difficulty":"novice","name":null,"aerialway":null,"osm":"way/319612739"},"geometry":{"type":"LineString","coordinates":[[15.0356,46.90881],[15.03565,46.90889]]}},{"type":"Feature","properties":{"kind":"piste","difficulty":"novice","name":null,"aerialway":null,"osm":"way/319612740"},"geometry":{"type":"LineString","coordinates":[[15.03634,46.90871],[15.03647,46.90866]]}}]}