{"type":"FeatureCollection","features":[{"type":"Feature","properties":{"kind":"lift","difficulty":null,"name":null,"aerialway":"drag_lift","osm":"way/506903011"},"geometry":{"type":"LineString","coordinates":[[15.55396,47.57227],[15.55786,47.57479]]}},{"type":"Feature","properties":{"kind":"piste","difficulty":"unknown","name":"Annerlbauer","aerialway":null,"osm":"way/1127603703"},"geometry":{"type":"LineString","coordinates":[[15.55428,47.57249],[15.55428,47.57268],[15.55455,47.573],[15.5572,47.57478],[15.55755,47.57492],[15.55786,47.57479]]}}]}