{"type":"FeatureCollection","features":[{"type":"Feature","properties":{"kind":"lift","difficulty":null,"name":"Panoramalift","aerialway":"drag_lift","osm":"way/93101829"},"geometry":{"type":"LineString","coordinates":[[15.07615,46.94519],[15.08018,46.9449]]}},{"type":"Feature","properties":{"kind":"lift","difficulty":null,"name":"Hoislift I","aerialway":"drag_lift","osm":"way/281560641"},"geometry":{"type":"LineString","coordinates":[[15.07495,46.94868],[15.08134,46.94569]]}},{"type":"Feature","properties":{"kind":"lift","difficulty":null,"name":"Hoislift II","aerialway":"drag_lift","osm":"way/281560661"},"geometry":{"type":"LineString","coordinates":[[15.07497,46.9487],[15.08243,46.94525]]}},{"type":"Feature","properties":{"kind":"lift","difficulty":null,"name":"Brunnlift","aerialway":"drag_lift","osm":"way/281560679"},"geometry":{"type":"LineString","coordinates":[[15.076,46.94507],[15.07666,46.9401]]}},{"type":"Feature","properties":{"kind":"piste","difficulty":"easy","name":"Alteschneise","aerialway":null,"osm":"way/321333139"},"geometry":{"type":"LineString","coordinates":[[15.08243,46.94525],[15.08198,46.94554],[15.08215,46.94569],[15.08215,46.94594],[15.08151,46.9466],[15.07723,46.94797],[15.07573,46.94862],[15.07519,46.94876],[15.07497,46.9487]]}},{"type":"Feature","properties":{"kind":"piste","difficulty":"easy","name":"Pfennichleitn","aerialway":null,"osm":"way/321333140"},"geometry":{"type":"LineString","coordinates":[[15.08187,46.94632],[15.08196,46.947],[15.08179,46.94782],[15.0811,46.94827],[15.07833,46.94881],[15.07757,46.94908],[15.07677,46.94908],[15.0761,46.94889],[15.07516,46.94884],[15.07497,46.9487]]}},{"type":"Feature","properties":{"kind":"piste","difficulty":"easy","name":"Familienabfahrt","aerialway":null,"osm":"way/321336376"},"geometry":{"type":"LineString","coordinates":[[15.08134,46.94569],[15.07952,46.94572],[15.07599,46.94753],[15.07524,46.94818],[15.07495,46.94868]]}},{"type":"Feature","properties":{"kind":"piste","difficulty":"intermediate","name":"Fis-Hang","aerialway":null,"osm":"way/321336379"},"geometry":{"type":"LineString","coordinates":[[15.07666,46.9401],[15.07636,46.94048],[15.07601,46.94068],[15.07587,46.94095],[15.07578,46.94218],[15.07596,46.94271],[15.07593,46.94351],[15.07568,46.94405],[15.076,46.94507]]}},{"type":"Feature","properties":{"kind":"piste","difficulty":"easy","name":"Fuchskogelabfahrt","aerialway":null,"osm":"way/321336382"},"geometry":{"type":"LineString","coordinates":[[15.07666,46.9401],[15.07668,46.94043],[15.07757,46.94054],[15.07801,46.94078],[15.07977,46.9423],[15.07912,46.94355],[15.07818,46.94391],[15.07788,46.94449],[15.076,46.94507]]}},{"type":"Feature","properties":{"kind":"piste","difficulty":"easy","name":"Panoramaabfahrt","aerialway":null,"osm":"way/321336385"},"geometry":{"type":"LineString","coordinates":[[15.08018,46.9449],[15.0797,46.94522],[15.07854,46.94545],[15.07699,46.94544],[15.07615,46.94519]]}},{"type":"Feature","properties":{"kind":"piste","difficulty":"easy","name":"Schiweg","aerialway":null,"osm":"way/321336386"},"geometry":{"type":"LineString","coordinates":[[15.076,46.94507],[15.07571,46.94534],[15.07544,46.94589],[15.07552,46.94626],[15.07531,46.94708],[15.07488,46.94749],[15.07475,46.94785],[15.07476,46.94854],[15.07495,46.94868]]}},{"type":"Feature","properties":{"kind":"piste","difficulty":"easy","name":"Teichwies'n","aerialway":null,"osm":"way/321336387"},"geometry":{"type":"LineString","coordinates":[[15.08018,46.9449],[15.07869,46.94471],[15.07686,46.94491],[15.07615,46.94519]]}},{"type":"Feature","properties":{"kind":"piste","difficulty":"easy","name":null,"aerialway":null,"osm":"way/321336388"},"geometry":{"type":"LineString","coordinates":[[15.07615,46.94519],[15.07571,46.94534]]}},{"type":"Feature","properties":{"kind":"piste","difficulty":"easy","name":null,"aerialway":null,"osm":"way/321336389"},"geometry":{"type":"LineString","coordinates":[[15.07788,46.94449],[15.07745,46.94481],[15.07711,46.9447]]}},{"type":"Feature","properties":{"kind":"piste","difficulty":"easy","name":null,"aerialway":null,"osm":"way/321336390"},"geometry":{"type":"LineString","coordinates":[[15.0797,46.94522],[15.07952,46.94572],[15.07904,46.9454]]}},{"type":"Feature","properties":{"kind":"piste","difficulty":"easy","name":null,"aerialway":null,"osm":"way/321336391"},"geometry":{"type":"LineString","coordinates":[[15.07497,46.9487],[15.07495,46.94868]]}},{"type":"Feature","properties":{"kind":"lift","difficulty":null,"name":"Steirarodl","aerialway":"drag_lift","osm":"way/863332505"},"geometry":{"type":"LineString","coordinates":[[15.05905,46.96205],[15.06091,46.95873]]}}]}