{"type":"FeatureCollection","features":[{"type":"Feature","properties":{"kind":"lift","difficulty":null,"name":null,"aerialway":"drag_lift","osm":"way/102573029"},"geometry":{"type":"LineString","coordinates":[[15.87913,47.47813],[15.87919,47.48175]]}},{"type":"Feature","properties":{"kind":"lift","difficulty":null,"name":null,"aerialway":"drag_lift","osm":"way/102573041"},"geometry":{"type":"LineString","coordinates":[[15.87954,47.48165],[15.88032,47.48819]]}},{"type":"Feature","properties":{"kind":"piste","difficulty":"easy","name":null,"aerialway":null,"osm":"way/225815225"},"geometry":{"type":"LineString","coordinates":[[15.87957,47.48157],[15.8796,47.48075],[15.87932,47.47962],[15.87933,47.47837]]}},{"type":"Feature","properties":{"kind":"piste","difficulty":"intermediate","name":null,"aerialway":null,"osm":"way/225815227"},"geometry":{"type":"LineString","coordinates":[[15.88043,47.48819],[15.88153,47.48583],[15.88105,47.48453],[15.8812,47.48391],[15.87987,47.48161]]}},{"type":"Feature","properties":{"kind":"piste","difficulty":"intermediate","name":"Skigebiet Mönichwald - Hochwechsellifte","aerialway":null,"osm":"way/335627419"},"geometry":{"type":"LineString","coordinates":[[15.88027,47.48843],[15.88119,47.48845],[15.88253,47.48571],[15.88021,47.47824],[15.87936,47.47773],[15.87858,47.47829],[15.87826,47.47984],[15.87818,47.48142],[15.87986,47.48187],[15.88037,47.48395],[15.87987,47.48509],[15.88027,47.48843]]}}]}