{"type":"FeatureCollection","features":[{"type":"Feature","properties":{"kind":"piste","difficulty":"easy","name":null,"aerialway":null,"osm":"way/90674465"},"geometry":{"type":"LineString","coordinates":[[15.37989,47.68077],[15.38041,47.68087],[15.39021,47.68086],[15.39597,47.68052]]}},{"type":"Feature","properties":{"kind":"piste","difficulty":"easy","name":"Waldrandlift","aerialway":null,"osm":"way/90674468"},"geometry":{"type":"LineString","coordinates":[[15.37985,47.68307],[15.37937,47.68251],[15.38007,47.68134],[15.38021,47.68138]]}},{"type":"Feature","properties":{"kind":"piste","difficulty":"intermediate","name":null,"aerialway":null,"osm":"way/90674470"},"geometry":{"type":"LineString","coordinates":[[15.37335,47.68326],[15.37546,47.68292],[15.38006,47.68128]]}},{"type":"Feature","properties":{"kind":"piste","difficulty":"intermediate","name":null,"aerialway":null,"osm":"way/90674471"},"geometry":{"type":"LineString","coordinates":[[15.37713,47.68581],[15.3768,47.68466],[15.37698,47.68344],[15.37777,47.68283],[15.3791,47.6822],[15.38006,47.68128]]}},{"type":"Feature","properties":{"kind":"lift","difficulty":null,"name":"Niederalplbahn","aerialway":"chair_lift","osm":"way/90674473"},"geometry":{"type":"LineString","coordinates":[[15.37975,47.68133],[15.37037,47.684]]}},{"type":"Feature","properties":{"kind":"piste","difficulty":"intermediate","name":"Waldabfahrt","aerialway":null,"osm":"way/90674474"},"geometry":{"type":"LineString","coordinates":[[15.37762,47.68617],[15.37716,47.68629],[15.37697,47.6868],[15.37768,47.68729],[15.37837,47.6875],[15.37967,47.68719],[15.38152,47.68591],[15.38262,47.68533],[15.38436,47.68495],[15.38587,47.68487],[15.38755,47.68442],[15.38739,47.68431],[15.38549,47.68419],[15.38557,47.68378],[15.386,47.68332]]}},{"type":"Feature","properties":{"kind":"piste","difficulty":"easy","name":null,"aerialway":null,"osm":"way/90674476"},"geometry":{"type":"LineString","coordinates":[[15.37037,47.684],[15.36906,47.68418],[15.3698,47.68454],[15.3705,47.68461],[15.37117,47.68454],[15.37157,47.68436],[15.37335,47.68326],[15.37422,47.68353],[15.37551,47.68364],[15.37917,47.68363],[15.38177,47.68336],[15.38281,47.68346],[15.38305,47.68339],[15.38008,47.68234],[15.37984,47.68162],[15.38005,47.68129]]}},{"type":"Feature","properties":{"kind":"lift","difficulty":null,"name":"Waldrandlift","aerialway":"platter","osm":"way/90674478"},"geometry":{"type":"LineString","coordinates":[[15.38021,47.68138],[15.37985,47.68307]]}},{"type":"Feature","properties":{"kind":"lift","difficulty":null,"name":"Sohlalmlift","aerialway":"t-bar","osm":"way/90674480"},"geometry":{"type":"LineString","coordinates":[[15.39597,47.68052],[15.37989,47.68077]]}},{"type":"Feature","properties":{"kind":"piste","difficulty":"intermediate","name":null,"aerialway":null,"osm":"way/90674481"},"geometry":{"type":"LineString","coordinates":[[15.37762,47.68617],[15.37605,47.68512],[15.37478,47.68488]]}},{"type":"Feature","properties":{"kind":"lift","difficulty":null,"name":"Wetterinlift","aerialway":"platter","osm":"way/90674482"},"geometry":{"type":"LineString","coordinates":[[15.37478,47.68488],[15.37762,47.68617]]}},{"type":"Feature","properties":{"kind":"piste","difficulty":"easy","name":null,"aerialway":null,"osm":"way/550249946"},"geometry":{"type":"LineString","coordinates":[[15.37335,47.68326],[15.37478,47.68488]]}},{"type":"Feature","properties":{"kind":"piste","difficulty":"intermediate","name":"Rote Eins","aerialway":null,"osm":"way/550249947"},"geometry":{"type":"LineString","coordinates":[[15.37035,47.68403],[15.37046,47.68411],[15.37127,47.68382],[15.37261,47.68316],[15.37446,47.68302]]}},{"type":"Feature","properties":{"kind":"piste","difficulty":"intermediate","name":null,"aerialway":null,"osm":"way/550256412"},"geometry":{"type":"LineString","coordinates":[[15.3709,47.68395],[15.37469,47.68478]]}},{"type":"Feature","properties":{"kind":"piste","difficulty":"easy","name":null,"aerialway":null,"osm":"way/550256413"},"geometry":{"type":"LineString","coordinates":[[15.37863,47.68159],[15.37885,47.68144],[15.37943,47.68136]]}},{"type":"Feature","properties":{"kind":"lift","difficulty":null,"name":"Kinderlift","aerialway":"rope_tow","osm":"way/550256414"},"geometry":{"type":"LineString","coordinates":[[15.37943,47.68136],[15.37863,47.68159]]}},{"type":"Feature","properties":{"kind":"piste","difficulty":"intermediate","name":"Waldabfahrt","aerialway":null,"osm":"way/1153329701"},"geometry":{"type":"LineString","coordinates":[[15.38618,47.68315],[15.38614,47.68286],[15.38668,47.68222],[15.38709,47.682],[15.38767,47.68186],[15.38888,47.68191],[15.39238,47.68075]]}},{"type":"Feature","properties":{"kind":"piste","difficulty":"intermediate","name":"Waldabfahrt","aerialway":null,"osm":"way/1153329702"},"geometry":{"type":"LineString","coordinates":[[15.386,47.68332],[15.38618,47.68315]]}}]}