{"type":"FeatureCollection","features":[{"type":"Feature","properties":{"kind":"lift","difficulty":null,"name":"Schilift Obdach","aerialway":"t-bar","osm":"way/98309540"},"geometry":{"type":"LineString","coordinates":[[14.6946,47.0623],[14.68517,47.0551]]}},{"type":"Feature","properties":{"kind":"piste","difficulty":"intermediate","name":null,"aerialway":null,"osm":"way/198641945"},"geometry":{"type":"LineString","coordinates":[[14.68587,47.05563],[14.68602,47.05599],[14.68746,47.05698],[14.68902,47.05849],[14.69373,47.0619],[14.69461,47.06214],[14.69474,47.06222],[14.6946,47.0623]]}}]}