{"type":"FeatureCollection","features":[{"type":"Feature","properties":{"kind":"lift","difficulty":null,"name":"Compedal","aerialway":"t-bar","osm":"way/160289801"},"geometry":{"type":"LineString","coordinates":[[12.63763,46.79364],[12.62186,46.79485]]}},{"type":"Feature","properties":{"kind":"piste","difficulty":"easy","name":null,"aerialway":null,"osm":"way/417841861"},"geometry":{"type":"LineString","coordinates":[[12.62235,46.79481],[12.62239,46.79426],[12.62285,46.79392],[12.6236,46.7938],[12.62445,46.79389],[12.62536,46.7938],[12.62589,46.79355],[12.62643,46.79278],[12.62698,46.79249],[12.62871,46.79274],[12.63442,46.79294],[12.63763,46.79364]]}},{"type":"Feature","properties":{"kind":"lift","difficulty":null,"name":null,"aerialway":"drag_lift","osm":"way/890945701"},"geometry":{"type":"LineString","coordinates":[[12.6374,46.79358],[12.63472,46.79376]]}}]}