{"type":"FeatureCollection","features":[{"type":"Feature","properties":{"kind":"lift","difficulty":null,"name":"6er SB Bärnbiss","aerialway":"chair_lift","osm":"way/156077432"},"geometry":{"type":"LineString","coordinates":[[13.43532,46.76717],[13.45114,46.76265]]}},{"type":"Feature","properties":{"kind":"lift","difficulty":null,"name":"6er SB Gipfelbahn \"Skyliner\"","aerialway":"chair_lift","osm":"way/156077435"},"geometry":{"type":"LineString","coordinates":[[13.44437,46.76181],[13.45716,46.75901]]}},{"type":"Feature","properties":{"kind":"lift","difficulty":null,"name":"Goldeckbahn","aerialway":"gondola","osm":"way/156077437"},"geometry":{"type":"LineString","coordinates":[[13.47022,46.79223],[13.45478,46.76986]]}},{"type":"Feature","properties":{"kind":"piste","difficulty":"novice","name":"11 Green Run","aerialway":null,"osm":"way/196280126"},"geometry":{"type":"LineString","coordinates":[[13.44884,46.76334],[13.44886,46.76364],[13.44874,46.76367],[13.44837,46.7634],[13.44754,46.76233],[13.44691,46.76335],[13.44676,46.76391],[13.44698,46.76452],[13.44652,46.7643],[13.44597,46.76388],[13.44573,46.76319],[13.44568,46.76194],[13.44543,46.76156],[13.44476,46.76111]]}},{"type":"Feature","properties":{"kind":"piste","difficulty":"novice","name":"11 Green Run","aerialway":null,"osm":"way/237404416"},"geometry":{"type":"LineString","coordinates":[[13.45645,46.75849],[13.45706,46.76037],[13.45691,46.7604]]}},{"type":"Feature","properties":{"kind":"piste","difficulty":"novice","name":"11 Green Run","aerialway":null,"osm":"way/237404429"},"geometry":{"type":"LineString","coordinates":[[13.45691,46.7604],[13.45618,46.75982],[13.45597,46.75983],[13.45629,46.76072],[13.45692,46.76156]]}},{"type":"Feature","properties":{"kind":"piste","difficulty":"easy","name":"4b Fichtenschleuse","aerialway":null,"osm":"way/328854958"},"geometry":{"type":"LineString","coordinates":[[13.44584,46.76112],[13.44483,46.7622],[13.44404,46.76269],[13.4432,46.76293]]}},{"type":"Feature","properties":{"kind":"piste","difficulty":"novice","name":"11b Green Run Wald","aerialway":null,"osm":"way/328854960"},"geometry":{"type":"LineString","coordinates":[[13.45472,46.76974],[13.45462,46.76943],[13.45297,46.76831],[13.4514,46.76696],[13.45029,46.7669],[13.44922,46.76662],[13.44812,46.76565],[13.4464,46.76539],[13.4443,46.76594],[13.44347,46.76475],[13.44313,46.76376],[13.44328,46.76301],[13.4432,46.76293]]}},{"type":"Feature","properties":{"kind":"piste","difficulty":"easy","name":"Bärnbissabfahrt","aerialway":null,"osm":"way/328854961"},"geometry":{"type":"LineString","coordinates":[[13.4515,46.76296],[13.45094,46.76298],[13.4453,46.76461],[13.44372,46.76563],[13.44238,46.76617],[13.44052,46.7667],[13.43873,46.76682],[13.43614,46.7667]]}},{"type":"Feature","properties":{"kind":"piste","difficulty":"easy","name":"2a Ochsenalmpiste","aerialway":null,"osm":"way/328854962"},"geometry":{"type":"LineString","coordinates":[[13.44853,46.76286],[13.44539,46.7636],[13.44185,46.76402],[13.44073,46.76454]]}},{"type":"Feature","properties":{"kind":"piste","difficulty":"intermediate","name":"5b Glocknerblick","aerialway":null,"osm":"way/328854963"},"geometry":{"type":"LineString","coordinates":[[13.45163,46.75905],[13.45017,46.75862],[13.44902,46.75902],[13.44834,46.75932],[13.44723,46.76029],[13.44612,46.76084],[13.44584,46.76112]]}},{"type":"Feature","properties":{"kind":"piste","difficulty":"novice","name":"11a Green Run Goldeckbahn","aerialway":null,"osm":"way/328854964"},"geometry":{"type":"LineString","coordinates":[[13.44884,46.76334],[13.4499,46.76438],[13.45083,46.76502],[13.45123,46.76568],[13.45276,46.76676],[13.45308,46.76756],[13.45391,46.76863],[13.45476,46.76939],[13.45472,46.76974]]}},{"type":"Feature","properties":{"kind":"piste","difficulty":"intermediate","name":"Eggeralm","aerialway":null,"osm":"way/328854965"},"geometry":{"type":"LineString","coordinates":[[13.45748,46.75894],[13.45698,46.75879],[13.45491,46.75865],[13.45426,46.75843],[13.45357,46.75778],[13.45301,46.75788],[13.4517,46.75892],[13.45105,46.7602],[13.45069,46.76055],[13.44933,46.76091],[13.44683,46.76093],[13.44441,46.76143],[13.44425,46.7616]]}},{"type":"Feature","properties":{"kind":"piste","difficulty":"intermediate","name":"Rennstrecke","aerialway":null,"osm":"way/328854966"},"geometry":{"type":"LineString","coordinates":[[13.45656,46.76149],[13.45521,46.7627],[13.45271,46.7638],[13.452,46.76487],[13.45126,46.7653],[13.45123,46.76568]]}},{"type":"Feature","properties":{"kind":"piste","difficulty":"advanced","name":"S1 Talabfahrt","aerialway":null,"osm":"way/328854967"},"geometry":{"type":"LineString","coordinates":[[13.45499,46.77002],[13.45516,46.77272],[13.45482,46.77349],[13.45342,46.77476],[13.45301,46.77542],[13.45132,46.77612],[13.45107,46.77642],[13.45138,46.77682],[13.45197,46.77678],[13.45245,46.7769],[13.45275,46.77724],[13.45361,46.77695],[13.45358,46.77768],[13.45388,46.77788],[13.45426,46.77747],[13.45455,46.77743],[13.45466,46.77828],[13.45483,46.77833],[13.45506,46.77801],[13.45522,46.77824],[13.45488,46.77931],[13.45493,46.77961],[13.45562,46.77998],[13.4551,46.78056],[13.45416,46.78112],[13.45245,46.78142],[13.45211,46.78175],[13.45206,46.78215],[13.45279,46.78286],[13.45345,46.783],[13.45528,46.78308],[13.45586,46.78338],[13.45644,46.78348],[13.45752,46.78339],[13.45837,46.78311],[13.45938,46.78319],[13.45832,46.78438],[13.45774,46.78471],[13.45635,46.78509],[13.45709,46.78562],[13.45786,46.78585],[13.45938,46.7869],[13.46001,46.7884],[13.46086,46.78901],[13.46089,46.78928],[13.46067,46.78975],[13.4605,46.79073],[13.46012,46.79128],[13.46049,46.79162],[13.46336,46.79149],[13.46366,46.79134],[13.46409,46.79086],[13.46439,46.79075],[13.46577,46.79119],[13.46828,46.79162],[13.47024,46.79253],[13.47037,46.79246],[13.47022,46.79223]]}},{"type":"Feature","properties":{"kind":"lift","difficulty":null,"name":null,"aerialway":"magic_carpet","osm":"way/674547120"},"geometry":{"type":"LineString","coordinates":[[13.45468,46.77091],[13.45467,46.77045]]}},{"type":"Feature","properties":{"kind":"lift","difficulty":null,"name":"Übungslift 1","aerialway":"t-bar","osm":"way/674547121"},"geometry":{"type":"LineString","coordinates":[[13.45239,46.7716],[13.45428,46.77034]]}},{"type":"Feature","properties":{"kind":"lift","difficulty":null,"name":"Übungslift 2","aerialway":"t-bar","osm":"way/674547122"},"geometry":{"type":"LineString","coordinates":[[13.45043,46.77145],[13.45304,46.77265]]}},{"type":"Feature","properties":{"kind":"piste","difficulty":"easy","name":"Übungshang","aerialway":null,"osm":"way/674547123"},"geometry":{"type":"LineString","coordinates":[[13.45499,46.77002],[13.45294,46.77191],[13.45243,46.77195],[13.45078,46.77137],[13.45043,46.77145]]}},{"type":"Feature","properties":{"kind":"piste","difficulty":"easy","name":"Verbindung Übungslift 2 - Übungslift1","aerialway":null,"osm":"way/674547124"},"geometry":{"type":"LineString","coordinates":[[13.45304,46.77265],[13.45306,46.77236],[13.45243,46.77195],[13.45239,46.7716]]}},{"type":"Feature","properties":{"kind":"piste","difficulty":"easy","name":null,"aerialway":null,"osm":"way/674547125"},"geometry":{"type":"LineString","coordinates":[[13.45428,46.77034],[13.4545,46.7706],[13.45419,46.7707]]}},{"type":"Feature","properties":{"kind":"piste","difficulty":"novice","name":null,"aerialway":null,"osm":"way/674547126"},"geometry":{"type":"LineString","coordinates":[[13.45467,46.77045],[13.45447,46.77068],[13.45468,46.77091]]}},{"type":"Feature","properties":{"kind":"lift","difficulty":null,"name":null,"aerialway":"magic_carpet","osm":"way/674752994"},"geometry":{"type":"LineString","coordinates":[[13.45535,46.77053],[13.45549,46.76954]]}},{"type":"Feature","properties":{"kind":"piste","difficulty":"easy","name":null,"aerialway":null,"osm":"way/674754163"},"geometry":{"type":"LineString","coordinates":[[13.45549,46.76954],[13.4553,46.76962],[13.45519,46.76985],[13.45518,46.77038],[13.45535,46.77053]]}},{"type":"Feature","properties":{"kind":"piste","difficulty":"novice","name":"11 Green Run","aerialway":null,"osm":"way/1091091103"},"geometry":{"type":"LineString","coordinates":[[13.45692,46.76156],[13.457,46.76202],[13.4555,46.76144],[13.45458,46.76054],[13.45447,46.76059],[13.45442,46.76125],[13.45373,46.76054],[13.45358,46.76107],[13.45392,46.76185],[13.4538,46.76189],[13.45334,46.76156],[13.45306,46.76103],[13.45294,46.76101],[13.45284,46.76136],[13.453,46.76282],[13.45291,46.76296],[13.45257,46.76272],[13.45214,46.76213],[13.45174,46.76086]]}},{"type":"Feature","properties":{"kind":"piste","difficulty":"novice","name":"11 Green Run","aerialway":null,"osm":"way/1091091104"},"geometry":{"type":"LineString","coordinates":[[13.45174,46.76086],[13.45099,46.76133],[13.45095,46.76244],[13.45032,46.76131],[13.45022,46.76072],[13.44964,46.76052],[13.44977,46.76086],[13.4492,46.76165],[13.44884,46.76261],[13.44884,46.76334]]}},{"type":"Feature","properties":{"kind":"piste","difficulty":"advanced","name":"S1 Kälberriegel","aerialway":null,"osm":"way/1418401661"},"geometry":{"type":"LineString","coordinates":[[13.45748,46.75894],[13.45846,46.75941],[13.45691,46.76179],[13.45718,46.76208],[13.45656,46.76269],[13.45577,46.76559],[13.45537,46.76607],[13.4557,46.76644],[13.45541,46.76714],[13.45529,46.76911],[13.45501,46.7697]]}},{"type":"Feature","properties":{"kind":"piste","difficulty":"easy","name":null,"aerialway":null,"osm":"way/1418401662"},"geometry":{"type":"LineString","coordinates":[[13.45524,46.76969],[13.45503,46.7698],[13.45519,46.76987]]}},{"type":"Feature","properties":{"kind":"piste","difficulty":"easy","name":"8","aerialway":null,"osm":"way/1418401663"},"geometry":{"type":"LineString","coordinates":[[13.45494,46.76962],[13.45946,46.76866],[13.45904,46.76905],[13.46019,46.76905],[13.46066,46.76835],[13.4605,46.76775],[13.46077,46.76807],[13.46106,46.76884],[13.46119,46.76879],[13.46132,46.76804],[13.46183,46.76747],[13.46288,46.76733],[13.46347,46.7688],[13.4632,46.76976]]}},{"type":"Feature","properties":{"kind":"piste","difficulty":"easy","name":null,"aerialway":null,"osm":"way/1418401664"},"geometry":{"type":"LineString","coordinates":[[13.4646,46.76788],[13.4681,46.76842]]}},{"type":"Feature","properties":{"kind":"piste","difficulty":"easy","name":"8","aerialway":null,"osm":"way/1418401665"},"geometry":{"type":"LineString","coordinates":[[13.46288,46.76733],[13.4646,46.76788],[13.46481,46.76862],[13.46464,46.76865]]}},{"type":"Feature","properties":{"kind":"piste","difficulty":"easy","name":null,"aerialway":null,"osm":"way/1418401666"},"geometry":{"type":"LineString","coordinates":[[13.4643,46.76649],[13.46731,46.76829]]}},{"type":"Feature","properties":{"kind":"lift","difficulty":null,"name":null,"aerialway":"magic_carpet","osm":"way/1418401667"},"geometry":{"type":"LineString","coordinates":[[13.4632,46.76976],[13.46258,46.76737]]}},{"type":"Feature","properties":{"kind":"piste","difficulty":"easy","name":"8","aerialway":null,"osm":"way/1418401668"},"geometry":{"type":"LineString","coordinates":[[13.46258,46.76737],[13.46215,46.76785],[13.46249,46.76845],[13.46277,46.76943],[13.4632,46.76976]]}},{"type":"Feature","properties":{"kind":"piste","difficulty":"easy","name":"8","aerialway":null,"osm":"way/1418401669"},"geometry":{"type":"LineString","coordinates":[[13.46149,46.76785],[13.46215,46.76785]]}},{"type":"Feature","properties":{"kind":"piste","difficulty":"easy","name":null,"aerialway":null,"osm":"way/1418401670"},"geometry":{"type":"LineString","coordinates":[[13.46325,46.76825],[13.46426,46.76878],[13.46464,46.76865]]}},{"type":"Feature","properties":{"kind":"piste","difficulty":"freeride","name":null,"aerialway":null,"osm":"way/1418401671"},"geometry":{"type":"LineString","coordinates":[[13.45719,46.76126],[13.45778,46.76173],[13.45743,46.76299],[13.45771,46.76401],[13.4584,46.76448],[13.45944,46.76576],[13.46079,46.76703],[13.46146,46.76713],[13.46189,46.76747]]}},{"type":"Feature","properties":{"kind":"piste","difficulty":"intermediate","name":"Familienabfahrt","aerialway":null,"osm":"way/1418401672"},"geometry":{"type":"LineString","coordinates":[[13.45656,46.76149],[13.4554,46.76177],[13.45306,46.76309],[13.45154,46.76307]]}},{"type":"Feature","properties":{"kind":"piste","difficulty":"easy","name":"7 Seeblickpiste","aerialway":null,"osm":"way/1418401673"},"geometry":{"type":"LineString","coordinates":[[13.45734,46.75896],[13.45748,46.75894],[13.45761,46.75931],[13.45695,46.76107]]}},{"type":"Feature","properties":{"kind":"piste","difficulty":"easy","name":"7 Seeblickpiste","aerialway":null,"osm":"way/1418401674"},"geometry":{"type":"LineString","coordinates":[[13.45695,46.76107],[13.45656,46.76149]]}},{"type":"Feature","properties":{"kind":"piste","difficulty":"easy","name":"7 Seeblickpiste","aerialway":null,"osm":"way/1418401675"},"geometry":{"type":"LineString","coordinates":[[13.45656,46.76149],[13.45565,46.76326],[13.45573,46.76397],[13.45526,46.76566],[13.45495,46.76611],[13.45449,46.76588],[13.45412,46.76543],[13.45302,46.76461],[13.45225,46.76444],[13.45073,46.76368],[13.44884,46.76334]]}},{"type":"Feature","properties":{"kind":"piste","difficulty":"intermediate","name":null,"aerialway":null,"osm":"way/1418401676"},"geometry":{"type":"LineString","coordinates":[[13.45136,46.76257],[13.45202,46.76406],[13.4523,46.76435]]}},{"type":"Feature","properties":{"kind":"piste","difficulty":"intermediate","name":"2a Ochsenalmpiste","aerialway":null,"osm":"way/1418401677"},"geometry":{"type":"LineString","coordinates":[[13.45114,46.76265],[13.45136,46.76257],[13.45092,46.76236],[13.44853,46.76286]]}},{"type":"Feature","properties":{"kind":"piste","difficulty":"advanced","name":"5a Glocknerblick","aerialway":null,"osm":"way/1418401679"},"geometry":{"type":"LineString","coordinates":[[13.45661,46.75879],[13.45427,46.75914],[13.45163,46.75905]]}},{"type":"Feature","properties":{"kind":"piste","difficulty":"freeride","name":"Skiroute Eggeralm","aerialway":null,"osm":"way/1418401680"},"geometry":{"type":"LineString","coordinates":[[13.45348,46.7578],[13.45249,46.75691],[13.45042,46.75665],[13.44806,46.75731],[13.44809,46.75825],[13.44717,46.75902],[13.44572,46.75923],[13.44486,46.75957],[13.44481,46.76051],[13.44435,46.76082],[13.44455,46.76119],[13.44441,46.76143]]}},{"type":"Feature","properties":{"kind":"piste","difficulty":"novice","name":"11 Green Run","aerialway":null,"osm":"way/1418408640"},"geometry":{"type":"LineString","coordinates":[[13.45716,46.75901],[13.45734,46.75896],[13.45711,46.75868],[13.45645,46.75849]]}},{"type":"Feature","properties":{"kind":"piste","difficulty":"novice","name":"11 Green Run","aerialway":null,"osm":"way/1418408641"},"geometry":{"type":"LineString","coordinates":[[13.44476,46.76111],[13.44448,46.76105],[13.44408,46.76126],[13.44437,46.76181]]}},{"type":"Feature","properties":{"kind":"piste","difficulty":"easy","name":"3a Mostweg","aerialway":null,"osm":"way/1418411766"},"geometry":{"type":"LineString","coordinates":[[13.4526,46.76315],[13.45215,46.76292],[13.45159,46.76236],[13.451,46.76238]]}},{"type":"Feature","properties":{"kind":"piste","difficulty":"easy","name":"3b Zubringer Gipfelbahn","aerialway":null,"osm":"way/1418411767"},"geometry":{"type":"LineString","coordinates":[[13.44562,46.76186],[13.4454,46.76167],[13.44441,46.76143]]}},{"type":"Feature","properties":{"kind":"piste","difficulty":"easy","name":"7a Skiweg Goldeckbahn","aerialway":null,"osm":"way/1418418318"},"geometry":{"type":"LineString","coordinates":[[13.45154,46.76307],[13.44941,46.76263],[13.44884,46.76334]]}},{"type":"Feature","properties":{"kind":"piste","difficulty":"easy","name":"7b Skiweg Bärnbiss","aerialway":null,"osm":"way/1418418319"},"geometry":{"type":"LineString","coordinates":[[13.4443,46.76594],[13.44372,46.76563]]}},{"type":"Feature","properties":{"kind":"piste","difficulty":"novice","name":"11b Green Run Wald","aerialway":null,"osm":"way/1418420641"},"geometry":{"type":"LineString","coordinates":[[13.4432,46.76293],[13.44106,46.76378],[13.44073,46.76454]]}},{"type":"Feature","properties":{"kind":"piste","difficulty":"novice","name":"11b Green Run Wald","aerialway":null,"osm":"way/1418420642"},"geometry":{"type":"LineString","coordinates":[[13.44073,46.76454],[13.43965,46.76523],[13.43807,46.76578],[13.43614,46.7667],[13.43529,46.76685],[13.43514,46.76708],[13.43532,46.76717]]}},{"type":"Feature","properties":{"kind":"piste","difficulty":"easy","name":null,"aerialway":null,"osm":"way/1418420643"},"geometry":{"type":"LineString","coordinates":[[13.45463,46.76957],[13.45501,46.76968],[13.45499,46.77002]]}},{"type":"Feature","properties":{"kind":"piste","difficulty":"intermediate","name":null,"aerialway":null,"osm":"way/1418999587"},"geometry":{"type":"LineString","coordinates":[[13.45315,46.76305],[13.45295,46.76294],[13.45274,46.76313]]}}]}