{"type":"FeatureCollection","features":[{"type":"Feature","properties":{"kind":"lift","difficulty":null,"name":"Babylift","aerialway":"t-bar","osm":"way/147758829"},"geometry":{"type":"LineString","coordinates":[[14.28133,48.41528],[14.2779,48.41537]]}},{"type":"Feature","properties":{"kind":"lift","difficulty":null,"name":"Waldlift","aerialway":"t-bar","osm":"way/147758831"},"geometry":{"type":"LineString","coordinates":[[14.28405,48.41623],[14.2784,48.41578]]}},{"type":"Feature","properties":{"kind":"lift","difficulty":null,"name":"Hauslift","aerialway":"t-bar","osm":"way/147758832"},"geometry":{"type":"LineString","coordinates":[[14.28408,48.41634],[14.27877,48.41664]]}},{"type":"Feature","properties":{"kind":"lift","difficulty":null,"name":"Skilift Eben","aerialway":"t-bar","osm":"way/147895050"},"geometry":{"type":"LineString","coordinates":[[14.29143,48.42266],[14.28767,48.42433]]}},{"type":"Feature","properties":{"kind":"lift","difficulty":null,"name":"Kaiserlift","aerialway":"t-bar","osm":"way/209435265"},"geometry":{"type":"LineString","coordinates":[[14.28062,48.41503],[14.27734,48.41472]]}},{"type":"Feature","properties":{"kind":"piste","difficulty":"easy","name":null,"aerialway":null,"osm":"way/252747335"},"geometry":{"type":"LineString","coordinates":[[14.2783,48.41536],[14.27881,48.41561],[14.28103,48.41565],[14.2812,48.41554],[14.28125,48.41528]]}},{"type":"Feature","properties":{"kind":"piste","difficulty":"intermediate","name":null,"aerialway":null,"osm":"way/252747336"},"geometry":{"type":"LineString","coordinates":[[14.27916,48.41662],[14.27969,48.41687],[14.2807,48.41706],[14.28178,48.41771],[14.28232,48.41769],[14.2828,48.41753],[14.28316,48.41716],[14.28456,48.41646],[14.28442,48.41628],[14.284,48.41634]]}},{"type":"Feature","properties":{"kind":"piste","difficulty":"intermediate","name":null,"aerialway":null,"osm":"way/1453120418"},"geometry":{"type":"LineString","coordinates":[[14.27868,48.41581],[14.2797,48.41626],[14.28082,48.41622],[14.28114,48.41663],[14.28156,48.41682],[14.28316,48.41716]]}},{"type":"Feature","properties":{"kind":"piste","difficulty":"intermediate","name":null,"aerialway":null,"osm":"way/1453120419"},"geometry":{"type":"LineString","coordinates":[[14.28415,48.4163],[14.28398,48.41623]]}}]}