{"type":"FeatureCollection","features":[{"type":"Feature","properties":{"kind":"lift","difficulty":null,"name":"Hauser Kaiblingbahn","aerialway":"gondola","osm":"way/32654778"},"geometry":{"type":"LineString","coordinates":[[13.77956,47.41152],[13.77379,47.38973]]}},{"type":"Feature","properties":{"kind":"piste","difficulty":"easy","name":null,"aerialway":null,"osm":"way/32654779"},"geometry":{"type":"LineString","coordinates":[[13.77379,47.38973],[13.77443,47.3895],[13.77509,47.38947],[13.77603,47.38974],[13.77613,47.38963]]}},{"type":"Feature","properties":{"kind":"lift","difficulty":null,"name":"Kaiblinggrat","aerialway":"chair_lift","osm":"way/32654780"},"geometry":{"type":"LineString","coordinates":[[13.77613,47.38963],[13.77103,47.3774]]}},{"type":"Feature","properties":{"kind":"piste","difficulty":"easy","name":null,"aerialway":null,"osm":"way/32654781"},"geometry":{"type":"LineString","coordinates":[[13.77509,47.38947],[13.77455,47.38975],[13.7743,47.39013],[13.77428,47.39044],[13.77477,47.39222]]}},{"type":"Feature","properties":{"kind":"piste","difficulty":"intermediate","name":"FIS-Talabfahrt","aerialway":null,"osm":"way/32654782"},"geometry":{"type":"LineString","coordinates":[[13.77483,47.39515],[13.77388,47.3965],[13.77391,47.39675],[13.77409,47.39704],[13.77568,47.39838],[13.77585,47.39873],[13.77499,47.40019],[13.77467,47.40089],[13.77454,47.40159],[13.77351,47.40308],[13.77469,47.40448],[13.77482,47.40544],[13.77417,47.40619],[13.77419,47.40643],[13.77459,47.40684]]}},{"type":"Feature","properties":{"kind":"piste","difficulty":"intermediate","name":"Prenner-Talabfahrt","aerialway":null,"osm":"way/32654784"},"geometry":{"type":"LineString","coordinates":[[13.77509,47.38947],[13.77538,47.39058],[13.77544,47.39196],[13.7752,47.39279],[13.77597,47.39373],[13.7764,47.39449],[13.77747,47.39558],[13.77745,47.39622],[13.77703,47.39651],[13.77873,47.39916],[13.77879,47.40012],[13.77909,47.4008],[13.77942,47.40215],[13.78082,47.40517],[13.78066,47.40581],[13.78005,47.40681],[13.77954,47.40859],[13.77864,47.41033],[13.77876,47.41069],[13.7792,47.41107],[13.77943,47.41149]]}},{"type":"Feature","properties":{"kind":"piste","difficulty":"easy","name":null,"aerialway":null,"osm":"way/32654787"},"geometry":{"type":"LineString","coordinates":[[13.76941,47.37912],[13.76935,47.37898]]}},{"type":"Feature","properties":{"kind":"piste","difficulty":"easy","name":"Skiweg Höfi-Express","aerialway":null,"osm":"way/32654788"},"geometry":{"type":"LineString","coordinates":[[13.76935,47.37898],[13.77059,47.37935],[13.77169,47.37861],[13.77287,47.37842],[13.77345,47.3786],[13.77447,47.37942],[13.775,47.37964],[13.77562,47.37983],[13.77775,47.38009],[13.77833,47.38032],[13.77874,47.38058],[13.77907,47.381],[13.77934,47.38143],[13.77953,47.3822],[13.77989,47.38259],[13.78102,47.38372],[13.78207,47.38423]]}},{"type":"Feature","properties":{"kind":"piste","difficulty":"intermediate","name":"FIS-Abfahrt","aerialway":null,"osm":"way/32654790"},"geometry":{"type":"LineString","coordinates":[[13.77054,47.37771],[13.77104,47.37828],[13.77132,47.37842],[13.7724,47.37852],[13.77288,47.37881],[13.77341,47.37961],[13.7738,47.38052],[13.77508,47.38416],[13.77555,47.3851]]}},{"type":"Feature","properties":{"kind":"lift","difficulty":null,"name":"Kaibling 6er","aerialway":"chair_lift","osm":"way/32654791"},"geometry":{"type":"LineString","coordinates":[[13.77489,47.39597],[13.76941,47.37912]]}},{"type":"Feature","properties":{"kind":"piste","difficulty":"easy","name":null,"aerialway":null,"osm":"way/32654793"},"geometry":{"type":"LineString","coordinates":[[13.77103,47.3774],[13.77089,47.37734]]}},{"type":"Feature","properties":{"kind":"piste","difficulty":"easy","name":null,"aerialway":null,"osm":"way/32654794"},"geometry":{"type":"LineString","coordinates":[[13.77074,47.37749],[13.77024,47.37816],[13.76932,47.37881],[13.76935,47.37898]]}},{"type":"Feature","properties":{"kind":"piste","difficulty":"intermediate","name":null,"aerialway":null,"osm":"way/32654795"},"geometry":{"type":"LineString","coordinates":[[13.76965,47.3786],[13.7702,47.37845],[13.77163,47.37851]]}},{"type":"Feature","properties":{"kind":"piste","difficulty":"easy","name":"6 - Skiweg Kaiblingalm","aerialway":null,"osm":"way/32654796"},"geometry":{"type":"LineString","coordinates":[[13.77089,47.37734],[13.77149,47.37683],[13.77303,47.37613],[13.77366,47.37566],[13.77371,47.37491],[13.77486,47.37154],[13.77467,47.37044],[13.77416,47.37013],[13.77336,47.36799],[13.77335,47.36766],[13.77395,47.3669],[13.77368,47.36603],[13.77324,47.36564],[13.77228,47.36519],[13.77044,47.36488]]}},{"type":"Feature","properties":{"kind":"piste","difficulty":"advanced","name":"Panorama-Abfahrt","aerialway":null,"osm":"way/32654797"},"geometry":{"type":"LineString","coordinates":[[13.77838,47.37382],[13.77846,47.37406],[13.77597,47.37467],[13.77308,47.37566],[13.77229,47.37578],[13.7722,47.37574],[13.77225,47.37558]]}},{"type":"Feature","properties":{"kind":"lift","difficulty":null,"name":"Gipfelbahn","aerialway":"chair_lift","osm":"way/32654798"},"geometry":{"type":"LineString","coordinates":[[13.77225,47.37558],[13.77838,47.37382]]}},{"type":"Feature","properties":{"kind":"piste","difficulty":"easy","name":"Höfi-Abfahrt","aerialway":null,"osm":"way/32654800"},"geometry":{"type":"LineString","coordinates":[[13.78217,47.37832],[13.7823,47.3788],[13.78232,47.38009],[13.78206,47.38051],[13.78133,47.38117],[13.78124,47.38167],[13.78183,47.38273],[13.78193,47.38401],[13.78277,47.38492],[13.78392,47.38544],[13.7844,47.38662],[13.78461,47.38678],[13.78708,47.38787],[13.78741,47.38854],[13.78748,47.38928],[13.78821,47.39059],[13.78865,47.39183],[13.78931,47.39263],[13.78902,47.39307],[13.78777,47.39355],[13.78584,47.39325],[13.7846,47.3933],[13.78447,47.3935],[13.7848,47.39411],[13.78623,47.39595],[13.78737,47.39713],[13.78753,47.39753],[13.78739,47.39819],[13.7875,47.39868],[13.78818,47.39888],[13.78951,47.39868]]}},{"type":"Feature","properties":{"kind":"piste","difficulty":"intermediate","name":"Höfi-Abfahrt","aerialway":null,"osm":"way/32654801"},"geometry":{"type":"LineString","coordinates":[[13.78747,47.39356],[13.787,47.39456],[13.78597,47.39554]]}},{"type":"Feature","properties":{"kind":"lift","difficulty":null,"name":"Höfi-Express I","aerialway":"chair_lift","osm":"way/32654802"},"geometry":{"type":"LineString","coordinates":[[13.78951,47.39868],[13.78644,47.38907]]}},{"type":"Feature","properties":{"kind":"piste","difficulty":"easy","name":"Zustieg Höfi Express II","aerialway":null,"osm":"way/32654804"},"geometry":{"type":"LineString","coordinates":[[13.78745,47.3889],[13.78707,47.38908],[13.78698,47.38899]]}},{"type":"Feature","properties":{"kind":"lift","difficulty":null,"name":"Höfi-Express II","aerialway":"chair_lift","osm":"way/32654805"},"geometry":{"type":"LineString","coordinates":[[13.78698,47.38899],[13.78262,47.37839]]}},{"type":"Feature","properties":{"kind":"piste","difficulty":"easy","name":null,"aerialway":null,"osm":"way/32654806"},"geometry":{"type":"LineString","coordinates":[[13.78262,47.37839],[13.78258,47.37829],[13.78217,47.37832]]}},{"type":"Feature","properties":{"kind":"piste","difficulty":"intermediate","name":"Ennslingalm-Abfahrt","aerialway":null,"osm":"way/32654807"},"geometry":{"type":"LineString","coordinates":[[13.78217,47.37832],[13.78164,47.37832],[13.78104,47.37937],[13.77774,47.38166],[13.77751,47.38206],[13.77713,47.38342],[13.77555,47.3851],[13.77491,47.38662],[13.77485,47.38734],[13.77527,47.38891],[13.77509,47.38947]]}},{"type":"Feature","properties":{"kind":"piste","difficulty":"easy","name":"Weltcup-Abfahrt","aerialway":null,"osm":"way/32654808"},"geometry":{"type":"LineString","coordinates":[[13.76935,47.37898],[13.76824,47.37868],[13.76751,47.37881],[13.767,47.37912],[13.76697,47.37935],[13.76735,47.38017],[13.76687,47.38038],[13.76519,47.3804],[13.76492,47.38061],[13.76494,47.38086],[13.76515,47.38123],[13.76568,47.38146],[13.76774,47.3821],[13.76874,47.3822],[13.76877,47.3825],[13.76847,47.38314],[13.76888,47.38375],[13.7701,47.38463],[13.77308,47.39082],[13.77407,47.39187],[13.77477,47.39222],[13.7752,47.39279],[13.77483,47.39515],[13.77525,47.39586],[13.77489,47.39597]]}},{"type":"Feature","properties":{"kind":"piste","difficulty":"easy","name":"Kaiblingalm-Abfahrt","aerialway":null,"osm":"way/32654814"},"geometry":{"type":"LineString","coordinates":[[13.78071,47.35921],[13.78086,47.35913],[13.78072,47.35908],[13.78017,47.35936],[13.77919,47.36042],[13.77857,47.36075],[13.77791,47.36149],[13.77773,47.36212],[13.77744,47.36254],[13.77701,47.3628],[13.77574,47.36326],[13.77241,47.36401],[13.77044,47.36488]]}},{"type":"Feature","properties":{"kind":"lift","difficulty":null,"name":"Senderbahn","aerialway":"gondola","osm":"way/32654817"},"geometry":{"type":"LineString","coordinates":[[13.75631,47.36775],[13.77061,47.37742]]}},{"type":"Feature","properties":{"kind":"piste","difficulty":"easy","name":null,"aerialway":null,"osm":"way/32654818"},"geometry":{"type":"LineString","coordinates":[[13.77061,47.37742],[13.77074,47.37749]]}},{"type":"Feature","properties":{"kind":"lift","difficulty":null,"name":"Mitterhausbahn","aerialway":"chair_lift","osm":"way/32679035"},"geometry":{"type":"LineString","coordinates":[[13.74179,47.36933],[13.73083,47.36275]]}},{"type":"Feature","properties":{"kind":"lift","difficulty":null,"name":"Schladminger Tauern Seilbahn","aerialway":"cable_car","osm":"way/41773492"},"geometry":{"type":"LineString","coordinates":[[13.76663,47.40622],[13.76809,47.37916]]}},{"type":"Feature","properties":{"kind":"piste","difficulty":"easy","name":null,"aerialway":null,"osm":"way/51743061"},"geometry":{"type":"LineString","coordinates":[[13.7721,47.38872],[13.77275,47.38888],[13.77391,47.38835],[13.77513,47.38845]]}},{"type":"Feature","properties":{"kind":"lift","difficulty":null,"name":"Alm 6er","aerialway":"chair_lift","osm":"way/147948708"},"geometry":{"type":"LineString","coordinates":[[13.76556,47.36764],[13.78071,47.35921]]}},{"type":"Feature","properties":{"kind":"piste","difficulty":"advanced","name":"Die Schönste","aerialway":null,"osm":"way/147948709"},"geometry":{"type":"LineString","coordinates":[[13.76314,47.36816],[13.76116,47.36835],[13.76,47.36907],[13.75931,47.36921],[13.75853,47.36899],[13.75734,47.36822],[13.75603,47.36793]]}},{"type":"Feature","properties":{"kind":"piste","difficulty":"easy","name":"Kaiblingalm-Abfahrt","aerialway":null,"osm":"way/147948712"},"geometry":{"type":"LineString","coordinates":[[13.76536,47.36723],[13.76556,47.36764]]}},{"type":"Feature","properties":{"kind":"piste","difficulty":"easy","name":"Skiweg Seilbahn","aerialway":null,"osm":"way/147993039"},"geometry":{"type":"LineString","coordinates":[[13.78627,47.38747],[13.78627,47.38771],[13.7856,47.388],[13.78533,47.38865],[13.7846,47.38885],[13.78405,47.38884],[13.78238,47.3884],[13.78096,47.38826],[13.77912,47.38771],[13.77862,47.38749],[13.77744,47.38663],[13.7769,47.38652],[13.7766,47.38669],[13.77627,47.38725],[13.77574,47.38778],[13.77507,47.38825]]}},{"type":"Feature","properties":{"kind":"piste","difficulty":"intermediate","name":"Weltcup-Abfahrt","aerialway":null,"osm":"way/147993043"},"geometry":{"type":"LineString","coordinates":[[13.76735,47.38017],[13.76874,47.3822]]}},{"type":"Feature","properties":{"kind":"piste","difficulty":"intermediate","name":null,"aerialway":null,"osm":"way/147993058"},"geometry":{"type":"LineString","coordinates":[[13.77774,47.38166],[13.77484,47.38218],[13.77455,47.38267]]}},{"type":"Feature","properties":{"kind":"piste","difficulty":"easy","name":"Weltcup-Abfahrt","aerialway":null,"osm":"way/147993067"},"geometry":{"type":"LineString","coordinates":[[13.76874,47.3822],[13.76946,47.38265],[13.76978,47.38305],[13.76999,47.38361],[13.7701,47.38463]]}},{"type":"Feature","properties":{"kind":"piste","difficulty":"easy","name":"Die Schönste","aerialway":null,"osm":"way/198963056"},"geometry":{"type":"LineString","coordinates":[[13.76001,47.36857],[13.76,47.36907]]}},{"type":"Feature","properties":{"kind":"piste","difficulty":"advanced","name":"9a Osthang","aerialway":null,"osm":"way/198970296"},"geometry":{"type":"LineString","coordinates":[[13.77846,47.37406],[13.78078,47.37501],[13.78218,47.37573],[13.78243,47.37631],[13.78243,47.37673],[13.78233,47.37718],[13.7818,47.37813],[13.78217,47.37832]]}},{"type":"Feature","properties":{"kind":"piste","difficulty":"intermediate","name":"Skiweg Prenner-Talabfahrt","aerialway":null,"osm":"way/198970322"},"geometry":{"type":"LineString","coordinates":[[13.78089,47.39225],[13.78004,47.39176],[13.77955,47.39159],[13.77927,47.39165],[13.77907,47.39209],[13.77801,47.39269],[13.77798,47.39391],[13.77708,47.39429],[13.77663,47.3947]]}},{"type":"Feature","properties":{"kind":"piste","difficulty":"easy","name":"Skiweg Markt Haus","aerialway":null,"osm":"way/198970325"},"geometry":{"type":"LineString","coordinates":[[13.77459,47.40684],[13.77335,47.4073],[13.77161,47.40771],[13.76815,47.40762]]}},{"type":"Feature","properties":{"kind":"piste","difficulty":"easy","name":"Skiweg Markt Haus","aerialway":null,"osm":"way/198970326"},"geometry":{"type":"LineString","coordinates":[[13.76815,47.40762],[13.76828,47.40813],[13.77334,47.4093],[13.77531,47.40954],[13.77582,47.40971],[13.77634,47.41019],[13.77744,47.41076],[13.7792,47.41107]]}},{"type":"Feature","properties":{"kind":"lift","difficulty":null,"name":"Ennslingalmlift I","aerialway":"t-bar","osm":"way/256436183"},"geometry":{"type":"LineString","coordinates":[[13.77613,47.39127],[13.78212,47.37777]]}},{"type":"Feature","properties":{"kind":"lift","difficulty":null,"name":"Übungslift","aerialway":"platter","osm":"way/256436184"},"geometry":{"type":"LineString","coordinates":[[13.77295,47.3917],[13.77133,47.38842]]}},{"type":"Feature","properties":{"kind":"piste","difficulty":"easy","name":null,"aerialway":null,"osm":"way/389288003"},"geometry":{"type":"LineString","coordinates":[[13.75603,47.36793],[13.75608,47.36774],[13.75631,47.36775]]}},{"type":"Feature","properties":{"kind":"piste","difficulty":"easy","name":"Ausstieg Höfi-Express I","aerialway":null,"osm":"way/389288011"},"geometry":{"type":"LineString","coordinates":[[13.78644,47.38907],[13.78707,47.38908],[13.78748,47.38928]]}},{"type":"Feature","properties":{"kind":"piste","difficulty":"easy","name":"Die Schönste","aerialway":null,"osm":"way/389288018"},"geometry":{"type":"LineString","coordinates":[[13.76021,47.36895],[13.76001,47.36857]]}},{"type":"Feature","properties":{"kind":"piste","difficulty":"easy","name":null,"aerialway":null,"osm":"way/449605632"},"geometry":{"type":"LineString","coordinates":[[13.76828,47.40813],[13.76845,47.40839],[13.76819,47.40952]]}},{"type":"Feature","properties":{"kind":"piste","difficulty":"advanced","name":"Skiroute 3","aerialway":null,"osm":"way/449605634"},"geometry":{"type":"LineString","coordinates":[[13.77787,47.39794],[13.77744,47.39833],[13.77656,47.39821],[13.77636,47.39981],[13.77655,47.40081],[13.77646,47.40093],[13.7755,47.40132],[13.77371,47.40174],[13.77304,47.40222],[13.77289,47.40256],[13.7729,47.403],[13.77301,47.40323],[13.7737,47.40362],[13.77436,47.40439],[13.77439,47.40513],[13.77361,47.40526],[13.77323,47.40557],[13.77236,47.40581],[13.77216,47.40599],[13.77208,47.40623],[13.7723,47.4066],[13.77308,47.40697],[13.77308,47.40718],[13.77285,47.40741]]}},{"type":"Feature","properties":{"kind":"piste","difficulty":"advanced","name":"FIS-Talabfahrt","aerialway":null,"osm":"way/449605637"},"geometry":{"type":"LineString","coordinates":[[13.77552,47.409],[13.77582,47.40971]]}},{"type":"Feature","properties":{"kind":"piste","difficulty":"intermediate","name":"Ausstieg Tauern Seilbahn","aerialway":null,"osm":"way/449607529"},"geometry":{"type":"LineString","coordinates":[[13.76862,47.37878],[13.76856,47.37896]]}},{"type":"Feature","properties":{"kind":"piste","difficulty":"intermediate","name":"Prenner-Talabfahrt","aerialway":null,"osm":"way/449607530"},"geometry":{"type":"LineString","coordinates":[[13.77525,47.39586],[13.77597,47.39607],[13.77666,47.39648],[13.77703,47.39651]]}},{"type":"Feature","properties":{"kind":"piste","difficulty":"intermediate","name":"Mitterhausabfahrt","aerialway":null,"osm":"way/450504638"},"geometry":{"type":"LineString","coordinates":[[13.73065,47.36265],[13.73157,47.36225],[13.73221,47.36233],[13.7337,47.36331],[13.73473,47.36423],[13.73962,47.36682],[13.74039,47.36774],[13.74152,47.36853],[13.74262,47.36902],[13.7424,47.3693],[13.74179,47.36933]]}},{"type":"Feature","properties":{"kind":"piste","difficulty":"intermediate","name":"Sonneckabfahrt","aerialway":null,"osm":"way/577598210"},"geometry":{"type":"LineString","coordinates":[[13.74576,47.36818],[13.74506,47.36812],[13.74351,47.36753],[13.7427,47.36756],[13.74256,47.36777],[13.74279,47.36864],[13.7437,47.3692],[13.74409,47.36979],[13.74426,47.37032],[13.74453,47.37052],[13.74492,47.37147],[13.74489,47.3728],[13.74526,47.37319],[13.74594,47.37339],[13.74888,47.37319],[13.75181,47.37246],[13.7522,47.37216],[13.7537,47.37014],[13.75424,47.3691],[13.75572,47.36812],[13.75597,47.36807],[13.75603,47.36793]]}},{"type":"Feature","properties":{"kind":"lift","difficulty":null,"name":"Ennslingalmlift II","aerialway":"t-bar","osm":"way/577599009"},"geometry":{"type":"LineString","coordinates":[[13.7762,47.39129],[13.78219,47.37779]]}},{"type":"Feature","properties":{"kind":"piste","difficulty":"intermediate","name":"Mitterhausabfahrt","aerialway":null,"osm":"way/674133293"},"geometry":{"type":"LineString","coordinates":[[13.73962,47.36682],[13.74167,47.36775],[13.74244,47.36824],[13.74279,47.36864],[13.74262,47.36902]]}},{"type":"Feature","properties":{"kind":"piste","difficulty":"easy","name":null,"aerialway":null,"osm":"way/924514703"},"geometry":{"type":"LineString","coordinates":[[13.77089,47.37734],[13.77074,47.37749]]}},{"type":"Feature","properties":{"kind":"lift","difficulty":null,"name":"Wollis Tellerlift","aerialway":"platter","osm":"way/1011496110"},"geometry":{"type":"LineString","coordinates":[[13.77863,47.41084],[13.7781,47.40911]]}},{"type":"Feature","properties":{"kind":"piste","difficulty":"intermediate","name":"Skiweg Prenner-Talabfahrt","aerialway":null,"osm":"way/1023628373"},"geometry":{"type":"LineString","coordinates":[[13.78375,47.39324],[13.78235,47.39307],[13.78132,47.39239],[13.78089,47.39225]]}},{"type":"Feature","properties":{"kind":"piste","difficulty":"intermediate","name":"Skiweg Prenner-Talabfahrt","aerialway":null,"osm":"way/1043464590"},"geometry":{"type":"LineString","coordinates":[[13.7846,47.3933],[13.78375,47.39324]]}},{"type":"Feature","properties":{"kind":"piste","difficulty":"easy","name":"6 - Die Schönste","aerialway":null,"osm":"way/1126490391"},"geometry":{"type":"LineString","coordinates":[[13.77044,47.36488],[13.76392,47.36796],[13.76314,47.36816],[13.76188,47.36748],[13.76158,47.36659],[13.76182,47.36574],[13.76173,47.36562],[13.76034,47.36742],[13.76001,47.36857],[13.75951,47.36747],[13.75948,47.36643],[13.75968,47.36608],[13.75942,47.36529],[13.75951,47.36496],[13.75935,47.36498],[13.75858,47.3662],[13.75845,47.36578],[13.7586,47.36507],[13.75849,47.3649],[13.75786,47.36479],[13.75656,47.3649],[13.75633,47.36508],[13.75529,47.36694],[13.75554,47.36742],[13.75603,47.36793]]}},{"type":"Feature","properties":{"kind":"piste","difficulty":"easy","name":"6 - Die Schönste","aerialway":null,"osm":"way/1126524403"},"geometry":{"type":"LineString","coordinates":[[13.77132,47.36502],[13.76905,47.36594],[13.76798,47.36597]]}},{"type":"Feature","properties":{"kind":"piste","difficulty":"easy","name":"Kaiblingalm-Abfahrt","aerialway":null,"osm":"way/1126524409"},"geometry":{"type":"LineString","coordinates":[[13.77785,47.36176],[13.77693,47.36223],[13.77647,47.36304]]}},{"type":"Feature","properties":{"kind":"piste","difficulty":"easy","name":"Skiweg Markt Haus","aerialway":null,"osm":"way/1350751251"},"geometry":{"type":"LineString","coordinates":[[13.76815,47.40762],[13.76709,47.40764],[13.76675,47.40744]]}},{"type":"Feature","properties":{"kind":"piste","difficulty":"intermediate","name":"Prenner-Talabfahrt","aerialway":null,"osm":"way/1355829640"},"geometry":{"type":"LineString","coordinates":[[13.77991,47.40729],[13.7805,47.40771],[13.78139,47.40759],[13.78154,47.4079],[13.78134,47.40825],[13.78044,47.40885],[13.77926,47.4091]]}},{"type":"Feature","properties":{"kind":"lift","difficulty":null,"name":"Mitterhausalm I","aerialway":"chair_lift","osm":"way/1381047520"},"geometry":{"type":"LineString","coordinates":[[13.75583,47.36823],[13.74576,47.36818]]}},{"type":"Feature","properties":{"kind":"piste","difficulty":"advanced","name":"FIS-Talabfahrt","aerialway":null,"osm":"way/1474119121"},"geometry":{"type":"LineString","coordinates":[[13.77459,47.40684],[13.77537,47.40776],[13.77552,47.409]]}},{"type":"Feature","properties":{"kind":"piste","difficulty":"advanced","name":"Skiroute 9","aerialway":null,"osm":"way/1483885716"},"geometry":{"type":"LineString","coordinates":[[13.77846,47.37406],[13.77719,47.37478],[13.77685,47.37544],[13.77583,47.37609],[13.77505,47.37642],[13.77199,47.37696],[13.77091,47.37735]]}},{"type":"Feature","properties":{"kind":"piste","difficulty":"easy","name":null,"aerialway":null,"osm":"way/1483889204"},"geometry":{"type":"LineString","coordinates":[[13.78212,47.37777],[13.78231,47.37786],[13.78217,47.37832]]}},{"type":"Feature","properties":{"kind":"piste","difficulty":"easy","name":null,"aerialway":null,"osm":"way/1483889205"},"geometry":{"type":"LineString","coordinates":[[13.77133,47.38842],[13.7721,47.38872]]}},{"type":"Feature","properties":{"kind":"piste","difficulty":"easy","name":null,"aerialway":null,"osm":"way/1483889206"},"geometry":{"type":"LineString","coordinates":[[13.77356,47.3914],[13.77295,47.3917]]}},{"type":"Feature","properties":{"kind":"piste","difficulty":"easy","name":null,"aerialway":null,"osm":"way/1483889207"},"geometry":{"type":"LineString","coordinates":[[13.77541,47.39118],[13.7762,47.39129]]}},{"type":"Feature","properties":{"kind":"piste","difficulty":"advanced","name":null,"aerialway":null,"osm":"relation/15077496"},"geometry":{"type":"MultiLineString","coordinates":[[[13.7562,47.3681],[13.75653,47.36819]],[[13.75627,47.36792],[13.7562,47.3681]],[[13.75627,47.36792],[13.75659,47.36799],[13.75688,47.36783]],[[13.75688,47.36783],[13.75747,47.36804],[13.75891,47.36891],[13.75955,47.36898],[13.7602,47.36874],[13.76082,47.36816],[13.76116,47.368],[13.76246,47.36791]],[[13.76297,47.36835],[13.76246,47.36791]],[[13.76303,47.36843],[13.76297,47.36835]],[[13.75799,47.36891],[13.75895,47.36946],[13.75939,47.36949],[13.76042,47.36925],[13.76094,47.36876],[13.76146,47.36855],[13.76303,47.36843]],[[13.75799,47.36891],[13.75761,47.36858],[13.75653,47.36819]]]}},{"type":"Feature","properties":{"kind":"piste","difficulty":"easy","name":null,"aerialway":null,"osm":"relation/15077518"},"geometry":{"type":"MultiLineString","coordinates":[[[13.77985,47.35928],[13.78072,47.35899],[13.781,47.35921]],[[13.7798,47.3594],[13.77985,47.35928]],[[13.77746,47.36176],[13.77836,47.36067],[13.77959,47.35971],[13.7798,47.3594]],[[13.77233,47.36392],[13.77311,47.36362],[13.77437,47.36348],[13.77606,47.36292],[13.77647,47.36273],[13.77697,47.36208],[13.77746,47.36176]],[[13.77233,47.36392],[13.77225,47.36384]],[[13.77144,47.3639],[13.77225,47.36384]],[[13.76723,47.36599],[13.77011,47.3647],[13.77144,47.3639]],[[13.76717,47.36602],[13.76723,47.36599]],[[13.76581,47.36661],[13.76717,47.36602]],[[13.76575,47.36663],[13.76581,47.36661]],[[13.76511,47.3669],[13.76575,47.36663]],[[13.76505,47.36692],[13.76511,47.3669]],[[13.76321,47.36793],[13.76363,47.36785],[13.76496,47.36711],[13.76505,47.36692]],[[13.76313,47.36792],[13.76321,47.36793]],[[13.76256,47.36789],[13.76313,47.36792]],[[13.76256,47.36789],[13.76192,47.36747],[13.7617,47.36697],[13.76162,47.36659],[13.76186,47.36575],[13.7618,47.36559],[13.76158,47.36569],[13.76039,47.36726],[13.76001,47.36854],[13.75955,47.36747],[13.75952,47.36643],[13.75972,47.36608],[13.75946,47.36528],[13.7595,47.36492],[13.75931,47.36497],[13.7586,47.36617],[13.75849,47.36578],[13.75864,47.36503],[13.75836,47.36482],[13.75654,47.36487],[13.75629,47.36507],[13.756,47.36569]],[[13.756,47.36569],[13.75527,47.36693],[13.75532,47.36715],[13.7559,47.36783]],[[13.75587,47.36806],[13.756,47.36797],[13.7559,47.36783]],[[13.75587,47.36806],[13.75603,47.36808]],[[13.75603,47.36808],[13.7562,47.3681]],[[13.75627,47.36792],[13.7562,47.3681]],[[13.75627,47.36792],[13.75595,47.3678]],[[13.75595,47.3678],[13.75532,47.36699],[13.75541,47.36667],[13.75607,47.36573]],[[13.76246,47.36791],[13.76184,47.36749],[13.76162,47.36699],[13.76154,47.36659],[13.76177,47.36565],[13.76047,47.36728],[13.76016,47.36814],[13.76014,47.36853],[13.76001,47.36861],[13.75985,47.36853],[13.75946,47.36747],[13.75943,47.36647],[13.75963,47.36608],[13.75961,47.36576],[13.75937,47.36529],[13.75945,47.36497],[13.75863,47.36622],[13.75846,47.36617],[13.75841,47.36578],[13.75856,47.36507],[13.75833,47.36488],[13.75658,47.36492],[13.75637,47.36509],[13.75607,47.36573]],[[13.76297,47.36835],[13.76246,47.36791]],[[13.76303,47.36843],[13.76297,47.36835]],[[13.76303,47.36843],[13.76368,47.3683],[13.76506,47.36761]],[[13.76506,47.36761],[13.76722,47.36691]],[[13.76758,47.36672],[13.76722,47.36691]],[[13.76758,47.36672],[13.76767,47.36668]],[[13.76767,47.36668],[13.76774,47.36666]],[[13.76841,47.36645],[13.76774,47.36666]],[[13.77142,47.36515],[13.77095,47.36524],[13.76841,47.36645]],[[13.77142,47.36515],[13.77149,47.36501]],[[13.77149,47.36501],[13.77229,47.36437]],[[13.77229,47.36437],[13.77259,47.3642]],[[13.77259,47.3642],[13.7731,47.36407]],[[13.7731,47.36407],[13.77366,47.36413]],[[13.77418,47.36396],[13.77366,47.36413]],[[13.77418,47.36396],[13.77465,47.36363],[13.77572,47.36341]],[[13.77572,47.36341],[13.77685,47.36319],[13.77766,47.36272],[13.77807,47.36222],[13.77844,47.36119],[13.77978,47.36046]],[[13.77978,47.36046],[13.77983,47.36041]],[[13.77983,47.36041],[13.77993,47.35983],[13.78013,47.35962],[13.78102,47.35932]],[[13.78102,47.35925],[13.78102,47.35932]],[[13.781,47.35921],[13.78102,47.35925]],[[13.77718,47.3622],[13.7769,47.36253],[13.77733,47.36222],[13.77743,47.36194],[13.77718,47.3622]],[[13.76893,47.3657],[13.76938,47.36542],[13.77011,47.36526],[13.76995,47.36552],[13.76893,47.3657]]]}},{"type":"Feature","properties":{"kind":"piste","difficulty":"intermediate","name":"Sonneckabfahrt","aerialway":null,"osm":"relation/15090308"},"geometry":{"type":"MultiLineString","coordinates":[[[13.75587,47.36806],[13.7557,47.36811]],[[13.7557,47.36811],[13.75467,47.36878]],[[13.75467,47.36878],[13.75416,47.36916],[13.75368,47.37013],[13.75188,47.3724],[13.74904,47.37315],[13.74609,47.37336]],[[13.74512,47.3724],[13.74508,47.3728],[13.74525,47.37303],[13.74609,47.37336]],[[13.74512,47.3724],[13.74512,47.37237]],[[13.74369,47.36916],[13.74412,47.36979],[13.7443,47.37031],[13.74485,47.37074],[13.74518,47.37136],[13.74529,47.37176],[13.74512,47.37237]],[[13.74369,47.36916],[13.74367,47.36921]],[[13.74367,47.36921],[13.74406,47.3698],[13.74467,47.37149],[13.74452,47.37232]],[[13.74452,47.37236],[13.74452,47.37232]],[[13.74531,47.37331],[13.74456,47.37278],[13.74452,47.37236]],[[13.74531,47.37331],[13.74546,47.37337]],[[13.74546,47.37337],[13.74889,47.37321],[13.75192,47.37243],[13.75373,47.37015],[13.75421,47.36918],[13.75469,47.36882]],[[13.75469,47.36882],[13.75572,47.36816],[13.75596,47.36812]],[[13.75596,47.36812],[13.75603,47.36808]],[[13.75587,47.36806],[13.75603,47.36808]]]}},{"type":"Feature","properties":{"kind":"piste","difficulty":"intermediate","name":null,"aerialway":null,"osm":"relation/15097256"},"geometry":{"type":"MultiLineString","coordinates":[[[13.74275,47.36801],[13.7427,47.36768],[13.74314,47.36754],[13.74404,47.36789]],[[13.74288,47.3674],[13.74245,47.36757],[13.74239,47.36777],[13.7424,47.36792],[13.74275,47.36801]],[[13.74367,47.36751],[13.74288,47.3674]],[[13.74367,47.36751],[13.7439,47.36752]],[[13.7439,47.36752],[13.74515,47.36801],[13.74573,47.36808]],[[13.74504,47.3682],[13.74572,47.36826],[13.74573,47.36808]],[[13.74504,47.3682],[13.74404,47.36789]]]}}]}