{"type":"FeatureCollection","features":[{"type":"Feature","properties":{"kind":"piste","difficulty":"novice","name":"Floiten","aerialway":null,"osm":"way/858282922"},"geometry":{"type":"LineString","coordinates":[[11.8118,47.09862],[11.81129,47.09876],[11.81028,47.09937],[11.81003,47.09959],[11.81014,47.09965]]}},{"type":"Feature","properties":{"kind":"lift","difficulty":null,"name":"Floitenlift","aerialway":"t-bar","osm":"way/778105646"},"geometry":{"type":"LineString","coordinates":[[11.81014,47.09965],[11.8118,47.09862]]}}]}