{"type":"FeatureCollection","features":[{"type":"Feature","properties":{"kind":"piste","difficulty":"easy","name":"Maiskopf","aerialway":null,"osm":"way/31991124"},"geometry":{"type":"LineString","coordinates":[[12.56448,47.45633],[12.56504,47.4562],[12.56587,47.45383],[12.56658,47.45259],[12.56724,47.4519],[12.56834,47.4521],[12.56853,47.45204],[12.5684,47.45192]]}},{"type":"Feature","properties":{"kind":"piste","difficulty":"intermediate","name":"Krotten","aerialway":null,"osm":"way/31991129"},"geometry":{"type":"LineString","coordinates":[[12.56077,47.45063],[12.55876,47.44974],[12.55854,47.44978],[12.55844,47.45014],[12.55874,47.4511],[12.55795,47.45159],[12.55776,47.45209],[12.55619,47.4529],[12.5546,47.45344],[12.55398,47.45382],[12.55348,47.45493],[12.55356,47.45632],[12.55335,47.45697],[12.55265,47.45748],[12.5524,47.45795],[12.55274,47.4588],[12.55262,47.45913],[12.55285,47.46025],[12.55371,47.46219],[12.55352,47.46256],[12.55377,47.46343],[12.55323,47.46501],[12.55262,47.46564]]}},{"type":"Feature","properties":{"kind":"piste","difficulty":"easy","name":"Siebener","aerialway":null,"osm":"way/31991132"},"geometry":{"type":"LineString","coordinates":[[12.56106,47.44658],[12.56172,47.44703],[12.56364,47.44745],[12.56389,47.44771],[12.56396,47.44869],[12.56426,47.4492],[12.56578,47.45079],[12.5665,47.45126],[12.56803,47.45197]]}},{"type":"Feature","properties":{"kind":"piste","difficulty":"easy","name":"Siebener","aerialway":null,"osm":"way/31991137"},"geometry":{"type":"LineString","coordinates":[[12.56519,47.45013],[12.56572,47.45128],[12.56576,47.45207]]}},{"type":"Feature","properties":{"kind":"piste","difficulty":"easy","name":"Maiskopf","aerialway":null,"osm":"way/760016561"},"geometry":{"type":"LineString","coordinates":[[12.56658,47.45259],[12.56576,47.45207]]}},{"type":"Feature","properties":{"kind":"piste","difficulty":"intermediate","name":null,"aerialway":null,"osm":"way/1361623520"},"geometry":{"type":"LineString","coordinates":[[12.55575,47.46303],[12.55679,47.46346],[12.55899,47.46221],[12.55976,47.46192],[12.56087,47.46109],[12.5633,47.4598],[12.56415,47.45919],[12.56439,47.4587],[12.56441,47.45811],[12.56376,47.45818],[12.56348,47.45918],[12.56319,47.45947],[12.55962,47.46138],[12.55901,47.46196],[12.55575,47.46303]]}},{"type":"Feature","properties":{"kind":"piste","difficulty":"intermediate","name":null,"aerialway":null,"osm":"way/1361623521"},"geometry":{"type":"LineString","coordinates":[[12.56376,47.45818],[12.56441,47.45811],[12.56467,47.4569],[12.56491,47.45641],[12.56429,47.45652],[12.56376,47.45818]]}},{"type":"Feature","properties":{"kind":"piste","difficulty":"intermediate","name":null,"aerialway":null,"osm":"way/1361623522"},"geometry":{"type":"LineString","coordinates":[[12.56443,47.45648],[12.5647,47.45627],[12.5645,47.45621],[12.56456,47.45595],[12.5648,47.45587],[12.56478,47.45601],[12.56524,47.45601],[12.56491,47.45641],[12.56443,47.45648]]}},{"type":"Feature","properties":{"kind":"piste","difficulty":"easy","name":null,"aerialway":null,"osm":"way/1361623523"},"geometry":{"type":"LineString","coordinates":[[12.5648,47.45587],[12.56488,47.45601],[12.56524,47.45601],[12.5654,47.4557],[12.56505,47.4556],[12.5648,47.45587]]}},{"type":"Feature","properties":{"kind":"piste","difficulty":"easy","name":null,"aerialway":null,"osm":"way/1361623524"},"geometry":{"type":"LineString","coordinates":[[12.56505,47.4556],[12.56584,47.45205],[12.56684,47.45243],[12.56551,47.45497],[12.5654,47.4557],[12.56505,47.4556]]}},{"type":"Feature","properties":{"kind":"piste","difficulty":"easy","name":null,"aerialway":null,"osm":"way/1361623525"},"geometry":{"type":"LineString","coordinates":[[12.56684,47.45243],[12.56649,47.4523],[12.5676,47.45174],[12.56804,47.45195],[12.56849,47.45196],[12.56869,47.45212],[12.56747,47.45194],[12.56684,47.45243]]}},{"type":"Feature","properties":{"kind":"piste","difficulty":"intermediate","name":null,"aerialway":null,"osm":"way/1361627875"},"geometry":{"type":"LineString","coordinates":[[12.55913,47.44319],[12.55881,47.44324],[12.55935,47.44374],[12.5611,47.44405],[12.56153,47.44422],[12.56184,47.44453],[12.56372,47.44512],[12.56388,47.4462],[12.56536,47.44791],[12.56574,47.44892],[12.56679,47.45047],[12.56672,47.45082],[12.56565,47.45203],[12.56583,47.45209],[12.56707,47.45075],[12.56691,47.45022],[12.56695,47.44971],[12.56627,47.44902],[12.5656,47.44767],[12.56484,47.44702],[12.56474,47.44669],[12.56445,47.44636],[12.56435,47.44547],[12.56405,47.44505],[12.56266,47.4446],[12.56243,47.44434],[12.56163,47.44394],[12.56024,47.44374],[12.55935,47.44343],[12.55913,47.44319]]}},{"type":"Feature","properties":{"kind":"piste","difficulty":"intermediate","name":"9","aerialway":null,"osm":"way/1445794329"},"geometry":{"type":"LineString","coordinates":[[12.56691,47.45072],[12.5675,47.45173]]}},{"type":"Feature","properties":{"kind":"lift","difficulty":null,"name":"Doischberg","aerialway":"gondola","osm":"way/31990048"},"geometry":{"type":"LineString","coordinates":[[12.55151,47.46679],[12.56448,47.45633]]}},{"type":"Feature","properties":{"kind":"lift","difficulty":null,"name":"Maiskopflift","aerialway":"chair_lift","osm":"way/31990049"},"geometry":{"type":"LineString","coordinates":[[12.56576,47.45207],[12.56491,47.45605]]}},{"type":"Feature","properties":{"kind":"lift","difficulty":null,"name":"Lärchfilzen 4er","aerialway":"chair_lift","osm":"way/31990052"},"geometry":{"type":"LineString","coordinates":[[12.5684,47.45192],[12.5558,47.44244]]}},{"type":"Feature","properties":{"kind":"lift","difficulty":null,"name":"Streuböden I","aerialway":"gondola","osm":"way/31990050"},"geometry":{"type":"LineString","coordinates":[[12.55113,47.46724],[12.54086,47.45687]]}},{"type":"Feature","properties":{"kind":"piste","difficulty":"easy","name":"102","aerialway":null,"osm":"way/31991127"},"geometry":{"type":"LineString","coordinates":[[12.54086,47.45687],[12.54112,47.45745],[12.54331,47.46057],[12.54475,47.46125],[12.54573,47.4615],[12.54668,47.46121],[12.54779,47.46108],[12.549,47.4619],[12.55109,47.46229],[12.55139,47.46329],[12.551,47.46401],[12.54985,47.46486],[12.54972,47.46552],[12.55019,47.46635],[12.55113,47.46724]]}},{"type":"Feature","properties":{"kind":"lift","difficulty":null,"name":"Hochfilzen I","aerialway":"t-bar","osm":"way/53453514"},"geometry":{"type":"LineString","coordinates":[[12.61137,47.4766],[12.59652,47.47853]]}},{"type":"Feature","properties":{"kind":"lift","difficulty":null,"name":"Buchensteinwand","aerialway":"chair_lift","osm":"way/104975076"},"geometry":{"type":"LineString","coordinates":[[12.57161,47.50075],[12.57977,47.48459]]}},{"type":"Feature","properties":{"kind":"lift","difficulty":null,"name":"Panoramabahn","aerialway":"chair_lift","osm":"way/307618278"},"geometry":{"type":"LineString","coordinates":[[12.57244,47.48318],[12.58063,47.48408]]}},{"type":"Feature","properties":{"kind":"lift","difficulty":null,"name":"Obingleitnlift","aerialway":"platter","osm":"way/307932535"},"geometry":{"type":"LineString","coordinates":[[12.55066,47.46726],[12.54851,47.46514]]}},{"type":"Feature","properties":{"kind":"lift","difficulty":null,"name":null,"aerialway":"magic_carpet","osm":"way/348060116"},"geometry":{"type":"LineString","coordinates":[[12.55264,47.46675],[12.55286,47.46663]]}},{"type":"Feature","properties":{"kind":"lift","difficulty":null,"name":null,"aerialway":"magic_carpet","osm":"way/348060118"},"geometry":{"type":"LineString","coordinates":[[12.55275,47.46683],[12.55295,47.46674]]}},{"type":"Feature","properties":{"kind":"lift","difficulty":null,"name":"Hochleiten I","aerialway":"t-bar","osm":"way/348061611"},"geometry":{"type":"LineString","coordinates":[[12.57027,47.50042],[12.57406,47.49473]]}},{"type":"Feature","properties":{"kind":"piste","difficulty":"easy","name":"101","aerialway":null,"osm":"way/377212242"},"geometry":{"type":"LineString","coordinates":[[12.54985,47.46486],[12.54869,47.46494],[12.54821,47.46521],[12.54851,47.46617],[12.54914,47.46681],[12.54986,47.46717],[12.55113,47.46724]]}},{"type":"Feature","properties":{"kind":"piste","difficulty":"intermediate","name":"Abfahrt Hochleiten Rot","aerialway":null,"osm":"way/419953979"},"geometry":{"type":"LineString","coordinates":[[12.57379,47.49513],[12.57405,47.4952],[12.57401,47.4954],[12.57297,47.49727],[12.57287,47.498],[12.57182,47.50014],[12.57073,47.50047],[12.57027,47.50042]]}},{"type":"Feature","properties":{"kind":"piste","difficulty":"advanced","name":"Abfahrt Buchensteinwand","aerialway":null,"osm":"way/419953981"},"geometry":{"type":"LineString","coordinates":[[12.58007,47.48478],[12.57858,47.48535],[12.57832,47.48556],[12.57837,47.48582],[12.57876,47.48619],[12.57888,47.48649],[12.57829,47.48782],[12.57824,47.48898],[12.57865,47.49123],[12.57827,47.49292],[12.57802,47.49586],[12.57739,47.49698],[12.57635,47.49823],[12.57176,47.50098]]}},{"type":"Feature","properties":{"kind":"piste","difficulty":"easy","name":"Abfahrt Hochleiten Blau","aerialway":null,"osm":"way/419953988"},"geometry":{"type":"LineString","coordinates":[[12.57405,47.4952],[12.57475,47.49493],[12.57493,47.49571],[12.57244,47.4998],[12.57208,47.50016],[12.57073,47.50047]]}},{"type":"Feature","properties":{"kind":"piste","difficulty":"intermediate","name":"Abfahrt Panoramabahn","aerialway":null,"osm":"way/419953992"},"geometry":{"type":"LineString","coordinates":[[12.58063,47.48408],[12.5791,47.48417],[12.57811,47.48462],[12.57765,47.48452],[12.5762,47.48368],[12.57526,47.48341],[12.57381,47.48319],[12.57261,47.48336],[12.57228,47.48324],[12.57229,47.48315],[12.57244,47.48318]]}},{"type":"Feature","properties":{"kind":"piste","difficulty":"easy","name":"Familienabfahrt","aerialway":null,"osm":"way/419953995"},"geometry":{"type":"LineString","coordinates":[[12.57977,47.48459],[12.57986,47.4844],[12.58015,47.48451],[12.58063,47.48431],[12.58139,47.48443],[12.58236,47.48432],[12.58372,47.48439],[12.58427,47.48427],[12.58596,47.48447],[12.58757,47.48396],[12.58879,47.48395],[12.59092,47.48475],[12.59429,47.48557],[12.59559,47.48671],[12.59717,47.48683],[12.59682,47.48761],[12.5962,47.4885],[12.59652,47.48875],[12.59691,47.4887],[12.59888,47.48777],[12.59867,47.48849],[12.5981,47.48915],[12.59762,47.49044],[12.59724,47.49085],[12.59675,47.49101],[12.59658,47.49066],[12.59618,47.49059],[12.58825,47.49378],[12.58777,47.49448],[12.58717,47.49479],[12.58621,47.4958],[12.58586,47.49596],[12.58567,47.49623],[12.58362,47.49774],[12.58203,47.49798],[12.58117,47.49847],[12.58077,47.49848],[12.57885,47.4997],[12.57222,47.50073],[12.57176,47.501]]}},{"type":"Feature","properties":{"kind":"piste","difficulty":"intermediate","name":"1b","aerialway":null,"osm":"way/419954000"},"geometry":{"type":"LineString","coordinates":[[12.59571,47.48675],[12.5962,47.48854]]}},{"type":"Feature","properties":{"kind":"piste","difficulty":"intermediate","name":"Abfahrt Kammbergalpe","aerialway":null,"osm":"way/419954001"},"geometry":{"type":"LineString","coordinates":[[12.58017,47.4845],[12.58011,47.48482],[12.58242,47.48506],[12.58252,47.48525],[12.58242,47.48562],[12.58498,47.48577],[12.58601,47.48609],[12.58443,47.48626],[12.58461,47.48646],[12.58323,47.487],[12.58311,47.48894],[12.58286,47.489],[12.58297,47.48912],[12.58275,47.48964],[12.58222,47.49026],[12.58206,47.4907],[12.58211,47.4917],[12.58248,47.4929],[12.58292,47.49379],[12.58283,47.49443],[12.58174,47.49629],[12.58186,47.49689],[12.58172,47.4973],[12.5811,47.49825],[12.57884,47.49969],[12.57221,47.50072],[12.57176,47.50099]]}},{"type":"Feature","properties":{"kind":"piste","difficulty":"advanced","name":"Steilhang","aerialway":null,"osm":"way/419954007"},"geometry":{"type":"LineString","coordinates":[[12.58281,47.48568],[12.58313,47.4863],[12.58323,47.487]]}},{"type":"Feature","properties":{"kind":"piste","difficulty":"intermediate","name":"Abfahrt Hochfilzen II","aerialway":null,"osm":"way/419954009"},"geometry":{"type":"LineString","coordinates":[[12.5899,47.48357],[12.5894,47.48375],[12.59053,47.4822],[12.59128,47.48043],[12.59166,47.48005],[12.59233,47.47976],[12.59557,47.47902],[12.5986,47.47846],[12.59867,47.47858]]}},{"type":"Feature","properties":{"kind":"piste","difficulty":"easy","name":"Abfahrt Hochfilzen","aerialway":null,"osm":"way/419954011"},"geometry":{"type":"LineString","coordinates":[[12.60425,47.47773],[12.60498,47.47825],[12.60588,47.47868],[12.60741,47.47907],[12.609,47.47902],[12.60997,47.47863],[12.61081,47.47809],[12.6114,47.47719],[12.61129,47.47674]]}},{"type":"Feature","properties":{"kind":"piste","difficulty":"intermediate","name":"Rennstrecke","aerialway":null,"osm":"way/760003936"},"geometry":{"type":"LineString","coordinates":[[12.55852,47.46241],[12.55572,47.46309],[12.55323,47.46501]]}},{"type":"Feature","properties":{"kind":"lift","difficulty":null,"name":"Hochfilzen II","aerialway":"t-bar","osm":"way/767700105"},"geometry":{"type":"LineString","coordinates":[[12.59867,47.47858],[12.59232,47.47985],[12.59158,47.48028],[12.58971,47.48401]]}},{"type":"Feature","properties":{"kind":"lift","difficulty":null,"name":"Hochleiten II","aerialway":"platter","osm":"way/1150506523"},"geometry":{"type":"LineString","coordinates":[[12.5704,47.50038],[12.57222,47.49767]]}},{"type":"Feature","properties":{"kind":"piste","difficulty":"intermediate","name":"Abfahrt Panoramabahn","aerialway":null,"osm":"way/1244013937"},"geometry":{"type":"LineString","coordinates":[[12.57985,47.48441],[12.57972,47.48407]]}},{"type":"Feature","properties":{"kind":"piste","difficulty":"advanced","name":"Abfahrt Buchensteinwand","aerialway":null,"osm":"way/1244013938"},"geometry":{"type":"LineString","coordinates":[[12.57838,47.48452],[12.57827,47.48478],[12.57832,47.48556]]}},{"type":"Feature","properties":{"kind":"piste","difficulty":"intermediate","name":"Skiweg Abfahrt 2","aerialway":null,"osm":"way/1244018068"},"geometry":{"type":"LineString","coordinates":[[12.59014,47.48442],[12.58973,47.48481],[12.589,47.48469],[12.58684,47.48548],[12.58599,47.48613]]}},{"type":"Feature","properties":{"kind":"piste","difficulty":"intermediate","name":"Skiweg Abfahrt 2","aerialway":null,"osm":"way/1244018069"},"geometry":{"type":"LineString","coordinates":[[12.58461,47.48646],[12.58559,47.48682],[12.58672,47.48684],[12.5871,47.48669],[12.58804,47.48668],[12.59002,47.48727],[12.58901,47.48724],[12.58791,47.48738],[12.5848,47.48844],[12.58391,47.48826],[12.58353,47.48856],[12.58338,47.48888],[12.58311,47.48894]]}},{"type":"Feature","properties":{"kind":"piste","difficulty":"advanced","name":"1c","aerialway":null,"osm":"way/1246026072"},"geometry":{"type":"LineString","coordinates":[[12.59671,47.48877],[12.5977,47.49017]]}},{"type":"Feature","properties":{"kind":"piste","difficulty":"unknown","name":null,"aerialway":null,"osm":"way/1246465276"},"geometry":{"type":"LineString","coordinates":[[12.58805,47.4839],[12.58849,47.48374],[12.58927,47.48301],[12.59047,47.48228]]}},{"type":"Feature","properties":{"kind":"piste","difficulty":"unknown","name":null,"aerialway":null,"osm":"way/1246465277"},"geometry":{"type":"LineString","coordinates":[[12.58899,47.484],[12.58925,47.48395],[12.5894,47.48375]]}},{"type":"Feature","properties":{"kind":"piste","difficulty":"unknown","name":null,"aerialway":null,"osm":"way/1246465278"},"geometry":{"type":"LineString","coordinates":[[12.58944,47.48417],[12.58933,47.48404],[12.58948,47.48376]]}},{"type":"Feature","properties":{"kind":"piste","difficulty":"intermediate","name":"Romed Baumann Abfahrt","aerialway":null,"osm":"way/1246465279"},"geometry":{"type":"LineString","coordinates":[[12.5986,47.47846],[12.60518,47.47758],[12.61024,47.4777],[12.61132,47.47736],[12.61137,47.47694],[12.61125,47.47661]]}},{"type":"Feature","properties":{"kind":"piste","difficulty":"intermediate","name":"Trainingsstrecke","aerialway":null,"osm":"way/1246465280"},"geometry":{"type":"LineString","coordinates":[[12.60425,47.47773],[12.60933,47.47831],[12.61021,47.47811],[12.61132,47.47736]]}},{"type":"Feature","properties":{"kind":"lift","difficulty":null,"name":"Zauberteppich","aerialway":"magic_carpet","osm":"way/1246465281"},"geometry":{"type":"LineString","coordinates":[[12.61127,47.47706],[12.61099,47.47716]]}},{"type":"Feature","properties":{"kind":"lift","difficulty":null,"name":"Übungslift Hochfilzen","aerialway":"rope_tow","osm":"way/1246465282"},"geometry":{"type":"LineString","coordinates":[[12.6112,47.47674],[12.60965,47.47694]]}},{"type":"Feature","properties":{"kind":"piste","difficulty":"novice","name":"Übungslift Hochfilzen","aerialway":null,"osm":"way/1246465283"},"geometry":{"type":"LineString","coordinates":[[12.60965,47.47694],[12.60996,47.47712],[12.61062,47.4771],[12.61102,47.47697],[12.6112,47.47674]]}},{"type":"Feature","properties":{"kind":"piste","difficulty":"novice","name":"Zauberteppich","aerialway":null,"osm":"way/1246465284"},"geometry":{"type":"LineString","coordinates":[[12.61099,47.47716],[12.61127,47.47706]]}},{"type":"Feature","properties":{"kind":"piste","difficulty":"novice","name":"Pletzi-Kinderpark","aerialway":null,"osm":"way/1246911575"},"geometry":{"type":"LineString","coordinates":[[12.57222,47.49767],[12.57257,47.4979],[12.57244,47.49828],[12.57068,47.50037],[12.5704,47.50038]]}},{"type":"Feature","properties":{"kind":"piste","difficulty":"unknown","name":null,"aerialway":null,"osm":"way/1246911576"},"geometry":{"type":"LineString","coordinates":[[12.57073,47.50047],[12.57057,47.5004]]}},{"type":"Feature","properties":{"kind":"piste","difficulty":"intermediate","name":"Abfahrt Hochleiten Rot","aerialway":null,"osm":"way/1246911578"},"geometry":{"type":"LineString","coordinates":[[12.57252,47.49703],[12.57276,47.49719],[12.57287,47.49753]]}},{"type":"Feature","properties":{"kind":"piste","difficulty":"easy","name":null,"aerialway":null,"osm":"way/1358330883"},"geometry":{"type":"LineString","coordinates":[[12.54837,47.46575],[12.54745,47.46639],[12.54799,47.46758],[12.54986,47.46717]]}},{"type":"Feature","properties":{"kind":"piste","difficulty":"easy","name":null,"aerialway":null,"osm":"way/1358330884"},"geometry":{"type":"LineString","coordinates":[[12.54802,47.4661],[12.548,47.46601],[12.54723,47.46618],[12.54762,47.46733],[12.54799,47.46762],[12.54869,47.46748],[12.54858,47.46736],[12.54808,47.46742],[12.5479,47.46686],[12.5477,47.46666],[12.54769,47.46636],[12.54802,47.4661]]}},{"type":"Feature","properties":{"kind":"piste","difficulty":"easy","name":null,"aerialway":null,"osm":"way/1358330885"},"geometry":{"type":"LineString","coordinates":[[12.54869,47.46748],[12.54902,47.46758],[12.55039,47.46743],[12.5506,47.46756],[12.55093,47.46741],[12.55076,47.46724],[12.55056,47.46733],[12.55035,47.46711],[12.54858,47.46736],[12.54869,47.46748]]}},{"type":"Feature","properties":{"kind":"piste","difficulty":"easy","name":null,"aerialway":null,"osm":"way/1358330886"},"geometry":{"type":"LineString","coordinates":[[12.55035,47.46711],[12.54858,47.46736],[12.54822,47.46679],[12.54802,47.4661],[12.54814,47.46579],[12.548,47.46526],[12.54837,47.46505],[12.55035,47.46711]]}},{"type":"Feature","properties":{"kind":"piste","difficulty":"easy","name":null,"aerialway":null,"osm":"way/1358330887"},"geometry":{"type":"LineString","coordinates":[[12.54851,47.46514],[12.54824,47.46531]]}},{"type":"Feature","properties":{"kind":"piste","difficulty":"easy","name":null,"aerialway":null,"osm":"way/1358330888"},"geometry":{"type":"LineString","coordinates":[[12.54837,47.46505],[12.54938,47.46491],[12.54939,47.46478],[12.54837,47.46505]]}},{"type":"Feature","properties":{"kind":"piste","difficulty":"easy","name":null,"aerialway":null,"osm":"way/1358330889"},"geometry":{"type":"LineString","coordinates":[[12.54855,47.46502],[12.54896,47.46496],[12.54896,47.46534],[12.54967,47.46559],[12.54955,47.46567],[12.55091,47.46714],[12.55069,47.46724],[12.54855,47.46502]]}},{"type":"Feature","properties":{"kind":"piste","difficulty":"easy","name":null,"aerialway":null,"osm":"way/1358330890"},"geometry":{"type":"LineString","coordinates":[[12.54939,47.46478],[12.54938,47.46525],[12.54993,47.46592],[12.55132,47.4672],[12.55155,47.46717],[12.55149,47.46694],[12.55084,47.46645],[12.54994,47.46496],[12.54939,47.46478]]}},{"type":"Feature","properties":{"kind":"piste","difficulty":"easy","name":null,"aerialway":null,"osm":"way/1358330891"},"geometry":{"type":"LineString","coordinates":[[12.54939,47.46478],[12.54994,47.46496],[12.55116,47.46409],[12.55167,47.46351],[12.55121,47.46219],[12.55047,47.46246],[12.55087,47.46293],[12.55098,47.46373],[12.55062,47.46425],[12.54939,47.46478]]}},{"type":"Feature","properties":{"kind":"piste","difficulty":"intermediate","name":null,"aerialway":null,"osm":"way/1358330892"},"geometry":{"type":"LineString","coordinates":[[12.55119,47.46666],[12.5513,47.46675],[12.55171,47.46613],[12.55217,47.46597],[12.55182,47.46675],[12.55229,47.46625],[12.55408,47.46489],[12.55679,47.46346],[12.55575,47.46303],[12.55392,47.46437],[12.55325,47.46464],[12.55216,47.46578],[12.55163,47.466],[12.55119,47.46666]]}},{"type":"Feature","properties":{"kind":"piste","difficulty":"easy","name":null,"aerialway":null,"osm":"way/1358330893"},"geometry":{"type":"LineString","coordinates":[[12.55262,47.46564],[12.55164,47.46608],[12.55109,47.46682],[12.55126,47.46698]]}},{"type":"Feature","properties":{"kind":"piste","difficulty":"easy","name":null,"aerialway":null,"osm":"way/1358330894"},"geometry":{"type":"LineString","coordinates":[[12.55126,47.46698],[12.55151,47.46679]]}},{"type":"Feature","properties":{"kind":"piste","difficulty":"easy","name":null,"aerialway":null,"osm":"way/1358330895"},"geometry":{"type":"LineString","coordinates":[[12.55138,47.46703],[12.55126,47.46698]]}},{"type":"Feature","properties":{"kind":"piste","difficulty":"easy","name":null,"aerialway":null,"osm":"way/1360292279"},"geometry":{"type":"LineString","coordinates":[[12.55121,47.46219],[12.5488,47.46152],[12.54815,47.46099],[12.54775,47.46084],[12.5468,47.46094],[12.54456,47.46077],[12.54335,47.4602],[12.54275,47.45943],[12.54173,47.4576],[12.5412,47.45711],[12.54098,47.45713],[12.54073,47.45688],[12.54057,47.45695],[12.54058,47.45733],[12.54157,47.45877],[12.54216,47.45935],[12.54308,47.46078],[12.54449,47.46133],[12.5453,47.46197],[12.54558,47.46202],[12.54767,47.46124],[12.54796,47.46136],[12.54869,47.46213],[12.55031,47.46228],[12.55047,47.46246],[12.55121,47.46219]]}}]}