{"type":"FeatureCollection","features":[{"type":"Feature","properties":{"kind":"lift","difficulty":null,"name":"Karrenseilbahn","aerialway":"cable_car","osm":"way/25526735"},"geometry":{"type":"LineString","coordinates":[[9.75358,47.40048],[9.75097,47.3881]]}},{"type":"Feature","properties":{"kind":"lift","difficulty":null,"name":"Schuttannen","aerialway":"drag_lift","osm":"way/61228153"},"geometry":{"type":"LineString","coordinates":[[9.74507,47.36641],[9.74184,47.36373]]}},{"type":"Feature","properties":{"kind":"lift","difficulty":null,"name":"Schuttannen","aerialway":"drag_lift","osm":"way/61228157"},"geometry":{"type":"LineString","coordinates":[[9.74245,47.3627],[9.73647,47.36145]]}},{"type":"Feature","properties":{"kind":"piste","difficulty":"easy","name":null,"aerialway":null,"osm":"way/670261747"},"geometry":{"type":"LineString","coordinates":[[9.74231,47.36396],[9.74225,47.36346],[9.74245,47.3627]]}},{"type":"Feature","properties":{"kind":"piste","difficulty":"easy","name":null,"aerialway":null,"osm":"way/670261748"},"geometry":{"type":"LineString","coordinates":[[9.73693,47.36154],[9.73738,47.36119],[9.73781,47.36106],[9.7384,47.36046],[9.73962,47.3605],[9.74038,47.36076],[9.74124,47.36173],[9.74255,47.36242],[9.74265,47.3626],[9.74245,47.3627]]}},{"type":"Feature","properties":{"kind":"piste","difficulty":"easy","name":null,"aerialway":null,"osm":"way/670261749"},"geometry":{"type":"LineString","coordinates":[[9.74224,47.36406],[9.74231,47.36396],[9.74491,47.36591],[9.74507,47.36641]]}},{"type":"Feature","properties":{"kind":"piste","difficulty":"easy","name":null,"aerialway":null,"osm":"way/670263003"},"geometry":{"type":"LineString","coordinates":[[9.74245,47.3627],[9.74344,47.36292],[9.74432,47.36329],[9.74533,47.36389],[9.74591,47.36453]]}},{"type":"Feature","properties":{"kind":"piste","difficulty":"easy","name":null,"aerialway":null,"osm":"way/670263004"},"geometry":{"type":"LineString","coordinates":[[9.73693,47.36154],[9.73705,47.36179],[9.73732,47.36189],[9.74203,47.36286],[9.74245,47.3627]]}},{"type":"Feature","properties":{"kind":"piste","difficulty":"easy","name":null,"aerialway":null,"osm":"way/1443004662"},"geometry":{"type":"LineString","coordinates":[[9.74591,47.36453],[9.74627,47.36528],[9.7462,47.36551],[9.74507,47.36641]]}},{"type":"Feature","properties":{"kind":"piste","difficulty":"easy","name":null,"aerialway":null,"osm":"way/1443004663"},"geometry":{"type":"LineString","coordinates":[[9.74344,47.36292],[9.7437,47.36325],[9.74359,47.36384],[9.74399,47.36426],[9.74412,47.36527]]}},{"type":"Feature","properties":{"kind":"piste","difficulty":"easy","name":null,"aerialway":null,"osm":"way/1443004664"},"geometry":{"type":"LineString","coordinates":[[9.74364,47.36394],[9.74395,47.36405],[9.74444,47.3639],[9.7454,47.36398]]}},{"type":"Feature","properties":{"kind":"piste","difficulty":"easy","name":null,"aerialway":null,"osm":"way/1443004665"},"geometry":{"type":"LineString","coordinates":[[9.74231,47.36396],[9.74293,47.36308],[9.74344,47.36292]]}},{"type":"Feature","properties":{"kind":"piste","difficulty":"intermediate","name":null,"aerialway":null,"osm":"way/1443004666"},"geometry":{"type":"LineString","coordinates":[[9.74224,47.36406],[9.74219,47.36415],[9.74307,47.36508],[9.74434,47.36603],[9.74507,47.36641]]}}]}