{"type":"FeatureCollection","features":[{"type":"Feature","properties":{"kind":"lift","difficulty":null,"name":"Bichllift","aerialway":"t-bar","osm":"way/655454126"},"geometry":{"type":"LineString","coordinates":[[12.36932,47.01647],[12.36299,47.01828]]}},{"type":"Feature","properties":{"kind":"lift","difficulty":null,"name":"Prägratenlift","aerialway":"t-bar","osm":"way/683411075"},"geometry":{"type":"LineString","coordinates":[[12.37061,47.01631],[12.36673,47.02036]]}},{"type":"Feature","properties":{"kind":"piste","difficulty":"easy","name":null,"aerialway":null,"osm":"way/772462544"},"geometry":{"type":"LineString","coordinates":[[12.36673,47.02036],[12.36647,47.02021],[12.36663,47.01974],[12.37002,47.01637],[12.37037,47.01624],[12.37061,47.01631]]}},{"type":"Feature","properties":{"kind":"piste","difficulty":"intermediate","name":null,"aerialway":null,"osm":"way/772462545"},"geometry":{"type":"LineString","coordinates":[[12.36299,47.01828],[12.36363,47.01823],[12.36449,47.01912],[12.36457,47.01938],[12.36547,47.01957],[12.36604,47.01943],[12.36674,47.01897],[12.3678,47.01855]]}},{"type":"Feature","properties":{"kind":"piste","difficulty":"easy","name":null,"aerialway":null,"osm":"way/772462546"},"geometry":{"type":"LineString","coordinates":[[12.3696,47.01676],[12.36958,47.01653],[12.36932,47.01647]]}},{"type":"Feature","properties":{"kind":"piste","difficulty":"advanced","name":null,"aerialway":null,"osm":"way/772462547"},"geometry":{"type":"LineString","coordinates":[[12.36363,47.01823],[12.36639,47.0176],[12.36778,47.0175],[12.36873,47.017],[12.3696,47.01676]]}},{"type":"Feature","properties":{"kind":"piste","difficulty":"intermediate","name":null,"aerialway":null,"osm":"way/772462548"},"geometry":{"type":"LineString","coordinates":[[12.364,47.01868],[12.36535,47.01878],[12.36658,47.01866],[12.36819,47.01816]]}}]}