{"type":"FeatureCollection","features":[{"type":"Feature","properties":{"kind":"lift","difficulty":null,"name":"Popolo 2","aerialway":"chair_lift","osm":"way/29983428"},"geometry":{"type":"LineString","coordinates":[[13.412,47.40145],[13.42897,47.40731]]}},{"type":"Feature","properties":{"kind":"lift","difficulty":null,"name":"Topolino 2","aerialway":"platter","osm":"way/351274373"},"geometry":{"type":"LineString","coordinates":[[13.41263,47.40072],[13.41639,47.40099]]}},{"type":"Feature","properties":{"kind":"piste","difficulty":"easy","name":"Popolo","aerialway":null,"osm":"way/425728061"},"geometry":{"type":"LineString","coordinates":[[13.42421,47.40531],[13.4221,47.4042],[13.42153,47.40402],[13.41897,47.40261],[13.4178,47.40216],[13.41556,47.40159],[13.41511,47.40115],[13.41428,47.40141],[13.41302,47.40121],[13.41207,47.40134]]}},{"type":"Feature","properties":{"kind":"piste","difficulty":"intermediate","name":null,"aerialway":null,"osm":"way/425728062"},"geometry":{"type":"LineString","coordinates":[[13.42817,47.40767],[13.41425,47.40319],[13.41298,47.40273],[13.41233,47.40235]]}},{"type":"Feature","properties":{"kind":"piste","difficulty":"intermediate","name":"Popolo","aerialway":null,"osm":"way/425728063"},"geometry":{"type":"LineString","coordinates":[[13.41233,47.40235],[13.41039,47.40132],[13.40953,47.40061],[13.40852,47.39878],[13.4083,47.39867],[13.40746,47.39881],[13.40662,47.39933],[13.40547,47.39964],[13.40447,47.40049],[13.40373,47.40135],[13.40331,47.40162],[13.4025,47.40184],[13.40128,47.40189],[13.40067,47.40186],[13.4005,47.40161]]}},{"type":"Feature","properties":{"kind":"piste","difficulty":"intermediate","name":"Popolo","aerialway":null,"osm":"way/425728064"},"geometry":{"type":"LineString","coordinates":[[13.42897,47.40731],[13.42907,47.40745],[13.42879,47.40766],[13.42817,47.40767],[13.42721,47.40792],[13.42632,47.40786],[13.42507,47.40732],[13.42395,47.40713],[13.42234,47.40808],[13.42099,47.40861],[13.41908,47.40842],[13.41706,47.4079],[13.4169,47.40764],[13.41671,47.40598],[13.41569,47.40481],[13.41429,47.40423],[13.413,47.40305],[13.41233,47.40235],[13.412,47.40145],[13.41184,47.40146],[13.41207,47.40134]]}},{"type":"Feature","properties":{"kind":"piste","difficulty":"easy","name":"Topolino","aerialway":null,"osm":"way/425728066"},"geometry":{"type":"LineString","coordinates":[[13.41574,47.40094],[13.41511,47.40115],[13.41319,47.40092],[13.41257,47.40074],[13.41276,47.40073]]}},{"type":"Feature","properties":{"kind":"piste","difficulty":"intermediate","name":"Popolo","aerialway":null,"osm":"way/425728067"},"geometry":{"type":"LineString","coordinates":[[13.41219,47.40227],[13.41048,47.40229],[13.40949,47.40216],[13.40923,47.40202],[13.4089,47.40053],[13.40878,47.39931]]}},{"type":"Feature","properties":{"kind":"piste","difficulty":"intermediate","name":"Popolo","aerialway":null,"osm":"way/425728068"},"geometry":{"type":"LineString","coordinates":[[13.42897,47.40731],[13.4292,47.40732],[13.42939,47.40709],[13.42907,47.40692],[13.42723,47.4064],[13.42568,47.40568],[13.42421,47.40531]]}},{"type":"Feature","properties":{"kind":"piste","difficulty":"easy","name":"Zur Talstation Popolo II","aerialway":null,"osm":"way/425914639"},"geometry":{"type":"LineString","coordinates":[[13.41451,47.4027],[13.41449,47.40239],[13.412,47.40145]]}},{"type":"Feature","properties":{"kind":"piste","difficulty":"easy","name":"Topolino","aerialway":null,"osm":"way/1066504813"},"geometry":{"type":"LineString","coordinates":[[13.41261,47.40075],[13.41207,47.40134]]}},{"type":"Feature","properties":{"kind":"lift","difficulty":null,"name":"Übungslift Topolinie I","aerialway":"rope_tow","osm":"way/1339586869"},"geometry":{"type":"LineString","coordinates":[[13.39978,47.40381],[13.40143,47.40543]]}},{"type":"Feature","properties":{"kind":"piste","difficulty":"novice","name":null,"aerialway":null,"osm":"way/1339586870"},"geometry":{"type":"LineString","coordinates":[[13.40143,47.40543],[13.40075,47.40529],[13.40005,47.40494],[13.39974,47.4044],[13.39941,47.40417],[13.39943,47.40402],[13.39978,47.40381]]}},{"type":"Feature","properties":{"kind":"piste","difficulty":"easy","name":null,"aerialway":null,"osm":"way/1339586873"},"geometry":{"type":"LineString","coordinates":[[13.40343,47.40154],[13.40327,47.40221],[13.40305,47.40241],[13.40248,47.40216],[13.40108,47.40217],[13.40079,47.40266],[13.40027,47.40296],[13.39978,47.40381]]}}]}