{"type":"FeatureCollection","features":[{"type":"Feature","properties":{"kind":"lift","difficulty":null,"name":"Schießstandlift","aerialway":"platter","osm":"way/196748623"},"geometry":{"type":"LineString","coordinates":[[10.4071,47.15003],[10.40962,47.152]]}},{"type":"Feature","properties":{"kind":"piste","difficulty":"easy","name":null,"aerialway":null,"osm":"way/1425753917"},"geometry":{"type":"LineString","coordinates":[[10.40948,47.15188],[10.40941,47.15153],[10.40902,47.1511],[10.40741,47.14999],[10.4071,47.15003],[10.40948,47.15188]]}},{"type":"Feature","properties":{"kind":"piste","difficulty":"easy","name":null,"aerialway":null,"osm":"way/1425753918"},"geometry":{"type":"LineString","coordinates":[[10.40948,47.15188],[10.4088,47.15114],[10.4074,47.15012],[10.4071,47.15003]]}}]}