{"type":"FeatureCollection","features":[{"type":"Feature","properties":{"kind":"piste","difficulty":"intermediate","name":"5","aerialway":null,"osm":"way/417863417"},"geometry":{"type":"LineString","coordinates":[[13.81966,46.86935],[13.81969,46.86816],[13.82002,46.86723],[13.821,46.86656]]}},{"type":"Feature","properties":{"kind":"piste","difficulty":"intermediate","name":"2","aerialway":null,"osm":"way/560707865"},"geometry":{"type":"LineString","coordinates":[[13.821,46.86656],[13.82207,46.86673],[13.82383,46.86633],[13.82809,46.86507]]}},{"type":"Feature","properties":{"kind":"lift","difficulty":null,"name":"Zirmachlift","aerialway":"t-bar","osm":"way/325783917"},"geometry":{"type":"LineString","coordinates":[[13.84068,46.85697],[13.83082,46.85833]]}},{"type":"Feature","properties":{"kind":"lift","difficulty":null,"name":"Falkertlift","aerialway":"drag_lift","osm":"way/325783749"},"geometry":{"type":"LineString","coordinates":[[13.83231,46.86386],[13.81923,46.87021]]}},{"type":"Feature","properties":{"kind":"lift","difficulty":null,"name":"Sonnenlift","aerialway":"platter","osm":"way/325783911"},"geometry":{"type":"LineString","coordinates":[[13.83238,46.86371],[13.833,46.86988]]}},{"type":"Feature","properties":{"kind":"piste","difficulty":"intermediate","name":"6","aerialway":null,"osm":"way/417863413"},"geometry":{"type":"LineString","coordinates":[[13.81938,46.87015],[13.81966,46.86935],[13.82152,46.86821],[13.82633,46.8664],[13.82796,46.86558],[13.83034,46.86413],[13.83228,46.86381],[13.83218,46.86393]]}},{"type":"Feature","properties":{"kind":"piste","difficulty":"intermediate","name":"7","aerialway":null,"osm":"way/417863419"},"geometry":{"type":"LineString","coordinates":[[13.81938,46.87015],[13.82064,46.87005],[13.82433,46.86879],[13.82885,46.86652],[13.83207,46.8644],[13.83235,46.86397],[13.83229,46.86383]]}},{"type":"Feature","properties":{"kind":"piste","difficulty":"intermediate","name":"8","aerialway":null,"osm":"way/417863421"},"geometry":{"type":"LineString","coordinates":[[13.82064,46.87005],[13.82453,46.87063],[13.82591,46.8706],[13.82762,46.86941],[13.82964,46.86739],[13.83207,46.8644]]}},{"type":"Feature","properties":{"kind":"piste","difficulty":"easy","name":"9","aerialway":null,"osm":"way/417863424"},"geometry":{"type":"LineString","coordinates":[[13.833,46.86985],[13.83244,46.86973],[13.83193,46.86885],[13.83169,46.86712],[13.83217,46.86457],[13.83249,46.86373]]}},{"type":"Feature","properties":{"kind":"piste","difficulty":"easy","name":"10","aerialway":null,"osm":"way/417863427"},"geometry":{"type":"LineString","coordinates":[[13.833,46.86985],[13.83334,46.86927],[13.8334,46.86872],[13.83328,46.86639],[13.83295,46.86467],[13.8325,46.86373],[13.83238,46.86371]]}},{"type":"Feature","properties":{"kind":"piste","difficulty":"easy","name":"11","aerialway":null,"osm":"way/417863430"},"geometry":{"type":"LineString","coordinates":[[13.83309,46.86982],[13.83493,46.86803],[13.8353,46.86612],[13.83422,46.8648],[13.83263,46.86404]]}},{"type":"Feature","properties":{"kind":"lift","difficulty":null,"name":"Heidis Schneeland","aerialway":"j-bar","osm":"way/1225897997"},"geometry":{"type":"LineString","coordinates":[[13.83323,46.86338],[13.83346,46.864]]}}]}