{"type":"FeatureCollection","features":[{"type":"Feature","properties":{"kind":"lift","difficulty":null,"name":"Gletscher Jet","aerialway":"chair_lift","osm":"way/29320174"},"geometry":{"type":"LineString","coordinates":[[13.00933,47.03427],[13.02051,47.03942]]}},{"type":"Feature","properties":{"kind":"lift","difficulty":null,"name":"Panoramabahn Klühspies","aerialway":"chair_lift","osm":"way/29320175"},"geometry":{"type":"LineString","coordinates":[[12.9982,47.0338],[13.00991,47.03175]]}},{"type":"Feature","properties":{"kind":"lift","difficulty":null,"name":"Eisseebahn","aerialway":"gondola","osm":"way/29320176"},"geometry":{"type":"LineString","coordinates":[[13.0159,47.01638],[13.01105,47.03113]]}},{"type":"Feature","properties":{"kind":"lift","difficulty":null,"name":"Schwarzkopfbahn","aerialway":"chair_lift","osm":"way/29320177"},"geometry":{"type":"LineString","coordinates":[[13.025,47.01232],[13.01569,47.01187]]}},{"type":"Feature","properties":{"kind":"lift","difficulty":null,"name":"Schlepplift Mittelstation","aerialway":"t-bar","osm":"way/29422101"},"geometry":{"type":"LineString","coordinates":[[13.01621,47.01713],[13.01686,47.01525]]}},{"type":"Feature","properties":{"kind":"piste","difficulty":"easy","name":"12 Weißsee Abfahrt","aerialway":null,"osm":"way/54657185"},"geometry":{"type":"LineString","coordinates":[[13.01602,47.01445],[13.01565,47.0145],[13.01678,47.01324],[13.01731,47.01237],[13.01732,47.01166],[13.01681,47.01092],[13.01608,47.01109],[13.01585,47.01174],[13.01553,47.01178],[13.0156,47.01122],[13.01591,47.01086],[13.01656,47.01061],[13.01708,47.01067],[13.01769,47.01177],[13.01772,47.01251],[13.01704,47.01354],[13.01653,47.01395],[13.01653,47.01419],[13.01683,47.01434],[13.01651,47.01439],[13.01619,47.01419],[13.01602,47.01445]]}},{"type":"Feature","properties":{"kind":"lift","difficulty":null,"name":"Stübelelift","aerialway":"platter","osm":"way/54657187"},"geometry":{"type":"LineString","coordinates":[[13.01563,47.01686],[13.01362,47.01579]]}},{"type":"Feature","properties":{"kind":"piste","difficulty":"easy","name":"9 Familienabfahrt","aerialway":null,"osm":"way/54657188"},"geometry":{"type":"LineString","coordinates":[[13.00888,47.03232],[13.01035,47.03186],[13.01029,47.03176],[13.00945,47.03198],[13.0089,47.03186],[13.00707,47.03239],[13.00586,47.03302],[13.00534,47.03287],[13.0046,47.03146],[13.00451,47.03044],[13.00558,47.02958],[13.00833,47.02656],[13.00817,47.02478],[13.00858,47.02408],[13.01017,47.02203],[13.01083,47.02065],[13.01094,47.01902],[13.01109,47.01858],[13.01163,47.01783],[13.01167,47.01711],[13.01235,47.01636],[13.01388,47.01557],[13.01483,47.01547],[13.01541,47.01597],[13.01569,47.01576],[13.01532,47.01506],[13.01458,47.0147],[13.01302,47.01521],[13.0117,47.016],[13.0111,47.01687],[13.01104,47.01804],[13.01047,47.01881],[13.01022,47.0207],[13.00921,47.02219],[13.00808,47.02356],[13.00734,47.02475],[13.00739,47.02626],[13.00682,47.02708],[13.00409,47.03013],[13.00372,47.03117],[13.00485,47.03298],[13.00604,47.03373],[13.00888,47.03232]]}},{"type":"Feature","properties":{"kind":"piste","difficulty":"advanced","name":null,"aerialway":null,"osm":"way/54657189"},"geometry":{"type":"LineString","coordinates":[[13.02003,47.03948],[13.02015,47.03967],[13.01854,47.04048],[13.01614,47.03862],[13.01561,47.03769],[13.01523,47.03651],[13.01443,47.03578],[13.01411,47.03478],[13.01306,47.03415],[13.00969,47.03381],[13.01017,47.03358],[13.01337,47.03393],[13.01451,47.03463],[13.01492,47.03574],[13.01587,47.03657],[13.01609,47.03764],[13.0196,47.03945],[13.02003,47.03948]]}},{"type":"Feature","properties":{"kind":"piste","difficulty":"intermediate","name":"Schareck 2","aerialway":null,"osm":"way/54657191"},"geometry":{"type":"LineString","coordinates":[[13.02074,47.03793],[13.01808,47.03605],[13.01482,47.03353],[13.01431,47.03299],[13.01345,47.03274],[13.01129,47.03316],[13.01341,47.03325],[13.01388,47.03353],[13.02031,47.03896],[13.02035,47.0387],[13.02001,47.03847],[13.01959,47.03784],[13.02049,47.03828],[13.02074,47.03793]]}},{"type":"Feature","properties":{"kind":"piste","difficulty":"intermediate","name":"5 Wurtenboden","aerialway":null,"osm":"way/54657192"},"geometry":{"type":"LineString","coordinates":[[13.00784,47.03452],[13.00856,47.03407],[13.00905,47.03423],[13.00742,47.03541],[13.00535,47.03608],[13.00239,47.03663],[13.00041,47.03617],[12.99926,47.0352],[12.99766,47.03442],[12.99754,47.03395],[12.99791,47.03373],[12.99804,47.03381],[12.99795,47.03411],[12.99823,47.03436],[12.99983,47.03485],[13.00069,47.03534],[13.00309,47.0358],[13.00598,47.03551],[13.00784,47.03452]]}},{"type":"Feature","properties":{"kind":"piste","difficulty":"freeride","name":"Variante","aerialway":null,"osm":"way/54657193"},"geometry":{"type":"LineString","coordinates":[[13.0119,47.02405],[13.01264,47.02385],[13.01289,47.02346],[13.01388,47.02078],[13.01412,47.01829],[13.01527,47.01682],[13.01558,47.01694],[13.01468,47.01878],[13.01442,47.0204],[13.01352,47.02203],[13.01295,47.02397],[13.01254,47.02453],[13.0119,47.02405]]}},{"type":"Feature","properties":{"kind":"piste","difficulty":"intermediate","name":"11 Stübelesee Abfahrt","aerialway":null,"osm":"way/54657194"},"geometry":{"type":"LineString","coordinates":[[13.01562,47.01196],[13.01523,47.01186],[13.01376,47.01225],[13.0134,47.01248],[13.01295,47.0131],[13.01246,47.01419],[13.012,47.01467],[13.01219,47.01571],[13.01267,47.01542],[13.01243,47.01484],[13.01284,47.01433],[13.01356,47.01291],[13.01408,47.0125],[13.01562,47.01196]]}},{"type":"Feature","properties":{"kind":"piste","difficulty":"freeride","name":"Schareck 4","aerialway":null,"osm":"way/54657195"},"geometry":{"type":"LineString","coordinates":[[13.01837,47.04052],[13.01592,47.03872],[13.0149,47.03732],[13.00869,47.03649],[13.00602,47.03765],[13.01129,47.03982],[13.01453,47.0408],[13.01671,47.04099],[13.01837,47.04052]]}},{"type":"Feature","properties":{"kind":"piste","difficulty":"intermediate","name":"12 Weißsee Abfahrt","aerialway":null,"osm":"way/54657196"},"geometry":{"type":"LineString","coordinates":[[13.01553,47.01515],[13.01458,47.0147],[13.0199,47.01392],[13.02162,47.01346],[13.02338,47.01321],[13.02496,47.0124],[13.02539,47.01242],[13.0245,47.01324],[13.02288,47.01371],[13.02052,47.01403],[13.01991,47.01432],[13.0176,47.01461],[13.01553,47.01515]]}},{"type":"Feature","properties":{"kind":"piste","difficulty":"advanced","name":"10 Eissee FIS Abfahrt","aerialway":null,"osm":"way/54657198"},"geometry":{"type":"LineString","coordinates":[[13.01143,47.03092],[13.01221,47.02808],[13.01266,47.02786],[13.01291,47.02752],[13.01272,47.02664],[13.01249,47.02628],[13.01097,47.02545],[13.01075,47.02415],[13.01056,47.02399],[13.01029,47.02398],[13.00944,47.02462],[13.00819,47.02502],[13.00817,47.02478],[13.00928,47.02448],[13.01016,47.02387],[13.01073,47.02382],[13.01099,47.02401],[13.0113,47.02538],[13.0125,47.02605],[13.01321,47.02685],[13.01313,47.0277],[13.01234,47.02846],[13.01192,47.03],[13.01293,47.03057],[13.01143,47.03092]]}},{"type":"Feature","properties":{"kind":"piste","difficulty":"intermediate","name":null,"aerialway":null,"osm":"way/54657199"},"geometry":{"type":"LineString","coordinates":[[13.02095,47.0376],[13.01774,47.03519],[13.01628,47.03365],[13.01515,47.0328],[13.01395,47.03266],[13.01212,47.03293],[13.0107,47.03332],[13.00939,47.03395],[13.00905,47.03423],[13.00856,47.03407],[13.00916,47.03355],[13.01158,47.03241],[13.01237,47.03181],[13.01312,47.03168],[13.01406,47.03189],[13.01531,47.03232],[13.01616,47.03291],[13.01843,47.03497],[13.01957,47.03571],[13.02103,47.03697],[13.02111,47.03733],[13.02095,47.0376]]}},{"type":"Feature","properties":{"kind":"piste","difficulty":"intermediate","name":"8 Wurtenboden Trainingspiste","aerialway":null,"osm":"way/54657200"},"geometry":{"type":"LineString","coordinates":[[13.00604,47.03373],[13.00577,47.03347],[13.00517,47.03322],[13.00505,47.0334],[12.99983,47.03485],[13.00069,47.03534],[13.00604,47.03373]]}},{"type":"Feature","properties":{"kind":"lift","difficulty":null,"name":"Alteck","aerialway":"chair_lift","osm":"way/143449335"},"geometry":{"type":"LineString","coordinates":[[12.99565,47.03254],[12.987,47.02872]]}},{"type":"Feature","properties":{"kind":"piste","difficulty":"advanced","name":"13","aerialway":null,"osm":"way/143449336"},"geometry":{"type":"LineString","coordinates":[[12.98728,47.03028],[12.9886,47.03046],[12.9891,47.03088],[12.99285,47.03233],[12.99364,47.03245],[12.9949,47.03175],[12.99554,47.03262],[12.99565,47.03254]]}},{"type":"Feature","properties":{"kind":"piste","difficulty":"intermediate","name":"14","aerialway":null,"osm":"way/143449338"},"geometry":{"type":"LineString","coordinates":[[12.98822,47.03273],[12.98834,47.03295],[12.99152,47.0356],[12.99309,47.03535],[12.9948,47.03551],[12.9962,47.03537],[12.99721,47.03462],[12.99759,47.03458],[12.99791,47.03426]]}},{"type":"Feature","properties":{"kind":"piste","difficulty":"intermediate","name":null,"aerialway":null,"osm":"way/143449340"},"geometry":{"type":"LineString","coordinates":[[12.9977,47.03409],[12.99672,47.03305],[12.99565,47.03254]]}},{"type":"Feature","properties":{"kind":"piste","difficulty":"easy","name":null,"aerialway":null,"osm":"way/209732080"},"geometry":{"type":"LineString","coordinates":[[13.01315,47.03118],[13.01251,47.03101],[13.01145,47.03114]]}},{"type":"Feature","properties":{"kind":"piste","difficulty":"intermediate","name":null,"aerialway":null,"osm":"way/209732089"},"geometry":{"type":"LineString","coordinates":[[13.00838,47.03403],[13.00748,47.03434],[13.00634,47.03453],[13.00613,47.03441],[13.00602,47.03377],[13.00582,47.03354]]}},{"type":"Feature","properties":{"kind":"piste","difficulty":"intermediate","name":null,"aerialway":null,"osm":"way/209732090"},"geometry":{"type":"LineString","coordinates":[[13.00973,47.03197],[13.00783,47.03343],[13.00786,47.03383],[13.00879,47.03369]]}},{"type":"Feature","properties":{"kind":"lift","difficulty":null,"name":"Sesselbahn 3000","aerialway":"chair_lift","osm":"way/440291528"},"geometry":{"type":"LineString","coordinates":[[13.00939,47.03407],[13.02008,47.03902]]}},{"type":"Feature","properties":{"kind":"piste","difficulty":"intermediate","name":"Weißsee Abfahrt","aerialway":null,"osm":"way/440300998"},"geometry":{"type":"LineString","coordinates":[[13.01705,47.01447],[13.01972,47.01415],[13.02064,47.01381],[13.02236,47.01362],[13.02408,47.01316],[13.02508,47.01248],[13.02512,47.01233],[13.025,47.01232]]}},{"type":"Feature","properties":{"kind":"piste","difficulty":"intermediate","name":"15 Alteck 2","aerialway":null,"osm":"way/440300999"},"geometry":{"type":"LineString","coordinates":[[12.98795,47.03185],[12.99045,47.03313],[12.99142,47.03331],[12.99174,47.03364],[12.99249,47.03386],[12.99339,47.03441],[12.99482,47.03348],[12.99629,47.03287]]}},{"type":"Feature","properties":{"kind":"piste","difficulty":"intermediate","name":null,"aerialway":null,"osm":"way/440307755"},"geometry":{"type":"LineString","coordinates":[[13.02051,47.03942],[13.02038,47.03952],[13.02021,47.03941],[13.02041,47.03923],[13.02045,47.03851],[13.02109,47.03744]]}},{"type":"Feature","properties":{"kind":"piste","difficulty":"intermediate","name":"5 Wurtenboden 2","aerialway":null,"osm":"way/440307756"},"geometry":{"type":"LineString","coordinates":[[13.00896,47.0339],[13.00805,47.03466],[13.00697,47.03532],[13.0045,47.03599],[13.00336,47.03616],[13.00202,47.03614],[13.00056,47.03582],[12.99961,47.03502],[12.99876,47.03474],[12.9977,47.03409],[12.9982,47.0338]]}},{"type":"Feature","properties":{"kind":"piste","difficulty":"intermediate","name":null,"aerialway":null,"osm":"way/440309030"},"geometry":{"type":"LineString","coordinates":[[13.00896,47.0339],[13.00838,47.03403]]}},{"type":"Feature","properties":{"kind":"piste","difficulty":"freeride","name":"Variante 2","aerialway":null,"osm":"way/440310074"},"geometry":{"type":"LineString","coordinates":[[13.01208,47.02856],[13.01103,47.02794],[13.00954,47.02605],[13.00825,47.02573]]}},{"type":"Feature","properties":{"kind":"piste","difficulty":"freeride","name":"Variante 3","aerialway":null,"osm":"way/440310378"},"geometry":{"type":"LineString","coordinates":[[12.987,47.02872],[12.98726,47.02841],[12.98763,47.02835],[12.98812,47.02855],[12.98858,47.02854],[12.98953,47.02769],[12.99194,47.02916],[12.99276,47.02934],[12.99346,47.02977],[12.99432,47.03088],[12.99467,47.03114],[12.99481,47.0318]]}},{"type":"Feature","properties":{"kind":"piste","difficulty":"freeride","name":"Variante","aerialway":null,"osm":"way/440310601"},"geometry":{"type":"LineString","coordinates":[[13.01554,47.0327],[13.01619,47.03194],[13.01663,47.03116],[13.01673,47.02944],[13.01731,47.02854],[13.01853,47.02747],[13.02089,47.02614],[13.02039,47.02365],[13.02204,47.02293],[13.02284,47.02211],[13.02176,47.02108],[13.02106,47.01994],[13.02088,47.01895],[13.02154,47.01741],[13.02241,47.01624],[13.02225,47.01552],[13.02133,47.01373]]}},{"type":"Feature","properties":{"kind":"piste","difficulty":"intermediate","name":"8 Wurten Restaurant","aerialway":null,"osm":"way/460817396"},"geometry":{"type":"LineString","coordinates":[[13.00609,47.03324],[12.99984,47.03521]]}},{"type":"Feature","properties":{"kind":"piste","difficulty":"intermediate","name":null,"aerialway":null,"osm":"way/460817399"},"geometry":{"type":"LineString","coordinates":[[13.00916,47.03382],[13.00917,47.03419],[13.00933,47.03427]]}},{"type":"Feature","properties":{"kind":"piste","difficulty":"intermediate","name":"Schareck 2","aerialway":null,"osm":"way/460817400"},"geometry":{"type":"LineString","coordinates":[[13.02043,47.03897],[13.01986,47.03852],[13.01934,47.03771]]}},{"type":"Feature","properties":{"kind":"piste","difficulty":"intermediate","name":"Schareck 2","aerialway":null,"osm":"way/460817401"},"geometry":{"type":"LineString","coordinates":[[13.02073,47.03813],[13.01934,47.03771]]}},{"type":"Feature","properties":{"kind":"piste","difficulty":"easy","name":"9","aerialway":null,"osm":"way/460822406"},"geometry":{"type":"LineString","coordinates":[[13.00991,47.03175],[13.01024,47.03173],[13.01027,47.03182],[13.00842,47.03229],[13.00609,47.03324],[13.00551,47.0332],[13.00514,47.03295],[13.00435,47.03164],[13.00407,47.03062],[13.00428,47.03017],[13.00494,47.02948],[13.00583,47.02884],[13.00773,47.0266],[13.00783,47.02633],[13.00752,47.02531],[13.0077,47.02467],[13.01029,47.02107],[13.01057,47.02036],[13.01083,47.01865],[13.01122,47.01805],[13.01141,47.01716],[13.0118,47.01646],[13.01318,47.01561],[13.01464,47.01515],[13.01494,47.01521],[13.01538,47.01559],[13.01535,47.01596],[13.01561,47.0162]]}},{"type":"Feature","properties":{"kind":"piste","difficulty":"advanced","name":"10","aerialway":null,"osm":"way/460822407"},"geometry":{"type":"LineString","coordinates":[[13.01197,47.03067],[13.01188,47.03006],[13.01196,47.02932],[13.01227,47.02831],[13.01301,47.02759],[13.01301,47.027],[13.01286,47.02655],[13.01242,47.02609],[13.01109,47.02535],[13.01087,47.02415],[13.01056,47.02392],[13.0102,47.02397],[13.00902,47.02467],[13.00811,47.02491],[13.00765,47.02483]]}},{"type":"Feature","properties":{"kind":"piste","difficulty":"intermediate","name":"Schareck 3","aerialway":null,"osm":"way/461113234"},"geometry":{"type":"LineString","coordinates":[[13.02109,47.03744],[13.02093,47.03716],[13.01861,47.03544],[13.01647,47.03341],[13.01554,47.0327],[13.01446,47.03219],[13.0129,47.03229],[13.01208,47.03258]]}},{"type":"Feature","properties":{"kind":"piste","difficulty":"intermediate","name":"Schareck 2","aerialway":null,"osm":"way/461113235"},"geometry":{"type":"LineString","coordinates":[[13.01934,47.03771],[13.01425,47.03333],[13.0138,47.03305],[13.01208,47.03258]]}},{"type":"Feature","properties":{"kind":"piste","difficulty":"intermediate","name":null,"aerialway":null,"osm":"way/461368752"},"geometry":{"type":"LineString","coordinates":[[13.00909,47.03212],[13.00826,47.03305]]}},{"type":"Feature","properties":{"kind":"piste","difficulty":"easy","name":null,"aerialway":null,"osm":"way/461368755"},"geometry":{"type":"LineString","coordinates":[[13.01446,47.03219],[13.01315,47.03118]]}},{"type":"Feature","properties":{"kind":"piste","difficulty":"advanced","name":"10","aerialway":null,"osm":"way/461368757"},"geometry":{"type":"LineString","coordinates":[[13.01735,47.03431],[13.01704,47.03293],[13.01592,47.03163]]}},{"type":"Feature","properties":{"kind":"piste","difficulty":"advanced","name":"10","aerialway":null,"osm":"way/461368758"},"geometry":{"type":"LineString","coordinates":[[13.01592,47.03163],[13.01386,47.03076],[13.01307,47.03055],[13.01197,47.03067]]}},{"type":"Feature","properties":{"kind":"piste","difficulty":"intermediate","name":null,"aerialway":null,"osm":"way/461369425"},"geometry":{"type":"LineString","coordinates":[[13.02021,47.03941],[13.0198,47.03903],[13.01986,47.03852]]}},{"type":"Feature","properties":{"kind":"piste","difficulty":"intermediate","name":null,"aerialway":null,"osm":"way/461369426"},"geometry":{"type":"LineString","coordinates":[[13.02031,47.03942],[13.02053,47.03949],[13.02029,47.03959],[13.02013,47.03944],[13.02038,47.0392],[13.02036,47.03859],[13.02111,47.03733],[13.0211,47.03766],[13.02071,47.03822],[13.02047,47.0392],[13.02031,47.03942]]}},{"type":"Feature","properties":{"kind":"piste","difficulty":"easy","name":null,"aerialway":null,"osm":"way/1189167743"},"geometry":{"type":"LineString","coordinates":[[13.01571,47.01601],[13.01561,47.0162]]}},{"type":"Feature","properties":{"kind":"piste","difficulty":"intermediate","name":null,"aerialway":null,"osm":"way/1189167744"},"geometry":{"type":"LineString","coordinates":[[13.01105,47.03113],[13.01096,47.03135],[13.01032,47.03178]]}},{"type":"Feature","properties":{"kind":"piste","difficulty":"intermediate","name":null,"aerialway":null,"osm":"way/1189167745"},"geometry":{"type":"LineString","coordinates":[[13.00912,47.03402],[13.00939,47.03407]]}},{"type":"Feature","properties":{"kind":"piste","difficulty":"intermediate","name":null,"aerialway":null,"osm":"way/1189167746"},"geometry":{"type":"LineString","coordinates":[[13.02008,47.03902],[13.02041,47.03923]]}},{"type":"Feature","properties":{"kind":"piste","difficulty":"easy","name":null,"aerialway":null,"osm":"way/1433345611"},"geometry":{"type":"LineString","coordinates":[[13.01145,47.03114],[13.01119,47.03136],[13.01096,47.03135]]}},{"type":"Feature","properties":{"kind":"piste","difficulty":"easy","name":"Schareck 3","aerialway":null,"osm":"way/1433345612"},"geometry":{"type":"LineString","coordinates":[[13.01208,47.03258],[13.01004,47.03333],[13.00916,47.03382]]}},{"type":"Feature","properties":{"kind":"piste","difficulty":"advanced","name":"1","aerialway":null,"osm":"way/1433346148"},"geometry":{"type":"LineString","coordinates":[[13.01977,47.03876],[13.01611,47.03638],[13.01338,47.0342],[13.01004,47.03333]]}},{"type":"Feature","properties":{"kind":"piste","difficulty":"advanced","name":"4","aerialway":null,"osm":"way/1433347238"},"geometry":{"type":"LineString","coordinates":[[13.02024,47.03948],[13.019,47.0399],[13.01621,47.03798],[13.01579,47.03739],[13.01552,47.03649],[13.01454,47.0361],[13.01296,47.03636],[13.01165,47.03639],[13.01083,47.03618],[13.01046,47.03534],[13.01025,47.03428],[13.00978,47.03398],[13.00912,47.03402]]}},{"type":"Feature","properties":{"kind":"piste","difficulty":"advanced","name":"1","aerialway":null,"osm":"way/1433347239"},"geometry":{"type":"LineString","coordinates":[[13.01338,47.0342],[13.01208,47.03258]]}},{"type":"Feature","properties":{"kind":"piste","difficulty":"easy","name":"9","aerialway":null,"osm":"way/1433347240"},"geometry":{"type":"LineString","coordinates":[[13.01561,47.0162],[13.0159,47.01638]]}},{"type":"Feature","properties":{"kind":"piste","difficulty":"easy","name":null,"aerialway":null,"osm":"way/1433348165"},"geometry":{"type":"LineString","coordinates":[[13.01362,47.01579],[13.01362,47.01545]]}},{"type":"Feature","properties":{"kind":"piste","difficulty":"easy","name":null,"aerialway":null,"osm":"way/1433348166"},"geometry":{"type":"LineString","coordinates":[[13.01362,47.01579],[13.01382,47.01568],[13.0145,47.01584],[13.01514,47.01622],[13.01563,47.01686]]}},{"type":"Feature","properties":{"kind":"piste","difficulty":"easy","name":null,"aerialway":null,"osm":"way/1433348167"},"geometry":{"type":"LineString","coordinates":[[13.01561,47.0162],[13.01516,47.01624]]}},{"type":"Feature","properties":{"kind":"piste","difficulty":"easy","name":null,"aerialway":null,"osm":"way/1433348168"},"geometry":{"type":"LineString","coordinates":[[13.0155,47.01666],[13.01602,47.01686],[13.01621,47.01713]]}},{"type":"Feature","properties":{"kind":"piste","difficulty":"easy","name":null,"aerialway":null,"osm":"way/1433348169"},"geometry":{"type":"LineString","coordinates":[[13.01686,47.01525],[13.01538,47.01559]]}},{"type":"Feature","properties":{"kind":"piste","difficulty":"easy","name":"12 Weißsee Abfahrt","aerialway":null,"osm":"way/1433348170"},"geometry":{"type":"LineString","coordinates":[[13.01569,47.01187],[13.01591,47.01102],[13.01651,47.0108],[13.01694,47.01084],[13.01751,47.01167],[13.01744,47.01255],[13.0163,47.01414],[13.01705,47.01447]]}},{"type":"Feature","properties":{"kind":"piste","difficulty":"intermediate","name":"11","aerialway":null,"osm":"way/1433349206"},"geometry":{"type":"LineString","coordinates":[[13.01569,47.01187],[13.0137,47.0125],[13.01288,47.01364],[13.01232,47.01459],[13.01229,47.01485],[13.01234,47.01524],[13.01292,47.01574]]}},{"type":"Feature","properties":{"kind":"piste","difficulty":"intermediate","name":"11","aerialway":null,"osm":"way/1433349207"},"geometry":{"type":"LineString","coordinates":[[13.01464,47.01515],[13.01705,47.01447]]}},{"type":"Feature","properties":{"kind":"piste","difficulty":"intermediate","name":"11","aerialway":null,"osm":"way/1433349208"},"geometry":{"type":"LineString","coordinates":[[13.01386,47.01245],[13.01399,47.01349],[13.01363,47.01447],[13.0139,47.01476],[13.01464,47.01515]]}},{"type":"Feature","properties":{"kind":"piste","difficulty":"intermediate","name":null,"aerialway":null,"osm":"way/1433350270"},"geometry":{"type":"LineString","coordinates":[[13.00879,47.03369],[13.0091,47.03369],[13.00916,47.03382]]}},{"type":"Feature","properties":{"kind":"piste","difficulty":"intermediate","name":"Schareck 3","aerialway":null,"osm":"way/1433350271"},"geometry":{"type":"LineString","coordinates":[[13.00916,47.03382],[13.00896,47.0339]]}},{"type":"Feature","properties":{"kind":"piste","difficulty":"intermediate","name":"7","aerialway":null,"osm":"way/1433350272"},"geometry":{"type":"LineString","coordinates":[[13.00916,47.03382],[13.00803,47.03402],[13.00465,47.03519],[13.00011,47.0351]]}},{"type":"Feature","properties":{"kind":"piste","difficulty":"intermediate","name":"6","aerialway":null,"osm":"way/1433350273"},"geometry":{"type":"LineString","coordinates":[[13.00912,47.03402],[13.00847,47.03501],[13.00446,47.03677],[13.00187,47.03707],[13.00124,47.0366],[13.00106,47.03613],[13.00066,47.03585]]}},{"type":"Feature","properties":{"kind":"piste","difficulty":"intermediate","name":"14 Alteck 2","aerialway":null,"osm":"way/1433350611"},"geometry":{"type":"LineString","coordinates":[[12.987,47.02872],[12.98733,47.02834],[12.98775,47.02835],[12.98835,47.02926],[12.98815,47.02973],[12.9886,47.0319],[12.98822,47.03273]]}},{"type":"Feature","properties":{"kind":"piste","difficulty":"intermediate","name":"15","aerialway":null,"osm":"way/1433350612"},"geometry":{"type":"LineString","coordinates":[[12.987,47.02872],[12.98699,47.02999],[12.98783,47.03104],[12.98803,47.0324],[12.98822,47.03273]]}}]}