{"type":"FeatureCollection","features":[{"type":"Feature","properties":{"kind":"lift","difficulty":null,"name":"Zettersfeldbahn","aerialway":"gondola","osm":"way/3998668"},"geometry":{"type":"LineString","coordinates":[[12.77597,46.8418],[12.79075,46.86308]]}},{"type":"Feature","properties":{"kind":"lift","difficulty":null,"name":"Steinermandl","aerialway":"chair_lift","osm":"way/3998672"},"geometry":{"type":"LineString","coordinates":[[12.7902,46.86389],[12.7892,46.87496]]}},{"type":"Feature","properties":{"kind":"lift","difficulty":null,"name":"Wartschenbrunn","aerialway":"chair_lift","osm":"way/19803223"},"geometry":{"type":"LineString","coordinates":[[12.79664,46.8621],[12.79628,46.86852]]}},{"type":"Feature","properties":{"kind":"lift","difficulty":null,"name":"Faschingalm","aerialway":"chair_lift","osm":"way/19803224"},"geometry":{"type":"LineString","coordinates":[[12.81129,46.8585],[12.7979,46.87371]]}},{"type":"Feature","properties":{"kind":"piste","difficulty":"intermediate","name":null,"aerialway":null,"osm":"way/19803328"},"geometry":{"type":"LineString","coordinates":[[12.78959,46.86705],[12.79016,46.86579],[12.79036,46.86499],[12.79031,46.86434],[12.79049,46.86398],[12.79075,46.86379],[12.79067,46.86371]]}},{"type":"Feature","properties":{"kind":"piste","difficulty":"intermediate","name":"Schoberköpflabfahrt","aerialway":null,"osm":"way/19803329"},"geometry":{"type":"LineString","coordinates":[[12.78851,46.87788],[12.78824,46.87816],[12.78794,46.8782],[12.7872,46.87733],[12.78628,46.87675],[12.78364,46.87425]]}},{"type":"Feature","properties":{"kind":"piste","difficulty":"intermediate","name":"Pflugabfahrt","aerialway":null,"osm":"way/19803330"},"geometry":{"type":"LineString","coordinates":[[12.78921,46.87503],[12.78874,46.87531],[12.78823,46.87522],[12.78544,46.87286],[12.78471,46.87275],[12.78369,46.87295]]}},{"type":"Feature","properties":{"kind":"piste","difficulty":"intermediate","name":"Pflugabfahrt","aerialway":null,"osm":"way/19803331"},"geometry":{"type":"LineString","coordinates":[[12.78544,46.87286],[12.78611,46.87235],[12.78767,46.87192],[12.78795,46.87152],[12.78848,46.86927],[12.78933,46.86742]]}},{"type":"Feature","properties":{"kind":"piste","difficulty":"intermediate","name":"Pflugumfahrung","aerialway":null,"osm":"way/19803332"},"geometry":{"type":"LineString","coordinates":[[12.78471,46.87275],[12.78453,46.87247],[12.78456,46.87211]]}},{"type":"Feature","properties":{"kind":"piste","difficulty":"intermediate","name":"Mittelhang","aerialway":null,"osm":"way/19803334"},"geometry":{"type":"LineString","coordinates":[[12.788,46.87496],[12.78911,46.87373],[12.79062,46.87286],[12.79109,46.87221],[12.79139,46.8709],[12.79149,46.86951],[12.79139,46.86644],[12.79084,46.86484],[12.79098,46.86405]]}},{"type":"Feature","properties":{"kind":"piste","difficulty":"intermediate","name":"Panoramaabfahrt","aerialway":null,"osm":"way/19803335"},"geometry":{"type":"LineString","coordinates":[[12.78851,46.87788],[12.78949,46.87693],[12.79043,46.8763],[12.79371,46.87608],[12.7951,46.87524],[12.797,46.87386],[12.79699,46.87371]]}},{"type":"Feature","properties":{"kind":"piste","difficulty":"easy","name":"Familienabfahrt","aerialway":null,"osm":"way/19803336"},"geometry":{"type":"LineString","coordinates":[[12.7892,46.87496],[12.78933,46.87525],[12.78959,46.87538],[12.79132,46.87532],[12.79263,46.87482],[12.79407,46.87333],[12.79448,46.87309],[12.79596,46.87278]]}},{"type":"Feature","properties":{"kind":"piste","difficulty":"intermediate","name":null,"aerialway":null,"osm":"way/19803337"},"geometry":{"type":"LineString","coordinates":[[12.78315,46.87289],[12.78379,46.87213],[12.78456,46.87211]]}},{"type":"Feature","properties":{"kind":"piste","difficulty":"easy","name":null,"aerialway":null,"osm":"way/19803338"},"geometry":{"type":"LineString","coordinates":[[12.79158,46.86424],[12.79145,46.86392],[12.79075,46.86379]]}},{"type":"Feature","properties":{"kind":"piste","difficulty":"easy","name":"Bidneralm","aerialway":null,"osm":"way/19803339"},"geometry":{"type":"LineString","coordinates":[[12.79157,46.86413],[12.79279,46.86353],[12.79528,46.86262]]}},{"type":"Feature","properties":{"kind":"piste","difficulty":"easy","name":null,"aerialway":null,"osm":"way/19803340"},"geometry":{"type":"LineString","coordinates":[[12.79067,46.86371],[12.79067,46.86356],[12.79096,46.8634],[12.79274,46.86309],[12.79395,46.86254],[12.79471,46.86244],[12.79528,46.86262]]}},{"type":"Feature","properties":{"kind":"piste","difficulty":"easy","name":null,"aerialway":null,"osm":"way/19803438"},"geometry":{"type":"LineString","coordinates":[[12.79528,46.86262],[12.79583,46.8625],[12.79653,46.86203],[12.79664,46.8621]]}},{"type":"Feature","properties":{"kind":"piste","difficulty":"easy","name":null,"aerialway":null,"osm":"way/19803439"},"geometry":{"type":"LineString","coordinates":[[12.79528,46.86262],[12.79535,46.8627]]}},{"type":"Feature","properties":{"kind":"piste","difficulty":"easy","name":"Faschingalm","aerialway":null,"osm":"way/19803440"},"geometry":{"type":"LineString","coordinates":[[12.7979,46.87371],[12.79756,46.8737]]}},{"type":"Feature","properties":{"kind":"piste","difficulty":"intermediate","name":"Panoramaabfahrt","aerialway":null,"osm":"way/19803441"},"geometry":{"type":"LineString","coordinates":[[12.79699,46.87371],[12.79631,46.87381],[12.79584,46.87309],[12.79596,46.87278]]}},{"type":"Feature","properties":{"kind":"piste","difficulty":"advanced","name":"Osthang","aerialway":null,"osm":"way/19803443"},"geometry":{"type":"LineString","coordinates":[[12.79596,46.87278],[12.79644,46.8721],[12.79694,46.87071],[12.79701,46.86993]]}},{"type":"Feature","properties":{"kind":"piste","difficulty":"intermediate","name":"Osthang","aerialway":null,"osm":"way/19803444"},"geometry":{"type":"LineString","coordinates":[[12.79701,46.86993],[12.79588,46.86884]]}},{"type":"Feature","properties":{"kind":"piste","difficulty":"easy","name":"Faschingalm","aerialway":null,"osm":"way/19803445"},"geometry":{"type":"LineString","coordinates":[[12.79756,46.8737],[12.79787,46.87349],[12.7986,46.87337],[12.80127,46.87212],[12.80179,46.87179],[12.80308,46.87032]]}},{"type":"Feature","properties":{"kind":"piste","difficulty":"intermediate","name":"Osthang Umfahrung","aerialway":null,"osm":"way/19803446"},"geometry":{"type":"LineString","coordinates":[[12.79701,46.86993],[12.79754,46.86818]]}},{"type":"Feature","properties":{"kind":"piste","difficulty":"easy","name":"Faschingalm","aerialway":null,"osm":"way/19803449"},"geometry":{"type":"LineString","coordinates":[[12.79754,46.86818],[12.79857,46.86715]]}},{"type":"Feature","properties":{"kind":"piste","difficulty":"intermediate","name":null,"aerialway":null,"osm":"way/19803450"},"geometry":{"type":"LineString","coordinates":[[12.79629,46.86856],[12.79588,46.86884]]}},{"type":"Feature","properties":{"kind":"piste","difficulty":"easy","name":"Idlboden","aerialway":null,"osm":"way/19803451"},"geometry":{"type":"LineString","coordinates":[[12.79514,46.86879],[12.79466,46.86826],[12.79513,46.86653]]}},{"type":"Feature","properties":{"kind":"piste","difficulty":"easy","name":"Idlboden","aerialway":null,"osm":"way/19803452"},"geometry":{"type":"LineString","coordinates":[[12.79513,46.86653],[12.79605,46.86512],[12.79752,46.86352],[12.79583,46.8625]]}},{"type":"Feature","properties":{"kind":"lift","difficulty":null,"name":"Schoberköpfl","aerialway":"t-bar","osm":"way/161113452"},"geometry":{"type":"LineString","coordinates":[[12.78347,46.87303],[12.78886,46.87821]]}},{"type":"Feature","properties":{"kind":"piste","difficulty":"intermediate","name":"Skiroute","aerialway":null,"osm":"way/206020743"},"geometry":{"type":"LineString","coordinates":[[12.78525,46.8787],[12.78138,46.87818],[12.78074,46.87794],[12.78037,46.87744],[12.78022,46.87544],[12.77982,46.87439],[12.77937,46.87232],[12.77909,46.87167],[12.77948,46.87087],[12.77991,46.87062],[12.78128,46.87064],[12.78135,46.87052],[12.78037,46.86962],[12.78043,46.86939],[12.78204,46.86918],[12.78263,46.86893],[12.7837,46.86797],[12.78456,46.8675],[12.785,46.86694],[12.78587,46.8664],[12.78676,46.86557],[12.78766,46.86513],[12.78872,46.8643],[12.78986,46.86361]]}},{"type":"Feature","properties":{"kind":"piste","difficulty":"intermediate","name":"Peheimabfahrt","aerialway":null,"osm":"way/206020744"},"geometry":{"type":"LineString","coordinates":[[12.80308,46.87032],[12.80405,46.86889],[12.80444,46.86813],[12.8045,46.86776],[12.80619,46.86522],[12.80622,46.8647],[12.80586,46.86398],[12.80574,46.86333],[12.80603,46.86206],[12.80647,46.86148],[12.80861,46.85999]]}},{"type":"Feature","properties":{"kind":"piste","difficulty":"easy","name":"Familienabfahrt","aerialway":null,"osm":"way/206020745"},"geometry":{"type":"LineString","coordinates":[[12.79596,46.87278],[12.79824,46.87208]]}},{"type":"Feature","properties":{"kind":"piste","difficulty":"easy","name":"Faschingalm","aerialway":null,"osm":"way/206020746"},"geometry":{"type":"LineString","coordinates":[[12.79628,46.86852],[12.79638,46.86859],[12.79754,46.86818]]}},{"type":"Feature","properties":{"kind":"piste","difficulty":"easy","name":"Märchenabfahrt","aerialway":null,"osm":"way/206020747"},"geometry":{"type":"LineString","coordinates":[[12.78315,46.87289],[12.78362,46.87285],[12.78369,46.87295],[12.78347,46.87303]]}},{"type":"Feature","properties":{"kind":"piste","difficulty":"easy","name":"Familienabfahrt","aerialway":null,"osm":"way/206020748"},"geometry":{"type":"LineString","coordinates":[[12.79824,46.87208],[12.8009,46.87099],[12.80308,46.87032]]}},{"type":"Feature","properties":{"kind":"lift","difficulty":null,"name":"Bidner","aerialway":"platter","osm":"way/234352406"},"geometry":{"type":"LineString","coordinates":[[12.79535,46.8627],[12.79158,46.86424]]}},{"type":"Feature","properties":{"kind":"piste","difficulty":"intermediate","name":"Panoramaabfahrt","aerialway":null,"osm":"way/366034120"},"geometry":{"type":"LineString","coordinates":[[12.79756,46.8737],[12.79699,46.87371]]}},{"type":"Feature","properties":{"kind":"piste","difficulty":"easy","name":"Faschingalm","aerialway":null,"osm":"way/366034121"},"geometry":{"type":"LineString","coordinates":[[12.80308,46.87032],[12.80462,46.86989],[12.80514,46.86843],[12.8045,46.86776],[12.80406,46.86776],[12.80327,46.86806],[12.80219,46.86797],[12.79857,46.86715],[12.7977,46.86668],[12.79599,46.86672],[12.79513,46.86653],[12.79312,46.8657],[12.79242,46.86517],[12.79156,46.86491],[12.79098,46.86405]]}},{"type":"Feature","properties":{"kind":"piste","difficulty":"easy","name":"Familienabfahrt","aerialway":null,"osm":"way/366034122"},"geometry":{"type":"LineString","coordinates":[[12.79098,46.86405],[12.79075,46.86379]]}},{"type":"Feature","properties":{"kind":"piste","difficulty":"easy","name":"Faschingalm","aerialway":null,"osm":"way/366034123"},"geometry":{"type":"LineString","coordinates":[[12.79857,46.86715],[12.8021,46.86523],[12.80357,46.86287],[12.80615,46.86123],[12.80861,46.85999],[12.81044,46.85845],[12.81091,46.85825],[12.81129,46.8585]]}},{"type":"Feature","properties":{"kind":"piste","difficulty":"intermediate","name":"Osthang Umfahrung","aerialway":null,"osm":"way/366034124"},"geometry":{"type":"LineString","coordinates":[[12.79824,46.87208],[12.79957,46.87115],[12.79991,46.8708],[12.80025,46.87014],[12.79984,46.86992],[12.79788,46.87025],[12.79701,46.86993]]}},{"type":"Feature","properties":{"kind":"piste","difficulty":"intermediate","name":"Pflugumfahrung","aerialway":null,"osm":"way/366034125"},"geometry":{"type":"LineString","coordinates":[[12.78456,46.87211],[12.78497,46.87197],[12.78645,46.87079],[12.78738,46.86925],[12.78933,46.86742],[12.78959,46.86705],[12.78976,46.86562],[12.78963,46.86411],[12.78986,46.86361],[12.79067,46.86371]]}},{"type":"Feature","properties":{"kind":"piste","difficulty":"intermediate","name":"Stieglerschuß","aerialway":null,"osm":"way/366034126"},"geometry":{"type":"LineString","coordinates":[[12.78853,46.86825],[12.78824,46.86743],[12.78836,46.8667],[12.78801,46.86607],[12.78813,46.86573],[12.78905,46.86458],[12.78923,46.8644],[12.78965,46.86442]]}},{"type":"Feature","properties":{"kind":"piste","difficulty":"intermediate","name":"Osthang","aerialway":null,"osm":"way/366034127"},"geometry":{"type":"LineString","coordinates":[[12.79588,46.86884],[12.79457,46.86868],[12.79139,46.86644]]}},{"type":"Feature","properties":{"kind":"piste","difficulty":"intermediate","name":null,"aerialway":null,"osm":"way/1054820339"},"geometry":{"type":"LineString","coordinates":[[12.79017,46.8636],[12.7902,46.86389]]}},{"type":"Feature","properties":{"kind":"piste","difficulty":"easy","name":"Märchenabfahrt","aerialway":null,"osm":"way/1247007089"},"geometry":{"type":"LineString","coordinates":[[12.78794,46.8782],[12.78612,46.87868],[12.78525,46.8787],[12.78442,46.87742],[12.78439,46.87704],[12.78461,46.87632],[12.78418,46.87611],[12.78328,46.8762],[12.78364,46.87537],[12.78364,46.87425]]}},{"type":"Feature","properties":{"kind":"piste","difficulty":"easy","name":"Märchenabfahrt","aerialway":null,"osm":"way/1247007090"},"geometry":{"type":"LineString","coordinates":[[12.78461,46.87659],[12.785,46.87554]]}},{"type":"Feature","properties":{"kind":"piste","difficulty":"easy","name":"Märchenabfahrt","aerialway":null,"osm":"way/1247007091"},"geometry":{"type":"LineString","coordinates":[[12.78364,46.87425],[12.78317,46.87325],[12.78315,46.87289]]}},{"type":"Feature","properties":{"kind":"piste","difficulty":"intermediate","name":"Pflugabfahrt","aerialway":null,"osm":"way/1247007092"},"geometry":{"type":"LineString","coordinates":[[12.78767,46.87192],[12.78855,46.87155],[12.78892,46.8708],[12.78924,46.86964],[12.78907,46.86802]]}},{"type":"Feature","properties":{"kind":"piste","difficulty":"intermediate","name":"Stieglerschuß","aerialway":null,"osm":"way/1247007093"},"geometry":{"type":"LineString","coordinates":[[12.78923,46.8644],[12.78929,46.86398]]}}]}