{"type":"FeatureCollection","features":[{"type":"Feature","properties":{"kind":"lift","difficulty":null,"name":"Hochfeldlift","aerialway":"t-bar","osm":"way/339838577"},"geometry":{"type":"LineString","coordinates":[[12.15235,47.53676],[12.1537,47.53233]]}},{"type":"Feature","properties":{"kind":"piste","difficulty":"easy","name":"Hochfeld I","aerialway":null,"osm":"way/440601377"},"geometry":{"type":"LineString","coordinates":[[12.1537,47.53233],[12.15335,47.53251],[12.15283,47.53439],[12.15204,47.53591],[12.15202,47.5364],[12.15235,47.53676]]}},{"type":"Feature","properties":{"kind":"piste","difficulty":"easy","name":"Hochfeld II","aerialway":null,"osm":"way/440601378"},"geometry":{"type":"LineString","coordinates":[[12.1537,47.53233],[12.15398,47.53241],[12.15399,47.53272],[12.15457,47.5329],[12.15466,47.53413],[12.15456,47.53481],[12.15407,47.5355],[12.15335,47.53586],[12.1529,47.53652],[12.15232,47.53663],[12.15225,47.5367],[12.15235,47.53676]]}},{"type":"Feature","properties":{"kind":"lift","difficulty":null,"name":"Übungslift Hochfeld","aerialway":"platter","osm":"way/440601379"},"geometry":{"type":"LineString","coordinates":[[12.15195,47.53628],[12.15171,47.53522]]}},{"type":"Feature","properties":{"kind":"piste","difficulty":"easy","name":"Übungslift Hochfeld-Schwoich","aerialway":null,"osm":"way/440601380"},"geometry":{"type":"LineString","coordinates":[[12.15171,47.53522],[12.15146,47.53529],[12.15167,47.53623],[12.15195,47.53628]]}}]}