{"type":"FeatureCollection","features":[{"type":"Feature","properties":{"kind":"lift","difficulty":null,"name":"Sonnenberglift","aerialway":"t-bar","osm":"way/92654078"},"geometry":{"type":"LineString","coordinates":[[11.16054,47.195],[11.15952,47.19905]]}},{"type":"Feature","properties":{"kind":"piste","difficulty":"easy","name":null,"aerialway":null,"osm":"way/92654087"},"geometry":{"type":"LineString","coordinates":[[11.15951,47.19876],[11.15941,47.1985],[11.16028,47.19515],[11.16049,47.19504]]}}]}