{"type":"FeatureCollection","features":[{"type":"Feature","properties":{"kind":"lift","difficulty":null,"name":"Grünberglift Navis","aerialway":"t-bar","osm":"way/576925079"},"geometry":{"type":"LineString","coordinates":[[11.54931,47.13541],[11.5452,47.14081]]}},{"type":"Feature","properties":{"kind":"piste","difficulty":"unknown","name":null,"aerialway":null,"osm":"way/862870474"},"geometry":{"type":"LineString","coordinates":[[11.54549,47.14044],[11.54668,47.13998],[11.54736,47.13937],[11.54802,47.13768],[11.54933,47.13622],[11.54944,47.13568],[11.54924,47.13549]]}},{"type":"Feature","properties":{"kind":"piste","difficulty":"unknown","name":null,"aerialway":null,"osm":"way/1251287792"},"geometry":{"type":"LineString","coordinates":[[11.54579,47.14037],[11.54559,47.14008],[11.54655,47.13766],[11.5474,47.13739],[11.54877,47.13548],[11.54924,47.13549]]}}]}