{"type":"FeatureCollection","features":[{"type":"Feature","properties":{"kind":"lift","difficulty":null,"name":"Taferl 2","aerialway":"t-bar","osm":"way/55448428"},"geometry":{"type":"LineString","coordinates":[[13.62309,47.84168],[13.61594,47.84116]]}},{"type":"Feature","properties":{"kind":"lift","difficulty":null,"name":"Taferl 1","aerialway":"t-bar","osm":"way/55448434"},"geometry":{"type":"LineString","coordinates":[[13.62309,47.84162],[13.61547,47.84108]]}},{"type":"Feature","properties":{"kind":"lift","difficulty":null,"name":"Grenzecklift","aerialway":"t-bar","osm":"way/55448440"},"geometry":{"type":"LineString","coordinates":[[13.61398,47.84118],[13.6143,47.83709]]}},{"type":"Feature","properties":{"kind":"piste","difficulty":"easy","name":"Raiffeisen Sumsiland","aerialway":null,"osm":"way/250120663"},"geometry":{"type":"LineString","coordinates":[[13.61537,47.84114],[13.61591,47.84176],[13.61657,47.84208]]}},{"type":"Feature","properties":{"kind":"piste","difficulty":"easy","name":"Taferlhang","aerialway":null,"osm":"way/250120664"},"geometry":{"type":"LineString","coordinates":[[13.61583,47.84114],[13.61659,47.84158],[13.61702,47.84167],[13.62143,47.84195],[13.62319,47.84183]]}},{"type":"Feature","properties":{"kind":"piste","difficulty":"easy","name":null,"aerialway":null,"osm":"way/449843061"},"geometry":{"type":"LineString","coordinates":[[13.61417,47.84123],[13.61591,47.84176]]}},{"type":"Feature","properties":{"kind":"piste","difficulty":"intermediate","name":"Familienabfahrt","aerialway":null,"osm":"way/449843062"},"geometry":{"type":"LineString","coordinates":[[13.61427,47.83747],[13.61731,47.83919],[13.61749,47.83909],[13.61748,47.83855],[13.61778,47.83848],[13.61954,47.83869],[13.62174,47.83847],[13.62328,47.83855],[13.62431,47.83831],[13.62461,47.83837],[13.62487,47.83856],[13.62492,47.8388],[13.6234,47.84017],[13.6233,47.84042],[13.62361,47.84165],[13.62348,47.84186],[13.62328,47.84175]]}},{"type":"Feature","properties":{"kind":"piste","difficulty":"advanced","name":"Steilhang","aerialway":null,"osm":"way/654881207"},"geometry":{"type":"LineString","coordinates":[[13.61427,47.83747],[13.61317,47.83736],[13.61293,47.83745],[13.61261,47.83816],[13.61206,47.83895],[13.61125,47.83979],[13.61104,47.8403],[13.61111,47.84078],[13.61137,47.84092],[13.6128,47.84115],[13.61399,47.84114]]}},{"type":"Feature","properties":{"kind":"lift","difficulty":null,"name":"Raiffeisen Sumsiland","aerialway":"magic_carpet","osm":"way/654881208"},"geometry":{"type":"LineString","coordinates":[[13.61657,47.84208],[13.61549,47.84122]]}},{"type":"Feature","properties":{"kind":"piste","difficulty":"easy","name":null,"aerialway":null,"osm":"way/782388681"},"geometry":{"type":"LineString","coordinates":[[13.61644,47.84228],[13.61672,47.84223],[13.61698,47.84196]]}},{"type":"Feature","properties":{"kind":"piste","difficulty":"easy","name":"Taferlhang Schiweg","aerialway":null,"osm":"way/782388685"},"geometry":{"type":"LineString","coordinates":[[13.61697,47.84259],[13.61922,47.84301],[13.61999,47.84335],[13.62115,47.8433],[13.62234,47.84344],[13.62261,47.84334],[13.62263,47.84316],[13.62185,47.84259],[13.62319,47.84183]]}},{"type":"Feature","properties":{"kind":"piste","difficulty":"easy","name":"Taferlhang","aerialway":null,"osm":"way/782388686"},"geometry":{"type":"LineString","coordinates":[[13.62319,47.84183],[13.62328,47.84175],[13.62316,47.84165],[13.62299,47.84167]]}},{"type":"Feature","properties":{"kind":"piste","difficulty":"easy","name":"Taferlhang","aerialway":null,"osm":"way/782388687"},"geometry":{"type":"LineString","coordinates":[[13.61672,47.84122],[13.61702,47.84167]]}},{"type":"Feature","properties":{"kind":"piste","difficulty":"easy","name":null,"aerialway":null,"osm":"way/782388689"},"geometry":{"type":"LineString","coordinates":[[13.61582,47.84111],[13.61417,47.84123]]}},{"type":"Feature","properties":{"kind":"piste","difficulty":"novice","name":"Raiffeisen Sumsiland","aerialway":null,"osm":"way/839597793"},"geometry":{"type":"LineString","coordinates":[[13.61612,47.84222],[13.61697,47.84259],[13.61694,47.84276]]}},{"type":"Feature","properties":{"kind":"lift","difficulty":null,"name":"Raiffeisen Sumsiland","aerialway":"magic_carpet","osm":"way/839597804"},"geometry":{"type":"LineString","coordinates":[[13.61698,47.84278],[13.61607,47.84219]]}},{"type":"Feature","properties":{"kind":"piste","difficulty":"intermediate","name":null,"aerialway":null,"osm":"way/1078594687"},"geometry":{"type":"LineString","coordinates":[[13.62306,47.84165],[13.623,47.84161]]}},{"type":"Feature","properties":{"kind":"piste","difficulty":"easy","name":null,"aerialway":null,"osm":"way/1232435175"},"geometry":{"type":"LineString","coordinates":[[13.61403,47.8412],[13.61416,47.84122]]}},{"type":"Feature","properties":{"kind":"piste","difficulty":"novice","name":"Sumsiland","aerialway":null,"osm":"way/1232435176"},"geometry":{"type":"LineString","coordinates":[[13.61628,47.84221],[13.61645,47.84209]]}},{"type":"Feature","properties":{"kind":"piste","difficulty":"easy","name":"Taferlhang","aerialway":null,"osm":"way/1232435178"},"geometry":{"type":"LineString","coordinates":[[13.61698,47.84196],[13.61702,47.84167]]}}]}