{"type":"FeatureCollection","features":[{"type":"Feature","properties":{"kind":"piste","difficulty":"easy","name":"Skiroute 23 - Latschau-Tschagguns","aerialway":null,"osm":"way/669045986"},"geometry":{"type":"LineString","coordinates":[[9.8746,47.0711],[9.87686,47.07241],[9.87781,47.07238],[9.88002,47.07323],[9.88201,47.07478],[9.88335,47.07453],[9.88351,47.0747],[9.88336,47.07531],[9.88394,47.07545],[9.88549,47.07551],[9.88678,47.07515],[9.88728,47.07494],[9.88758,47.07435],[9.88776,47.07426],[9.88947,47.0742],[9.89395,47.07318],[9.8969,47.07303],[9.89761,47.07337],[9.89802,47.07412],[9.89924,47.07482],[9.90041,47.07656]]}},{"type":"Feature","properties":{"kind":"piste","difficulty":"intermediate","name":null,"aerialway":null,"osm":"way/8283914"},"geometry":{"type":"LineString","coordinates":[[9.83719,47.06247],[9.83936,47.06353],[9.84211,47.06434],[9.84308,47.06482],[9.84671,47.06591],[9.84829,47.06614],[9.84974,47.06653],[9.85037,47.06728],[9.85241,47.06822]]}},{"type":"Feature","properties":{"kind":"piste","difficulty":"intermediate","name":null,"aerialway":null,"osm":"way/8283929"},"geometry":{"type":"LineString","coordinates":[[9.83876,47.06455],[9.83884,47.06477],[9.83856,47.06567],[9.83878,47.06623],[9.84031,47.06688],[9.84153,47.0668],[9.84236,47.06693],[9.84335,47.06764],[9.84461,47.06889],[9.846,47.06948],[9.84627,47.07279],[9.84642,47.07339],[9.8467,47.07362],[9.84646,47.07388],[9.84711,47.07386],[9.8489,47.07308],[9.8493,47.0732],[9.84934,47.07337],[9.84917,47.0734]]}},{"type":"Feature","properties":{"kind":"piste","difficulty":"easy","name":null,"aerialway":null,"osm":"way/8283935"},"geometry":{"type":"LineString","coordinates":[[9.84378,47.06529],[9.84359,47.06523],[9.84364,47.06515],[9.84432,47.06483],[9.84448,47.06419],[9.84537,47.06341]]}},{"type":"Feature","properties":{"kind":"lift","difficulty":null,"name":"Hüttenkopfbahn","aerialway":"chair_lift","osm":"way/8283966"},"geometry":{"type":"LineString","coordinates":[[9.84917,47.0734],[9.83851,47.06473]]}},{"type":"Feature","properties":{"kind":"lift","difficulty":null,"name":"Sesselbahn Matschwitz","aerialway":"chair_lift","osm":"way/8283967"},"geometry":{"type":"LineString","coordinates":[[9.86024,47.07078],[9.84378,47.06529]]}},{"type":"Feature","properties":{"kind":"piste","difficulty":"intermediate","name":null,"aerialway":null,"osm":"way/8283995"},"geometry":{"type":"LineString","coordinates":[[9.83456,47.06093],[9.83442,47.06095],[9.83467,47.06117],[9.83665,47.06197],[9.83719,47.06247]]}},{"type":"Feature","properties":{"kind":"lift","difficulty":null,"name":"Rätikonbahn","aerialway":"chair_lift","osm":"way/8310649"},"geometry":{"type":"LineString","coordinates":[[9.8556,47.06596],[9.83456,47.06093]]}},{"type":"Feature","properties":{"kind":"lift","difficulty":null,"name":"Golmerbahn 1","aerialway":"gondola","osm":"way/30183747"},"geometry":{"type":"LineString","coordinates":[[9.86879,47.08947],[9.87194,47.07572]]}},{"type":"Feature","properties":{"kind":"lift","difficulty":null,"name":"Sücka","aerialway":"platter","osm":"way/30245259"},"geometry":{"type":"LineString","coordinates":[[9.84769,47.06272],[9.84351,47.06288]]}},{"type":"Feature","properties":{"kind":"piste","difficulty":"easy","name":null,"aerialway":null,"osm":"way/30246672"},"geometry":{"type":"LineString","coordinates":[[9.84351,47.06288],[9.84435,47.0631],[9.84754,47.06293],[9.84775,47.0628],[9.84769,47.06272]]}},{"type":"Feature","properties":{"kind":"piste","difficulty":"easy","name":null,"aerialway":null,"osm":"way/30246910"},"geometry":{"type":"LineString","coordinates":[[9.84509,47.06463],[9.84555,47.06446],[9.84582,47.06414],[9.84586,47.06368],[9.84639,47.06342],[9.84729,47.06374],[9.84777,47.06471],[9.84823,47.06514],[9.85019,47.06516],[9.85082,47.06565],[9.85117,47.06625],[9.85195,47.06657],[9.85687,47.06732],[9.85711,47.06757],[9.85706,47.06853],[9.85685,47.06898],[9.85743,47.06914],[9.85855,47.06978],[9.85976,47.06995],[9.86057,47.07045],[9.8605,47.07071],[9.86024,47.07078]]}},{"type":"Feature","properties":{"kind":"piste","difficulty":"intermediate","name":null,"aerialway":null,"osm":"way/30247048"},"geometry":{"type":"LineString","coordinates":[[9.84769,47.06272],[9.84806,47.06329],[9.85063,47.06396],[9.85266,47.06548],[9.85376,47.06594],[9.85432,47.06616],[9.85511,47.06621],[9.85558,47.06612],[9.8556,47.06596]]}},{"type":"Feature","properties":{"kind":"lift","difficulty":null,"name":"Golmerbahn 2","aerialway":"gondola","osm":"way/48309995"},"geometry":{"type":"LineString","coordinates":[[9.87194,47.07572],[9.85912,47.06952]]}},{"type":"Feature","properties":{"kind":"lift","difficulty":null,"name":"Golmerbahn 3","aerialway":"gondola","osm":"way/48309997"},"geometry":{"type":"LineString","coordinates":[[9.85912,47.06952],[9.84509,47.06463]]}},{"type":"Feature","properties":{"kind":"lift","difficulty":null,"name":"Außergolmbahn","aerialway":"chair_lift","osm":"way/98506582"},"geometry":{"type":"LineString","coordinates":[[9.83526,47.06977],[9.83412,47.06179]]}},{"type":"Feature","properties":{"kind":"piste","difficulty":"intermediate","name":null,"aerialway":null,"osm":"way/98515289"},"geometry":{"type":"LineString","coordinates":[[9.84641,47.07321],[9.8473,47.07346],[9.84804,47.07344]]}},{"type":"Feature","properties":{"kind":"piste","difficulty":"advanced","name":null,"aerialway":null,"osm":"way/98515295"},"geometry":{"type":"LineString","coordinates":[[9.83458,47.0618],[9.83315,47.0625],[9.83282,47.06291],[9.83269,47.06348],[9.83399,47.06555],[9.83357,47.06582],[9.8332,47.06634],[9.83316,47.06668],[9.83464,47.06865],[9.83554,47.0694],[9.83551,47.06979],[9.83526,47.06977]]}},{"type":"Feature","properties":{"kind":"piste","difficulty":"intermediate","name":null,"aerialway":null,"osm":"way/98515305"},"geometry":{"type":"LineString","coordinates":[[9.83719,47.06247],[9.83919,47.06261],[9.8407,47.06349],[9.84114,47.06358],[9.84403,47.06339],[9.84639,47.06342],[9.84968,47.06376],[9.85047,47.06407],[9.85084,47.06435],[9.85131,47.06544],[9.85179,47.06575],[9.85432,47.06616],[9.85501,47.06668],[9.85709,47.06743],[9.85762,47.06849],[9.85885,47.06895],[9.85965,47.06943],[9.86057,47.07045]]}},{"type":"Feature","properties":{"kind":"piste","difficulty":"intermediate","name":null,"aerialway":null,"osm":"way/98515314"},"geometry":{"type":"LineString","coordinates":[[9.84335,47.06764],[9.84381,47.06753],[9.84404,47.06732],[9.84432,47.06648]]}},{"type":"Feature","properties":{"kind":"piste","difficulty":"easy","name":null,"aerialway":null,"osm":"way/98515316"},"geometry":{"type":"LineString","coordinates":[[9.85082,47.06565],[9.85179,47.06575]]}},{"type":"Feature","properties":{"kind":"piste","difficulty":"advanced","name":null,"aerialway":null,"osm":"way/98515326"},"geometry":{"type":"LineString","coordinates":[[9.83412,47.06179],[9.83437,47.06178],[9.83446,47.06189]]}},{"type":"Feature","properties":{"kind":"piste","difficulty":"easy","name":null,"aerialway":null,"osm":"way/98515327"},"geometry":{"type":"LineString","coordinates":[[9.83275,47.06316],[9.83297,47.06325],[9.83457,47.06323]]}},{"type":"Feature","properties":{"kind":"piste","difficulty":"easy","name":null,"aerialway":null,"osm":"way/98515334"},"geometry":{"type":"LineString","coordinates":[[9.83328,47.06433],[9.83383,47.06466],[9.83458,47.06536],[9.83531,47.06623],[9.83589,47.06724]]}},{"type":"Feature","properties":{"kind":"piste","difficulty":"easy","name":"02 Matschwitz-Latschau","aerialway":null,"osm":"way/98515337"},"geometry":{"type":"LineString","coordinates":[[9.86057,47.07045],[9.86071,47.07057],[9.86059,47.07076],[9.85999,47.07097],[9.85944,47.07142],[9.85945,47.07153],[9.85963,47.07156],[9.86037,47.07127],[9.86062,47.07129],[9.86003,47.07199],[9.8591,47.07275],[9.85715,47.0736],[9.85719,47.07373],[9.85851,47.07361],[9.85994,47.07382],[9.86101,47.07373],[9.86384,47.07209],[9.86392,47.07215],[9.86368,47.07266],[9.86406,47.07264],[9.86577,47.07165],[9.86612,47.07161],[9.86621,47.0717],[9.86616,47.07231],[9.86551,47.07355],[9.86502,47.07418],[9.86664,47.07488],[9.86811,47.07405],[9.86893,47.07323],[9.86956,47.07305],[9.86996,47.07348],[9.87039,47.07343],[9.87116,47.0728],[9.87154,47.07233],[9.87166,47.07196],[9.87178,47.07198],[9.87189,47.07228],[9.87206,47.07226],[9.87223,47.07187],[9.87336,47.07135],[9.87276,47.07192],[9.87281,47.07253],[9.87245,47.07325],[9.87219,47.07441],[9.87192,47.07496],[9.87198,47.07531],[9.87177,47.07555],[9.87194,47.07572]]}},{"type":"Feature","properties":{"kind":"piste","difficulty":"easy","name":null,"aerialway":null,"osm":"way/98515367"},"geometry":{"type":"LineString","coordinates":[[9.85685,47.06898],[9.85687,47.06981]]}},{"type":"Feature","properties":{"kind":"piste","difficulty":"easy","name":null,"aerialway":null,"osm":"way/98515380"},"geometry":{"type":"LineString","coordinates":[[9.85814,47.07313],[9.85801,47.07341],[9.85823,47.07363]]}},{"type":"Feature","properties":{"kind":"piste","difficulty":"easy","name":null,"aerialway":null,"osm":"way/98515388"},"geometry":{"type":"LineString","coordinates":[[9.844,47.06506],[9.84476,47.06549],[9.8438,47.0658],[9.84367,47.06599],[9.84373,47.06614],[9.84409,47.06624],[9.84556,47.0661],[9.84608,47.06633],[9.84526,47.06667],[9.84503,47.06731],[9.84529,47.06799],[9.84615,47.06931],[9.84628,47.07086],[9.84678,47.0713],[9.84722,47.07138],[9.84808,47.07102],[9.84842,47.07011],[9.84972,47.069],[9.85007,47.06882],[9.85112,47.0688],[9.85178,47.06822],[9.85241,47.06822]]}},{"type":"Feature","properties":{"kind":"piste","difficulty":"easy","name":null,"aerialway":null,"osm":"way/98515402"},"geometry":{"type":"LineString","coordinates":[[9.83876,47.06455],[9.83695,47.06341],[9.83527,47.06309],[9.83458,47.06319],[9.83513,47.06321],[9.836,47.06346],[9.837,47.06406],[9.83601,47.06375],[9.83483,47.06388],[9.83549,47.06462],[9.83605,47.0687],[9.83659,47.06947],[9.83693,47.06963],[9.83755,47.06969],[9.83861,47.06951],[9.84011,47.0702],[9.84243,47.07046],[9.84386,47.07112],[9.84453,47.07185],[9.84517,47.07207],[9.84722,47.07138]]}},{"type":"Feature","properties":{"kind":"piste","difficulty":"advanced","name":null,"aerialway":null,"osm":"way/98515424"},"geometry":{"type":"LineString","coordinates":[[9.83506,47.06132],[9.83492,47.06145]]}},{"type":"Feature","properties":{"kind":"piste","difficulty":"easy","name":null,"aerialway":null,"osm":"way/98515432"},"geometry":{"type":"LineString","coordinates":[[9.83605,47.0687],[9.83575,47.06961],[9.83551,47.06979]]}},{"type":"Feature","properties":{"kind":"piste","difficulty":"easy","name":null,"aerialway":null,"osm":"way/98515441"},"geometry":{"type":"LineString","coordinates":[[9.86276,47.0728],[9.86368,47.07266]]}},{"type":"Feature","properties":{"kind":"piste","difficulty":"easy","name":null,"aerialway":null,"osm":"way/98515443"},"geometry":{"type":"LineString","coordinates":[[9.85426,47.06885],[9.85509,47.06893],[9.85621,47.06883],[9.85685,47.06898]]}},{"type":"Feature","properties":{"kind":"piste","difficulty":"advanced","name":null,"aerialway":null,"osm":"way/98515453"},"geometry":{"type":"LineString","coordinates":[[9.83399,47.06555],[9.83447,47.0668],[9.8354,47.06844],[9.83563,47.06922],[9.83558,47.06949]]}},{"type":"Feature","properties":{"kind":"piste","difficulty":"easy","name":null,"aerialway":null,"osm":"way/98515459"},"geometry":{"type":"LineString","coordinates":[[9.85924,47.07061],[9.86057,47.07045]]}},{"type":"Feature","properties":{"kind":"piste","difficulty":"intermediate","name":"Latschau-Vandans","aerialway":null,"osm":"way/98901197"},"geometry":{"type":"LineString","coordinates":[[9.87218,47.07427],[9.8707,47.07603],[9.87065,47.07674],[9.86942,47.07779],[9.86945,47.07887],[9.86867,47.07966],[9.8687,47.08065],[9.8694,47.081],[9.87051,47.08107],[9.87068,47.08135],[9.87061,47.08198],[9.87039,47.08209],[9.86899,47.08204],[9.86795,47.08238],[9.86767,47.08311],[9.86706,47.08334],[9.86633,47.08382],[9.86605,47.08478],[9.86615,47.08532],[9.86675,47.08567],[9.86656,47.08607],[9.86663,47.0864],[9.8691,47.08921],[9.86909,47.08944],[9.86879,47.08947]]}},{"type":"Feature","properties":{"kind":"piste","difficulty":"unknown","name":null,"aerialway":null,"osm":"way/122008722"},"geometry":{"type":"LineString","coordinates":[[9.85896,47.06937],[9.85914,47.06946]]}},{"type":"Feature","properties":{"kind":"piste","difficulty":"easy","name":null,"aerialway":null,"osm":"way/122008731"},"geometry":{"type":"LineString","coordinates":[[9.85914,47.06946],[9.85912,47.06952]]}},{"type":"Feature","properties":{"kind":"piste","difficulty":"easy","name":null,"aerialway":null,"osm":"way/122008744"},"geometry":{"type":"LineString","coordinates":[[9.85917,47.06915],[9.85918,47.06935]]}},{"type":"Feature","properties":{"kind":"piste","difficulty":"easy","name":null,"aerialway":null,"osm":"way/122008753"},"geometry":{"type":"LineString","coordinates":[[9.8573,47.06997],[9.85877,47.06973],[9.85897,47.06931],[9.85918,47.06935],[9.85914,47.06946]]}},{"type":"Feature","properties":{"kind":"piste","difficulty":"advanced","name":null,"aerialway":null,"osm":"way/122994682"},"geometry":{"type":"LineString","coordinates":[[9.83492,47.06145],[9.83458,47.0618]]}},{"type":"Feature","properties":{"kind":"lift","difficulty":null,"name":"Flying-Fox-Golm","aerialway":"zip_line","osm":"way/130300301"},"geometry":{"type":"LineString","coordinates":[[9.87917,47.07882],[9.87234,47.07723]]}},{"type":"Feature","properties":{"kind":"piste","difficulty":"easy","name":null,"aerialway":null,"osm":"way/143539070"},"geometry":{"type":"LineString","coordinates":[[9.87336,47.07135],[9.87431,47.07039],[9.87529,47.07021],[9.87471,47.07076],[9.87376,47.07247],[9.87317,47.07268],[9.87283,47.07311],[9.87219,47.07441]]}},{"type":"Feature","properties":{"kind":"piste","difficulty":"easy","name":null,"aerialway":null,"osm":"way/143539073"},"geometry":{"type":"LineString","coordinates":[[9.87131,47.07524],[9.8719,47.07516]]}},{"type":"Feature","properties":{"kind":"piste","difficulty":"easy","name":null,"aerialway":null,"osm":"way/143539074"},"geometry":{"type":"LineString","coordinates":[[9.86854,47.07365],[9.86985,47.07341]]}},{"type":"Feature","properties":{"kind":"piste","difficulty":"easy","name":null,"aerialway":null,"osm":"way/143539077"},"geometry":{"type":"LineString","coordinates":[[9.87402,47.07063],[9.87451,47.07058],[9.87471,47.07076]]}},{"type":"Feature","properties":{"kind":"piste","difficulty":"easy","name":null,"aerialway":null,"osm":"way/143539078"},"geometry":{"type":"LineString","coordinates":[[9.86024,47.07168],[9.85909,47.07235],[9.8592,47.07259],[9.8591,47.07275]]}},{"type":"Feature","properties":{"kind":"piste","difficulty":"easy","name":null,"aerialway":null,"osm":"way/143539079"},"geometry":{"type":"LineString","coordinates":[[9.85924,47.07061],[9.85997,47.07089],[9.86021,47.07089],[9.86024,47.07078]]}},{"type":"Feature","properties":{"kind":"lift","difficulty":null,"name":"Innerbach","aerialway":"rope_tow","osm":"way/256100318"},"geometry":{"type":"LineString","coordinates":[[9.86856,47.08901],[9.86709,47.08728]]}},{"type":"Feature","properties":{"kind":"piste","difficulty":"novice","name":null,"aerialway":null,"osm":"way/256100319"},"geometry":{"type":"LineString","coordinates":[[9.86709,47.08728],[9.86728,47.08729],[9.86764,47.0877],[9.86866,47.08892],[9.86856,47.08901]]}},{"type":"Feature","properties":{"kind":"piste","difficulty":"advanced","name":null,"aerialway":null,"osm":"way/554715782"},"geometry":{"type":"LineString","coordinates":[[9.83549,47.06462],[9.83473,47.06505],[9.83458,47.06536],[9.83399,47.06555]]}},{"type":"Feature","properties":{"kind":"piste","difficulty":"intermediate","name":null,"aerialway":null,"osm":"way/554715786"},"geometry":{"type":"LineString","coordinates":[[9.83876,47.06455],[9.83919,47.06439],[9.83985,47.06371],[9.84114,47.06358]]}},{"type":"Feature","properties":{"kind":"piste","difficulty":"intermediate","name":null,"aerialway":null,"osm":"way/554715788"},"geometry":{"type":"LineString","coordinates":[[9.83898,47.06336],[9.83872,47.06411],[9.83876,47.06455]]}},{"type":"Feature","properties":{"kind":"piste","difficulty":"intermediate","name":null,"aerialway":null,"osm":"way/554715789"},"geometry":{"type":"LineString","coordinates":[[9.84101,47.06686],[9.84255,47.06643],[9.84417,47.06651],[9.84463,47.0662]]}},{"type":"Feature","properties":{"kind":"piste","difficulty":"easy","name":null,"aerialway":null,"osm":"way/554715791"},"geometry":{"type":"LineString","coordinates":[[9.83851,47.06473],[9.83876,47.06455]]}},{"type":"Feature","properties":{"kind":"piste","difficulty":"easy","name":null,"aerialway":null,"osm":"way/554715793"},"geometry":{"type":"LineString","coordinates":[[9.85997,47.07089],[9.85999,47.07097]]}},{"type":"Feature","properties":{"kind":"piste","difficulty":"easy","name":null,"aerialway":null,"osm":"way/554715798"},"geometry":{"type":"LineString","coordinates":[[9.85855,47.06978],[9.85879,47.07045]]}},{"type":"Feature","properties":{"kind":"piste","difficulty":"easy","name":null,"aerialway":null,"osm":"way/554715800"},"geometry":{"type":"LineString","coordinates":[[9.85241,47.06822],[9.85426,47.06885]]}},{"type":"Feature","properties":{"kind":"piste","difficulty":"easy","name":null,"aerialway":null,"osm":"way/554715801"},"geometry":{"type":"LineString","coordinates":[[9.85426,47.06885],[9.85924,47.07061]]}},{"type":"Feature","properties":{"kind":"piste","difficulty":"easy","name":null,"aerialway":null,"osm":"way/554715802"},"geometry":{"type":"LineString","coordinates":[[9.85072,47.06743],[9.85166,47.06728],[9.85232,47.06747],[9.85323,47.06742],[9.85369,47.06719],[9.85466,47.06639],[9.85535,47.06619]]}},{"type":"Feature","properties":{"kind":"piste","difficulty":"easy","name":null,"aerialway":null,"osm":"way/554715803"},"geometry":{"type":"LineString","coordinates":[[9.84639,47.06342],[9.84754,47.06293]]}},{"type":"Feature","properties":{"kind":"piste","difficulty":"advanced","name":null,"aerialway":null,"osm":"way/636927493"},"geometry":{"type":"LineString","coordinates":[[9.83455,47.06179],[9.83487,47.06145]]}},{"type":"Feature","properties":{"kind":"piste","difficulty":"unknown","name":null,"aerialway":null,"osm":"way/1151243320"},"geometry":{"type":"LineString","coordinates":[[9.83447,47.0668],[9.8342,47.06811]]}},{"type":"Feature","properties":{"kind":"piste","difficulty":"easy","name":null,"aerialway":null,"osm":"way/1456124802"},"geometry":{"type":"LineString","coordinates":[[9.8453,47.06611],[9.84769,47.06605]]}},{"type":"Feature","properties":{"kind":"piste","difficulty":"expert","name":null,"aerialway":null,"osm":"way/1456124805"},"geometry":{"type":"LineString","coordinates":[[9.83838,47.06438],[9.837,47.06435],[9.83569,47.06549]]}}]}