{"type":"FeatureCollection","features":[{"type":"Feature","properties":{"kind":"piste","difficulty":"advanced","name":null,"aerialway":null,"osm":"way/524749630"},"geometry":{"type":"LineString","coordinates":[[9.77012,47.28013],[9.77121,47.27902],[9.77216,47.27865]]}},{"type":"Feature","properties":{"kind":"piste","difficulty":"intermediate","name":null,"aerialway":null,"osm":"way/524749632"},"geometry":{"type":"LineString","coordinates":[[9.76345,47.28068],[9.76334,47.28045],[9.76358,47.28009],[9.76403,47.28002],[9.76434,47.28024],[9.76489,47.28014],[9.76615,47.27979],[9.76653,47.27959],[9.76683,47.27924],[9.76759,47.27898],[9.76961,47.27878],[9.77327,47.27767],[9.77405,47.27756],[9.77427,47.27772]]}},{"type":"Feature","properties":{"kind":"piste","difficulty":"advanced","name":null,"aerialway":null,"osm":"way/524749633"},"geometry":{"type":"LineString","coordinates":[[9.76347,47.28072],[9.7652,47.28078],[9.76677,47.28067],[9.76887,47.28023],[9.77012,47.28013],[9.77115,47.2798],[9.77147,47.27957],[9.77216,47.27865],[9.77437,47.27801],[9.77441,47.27787]]}},{"type":"Feature","properties":{"kind":"piste","difficulty":"advanced","name":null,"aerialway":null,"osm":"way/550435531"},"geometry":{"type":"LineString","coordinates":[[9.77441,47.27787],[9.77429,47.27776]]}},{"type":"Feature","properties":{"kind":"lift","difficulty":null,"name":"Fallenbodenlift","aerialway":"t-bar","osm":"way/38995417"},"geometry":{"type":"LineString","coordinates":[[9.77447,47.27771],[9.76282,47.28091]]}},{"type":"Feature","properties":{"kind":"lift","difficulty":null,"name":"Fallenbodenlift","aerialway":"t-bar","osm":"way/338411354"},"geometry":{"type":"LineString","coordinates":[[9.77445,47.27767],[9.76279,47.28086]]}},{"type":"Feature","properties":{"kind":"piste","difficulty":"easy","name":null,"aerialway":null,"osm":"way/524749729"},"geometry":{"type":"LineString","coordinates":[[9.76196,47.28103],[9.76252,47.28068],[9.76234,47.2798],[9.76252,47.27922],[9.76568,47.27737],[9.76598,47.27696],[9.76571,47.27647],[9.76487,47.27587],[9.7637,47.27535],[9.76165,47.27528],[9.75939,47.27452],[9.75512,47.27115],[9.75146,47.27034]]}},{"type":"Feature","properties":{"kind":"lift","difficulty":null,"name":"Sesselbahn Nob","aerialway":"chair_lift","osm":"way/38995394"},"geometry":{"type":"LineString","coordinates":[[9.7512,47.26963],[9.76165,47.28114]]}},{"type":"Feature","properties":{"kind":"lift","difficulty":null,"name":"Sesselbahn Gapfohl","aerialway":"chair_lift","osm":"way/38995395"},"geometry":{"type":"LineString","coordinates":[[9.74271,47.26105],[9.75935,47.27426]]}},{"type":"Feature","properties":{"kind":"lift","difficulty":null,"name":"Übungslift Gapfohl","aerialway":"platter","osm":"way/238544694"},"geometry":{"type":"LineString","coordinates":[[9.76051,47.27288],[9.76199,47.27519]]}},{"type":"Feature","properties":{"kind":"lift","difficulty":null,"name":"Kinderland Falba Stuba","aerialway":"magic_carpet","osm":"way/452447396"},"geometry":{"type":"LineString","coordinates":[[9.76025,47.27452],[9.76075,47.27469]]}},{"type":"Feature","properties":{"kind":"piste","difficulty":"intermediate","name":null,"aerialway":null,"osm":"way/524749627"},"geometry":{"type":"LineString","coordinates":[[9.76231,47.2784],[9.76249,47.27718],[9.76249,47.27593]]}},{"type":"Feature","properties":{"kind":"piste","difficulty":"freeride","name":null,"aerialway":null,"osm":"way/524749722"},"geometry":{"type":"LineString","coordinates":[[9.74287,47.26396],[9.74205,47.26282],[9.74209,47.26203],[9.74054,47.26172],[9.73879,47.26088],[9.73823,47.26155],[9.73799,47.26159],[9.73671,47.26102],[9.73602,47.2602]]}},{"type":"Feature","properties":{"kind":"piste","difficulty":"intermediate","name":null,"aerialway":null,"osm":"way/524749724"},"geometry":{"type":"LineString","coordinates":[[9.76212,47.27906],[9.76231,47.2784],[9.76134,47.27795],[9.7606,47.27694],[9.76006,47.27649],[9.75943,47.27529],[9.75908,47.27488],[9.75706,47.27338]]}},{"type":"Feature","properties":{"kind":"piste","difficulty":"intermediate","name":null,"aerialway":null,"osm":"way/524749725"},"geometry":{"type":"LineString","coordinates":[[9.76385,47.27796],[9.76375,47.27741],[9.76326,47.27631]]}},{"type":"Feature","properties":{"kind":"piste","difficulty":"intermediate","name":null,"aerialway":null,"osm":"way/524749726"},"geometry":{"type":"LineString","coordinates":[[9.76183,47.28092],[9.76212,47.27906],[9.76237,47.2787],[9.76335,47.27838],[9.76463,47.27746],[9.76467,47.27714],[9.76393,47.27656],[9.76249,47.27593],[9.75902,47.27453],[9.75868,47.27456]]}},{"type":"Feature","properties":{"kind":"piste","difficulty":"easy","name":null,"aerialway":null,"osm":"way/524749727"},"geometry":{"type":"LineString","coordinates":[[9.76195,47.27477],[9.76263,47.27415],[9.76281,47.27372],[9.76277,47.27351],[9.7624,47.27308],[9.76079,47.27293]]}},{"type":"Feature","properties":{"kind":"piste","difficulty":"easy","name":null,"aerialway":null,"osm":"way/524749728"},"geometry":{"type":"LineString","coordinates":[[9.76165,47.27528],[9.76195,47.27477],[9.7619,47.27451],[9.76107,47.27318],[9.76075,47.2729],[9.76053,47.27291]]}},{"type":"Feature","properties":{"kind":"piste","difficulty":"intermediate","name":null,"aerialway":null,"osm":"way/524749730"},"geometry":{"type":"LineString","coordinates":[[9.76081,47.28062],[9.76056,47.28027],[9.75993,47.27989],[9.75997,47.27952],[9.75858,47.27744],[9.75722,47.27579],[9.757,47.27438]]}},{"type":"Feature","properties":{"kind":"piste","difficulty":"intermediate","name":null,"aerialway":null,"osm":"way/524749731"},"geometry":{"type":"LineString","coordinates":[[9.76165,47.28114],[9.76196,47.28103],[9.76192,47.28095],[9.76081,47.28062],[9.7601,47.28062],[9.75917,47.28001],[9.75912,47.27916],[9.75895,47.27886],[9.75829,47.27813],[9.75777,47.27712],[9.75641,47.27566],[9.7564,47.27543],[9.75689,47.2747],[9.75715,47.27398],[9.75714,47.27361]]}},{"type":"Feature","properties":{"kind":"piste","difficulty":"easy","name":null,"aerialway":null,"osm":"way/524749732"},"geometry":{"type":"LineString","coordinates":[[9.75321,47.27065],[9.75236,47.27013],[9.75077,47.26825],[9.74831,47.2681]]}},{"type":"Feature","properties":{"kind":"piste","difficulty":"easy","name":null,"aerialway":null,"osm":"way/524749733"},"geometry":{"type":"LineString","coordinates":[[9.75855,47.27387],[9.75855,47.27301],[9.75798,47.27236],[9.75618,47.27155],[9.75482,47.27133],[9.75402,47.27134]]}},{"type":"Feature","properties":{"kind":"piste","difficulty":"easy","name":null,"aerialway":null,"osm":"way/524749739"},"geometry":{"type":"LineString","coordinates":[[9.75146,47.27034],[9.74936,47.27001],[9.74903,47.26964],[9.74917,47.2688],[9.749,47.26848],[9.74735,47.26773],[9.74573,47.26737],[9.74401,47.2662],[9.74302,47.2649],[9.74281,47.26422],[9.74321,47.26305],[9.74403,47.26201],[9.74311,47.26095],[9.74276,47.26092],[9.74264,47.26097],[9.74271,47.26105]]}},{"type":"Feature","properties":{"kind":"piste","difficulty":"easy","name":null,"aerialway":null,"osm":"way/549984667"},"geometry":{"type":"LineString","coordinates":[[9.76229,47.27528],[9.76195,47.27477]]}},{"type":"Feature","properties":{"kind":"lift","difficulty":null,"name":"Sommerrodelbahn Laterns","aerialway":"drag_lift","osm":"way/658102257"},"geometry":{"type":"LineString","coordinates":[[9.74298,47.2612],[9.74497,47.26279]]}},{"type":"Feature","properties":{"kind":"piste","difficulty":"advanced","name":null,"aerialway":null,"osm":"way/1036777718"},"geometry":{"type":"LineString","coordinates":[[9.75481,47.279],[9.75531,47.2787],[9.75573,47.27874],[9.75644,47.27929],[9.75717,47.27833],[9.75765,47.27791],[9.75765,47.27765],[9.75787,47.27745]]}},{"type":"Feature","properties":{"kind":"piste","difficulty":"advanced","name":null,"aerialway":null,"osm":"way/1036777720"},"geometry":{"type":"LineString","coordinates":[[9.75981,47.28154],[9.75875,47.28136],[9.75735,47.28087],[9.75488,47.27916],[9.75481,47.279]]}},{"type":"Feature","properties":{"kind":"piste","difficulty":"freeride","name":null,"aerialway":null,"osm":"way/1036777730"},"geometry":{"type":"LineString","coordinates":[[9.74343,47.26231],[9.74169,47.26141],[9.74208,47.26103],[9.74265,47.26096]]}},{"type":"Feature","properties":{"kind":"piste","difficulty":"intermediate","name":null,"aerialway":null,"osm":"way/1036777731"},"geometry":{"type":"LineString","coordinates":[[9.75714,47.27361],[9.75674,47.27306]]}},{"type":"Feature","properties":{"kind":"piste","difficulty":"intermediate","name":null,"aerialway":null,"osm":"way/1036777732"},"geometry":{"type":"LineString","coordinates":[[9.75674,47.27306],[9.75504,47.27179],[9.75146,47.27034]]}},{"type":"Feature","properties":{"kind":"piste","difficulty":"advanced","name":null,"aerialway":null,"osm":"way/1123090963"},"geometry":{"type":"LineString","coordinates":[[9.74558,47.27844],[9.74375,47.27772],[9.74196,47.27639],[9.74103,47.27595],[9.74023,47.27524],[9.73982,47.27513],[9.73912,47.2747],[9.73885,47.27373],[9.73851,47.27309],[9.73855,47.27143],[9.73828,47.27014],[9.73797,47.26932],[9.73717,47.26816],[9.73565,47.26725],[9.73531,47.2669],[9.73521,47.26658],[9.73544,47.26633],[9.73622,47.2661],[9.73693,47.26523]]}},{"type":"Feature","properties":{"kind":"piste","difficulty":"advanced","name":null,"aerialway":null,"osm":"way/1233476099"},"geometry":{"type":"LineString","coordinates":[[9.76153,47.28139],[9.76077,47.28143],[9.7605,47.28162],[9.75981,47.28154]]}},{"type":"Feature","properties":{"kind":"piste","difficulty":"easy","name":null,"aerialway":null,"osm":"way/1442885460"},"geometry":{"type":"LineString","coordinates":[[9.7637,47.27844],[9.76343,47.27831]]}},{"type":"Feature","properties":{"kind":"piste","difficulty":"easy","name":null,"aerialway":null,"osm":"way/1442885461"},"geometry":{"type":"LineString","coordinates":[[9.76165,47.27528],[9.76067,47.2752]]}},{"type":"Feature","properties":{"kind":"piste","difficulty":"intermediate","name":null,"aerialway":null,"osm":"way/1442885462"},"geometry":{"type":"LineString","coordinates":[[9.75902,47.27453],[9.75894,47.2742]]}},{"type":"Feature","properties":{"kind":"piste","difficulty":"intermediate","name":null,"aerialway":null,"osm":"way/1442885463"},"geometry":{"type":"LineString","coordinates":[[9.76146,47.28081],[9.76087,47.27982],[9.75997,47.27952]]}},{"type":"Feature","properties":{"kind":"piste","difficulty":"advanced","name":null,"aerialway":null,"osm":"way/1502553231"},"geometry":{"type":"LineString","coordinates":[[9.75735,47.28087],[9.75483,47.28094]]}}]}