{"type":"FeatureCollection","features":[{"type":"Feature","properties":{"kind":"lift","difficulty":null,"name":null,"aerialway":"t-bar","osm":"way/75316541"},"geometry":{"type":"LineString","coordinates":[[15.3458,48.3334],[15.33957,48.33391]]}},{"type":"Feature","properties":{"kind":"piste","difficulty":"easy","name":"Iriswiese","aerialway":null,"osm":"way/144160407"},"geometry":{"type":"LineString","coordinates":[[15.34,48.33387],[15.34029,48.33428],[15.34559,48.33368],[15.34575,48.33365],[15.34569,48.33341]]}},{"type":"Feature","properties":{"kind":"lift","difficulty":null,"name":null,"aerialway":"magic_carpet","osm":"way/144160471"},"geometry":{"type":"LineString","coordinates":[[15.34544,48.33407],[15.34504,48.33399]]}}]}