{"type":"FeatureCollection","features":[{"type":"Feature","properties":{"kind":"lift","difficulty":null,"name":"8er-Kabinenbahn IKARUS","aerialway":"gondola","osm":"way/37108997"},"geometry":{"type":"LineString","coordinates":[[13.27597,47.45862],[13.29839,47.46309]]}},{"type":"Feature","properties":{"kind":"lift","difficulty":null,"name":"Ladenberg II","aerialway":"drag_lift","osm":"way/154888270"},"geometry":{"type":"LineString","coordinates":[[13.31028,47.47754],[13.3024,47.4699]]}},{"type":"Feature","properties":{"kind":"lift","difficulty":null,"name":"4er-Sessellift Strussing","aerialway":"chair_lift","osm":"way/154888271"},"geometry":{"type":"LineString","coordinates":[[13.29194,47.46904],[13.29861,47.46381]]}},{"type":"Feature","properties":{"kind":"lift","difficulty":null,"name":"4er-Sessellift Ladenberg","aerialway":"chair_lift","osm":"way/154888273"},"geometry":{"type":"LineString","coordinates":[[13.30229,47.47616],[13.30191,47.47019]]}},{"type":"Feature","properties":{"kind":"lift","difficulty":null,"name":"IKIs Schlepplift","aerialway":"t-bar","osm":"way/155017010"},"geometry":{"type":"LineString","coordinates":[[13.27627,47.45924],[13.28156,47.45828]]}},{"type":"Feature","properties":{"kind":"lift","difficulty":null,"name":"IKIs Tellerlift","aerialway":"platter","osm":"way/155017011"},"geometry":{"type":"LineString","coordinates":[[13.27137,47.45815],[13.2766,47.45659]]}},{"type":"Feature","properties":{"kind":"lift","difficulty":null,"name":"Schlepplift Schnapfenriedl","aerialway":"drag_lift","osm":"way/155017013"},"geometry":{"type":"LineString","coordinates":[[13.293,47.47849],[13.29953,47.47765]]}},{"type":"Feature","properties":{"kind":"lift","difficulty":null,"name":"Schlepplift Schöntal","aerialway":"drag_lift","osm":"way/155017014"},"geometry":{"type":"LineString","coordinates":[[13.26812,47.45783],[13.26248,47.45583]]}},{"type":"Feature","properties":{"kind":"lift","difficulty":null,"name":"8er-Kabinenbahn Rosnerköpfl","aerialway":"gondola","osm":"way/247041880"},"geometry":{"type":"LineString","coordinates":[[13.25606,47.46106],[13.2602,47.45351]]}},{"type":"Feature","properties":{"kind":"piste","difficulty":"easy","name":"IKIs Schlepplift","aerialway":null,"osm":"way/418765327"},"geometry":{"type":"LineString","coordinates":[[13.28156,47.45828],[13.27999,47.45893],[13.2772,47.45933],[13.27627,47.45924]]}},{"type":"Feature","properties":{"kind":"piste","difficulty":"easy","name":"IKIs Schlepplift","aerialway":null,"osm":"way/418765328"},"geometry":{"type":"LineString","coordinates":[[13.28156,47.45828],[13.27922,47.4584],[13.27721,47.45871],[13.2764,47.45903],[13.27627,47.45924]]}},{"type":"Feature","properties":{"kind":"piste","difficulty":"intermediate","name":"Strussing Abfahrt","aerialway":null,"osm":"way/418765330"},"geometry":{"type":"LineString","coordinates":[[13.29861,47.46381],[13.29839,47.46309],[13.29784,47.46497],[13.2979,47.46522],[13.29816,47.46568],[13.29996,47.46641],[13.30034,47.46677],[13.30029,47.46767],[13.2995,47.46803],[13.29709,47.46856],[13.29642,47.46903],[13.29407,47.46983],[13.29246,47.46941],[13.29194,47.46904]]}},{"type":"Feature","properties":{"kind":"piste","difficulty":"intermediate","name":"Strussing Abfahrt","aerialway":null,"osm":"way/418765333"},"geometry":{"type":"LineString","coordinates":[[13.29642,47.46903],[13.29531,47.46893],[13.29246,47.46941]]}},{"type":"Feature","properties":{"kind":"piste","difficulty":"advanced","name":"Ladenberg Abfahrt","aerialway":null,"osm":"way/418765335"},"geometry":{"type":"LineString","coordinates":[[13.3015,47.47177],[13.30264,47.47333],[13.30247,47.47385],[13.30204,47.47449],[13.30199,47.47568],[13.30229,47.47616]]}},{"type":"Feature","properties":{"kind":"piste","difficulty":"intermediate","name":"Ladenberg Abfahrt","aerialway":null,"osm":"way/418765337"},"geometry":{"type":"LineString","coordinates":[[13.3024,47.4699],[13.30388,47.47193],[13.30631,47.47444],[13.30645,47.4748],[13.30626,47.4755],[13.30645,47.47602]]}},{"type":"Feature","properties":{"kind":"piste","difficulty":"intermediate","name":"Ladenberg Abfahrt","aerialway":null,"osm":"way/418765340"},"geometry":{"type":"LineString","coordinates":[[13.30191,47.47019],[13.30209,47.47026],[13.30243,47.47105],[13.30376,47.47274],[13.3044,47.47432],[13.30434,47.475],[13.30382,47.47551],[13.30279,47.47607],[13.30229,47.47616]]}},{"type":"Feature","properties":{"kind":"piste","difficulty":"intermediate","name":"Ladenberg Carvingpiste","aerialway":null,"osm":"way/418765342"},"geometry":{"type":"LineString","coordinates":[[13.3024,47.4699],[13.30368,47.47013],[13.30483,47.47091],[13.30566,47.47185],[13.30623,47.47316],[13.30631,47.47444]]}},{"type":"Feature","properties":{"kind":"piste","difficulty":"easy","name":"Ladenberg - Strussing Skiverb.","aerialway":null,"osm":"way/418765344"},"geometry":{"type":"LineString","coordinates":[[13.30257,47.47405],[13.30194,47.47424],[13.30071,47.47405],[13.30023,47.47384],[13.2994,47.47293],[13.29908,47.47278],[13.29811,47.47271],[13.29688,47.47151],[13.29655,47.47088],[13.29664,47.47056],[13.29654,47.47041],[13.29466,47.47064],[13.29385,47.4705],[13.29292,47.47014],[13.29158,47.46998],[13.29117,47.46958],[13.29124,47.46931],[13.29194,47.46904]]}},{"type":"Feature","properties":{"kind":"piste","difficulty":"intermediate","name":null,"aerialway":null,"osm":"way/418765347"},"geometry":{"type":"LineString","coordinates":[[13.29953,47.47765],[13.30229,47.47616]]}},{"type":"Feature","properties":{"kind":"piste","difficulty":"intermediate","name":"Schnapfenriedl Abfahrt","aerialway":null,"osm":"way/418765349"},"geometry":{"type":"LineString","coordinates":[[13.29953,47.47765],[13.29661,47.47697],[13.29529,47.47691],[13.29454,47.47723],[13.29305,47.47842]]}},{"type":"Feature","properties":{"kind":"piste","difficulty":"easy","name":"Schnapfenriedl - Ladenberg Skiverb.","aerialway":null,"osm":"way/418765351"},"geometry":{"type":"LineString","coordinates":[[13.30229,47.47616],[13.29912,47.47623],[13.29771,47.47597],[13.29383,47.47589],[13.2927,47.4757],[13.29254,47.47581],[13.29234,47.47681],[13.29244,47.47757],[13.29305,47.47842]]}},{"type":"Feature","properties":{"kind":"piste","difficulty":"easy","name":"IKIs Tellerlift","aerialway":null,"osm":"way/418765355"},"geometry":{"type":"LineString","coordinates":[[13.2766,47.45659],[13.27384,47.45662],[13.27242,47.45689],[13.2717,47.45742],[13.27137,47.45815]]}},{"type":"Feature","properties":{"kind":"piste","difficulty":"easy","name":null,"aerialway":null,"osm":"way/418765357"},"geometry":{"type":"LineString","coordinates":[[13.27922,47.4584],[13.27729,47.45824],[13.27441,47.45757],[13.27288,47.458],[13.27137,47.45815]]}},{"type":"Feature","properties":{"kind":"piste","difficulty":"easy","name":"Schlepplift Schöntal","aerialway":null,"osm":"way/418765359"},"geometry":{"type":"LineString","coordinates":[[13.26248,47.45583],[13.26394,47.45585],[13.26627,47.45646],[13.26788,47.45731],[13.26812,47.45783]]}},{"type":"Feature","properties":{"kind":"piste","difficulty":"easy","name":"Rosnerköpfl Talabfahrt","aerialway":null,"osm":"way/419242380"},"geometry":{"type":"LineString","coordinates":[[13.25965,47.45486],[13.26069,47.45522],[13.26185,47.45581],[13.26248,47.45583],[13.26376,47.45726],[13.26247,47.45728],[13.26023,47.45767],[13.25916,47.45812],[13.25848,47.45856],[13.25744,47.45881],[13.25677,47.45918],[13.25593,47.45921],[13.25548,47.45948],[13.2554,47.45984],[13.25554,47.46013],[13.25605,47.46058],[13.25589,47.46088],[13.25606,47.46106]]}},{"type":"Feature","properties":{"kind":"piste","difficulty":"intermediate","name":"Rosnerköpfl Talabfahrt","aerialway":null,"osm":"way/472653191"},"geometry":{"type":"LineString","coordinates":[[13.25851,47.45653],[13.25828,47.45647],[13.25861,47.45625],[13.25891,47.45611],[13.25922,47.45616],[13.25997,47.45644],[13.26053,47.4569],[13.2605,47.45702],[13.26017,47.45709],[13.25916,47.45812]]}},{"type":"Feature","properties":{"kind":"piste","difficulty":"easy","name":null,"aerialway":null,"osm":"way/472655630"},"geometry":{"type":"LineString","coordinates":[[13.26394,47.45585],[13.26869,47.45493],[13.26938,47.45508],[13.27029,47.45512],[13.27149,47.45498],[13.27233,47.45512],[13.27303,47.45581],[13.27469,47.45649],[13.27501,47.45673],[13.27542,47.45729],[13.27569,47.4584],[13.27597,47.45862]]}},{"type":"Feature","properties":{"kind":"piste","difficulty":"easy","name":"Ladenberg Abfahrt","aerialway":null,"osm":"way/472665249"},"geometry":{"type":"LineString","coordinates":[[13.30029,47.46767],[13.30033,47.46869],[13.30056,47.4695],[13.30015,47.47001],[13.30013,47.47056],[13.30046,47.47111],[13.30192,47.47206],[13.30246,47.47227],[13.30462,47.47259],[13.3054,47.47243],[13.30558,47.4725],[13.30542,47.4728],[13.30471,47.47335],[13.30472,47.47367],[13.30461,47.47379],[13.30254,47.47406]]}},{"type":"Feature","properties":{"kind":"piste","difficulty":"easy","name":null,"aerialway":null,"osm":"way/472753232"},"geometry":{"type":"LineString","coordinates":[[13.3024,47.4699],[13.30191,47.47019]]}},{"type":"Feature","properties":{"kind":"piste","difficulty":"intermediate","name":"Strussing Abfahrt","aerialway":null,"osm":"way/472753234"},"geometry":{"type":"LineString","coordinates":[[13.30191,47.47019],[13.30207,47.4699],[13.30173,47.46949],[13.30051,47.4685],[13.2995,47.46803]]}},{"type":"Feature","properties":{"kind":"piste","difficulty":"easy","name":"IKARUS Skiweg","aerialway":null,"osm":"way/472758597"},"geometry":{"type":"LineString","coordinates":[[13.28939,47.44993],[13.28918,47.44978],[13.28894,47.44927],[13.28855,47.44912],[13.28583,47.44926],[13.28544,47.44917],[13.28469,47.44924],[13.28396,47.44909],[13.28062,47.44989],[13.28017,47.44976],[13.27934,47.44922],[13.27844,47.4502],[13.27806,47.45039],[13.27778,47.45095],[13.27713,47.45129],[13.27563,47.45143],[13.27514,47.45175],[13.2743,47.45187],[13.27248,47.45172],[13.27173,47.45223],[13.27104,47.45236],[13.26909,47.45202],[13.26822,47.45271],[13.26755,47.453],[13.26692,47.45323],[13.26604,47.45329],[13.26518,47.45355],[13.26445,47.45435],[13.26257,47.45477],[13.26077,47.45465],[13.25968,47.45486]]}},{"type":"Feature","properties":{"kind":"piste","difficulty":"intermediate","name":"Ladenberg Abfahrt","aerialway":null,"osm":"way/473309226"},"geometry":{"type":"LineString","coordinates":[[13.30645,47.47602],[13.30609,47.47642],[13.3056,47.47658],[13.30229,47.47616]]}},{"type":"Feature","properties":{"kind":"piste","difficulty":"intermediate","name":"Rosnerköpfl Talabfahrt","aerialway":null,"osm":"way/1356138354"},"geometry":{"type":"LineString","coordinates":[[13.2602,47.45351],[13.25989,47.45332],[13.2594,47.4533],[13.25866,47.45354],[13.25859,47.45383],[13.25965,47.45486]]}},{"type":"Feature","properties":{"kind":"piste","difficulty":"intermediate","name":"Ladenberg Abfahrt","aerialway":null,"osm":"way/1356138358"},"geometry":{"type":"LineString","coordinates":[[13.30191,47.47019],[13.30159,47.47027],[13.3014,47.47101],[13.3015,47.47177]]}},{"type":"Feature","properties":{"kind":"piste","difficulty":"intermediate","name":null,"aerialway":null,"osm":"way/1356138359"},"geometry":{"type":"LineString","coordinates":[[13.30645,47.47602],[13.30759,47.47707],[13.30824,47.47748],[13.30913,47.47772],[13.31028,47.47754]]}},{"type":"Feature","properties":{"kind":"piste","difficulty":"intermediate","name":null,"aerialway":null,"osm":"relation/2724113"},"geometry":{"type":"MultiLineString","coordinates":[[[13.29839,47.46309],[13.2985,47.46299],[13.29802,47.46278],[13.29769,47.46219],[13.29771,47.46182],[13.29796,47.46148],[13.29821,47.46062],[13.29814,47.46004],[13.298,47.45953],[13.29767,47.45901],[13.29742,47.45771],[13.29689,47.45696],[13.29627,47.45616],[13.29478,47.45486],[13.2942,47.45387],[13.29246,47.45241],[13.29207,47.45195],[13.29182,47.45089],[13.29156,47.45045],[13.29079,47.45009],[13.28881,47.44995]],[[13.28881,47.44995],[13.2869,47.45022]],[[13.2869,47.45022],[13.28538,47.45061],[13.28373,47.45129]],[[13.28373,47.45129],[13.28229,47.45278],[13.28053,47.454],[13.28003,47.45461],[13.27923,47.45624],[13.27783,47.45779],[13.277,47.4582],[13.27569,47.4584]]]}}]}