{"type":"FeatureCollection","features":[{"type":"Feature","properties":{"kind":"lift","difficulty":null,"name":"Stollenlift","aerialway":"chair_lift","osm":"way/52175592"},"geometry":{"type":"LineString","coordinates":[[14.77687,46.52418],[14.77106,46.5181]]}},{"type":"Feature","properties":{"kind":"lift","difficulty":null,"name":"Siebenhüttenlift","aerialway":"t-bar","osm":"way/52175593"},"geometry":{"type":"LineString","coordinates":[[14.77473,46.51667],[14.76739,46.50926]]}},{"type":"Feature","properties":{"kind":"lift","difficulty":null,"name":"Übungslift","aerialway":"drag_lift","osm":"way/52176353"},"geometry":{"type":"LineString","coordinates":[[14.77494,46.54244],[14.77752,46.53956]]}},{"type":"Feature","properties":{"kind":"lift","difficulty":null,"name":"Kabinenbahn Petzen","aerialway":"gondola","osm":"way/142708127"},"geometry":{"type":"LineString","coordinates":[[14.77163,46.51808],[14.77396,46.54045]]}},{"type":"Feature","properties":{"kind":"lift","difficulty":null,"name":"Quellenlift","aerialway":"t-bar","osm":"way/142708192"},"geometry":{"type":"LineString","coordinates":[[14.77305,46.54091],[14.77259,46.53641]]}},{"type":"Feature","properties":{"kind":"piste","difficulty":"easy","name":null,"aerialway":null,"osm":"way/199258357"},"geometry":{"type":"LineString","coordinates":[[14.77228,46.51507],[14.772,46.51562],[14.77187,46.51631],[14.77198,46.51662],[14.77191,46.51728],[14.77173,46.51779]]}},{"type":"Feature","properties":{"kind":"piste","difficulty":"intermediate","name":"11 Stollenhang","aerialway":null,"osm":"way/199258358"},"geometry":{"type":"LineString","coordinates":[[14.77467,46.52087],[14.77653,46.52252],[14.77708,46.52393],[14.77687,46.52418]]}},{"type":"Feature","properties":{"kind":"piste","difficulty":"intermediate","name":"14 Siebenhüttenpiste","aerialway":null,"osm":"way/199258359"},"geometry":{"type":"LineString","coordinates":[[14.76782,46.5097],[14.76719,46.50953],[14.76701,46.50962],[14.7677,46.51011],[14.76847,46.51094],[14.76931,46.51218],[14.77053,46.51299],[14.77214,46.51451],[14.77228,46.51507],[14.77384,46.51716]]}},{"type":"Feature","properties":{"kind":"piste","difficulty":"intermediate","name":null,"aerialway":null,"osm":"way/199258360"},"geometry":{"type":"LineString","coordinates":[[14.78461,46.53304],[14.78375,46.5337],[14.78245,46.53532],[14.78187,46.5355],[14.78078,46.53556],[14.77944,46.5365],[14.77841,46.53674],[14.77828,46.5369],[14.77832,46.53718]]}},{"type":"Feature","properties":{"kind":"piste","difficulty":"intermediate","name":null,"aerialway":null,"osm":"way/199258361"},"geometry":{"type":"LineString","coordinates":[[14.77174,46.51773],[14.77279,46.51751],[14.77299,46.51762],[14.77303,46.5178]]}},{"type":"Feature","properties":{"kind":"piste","difficulty":"intermediate","name":null,"aerialway":null,"osm":"way/199258362"},"geometry":{"type":"LineString","coordinates":[[14.77745,46.52578],[14.77805,46.52557],[14.77818,46.52525],[14.77891,46.52439],[14.77941,46.52412],[14.77923,46.52334],[14.78001,46.52293],[14.78018,46.52254],[14.78134,46.52218],[14.78195,46.52169],[14.78205,46.52137],[14.78219,46.52139],[14.78222,46.5218],[14.78251,46.52239],[14.78123,46.52311],[14.78098,46.5235]]}},{"type":"Feature","properties":{"kind":"piste","difficulty":"intermediate","name":null,"aerialway":null,"osm":"way/199258363"},"geometry":{"type":"LineString","coordinates":[[14.77259,46.53641],[14.77301,46.53648],[14.77351,46.54073],[14.77305,46.54091]]}},{"type":"Feature","properties":{"kind":"piste","difficulty":"easy","name":null,"aerialway":null,"osm":"way/199258364"},"geometry":{"type":"LineString","coordinates":[[14.77788,46.53945],[14.77674,46.54064],[14.77597,46.54182],[14.77517,46.5426],[14.77494,46.54244]]}},{"type":"Feature","properties":{"kind":"piste","difficulty":"easy","name":null,"aerialway":null,"osm":"way/199258365"},"geometry":{"type":"LineString","coordinates":[[14.77674,46.54064],[14.7757,46.54054],[14.77473,46.54019],[14.77407,46.54023]]}},{"type":"Feature","properties":{"kind":"piste","difficulty":"advanced","name":null,"aerialway":null,"osm":"way/199258367"},"geometry":{"type":"LineString","coordinates":[[14.78665,46.52509],[14.7875,46.52672],[14.78716,46.52759],[14.78711,46.52864],[14.78634,46.53104]]}},{"type":"Feature","properties":{"kind":"piste","difficulty":"intermediate","name":"11 Stollenhang","aerialway":null,"osm":"way/199258368"},"geometry":{"type":"LineString","coordinates":[[14.77161,46.51783],[14.77173,46.51779],[14.77201,46.51803],[14.77303,46.51944],[14.77467,46.52087]]}},{"type":"Feature","properties":{"kind":"piste","difficulty":"easy","name":null,"aerialway":null,"osm":"way/199258369"},"geometry":{"type":"LineString","coordinates":[[14.77158,46.51784],[14.77107,46.51837],[14.77113,46.51863],[14.77131,46.51861],[14.77297,46.51819],[14.77354,46.51778],[14.77362,46.51738]]}},{"type":"Feature","properties":{"kind":"piste","difficulty":"easy","name":"13 Märchenwaldpiste","aerialway":null,"osm":"way/199258370"},"geometry":{"type":"LineString","coordinates":[[14.77398,46.51707],[14.77509,46.51679],[14.77505,46.51728],[14.77519,46.51771],[14.77487,46.51885],[14.77503,46.5189],[14.77641,46.51824],[14.77676,46.51788],[14.77689,46.51795],[14.77669,46.51837],[14.77611,46.51896],[14.77602,46.51952],[14.77567,46.5201],[14.77567,46.52049],[14.77538,46.52084],[14.77565,46.52097],[14.77587,46.52091],[14.77678,46.52017],[14.77715,46.51959],[14.77732,46.51956],[14.77724,46.52096],[14.77703,46.52113],[14.77663,46.52198],[14.77653,46.52252]]}},{"type":"Feature","properties":{"kind":"piste","difficulty":"easy","name":null,"aerialway":null,"osm":"way/199258371"},"geometry":{"type":"LineString","coordinates":[[14.77201,46.51803],[14.77259,46.51802],[14.77306,46.51779],[14.77384,46.51716],[14.77473,46.51667]]}},{"type":"Feature","properties":{"kind":"piste","difficulty":"intermediate","name":null,"aerialway":null,"osm":"way/1214157158"},"geometry":{"type":"LineString","coordinates":[[14.77708,46.52393],[14.77728,46.52514],[14.77657,46.52584],[14.77657,46.52606]]}},{"type":"Feature","properties":{"kind":"piste","difficulty":"intermediate","name":null,"aerialway":null,"osm":"way/1214157160"},"geometry":{"type":"LineString","coordinates":[[14.77657,46.52606],[14.77745,46.52578]]}},{"type":"Feature","properties":{"kind":"piste","difficulty":"intermediate","name":null,"aerialway":null,"osm":"way/1214200704"},"geometry":{"type":"LineString","coordinates":[[14.78098,46.5235],[14.78227,46.52376],[14.78665,46.52509]]}},{"type":"Feature","properties":{"kind":"piste","difficulty":"intermediate","name":null,"aerialway":null,"osm":"way/1214200714"},"geometry":{"type":"LineString","coordinates":[[14.78634,46.53104],[14.78603,46.53195],[14.78461,46.53304]]}},{"type":"Feature","properties":{"kind":"piste","difficulty":"intermediate","name":null,"aerialway":null,"osm":"way/1214200725"},"geometry":{"type":"LineString","coordinates":[[14.77832,46.53718],[14.77875,46.53855],[14.77788,46.53945]]}},{"type":"Feature","properties":{"kind":"piste","difficulty":"intermediate","name":"12 Umfahrung Stollenhang","aerialway":null,"osm":"way/1468938631"},"geometry":{"type":"LineString","coordinates":[[14.77384,46.51716],[14.77484,46.51816],[14.77494,46.52032],[14.77467,46.52087]]}},{"type":"Feature","properties":{"kind":"piste","difficulty":"intermediate","name":"10 Trainingshang","aerialway":null,"osm":"way/1468938632"},"geometry":{"type":"LineString","coordinates":[[14.7713,46.51861],[14.77149,46.519],[14.77302,46.52086],[14.77397,46.52179],[14.77489,46.52294],[14.77699,46.52369]]}}]}