{"type":"FeatureCollection","features":[{"type":"Feature","properties":{"kind":"lift","difficulty":null,"name":"Kasbergbahn","aerialway":"gondola","osm":"way/29852183"},"geometry":{"type":"LineString","coordinates":[[14.00483,47.84543],[14.00115,47.83075]]}},{"type":"Feature","properties":{"kind":"piste","difficulty":"easy","name":null,"aerialway":null,"osm":"way/29852185"},"geometry":{"type":"LineString","coordinates":[[14.00109,47.83047],[14.00157,47.83028]]}},{"type":"Feature","properties":{"kind":"piste","difficulty":"easy","name":null,"aerialway":null,"osm":"way/29852189"},"geometry":{"type":"LineString","coordinates":[[14.00198,47.82935],[14.0021,47.82934]]}},{"type":"Feature","properties":{"kind":"lift","difficulty":null,"name":null,"aerialway":"magic_carpet","osm":"way/29852191"},"geometry":{"type":"LineString","coordinates":[[14.0021,47.82934],[14.00263,47.83003]]}},{"type":"Feature","properties":{"kind":"piste","difficulty":"easy","name":null,"aerialway":null,"osm":"way/29852200"},"geometry":{"type":"LineString","coordinates":[[14.00157,47.83028],[14.00141,47.83003]]}},{"type":"Feature","properties":{"kind":"lift","difficulty":null,"name":"Gruppenumlaufbahn","aerialway":"gondola","osm":"way/29852203"},"geometry":{"type":"LineString","coordinates":[[13.99695,47.82672],[13.9866,47.81012]]}},{"type":"Feature","properties":{"kind":"piste","difficulty":"freeride","name":null,"aerialway":null,"osm":"way/29852209"},"geometry":{"type":"LineString","coordinates":[[13.98999,47.81449],[13.99036,47.81474],[13.99122,47.81572]]}},{"type":"Feature","properties":{"kind":"piste","difficulty":"easy","name":null,"aerialway":null,"osm":"way/29852213"},"geometry":{"type":"LineString","coordinates":[[13.9866,47.81012],[13.98654,47.81002]]}},{"type":"Feature","properties":{"kind":"piste","difficulty":"easy","name":null,"aerialway":null,"osm":"way/29852219"},"geometry":{"type":"LineString","coordinates":[[13.98343,47.80701],[13.98269,47.80725]]}},{"type":"Feature","properties":{"kind":"piste","difficulty":"intermediate","name":"Ochsenboden-Abfahrt","aerialway":null,"osm":"way/29852221"},"geometry":{"type":"LineString","coordinates":[[13.98335,47.80645],[13.98405,47.80647],[13.98609,47.80727],[13.98755,47.80717],[13.98895,47.80762],[13.98972,47.8081],[13.98968,47.80838],[13.98988,47.80864],[13.9914,47.80921],[13.99232,47.81002],[13.9937,47.81098],[13.9937,47.81112],[13.99345,47.8113]]}},{"type":"Feature","properties":{"kind":"piste","difficulty":"easy","name":"Kinder-Rennstrecke","aerialway":null,"osm":"way/30248254"},"geometry":{"type":"LineString","coordinates":[[14.00141,47.83003],[14.00198,47.82935],[14.002,47.82864],[14.0018,47.82848],[14.00107,47.82833],[13.99939,47.82832],[13.99801,47.82813]]}},{"type":"Feature","properties":{"kind":"piste","difficulty":"easy","name":null,"aerialway":null,"osm":"way/30248258"},"geometry":{"type":"LineString","coordinates":[[13.99681,47.82742],[13.99662,47.8269],[13.99674,47.82671]]}},{"type":"Feature","properties":{"kind":"lift","difficulty":null,"name":"Farrenau","aerialway":"t-bar","osm":"way/30248260"},"geometry":{"type":"LineString","coordinates":[[13.99616,47.82747],[14.00119,47.83022]]}},{"type":"Feature","properties":{"kind":"piste","difficulty":"easy","name":"Farrenauhang","aerialway":null,"osm":"way/30248262"},"geometry":{"type":"LineString","coordinates":[[14.00113,47.83019],[14.00141,47.83003],[14.00133,47.82977],[14.00055,47.8292],[13.99879,47.82856],[13.99681,47.82742],[13.99633,47.82735],[13.99622,47.8275]]}},{"type":"Feature","properties":{"kind":"lift","difficulty":null,"name":"Farrenau","aerialway":"t-bar","osm":"way/30248264"},"geometry":{"type":"LineString","coordinates":[[13.99611,47.82751],[14.00114,47.83026]]}},{"type":"Feature","properties":{"kind":"piste","difficulty":"easy","name":"Almabfahrt","aerialway":null,"osm":"way/30248266"},"geometry":{"type":"LineString","coordinates":[[13.99593,47.82658],[13.99695,47.82672]]}},{"type":"Feature","properties":{"kind":"piste","difficulty":"easy","name":"Familienabfahrt","aerialway":null,"osm":"way/30248268"},"geometry":{"type":"LineString","coordinates":[[13.98865,47.81329],[13.98894,47.81378],[13.98924,47.81393],[13.99059,47.81376]]}},{"type":"Feature","properties":{"kind":"piste","difficulty":"easy","name":null,"aerialway":null,"osm":"way/30248272"},"geometry":{"type":"LineString","coordinates":[[13.99633,47.82735],[13.99603,47.82752]]}},{"type":"Feature","properties":{"kind":"piste","difficulty":"easy","name":null,"aerialway":null,"osm":"way/30248273"},"geometry":{"type":"LineString","coordinates":[[13.99603,47.82752],[13.99617,47.82754]]}},{"type":"Feature","properties":{"kind":"piste","difficulty":"easy","name":null,"aerialway":null,"osm":"way/30248275"},"geometry":{"type":"LineString","coordinates":[[14.00091,47.83026],[13.99983,47.83057]]}},{"type":"Feature","properties":{"kind":"piste","difficulty":"easy","name":null,"aerialway":null,"osm":"way/30248278"},"geometry":{"type":"LineString","coordinates":[[14.00108,47.83044],[13.99983,47.83071]]}},{"type":"Feature","properties":{"kind":"piste","difficulty":"easy","name":"Jagerspitzhang","aerialway":null,"osm":"way/30248279"},"geometry":{"type":"LineString","coordinates":[[14.00109,47.83023],[14.00054,47.83027],[13.99907,47.82989],[13.99488,47.82976]]}},{"type":"Feature","properties":{"kind":"piste","difficulty":"easy","name":"Jagerspitzhang","aerialway":null,"osm":"way/30248281"},"geometry":{"type":"LineString","coordinates":[[13.99477,47.83058],[13.99509,47.83165],[13.99536,47.83177]]}},{"type":"Feature","properties":{"kind":"lift","difficulty":null,"name":"Jagerspitz","aerialway":"t-bar","osm":"way/30248283"},"geometry":{"type":"LineString","coordinates":[[13.99528,47.83178],[14.0009,47.83098]]}},{"type":"Feature","properties":{"kind":"piste","difficulty":"intermediate","name":"Madlries-Abfahrt","aerialway":null,"osm":"way/30248286"},"geometry":{"type":"LineString","coordinates":[[14.00022,47.83108],[13.99863,47.83112],[13.99759,47.83098],[13.99584,47.83133],[13.99509,47.83165],[13.99503,47.83183],[13.99546,47.83232],[13.99706,47.83338],[13.99792,47.83357],[13.99888,47.8336],[13.99791,47.83409],[13.99782,47.83432],[14.00016,47.8343],[14.0017,47.83507],[14.00207,47.83551],[14.00299,47.83589],[14.00291,47.8361],[14.0019,47.83653],[14.00012,47.83657],[13.99989,47.83674],[13.99946,47.83815],[13.9989,47.83938],[13.99891,47.83975],[13.99913,47.84004],[14.00067,47.84106],[14.0015,47.84178],[14.00202,47.84195],[14.00288,47.84255],[14.00332,47.84345],[14.00422,47.84447],[14.00436,47.84546],[14.00456,47.84565]]}},{"type":"Feature","properties":{"kind":"piste","difficulty":"easy","name":null,"aerialway":null,"osm":"way/30248288"},"geometry":{"type":"LineString","coordinates":[[13.99477,47.83058],[13.99474,47.83072]]}},{"type":"Feature","properties":{"kind":"lift","difficulty":null,"name":"Hochberg - Ost","aerialway":"t-bar","osm":"way/30248290"},"geometry":{"type":"LineString","coordinates":[[13.99477,47.83091],[13.99058,47.83225]]}},{"type":"Feature","properties":{"kind":"piste","difficulty":"intermediate","name":"Sonnenhang","aerialway":null,"osm":"way/30248293"},"geometry":{"type":"LineString","coordinates":[[13.991,47.83211],[13.99082,47.83197],[13.99117,47.83155],[13.99223,47.83086],[13.99472,47.83069],[13.99468,47.83094]]}},{"type":"Feature","properties":{"kind":"piste","difficulty":"advanced","name":"Madlries-Abfahrt","aerialway":null,"osm":"way/30248295"},"geometry":{"type":"LineString","coordinates":[[13.99706,47.83338],[13.99723,47.83387],[13.99782,47.83432]]}},{"type":"Feature","properties":{"kind":"piste","difficulty":"easy","name":null,"aerialway":null,"osm":"way/30248297"},"geometry":{"type":"LineString","coordinates":[[13.99105,47.83586],[13.9915,47.83638]]}},{"type":"Feature","properties":{"kind":"piste","difficulty":"advanced","name":"Madlries-Abfahrt","aerialway":null,"osm":"way/30248298"},"geometry":{"type":"LineString","coordinates":[[14.00016,47.8343],[14.0003,47.8363],[14.00012,47.83657]]}},{"type":"Feature","properties":{"kind":"lift","difficulty":null,"name":"Ochsenboden","aerialway":"chair_lift","osm":"way/30248299"},"geometry":{"type":"LineString","coordinates":[[13.99316,47.81114],[13.98365,47.80708]]}},{"type":"Feature","properties":{"kind":"piste","difficulty":"easy","name":"Almabfahrt","aerialway":null,"osm":"way/30248300"},"geometry":{"type":"LineString","coordinates":[[13.98329,47.80705],[13.98362,47.80722],[13.98433,47.80809],[13.98536,47.81036],[13.9863,47.81144]]}},{"type":"Feature","properties":{"kind":"piste","difficulty":"easy","name":"Almabfahrt","aerialway":null,"osm":"way/30248301"},"geometry":{"type":"LineString","coordinates":[[13.98622,47.8116],[13.98548,47.81188],[13.98524,47.81184]]}},{"type":"Feature","properties":{"kind":"piste","difficulty":"intermediate","name":"Eisgrubenabfahrt","aerialway":null,"osm":"way/30248302"},"geometry":{"type":"LineString","coordinates":[[13.98858,47.81314],[13.9887,47.81301],[13.98865,47.8127],[13.98824,47.81199],[13.98973,47.81172],[13.9919,47.81181],[13.99237,47.8117],[13.99263,47.81145],[13.99339,47.81128]]}},{"type":"Feature","properties":{"kind":"piste","difficulty":"advanced","name":"Eisgrubenabfahrt","aerialway":null,"osm":"way/30248303"},"geometry":{"type":"LineString","coordinates":[[13.98675,47.8127],[13.98767,47.81213],[13.98819,47.81202]]}},{"type":"Feature","properties":{"kind":"piste","difficulty":"easy","name":null,"aerialway":null,"osm":"way/30248304"},"geometry":{"type":"LineString","coordinates":[[13.98654,47.81002],[13.9864,47.81007],[13.9863,47.81144]]}},{"type":"Feature","properties":{"kind":"piste","difficulty":"easy","name":null,"aerialway":null,"osm":"way/30248305"},"geometry":{"type":"LineString","coordinates":[[13.98654,47.81002],[13.98674,47.81]]}},{"type":"Feature","properties":{"kind":"piste","difficulty":"advanced","name":"Ochsenboden-Direkt FIS","aerialway":null,"osm":"way/30248306"},"geometry":{"type":"LineString","coordinates":[[13.98674,47.81],[13.98712,47.81034],[13.98844,47.81037],[13.99332,47.81137]]}},{"type":"Feature","properties":{"kind":"piste","difficulty":"intermediate","name":null,"aerialway":null,"osm":"way/30248308"},"geometry":{"type":"LineString","coordinates":[[13.98295,47.80712],[13.98296,47.80687],[13.98324,47.80659]]}},{"type":"Feature","properties":{"kind":"piste","difficulty":"intermediate","name":"Spitzplaneck-Ost","aerialway":null,"osm":"way/30248310"},"geometry":{"type":"LineString","coordinates":[[13.97912,47.80605],[13.97939,47.80707],[13.97937,47.80874],[13.97924,47.80907],[13.97866,47.80928]]}},{"type":"Feature","properties":{"kind":"lift","difficulty":null,"name":"Spitzplaneck","aerialway":"t-bar","osm":"way/30248311"},"geometry":{"type":"LineString","coordinates":[[13.97824,47.80928],[13.97875,47.80541]]}},{"type":"Feature","properties":{"kind":"piste","difficulty":"intermediate","name":"Spitzplaneck-West","aerialway":null,"osm":"way/30248312"},"geometry":{"type":"LineString","coordinates":[[13.97861,47.80587],[13.9782,47.80604],[13.97799,47.80631],[13.97798,47.80703],[13.97744,47.80806],[13.97753,47.80847],[13.97793,47.80907],[13.97815,47.80931],[13.97833,47.80925]]}},{"type":"Feature","properties":{"kind":"piste","difficulty":"intermediate","name":"Spitzplaneck-West","aerialway":null,"osm":"way/30248313"},"geometry":{"type":"LineString","coordinates":[[13.97799,47.80631],[13.97724,47.80679],[13.97709,47.80702],[13.97707,47.80724],[13.97758,47.80777]]}},{"type":"Feature","properties":{"kind":"piste","difficulty":"intermediate","name":"Spitzplaneck-West","aerialway":null,"osm":"way/30248314"},"geometry":{"type":"LineString","coordinates":[[13.97766,47.80651],[13.97759,47.80678],[13.97774,47.80749]]}},{"type":"Feature","properties":{"kind":"piste","difficulty":"freeride","name":null,"aerialway":null,"osm":"way/30248315"},"geometry":{"type":"LineString","coordinates":[[13.97861,47.80587],[13.97706,47.80583],[13.97631,47.80609],[13.97614,47.80628],[13.97612,47.80656],[13.9763,47.80684],[13.97717,47.80736]]}},{"type":"Feature","properties":{"kind":"piste","difficulty":"freeride","name":null,"aerialway":null,"osm":"way/30248317"},"geometry":{"type":"LineString","coordinates":[[13.97612,47.80656],[13.97597,47.80703],[13.97628,47.80763],[13.97635,47.80821],[13.97709,47.80841],[13.97776,47.80882]]}},{"type":"Feature","properties":{"kind":"piste","difficulty":"easy","name":null,"aerialway":null,"osm":"way/30248319"},"geometry":{"type":"LineString","coordinates":[[13.98332,47.80714],[13.98344,47.80713]]}},{"type":"Feature","properties":{"kind":"lift","difficulty":null,"name":"Fun Jet","aerialway":"t-bar","osm":"way/30248320"},"geometry":{"type":"LineString","coordinates":[[13.98525,47.81188],[13.98303,47.80682]]}},{"type":"Feature","properties":{"kind":"piste","difficulty":"easy","name":null,"aerialway":null,"osm":"way/30248321"},"geometry":{"type":"LineString","coordinates":[[13.98318,47.80717],[13.98304,47.80718]]}},{"type":"Feature","properties":{"kind":"piste","difficulty":"easy","name":null,"aerialway":null,"osm":"way/30248324"},"geometry":{"type":"LineString","coordinates":[[13.98269,47.80725],[13.98087,47.80807],[13.97997,47.80827],[13.9794,47.80826]]}},{"type":"Feature","properties":{"kind":"piste","difficulty":"easy","name":"Almabfahrt","aerialway":null,"osm":"way/51707226"},"geometry":{"type":"LineString","coordinates":[[13.99129,47.81371],[13.99143,47.81321],[13.99187,47.81271],[13.99237,47.8117]]}},{"type":"Feature","properties":{"kind":"piste","difficulty":"easy","name":"Waldabfahrt","aerialway":null,"osm":"way/51707227"},"geometry":{"type":"LineString","coordinates":[[13.98327,47.81109],[13.98342,47.81147],[13.98485,47.81199]]}},{"type":"Feature","properties":{"kind":"piste","difficulty":"easy","name":null,"aerialway":null,"osm":"way/51707228"},"geometry":{"type":"LineString","coordinates":[[13.98479,47.80903],[13.9864,47.81007]]}},{"type":"Feature","properties":{"kind":"piste","difficulty":"easy","name":"Waldabfahrt","aerialway":null,"osm":"way/51707229"},"geometry":{"type":"LineString","coordinates":[[13.98253,47.80734],[13.98237,47.80768],[13.98248,47.80872],[13.98327,47.81109]]}},{"type":"Feature","properties":{"kind":"piste","difficulty":"easy","name":null,"aerialway":null,"osm":"way/51707231"},"geometry":{"type":"LineString","coordinates":[[13.98327,47.81109],[13.98051,47.80979],[13.97946,47.80941],[13.97866,47.80928]]}},{"type":"Feature","properties":{"kind":"piste","difficulty":"easy","name":"Spitzplaneck-Ost","aerialway":null,"osm":"way/51707232"},"geometry":{"type":"LineString","coordinates":[[13.97866,47.80928],[13.97824,47.80922]]}},{"type":"Feature","properties":{"kind":"piste","difficulty":"easy","name":null,"aerialway":null,"osm":"way/51707233"},"geometry":{"type":"LineString","coordinates":[[13.98318,47.80717],[13.98332,47.80714]]}},{"type":"Feature","properties":{"kind":"piste","difficulty":"intermediate","name":"Hochberg - Nord","aerialway":null,"osm":"way/51707235"},"geometry":{"type":"LineString","coordinates":[[13.98988,47.83221],[13.99109,47.83236],[13.99127,47.83256],[13.99132,47.83309],[13.9909,47.83394],[13.9912,47.83473]]}},{"type":"Feature","properties":{"kind":"lift","difficulty":null,"name":"Hochberg - Nord","aerialway":"t-bar","osm":"way/51707236"},"geometry":{"type":"LineString","coordinates":[[13.99051,47.83607],[13.98981,47.83181]]}},{"type":"Feature","properties":{"kind":"piste","difficulty":"intermediate","name":"Hochberg - Abfahrt","aerialway":null,"osm":"way/51707237"},"geometry":{"type":"LineString","coordinates":[[13.991,47.83211],[13.99141,47.83241],[13.99243,47.83245],[13.99264,47.8326],[13.99266,47.83281],[13.99258,47.833],[13.99179,47.83359],[13.9912,47.83473]]}},{"type":"Feature","properties":{"kind":"piste","difficulty":"intermediate","name":null,"aerialway":null,"osm":"way/51707238"},"geometry":{"type":"LineString","coordinates":[[13.99995,47.83103],[13.99974,47.8307],[13.99803,47.83066],[13.99732,47.83074],[13.99638,47.83123]]}},{"type":"Feature","properties":{"kind":"piste","difficulty":"easy","name":null,"aerialway":null,"osm":"way/51707240"},"geometry":{"type":"LineString","coordinates":[[13.99716,47.82978],[13.99648,47.82911],[13.99583,47.82794],[13.99603,47.82752]]}},{"type":"Feature","properties":{"kind":"piste","difficulty":"intermediate","name":"Hochberg - Nord","aerialway":null,"osm":"way/51707242"},"geometry":{"type":"LineString","coordinates":[[13.98988,47.83221],[13.9909,47.83394]]}},{"type":"Feature","properties":{"kind":"piste","difficulty":"easy","name":"Umfahrung Sonnenhang","aerialway":null,"osm":"way/51707243"},"geometry":{"type":"LineString","coordinates":[[13.99082,47.83197],[13.98991,47.8313],[13.98987,47.83091],[13.99221,47.82942],[13.99352,47.82911],[13.99411,47.82918],[13.99439,47.82937],[13.99452,47.82968],[13.99472,47.83069]]}},{"type":"Feature","properties":{"kind":"piste","difficulty":"easy","name":null,"aerialway":null,"osm":"way/51707244"},"geometry":{"type":"LineString","coordinates":[[13.98988,47.83221],[13.99002,47.83201],[13.99071,47.83175],[13.99142,47.83107],[13.99232,47.83067],[13.99446,47.83046],[13.99472,47.83069]]}},{"type":"Feature","properties":{"kind":"piste","difficulty":"easy","name":null,"aerialway":null,"osm":"way/51707245"},"geometry":{"type":"LineString","coordinates":[[14.00003,47.83106],[13.99983,47.83071],[13.99982,47.83041],[13.99903,47.82984],[13.9994,47.82916],[13.99925,47.82873]]}},{"type":"Feature","properties":{"kind":"piste","difficulty":"easy","name":"Madlries-Abfahrt","aerialway":null,"osm":"way/51707247"},"geometry":{"type":"LineString","coordinates":[[14.00165,47.84186],[14.00081,47.84212],[14.00074,47.84229],[14.00242,47.84261]]}},{"type":"Feature","properties":{"kind":"piste","difficulty":"easy","name":"Alte Familienabfahrt","aerialway":null,"osm":"way/71877932"},"geometry":{"type":"LineString","coordinates":[[13.9915,47.83638],[13.99125,47.83658],[13.99115,47.83689],[13.99079,47.83665],[13.98952,47.83658],[13.98691,47.83616],[13.98803,47.83666],[13.98903,47.83738],[13.98934,47.83783],[13.99092,47.83799],[13.9895,47.83818],[13.988,47.83862],[13.98788,47.83882],[13.98992,47.83878],[13.99258,47.83904],[13.99037,47.83959],[13.98853,47.84035],[13.98846,47.84049],[13.99207,47.84048],[13.99417,47.84029],[13.99421,47.84041],[13.99303,47.84081],[13.993,47.84091],[13.99335,47.84107],[13.99769,47.84114],[14.00165,47.84186]]}},{"type":"Feature","properties":{"kind":"piste","difficulty":"easy","name":"Jagerspitzhang","aerialway":null,"osm":"way/71880492"},"geometry":{"type":"LineString","coordinates":[[13.99488,47.82976],[13.99477,47.83058]]}},{"type":"Feature","properties":{"kind":"piste","difficulty":"easy","name":"Almabfahrt","aerialway":null,"osm":"way/71880507"},"geometry":{"type":"LineString","coordinates":[[13.98614,47.81226],[13.98684,47.81272],[13.98845,47.81305],[13.98863,47.81322],[13.98858,47.81358],[13.9888,47.81392],[13.9896,47.81414],[13.98999,47.81449],[13.99071,47.8143],[13.99057,47.81361],[13.9908,47.81329],[13.99101,47.81322],[13.99114,47.81333],[13.99166,47.81498],[13.99165,47.81529],[13.99122,47.81572],[13.99132,47.81623],[13.99143,47.81645],[13.99186,47.81674],[13.99291,47.81703],[13.99329,47.81733],[13.9941,47.81839],[13.99428,47.81949],[13.99424,47.81989],[13.99412,47.81995]]}},{"type":"Feature","properties":{"kind":"lift","difficulty":null,"name":null,"aerialway":"magic_carpet","osm":"way/150528338"},"geometry":{"type":"LineString","coordinates":[[14.00217,47.8298],[14.00239,47.83016]]}},{"type":"Feature","properties":{"kind":"piste","difficulty":"intermediate","name":null,"aerialway":null,"osm":"way/150528350"},"geometry":{"type":"LineString","coordinates":[[13.98165,47.80714],[13.98109,47.80781],[13.98092,47.80835],[13.98109,47.80919],[13.98099,47.80945],[13.98063,47.80957],[13.97946,47.80941]]}},{"type":"Feature","properties":{"kind":"piste","difficulty":"novice","name":null,"aerialway":null,"osm":"way/150528357"},"geometry":{"type":"LineString","coordinates":[[14.00263,47.83003],[14.00239,47.82994]]}},{"type":"Feature","properties":{"kind":"piste","difficulty":"easy","name":null,"aerialway":null,"osm":"way/150528358"},"geometry":{"type":"LineString","coordinates":[[13.98643,47.81039],[13.98676,47.81045],[13.98712,47.81034]]}},{"type":"Feature","properties":{"kind":"piste","difficulty":"easy","name":null,"aerialway":null,"osm":"way/150528360"},"geometry":{"type":"LineString","coordinates":[[13.98521,47.81205],[13.98548,47.81188]]}},{"type":"Feature","properties":{"kind":"piste","difficulty":"novice","name":null,"aerialway":null,"osm":"way/150528363"},"geometry":{"type":"LineString","coordinates":[[14.00239,47.83016],[14.00239,47.82994],[14.00217,47.8298]]}},{"type":"Feature","properties":{"kind":"piste","difficulty":"novice","name":null,"aerialway":null,"osm":"way/150528365"},"geometry":{"type":"LineString","coordinates":[[14.00263,47.83003],[14.00239,47.82944],[14.0021,47.82934]]}},{"type":"Feature","properties":{"kind":"piste","difficulty":"easy","name":null,"aerialway":null,"osm":"way/150528366"},"geometry":{"type":"LineString","coordinates":[[13.97968,47.80658],[13.98015,47.80712],[13.9805,47.80722],[13.98183,47.80714],[13.9826,47.80723],[13.98329,47.80705]]}},{"type":"Feature","properties":{"kind":"piste","difficulty":"intermediate","name":"Ochsenboden-Abfahrt","aerialway":null,"osm":"way/894342713"},"geometry":{"type":"LineString","coordinates":[[13.98329,47.80705],[13.98322,47.80673],[13.98335,47.80645]]}},{"type":"Feature","properties":{"kind":"piste","difficulty":"easy","name":null,"aerialway":null,"osm":"way/1084716941"},"geometry":{"type":"LineString","coordinates":[[13.98598,47.81227],[13.98614,47.81226]]}},{"type":"Feature","properties":{"kind":"piste","difficulty":"easy","name":"Almabfahrt","aerialway":null,"osm":"way/1084716942"},"geometry":{"type":"LineString","coordinates":[[13.9863,47.81144],[13.98614,47.81226]]}},{"type":"Feature","properties":{"kind":"piste","difficulty":"easy","name":"Almabfahrt","aerialway":null,"osm":"way/1084716944"},"geometry":{"type":"LineString","coordinates":[[13.99412,47.81995],[13.99396,47.82006],[13.99273,47.8199],[13.99422,47.82103],[13.99468,47.82171],[13.99472,47.82198],[13.99434,47.82312],[13.99404,47.82352],[13.99403,47.82386],[13.99454,47.82477],[13.99567,47.82593],[13.99593,47.82658]]}},{"type":"Feature","properties":{"kind":"piste","difficulty":"easy","name":"Madlries-Abfahrt","aerialway":null,"osm":"way/1084716945"},"geometry":{"type":"LineString","coordinates":[[14.00242,47.84261],[14.00288,47.84255]]}},{"type":"Feature","properties":{"kind":"piste","difficulty":"easy","name":null,"aerialway":null,"osm":"way/1084716959"},"geometry":{"type":"LineString","coordinates":[[13.97861,47.80587],[13.97891,47.80589],[13.97968,47.80658]]}},{"type":"Feature","properties":{"kind":"piste","difficulty":"easy","name":"Verbindungsweg","aerialway":null,"osm":"way/1084716960"},"geometry":{"type":"LineString","coordinates":[[13.99498,47.82939],[13.99429,47.82989],[13.99417,47.83046],[13.99377,47.83104],[13.99429,47.83199],[13.99419,47.83252],[13.99448,47.83347],[13.99387,47.83409],[13.99188,47.83538],[13.99178,47.83614],[13.9915,47.83638]]}},{"type":"Feature","properties":{"kind":"piste","difficulty":"easy","name":"Verbindungsweg","aerialway":null,"osm":"way/1148287690"},"geometry":{"type":"LineString","coordinates":[[13.99615,47.8274],[13.99561,47.82785],[13.99498,47.82939]]}},{"type":"Feature","properties":{"kind":"lift","difficulty":null,"name":null,"aerialway":"magic_carpet","osm":"way/1357844195"},"geometry":{"type":"LineString","coordinates":[[14.00004,47.83062],[14.00106,47.83039]]}},{"type":"Feature","properties":{"kind":"piste","difficulty":"easy","name":null,"aerialway":null,"osm":"way/1358371652"},"geometry":{"type":"LineString","coordinates":[[13.98485,47.81199],[13.98521,47.81205]]}},{"type":"Feature","properties":{"kind":"piste","difficulty":"easy","name":null,"aerialway":null,"osm":"way/1358371653"},"geometry":{"type":"LineString","coordinates":[[13.98521,47.81205],[13.98598,47.81227]]}},{"type":"Feature","properties":{"kind":"piste","difficulty":"intermediate","name":"Hochberg - Nord","aerialway":null,"osm":"way/1358371654"},"geometry":{"type":"LineString","coordinates":[[13.9912,47.83473],[13.99105,47.83586],[13.99078,47.83606],[13.9905,47.83601]]}},{"type":"Feature","properties":{"kind":"piste","difficulty":"intermediate","name":"Madlries-Abfahrt","aerialway":null,"osm":"way/1359601278"},"geometry":{"type":"LineString","coordinates":[[14.00456,47.84565],[14.00473,47.84568]]}},{"type":"Feature","properties":{"kind":"piste","difficulty":"easy","name":null,"aerialway":null,"osm":"way/1359835399"},"geometry":{"type":"LineString","coordinates":[[13.99498,47.82939],[13.99488,47.82976]]}},{"type":"Feature","properties":{"kind":"piste","difficulty":"easy","name":"Verbindungsweg","aerialway":null,"osm":"way/1359835400"},"geometry":{"type":"LineString","coordinates":[[13.99593,47.82658],[13.99597,47.82691],[13.99646,47.82721],[13.99615,47.8274]]}}]}