{"type":"FeatureCollection","features":[{"type":"Feature","properties":{"kind":"piste","difficulty":"easy","name":null,"aerialway":null,"osm":"way/1118474509"},"geometry":{"type":"LineString","coordinates":[[10.7807,47.19295],[10.78141,47.19317],[10.78253,47.1951],[10.78247,47.19551],[10.78198,47.19578]]}},{"type":"Feature","properties":{"kind":"piste","difficulty":"easy","name":null,"aerialway":null,"osm":"way/1118474510"},"geometry":{"type":"LineString","coordinates":[[10.78066,47.19237],[10.78057,47.1926],[10.78127,47.19481],[10.78174,47.19557],[10.78217,47.19585]]}},{"type":"Feature","properties":{"kind":"lift","difficulty":null,"name":"Galtwiesenlift","aerialway":"t-bar","osm":"way/737131804"},"geometry":{"type":"LineString","coordinates":[[10.78217,47.19585],[10.78061,47.19208]]}},{"type":"Feature","properties":{"kind":"lift","difficulty":null,"name":null,"aerialway":"magic_carpet","osm":"way/737131805"},"geometry":{"type":"LineString","coordinates":[[10.78178,47.19606],[10.78156,47.19596]]}}]}