{"type":"FeatureCollection","features":[{"type":"Feature","properties":{"kind":"lift","difficulty":null,"name":"Schlepplift","aerialway":"platter","osm":"way/126228640"},"geometry":{"type":"LineString","coordinates":[[14.23176,46.47838],[14.23154,46.47347]]}},{"type":"Feature","properties":{"kind":"lift","difficulty":null,"name":"Babylift","aerialway":"rope_tow","osm":"way/661150169"},"geometry":{"type":"LineString","coordinates":[[14.23188,46.47836],[14.23176,46.47658]]}},{"type":"Feature","properties":{"kind":"lift","difficulty":null,"name":"Kurvenlift","aerialway":"t-bar","osm":"way/1054820302"},"geometry":{"type":"LineString","coordinates":[[14.23359,46.47795],[14.23247,46.47614],[14.23248,46.47597],[14.23442,46.47281]]}},{"type":"Feature","properties":{"kind":"piste","difficulty":"easy","name":null,"aerialway":null,"osm":"way/1054820303"},"geometry":{"type":"LineString","coordinates":[[14.23415,46.47323],[14.23343,46.47345],[14.23259,46.47449],[14.23213,46.47603],[14.23223,46.4765],[14.23298,46.47766],[14.23338,46.47806],[14.23354,46.47802],[14.23354,46.47788]]}},{"type":"Feature","properties":{"kind":"piste","difficulty":"easy","name":null,"aerialway":null,"osm":"way/1054820304"},"geometry":{"type":"LineString","coordinates":[[14.23176,46.47671],[14.23202,46.47707],[14.23218,46.4781],[14.23205,46.47844],[14.23176,46.4783]]}},{"type":"Feature","properties":{"kind":"piste","difficulty":"easy","name":null,"aerialway":null,"osm":"way/1054820305"},"geometry":{"type":"LineString","coordinates":[[14.23179,46.47833],[14.23187,46.47829]]}},{"type":"Feature","properties":{"kind":"piste","difficulty":"easy","name":null,"aerialway":null,"osm":"way/1054820306"},"geometry":{"type":"LineString","coordinates":[[14.23155,46.47397],[14.23193,46.4741],[14.23247,46.47477],[14.23248,46.47498],[14.23199,46.47561],[14.23202,46.47707]]}},{"type":"Feature","properties":{"kind":"piste","difficulty":"easy","name":null,"aerialway":null,"osm":"way/1054820307"},"geometry":{"type":"LineString","coordinates":[[14.23202,46.47707],[14.23293,46.47759]]}},{"type":"Feature","properties":{"kind":"piste","difficulty":"easy","name":null,"aerialway":null,"osm":"way/1054820308"},"geometry":{"type":"LineString","coordinates":[[14.23213,46.47603],[14.23201,46.47651]]}},{"type":"Feature","properties":{"kind":"piste","difficulty":"easy","name":null,"aerialway":null,"osm":"way/1054820309"},"geometry":{"type":"LineString","coordinates":[[14.23192,46.47603],[14.23223,46.4765]]}}]}