{"type":"FeatureCollection","features":[{"type":"Feature","properties":{"kind":"lift","difficulty":null,"name":"Gafidura","aerialway":"t-bar","osm":"way/128279862"},"geometry":{"type":"LineString","coordinates":[[9.83061,47.20679],[9.82626,47.20292]]}},{"type":"Feature","properties":{"kind":"lift","difficulty":null,"name":"Pfiffareute","aerialway":"t-bar","osm":"way/128279871"},"geometry":{"type":"LineString","coordinates":[[9.84401,47.20922],[9.83843,47.20418]]}},{"type":"Feature","properties":{"kind":"lift","difficulty":null,"name":"Tobel","aerialway":"platter","osm":"way/128279901"},"geometry":{"type":"LineString","coordinates":[[9.84352,47.20926],[9.84184,47.20862]]}},{"type":"Feature","properties":{"kind":"piste","difficulty":"easy","name":null,"aerialway":null,"osm":"way/130749854"},"geometry":{"type":"LineString","coordinates":[[9.83314,47.2052],[9.83227,47.20536],[9.83208,47.20559],[9.83198,47.20612],[9.83074,47.20679]]}},{"type":"Feature","properties":{"kind":"piste","difficulty":"intermediate","name":null,"aerialway":null,"osm":"way/130749855"},"geometry":{"type":"LineString","coordinates":[[9.82676,47.20328],[9.82928,47.20487],[9.83019,47.20491],[9.8306,47.20586],[9.83061,47.20679]]}},{"type":"Feature","properties":{"kind":"piste","difficulty":"intermediate","name":null,"aerialway":null,"osm":"way/130749856"},"geometry":{"type":"LineString","coordinates":[[9.83904,47.20473],[9.83877,47.20524],[9.83884,47.20559],[9.83932,47.20587],[9.84015,47.20607],[9.84097,47.20693],[9.84079,47.20709],[9.8399,47.20735],[9.83985,47.20757],[9.84339,47.20886],[9.84401,47.20922]]}},{"type":"Feature","properties":{"kind":"piste","difficulty":"novice","name":null,"aerialway":null,"osm":"way/130749860"},"geometry":{"type":"LineString","coordinates":[[9.84184,47.20862],[9.84256,47.20914],[9.84352,47.20926]]}},{"type":"Feature","properties":{"kind":"piste","difficulty":"easy","name":null,"aerialway":null,"osm":"way/132192463"},"geometry":{"type":"LineString","coordinates":[[9.83867,47.20513],[9.83782,47.20431],[9.83768,47.2043]]}},{"type":"Feature","properties":{"kind":"piste","difficulty":"easy","name":null,"aerialway":null,"osm":"way/132192465"},"geometry":{"type":"LineString","coordinates":[[9.83074,47.20679],[9.83061,47.20679]]}},{"type":"Feature","properties":{"kind":"piste","difficulty":"easy","name":null,"aerialway":null,"osm":"way/132192466"},"geometry":{"type":"LineString","coordinates":[[9.83239,47.20531],[9.83305,47.20569],[9.83447,47.20777],[9.83539,47.20867],[9.83724,47.20911],[9.83834,47.20974],[9.8391,47.20995],[9.84048,47.20984],[9.84089,47.20974],[9.8412,47.20948],[9.84256,47.20914]]}},{"type":"Feature","properties":{"kind":"piste","difficulty":"easy","name":null,"aerialway":null,"osm":"way/135225134"},"geometry":{"type":"LineString","coordinates":[[9.83515,47.20486],[9.83506,47.20496],[9.8339,47.20496],[9.83314,47.2052]]}},{"type":"Feature","properties":{"kind":"piste","difficulty":"easy","name":null,"aerialway":null,"osm":"way/137882868"},"geometry":{"type":"LineString","coordinates":[[9.83768,47.2043],[9.83715,47.20482],[9.83515,47.20486]]}},{"type":"Feature","properties":{"kind":"piste","difficulty":"easy","name":null,"aerialway":null,"osm":"way/1273334013"},"geometry":{"type":"LineString","coordinates":[[9.83893,47.20496],[9.83867,47.20513]]}},{"type":"Feature","properties":{"kind":"piste","difficulty":"intermediate","name":null,"aerialway":null,"osm":"way/1442897876"},"geometry":{"type":"LineString","coordinates":[[9.82665,47.20326],[9.82742,47.20322],[9.82841,47.20356],[9.82999,47.20364],[9.83008,47.20382],[9.82962,47.20486]]}},{"type":"Feature","properties":{"kind":"piste","difficulty":"intermediate","name":null,"aerialway":null,"osm":"way/1442897877"},"geometry":{"type":"LineString","coordinates":[[9.82841,47.20356],[9.82939,47.20476],[9.82977,47.20488]]}},{"type":"Feature","properties":{"kind":"piste","difficulty":"easy","name":null,"aerialway":null,"osm":"way/1442897878"},"geometry":{"type":"LineString","coordinates":[[9.84349,47.20919],[9.84401,47.20922]]}},{"type":"Feature","properties":{"kind":"piste","difficulty":"advanced","name":"Skiroute","aerialway":null,"osm":"way/1442897879"},"geometry":{"type":"LineString","coordinates":[[9.83074,47.20679],[9.83057,47.20711],[9.83108,47.20738],[9.83172,47.20744],[9.83264,47.20728],[9.83394,47.20796],[9.83484,47.20815]]}},{"type":"Feature","properties":{"kind":"piste","difficulty":"advanced","name":"Skiroute","aerialway":null,"osm":"way/1442897880"},"geometry":{"type":"LineString","coordinates":[[9.83524,47.20486],[9.83576,47.20512],[9.83683,47.20627],[9.83772,47.20686],[9.8382,47.20785],[9.83905,47.2084],[9.83952,47.20887],[9.83969,47.20923],[9.83897,47.20992]]}},{"type":"Feature","properties":{"kind":"piste","difficulty":"intermediate","name":null,"aerialway":null,"osm":"way/1442897881"},"geometry":{"type":"LineString","coordinates":[[9.84107,47.20807],[9.84184,47.20862]]}},{"type":"Feature","properties":{"kind":"piste","difficulty":"expert","name":"Skiroute","aerialway":null,"osm":"way/1442897882"},"geometry":{"type":"LineString","coordinates":[[9.83904,47.20473],[9.83951,47.20485],[9.84031,47.20465],[9.84085,47.20478],[9.84121,47.20506],[9.84143,47.20563],[9.84289,47.2062],[9.84318,47.20642],[9.84357,47.20768],[9.84384,47.20806],[9.84387,47.20876],[9.84371,47.20904]]}},{"type":"Feature","properties":{"kind":"piste","difficulty":"easy","name":null,"aerialway":null,"osm":"way/1442897883"},"geometry":{"type":"LineString","coordinates":[[9.84184,47.20862],[9.84277,47.20886],[9.84353,47.20929]]}},{"type":"Feature","properties":{"kind":"piste","difficulty":"advanced","name":"Skiroute","aerialway":null,"osm":"way/1442897884"},"geometry":{"type":"LineString","coordinates":[[9.83026,47.20509],[9.83084,47.2054],[9.83227,47.20536]]}},{"type":"Feature","properties":{"kind":"piste","difficulty":"intermediate","name":null,"aerialway":null,"osm":"way/1453994263"},"geometry":{"type":"LineString","coordinates":[[9.82664,47.20324],[9.82705,47.20325],[9.82884,47.20449],[9.82923,47.20463],[9.82909,47.20482],[9.82867,47.20464],[9.82664,47.20324]]}},{"type":"Feature","properties":{"kind":"piste","difficulty":"intermediate","name":null,"aerialway":null,"osm":"way/1453994264"},"geometry":{"type":"LineString","coordinates":[[9.82692,47.20319],[9.82748,47.2032],[9.82879,47.20372],[9.8296,47.20484],[9.82955,47.20492],[9.82909,47.20482],[9.82923,47.20463],[9.82852,47.20372],[9.8277,47.20331],[9.82692,47.20319]]}},{"type":"Feature","properties":{"kind":"piste","difficulty":"intermediate","name":null,"aerialway":null,"osm":"way/1453994265"},"geometry":{"type":"LineString","coordinates":[[9.8296,47.20484],[9.83056,47.2048],[9.83052,47.20526],[9.83092,47.20653],[9.83071,47.20676],[9.83056,47.20659],[9.83013,47.20516],[9.82955,47.20492],[9.8296,47.20484]]}},{"type":"Feature","properties":{"kind":"piste","difficulty":"easy","name":null,"aerialway":null,"osm":"way/1453994266"},"geometry":{"type":"LineString","coordinates":[[9.83214,47.20555],[9.83231,47.20537],[9.8327,47.20529],[9.83376,47.20642],[9.8343,47.2073],[9.83525,47.2084],[9.83572,47.20863],[9.83761,47.20907],[9.83835,47.20966],[9.83909,47.20988],[9.83846,47.20988],[9.83729,47.20923],[9.83515,47.2087],[9.83404,47.20743],[9.8331,47.2061],[9.83267,47.20575],[9.83214,47.20555]]}},{"type":"Feature","properties":{"kind":"piste","difficulty":"easy","name":null,"aerialway":null,"osm":"way/1453994267"},"geometry":{"type":"LineString","coordinates":[[9.83909,47.20988],[9.84087,47.2097],[9.8412,47.20945],[9.84252,47.20918],[9.84121,47.2095],[9.84097,47.20973],[9.84041,47.20992],[9.8393,47.21001],[9.83857,47.2099],[9.83909,47.20988]]}},{"type":"Feature","properties":{"kind":"piste","difficulty":"intermediate","name":null,"aerialway":null,"osm":"way/1453994268"},"geometry":{"type":"LineString","coordinates":[[9.83875,47.20459],[9.83903,47.20487],[9.83882,47.20531],[9.83886,47.20552],[9.83951,47.20582],[9.84026,47.20593],[9.84073,47.20633],[9.84117,47.20694],[9.83996,47.20745],[9.84338,47.20879],[9.84388,47.20912],[9.84229,47.20855],[9.84148,47.20849],[9.83966,47.20763],[9.83962,47.20742],[9.84091,47.20697],[9.84008,47.20612],[9.83941,47.20606],[9.83884,47.20583],[9.83855,47.20467],[9.83875,47.20459]]}},{"type":"Feature","properties":{"kind":"piste","difficulty":"easy","name":null,"aerialway":null,"osm":"way/1454019347"},"geometry":{"type":"LineString","coordinates":[[9.83868,47.20519],[9.83779,47.20425],[9.83754,47.20432],[9.83707,47.20481],[9.83373,47.20497],[9.83225,47.20535],[9.83195,47.20606],[9.83071,47.20676],[9.83197,47.20613],[9.83214,47.20555],[9.83231,47.20537],[9.83387,47.20498],[9.83713,47.20485],[9.83757,47.20439],[9.83782,47.20433],[9.83868,47.20519]]}},{"type":"Feature","properties":{"kind":"piste","difficulty":"advanced","name":null,"aerialway":null,"osm":"way/1454019348"},"geometry":{"type":"LineString","coordinates":[[9.83078,47.20681],[9.83055,47.20688],[9.83048,47.20707],[9.83094,47.20737],[9.832,47.20745],[9.83265,47.20729],[9.8339,47.20801],[9.83484,47.20824],[9.83466,47.20806],[9.83383,47.20789],[9.83271,47.20724],[9.83203,47.20741],[9.83102,47.20735],[9.83062,47.20714],[9.83078,47.20681]]}},{"type":"Feature","properties":{"kind":"piste","difficulty":"advanced","name":null,"aerialway":null,"osm":"way/1454019349"},"geometry":{"type":"LineString","coordinates":[[9.83904,47.20986],[9.83974,47.20935],[9.83971,47.20899],[9.83929,47.2085],[9.83835,47.20794],[9.83773,47.20678],[9.83679,47.20612],[9.8356,47.20487],[9.83528,47.20491],[9.83567,47.20513],[9.83685,47.20639],[9.8377,47.20694],[9.83811,47.20792],[9.83902,47.20844],[9.83957,47.20912],[9.83954,47.20933],[9.83927,47.20959],[9.83865,47.20975],[9.83904,47.20986]]}},{"type":"Feature","properties":{"kind":"piste","difficulty":"easy","name":null,"aerialway":null,"osm":"way/1454019350"},"geometry":{"type":"LineString","coordinates":[[9.83731,47.20924],[9.83738,47.20957],[9.83726,47.21032],[9.83748,47.20953],[9.83731,47.20924]]}},{"type":"Feature","properties":{"kind":"piste","difficulty":"easy","name":null,"aerialway":null,"osm":"way/1454019351"},"geometry":{"type":"LineString","coordinates":[[9.83724,47.20911],[9.83743,47.2096],[9.83726,47.21032]]}},{"type":"Feature","properties":{"kind":"piste","difficulty":"easy","name":null,"aerialway":null,"osm":"way/1454019352"},"geometry":{"type":"LineString","coordinates":[[9.84003,47.20989],[9.84074,47.20988],[9.84154,47.21011],[9.84259,47.21021],[9.84274,47.2104]]}},{"type":"Feature","properties":{"kind":"piste","difficulty":"easy","name":null,"aerialway":null,"osm":"way/1454019353"},"geometry":{"type":"LineString","coordinates":[[9.84041,47.20992],[9.84254,47.21025],[9.84269,47.21041],[9.8428,47.21028],[9.84231,47.2101],[9.84064,47.20986],[9.84041,47.20992]]}},{"type":"Feature","properties":{"kind":"piste","difficulty":"easy","name":null,"aerialway":null,"osm":"way/1454019354"},"geometry":{"type":"LineString","coordinates":[[9.84148,47.20849],[9.84243,47.20915],[9.84344,47.20929],[9.84242,47.20898],[9.84148,47.20849]]}},{"type":"Feature","properties":{"kind":"piste","difficulty":"easy","name":null,"aerialway":null,"osm":"way/1454019355"},"geometry":{"type":"LineString","coordinates":[[9.84148,47.20849],[9.84229,47.20855],[9.84398,47.20923],[9.84358,47.20926],[9.84148,47.20849]]}},{"type":"Feature","properties":{"kind":"piste","difficulty":"easy","name":null,"aerialway":null,"osm":"way/1454019356"},"geometry":{"type":"LineString","coordinates":[[9.84349,47.2093],[9.84385,47.20923]]}},{"type":"Feature","properties":{"kind":"piste","difficulty":"easy","name":null,"aerialway":null,"osm":"way/1454019357"},"geometry":{"type":"LineString","coordinates":[[9.84383,47.20927],[9.84325,47.20929],[9.84383,47.20927]]}}]}