{"type":"FeatureCollection","features":[{"type":"Feature","properties":{"kind":"piste","difficulty":"intermediate","name":"Schilift Kleinlobming","aerialway":null,"osm":"way/198639093"},"geometry":{"type":"LineString","coordinates":[[14.83939,47.14683],[14.83931,47.14693],[14.83962,47.14732],[14.84113,47.14859],[14.84325,47.15008],[14.844,47.15015]]}},{"type":"Feature","properties":{"kind":"lift","difficulty":null,"name":"Schilift Kleinlobming","aerialway":"drag_lift","osm":"way/198639094"},"geometry":{"type":"LineString","coordinates":[[14.84407,47.15017],[14.83932,47.14679]]}},{"type":"Feature","properties":{"kind":"lift","difficulty":null,"name":"Übungslift","aerialway":"rope_tow","osm":"way/1454617277"},"geometry":{"type":"LineString","coordinates":[[14.84252,47.15095],[14.84253,47.15042]]}},{"type":"Feature","properties":{"kind":"piste","difficulty":"novice","name":null,"aerialway":null,"osm":"way/1454617278"},"geometry":{"type":"LineString","coordinates":[[14.84226,47.15101],[14.84267,47.15102],[14.84285,47.15084],[14.84284,47.15031],[14.84221,47.15032],[14.84226,47.15101]]}},{"type":"Feature","properties":{"kind":"piste","difficulty":"intermediate","name":"Schilift Kleinlobming","aerialway":null,"osm":"way/1454617279"},"geometry":{"type":"LineString","coordinates":[[14.84381,47.15021],[14.84312,47.15056],[14.84284,47.15031],[14.84221,47.15032],[14.8402,47.14854],[14.83911,47.14709],[14.8394,47.14694],[14.84381,47.15021]]}}]}