{"type":"FeatureCollection","features":[{"type":"Feature","properties":{"kind":"lift","difficulty":null,"name":"Zwergenlift","aerialway":"platter","osm":"way/144147439"},"geometry":{"type":"LineString","coordinates":[[14.87052,47.06449],[14.8673,47.06554]]}},{"type":"Feature","properties":{"kind":"lift","difficulty":null,"name":"Speiklift I","aerialway":"t-bar","osm":"way/144147440"},"geometry":{"type":"LineString","coordinates":[[14.87795,47.06233],[14.86552,47.05597]]}},{"type":"Feature","properties":{"kind":"lift","difficulty":null,"name":"Buchenlift","aerialway":"t-bar","osm":"way/233696828"},"geometry":{"type":"LineString","coordinates":[[14.87962,47.06071],[14.87582,47.05663]]}},{"type":"Feature","properties":{"kind":"lift","difficulty":null,"name":"Muldenlift","aerialway":"t-bar","osm":"way/314929714"},"geometry":{"type":"LineString","coordinates":[[14.87213,47.06275],[14.86585,47.05904]]}},{"type":"Feature","properties":{"kind":"piste","difficulty":"intermediate","name":"S-Abfahrt","aerialway":null,"osm":"way/968404893"},"geometry":{"type":"LineString","coordinates":[[14.86599,47.05622],[14.86626,47.05596],[14.86684,47.05586],[14.86759,47.05601],[14.86922,47.05688],[14.86995,47.05714],[14.87068,47.05716],[14.87143,47.05688],[14.87209,47.05628],[14.87286,47.05589],[14.87529,47.05581],[14.87599,47.05594],[14.87647,47.05638]]}},{"type":"Feature","properties":{"kind":"piste","difficulty":"easy","name":"Kochabfahrt","aerialway":null,"osm":"way/968404894"},"geometry":{"type":"LineString","coordinates":[[14.87582,47.05663],[14.87698,47.05632],[14.87778,47.05644],[14.87894,47.05697],[14.87977,47.05756],[14.88054,47.05904],[14.88068,47.05969],[14.88043,47.06035],[14.87987,47.06071],[14.87962,47.06071]]}},{"type":"Feature","properties":{"kind":"piste","difficulty":"easy","name":"S-Abfahrt","aerialway":null,"osm":"way/968404895"},"geometry":{"type":"LineString","coordinates":[[14.87647,47.05638],[14.87676,47.05721],[14.87763,47.05878],[14.8774,47.05949],[14.87711,47.05979],[14.87734,47.06054],[14.87781,47.061],[14.87836,47.06185],[14.87826,47.06213],[14.8779,47.0623]]}},{"type":"Feature","properties":{"kind":"piste","difficulty":"easy","name":"Buchenwald","aerialway":null,"osm":"way/968404896"},"geometry":{"type":"LineString","coordinates":[[14.87738,47.05825],[14.87766,47.05848],[14.87844,47.05875],[14.88053,47.05902]]}},{"type":"Feature","properties":{"kind":"piste","difficulty":"intermediate","name":"Steilhang","aerialway":null,"osm":"way/968404897"},"geometry":{"type":"LineString","coordinates":[[14.86594,47.05627],[14.86602,47.05664],[14.86723,47.0579],[14.86808,47.05853],[14.86921,47.05908],[14.87048,47.05932]]}},{"type":"Feature","properties":{"kind":"piste","difficulty":"advanced","name":"Steilhang","aerialway":null,"osm":"way/968404898"},"geometry":{"type":"LineString","coordinates":[[14.87048,47.05932],[14.87178,47.05956],[14.87311,47.06019],[14.87492,47.06137],[14.87784,47.06238]]}},{"type":"Feature","properties":{"kind":"piste","difficulty":"intermediate","name":"Mulde Trainingspiste","aerialway":null,"osm":"way/968404899"},"geometry":{"type":"LineString","coordinates":[[14.87048,47.05932],[14.87114,47.05972],[14.87166,47.06193],[14.87236,47.06266],[14.87213,47.06275]]}},{"type":"Feature","properties":{"kind":"piste","difficulty":"advanced","name":"Zielhang","aerialway":null,"osm":"way/968404900"},"geometry":{"type":"LineString","coordinates":[[14.87213,47.06275],[14.87441,47.06407],[14.87522,47.0642],[14.87641,47.06388],[14.87672,47.06307],[14.87714,47.06261],[14.87771,47.06241]]}},{"type":"Feature","properties":{"kind":"lift","difficulty":null,"name":"Speiklift II","aerialway":"t-bar","osm":"way/1085306577"},"geometry":{"type":"LineString","coordinates":[[14.87789,47.0624],[14.86548,47.05603]]}},{"type":"Feature","properties":{"kind":"piste","difficulty":"easy","name":null,"aerialway":null,"osm":"way/1085306579"},"geometry":{"type":"LineString","coordinates":[[14.86594,47.05627],[14.86569,47.05682],[14.86568,47.0577],[14.86599,47.05981],[14.866,47.06144],[14.86625,47.06328],[14.8666,47.06422],[14.86834,47.06545]]}},{"type":"Feature","properties":{"kind":"piste","difficulty":"easy","name":null,"aerialway":null,"osm":"way/1085306580"},"geometry":{"type":"LineString","coordinates":[[14.8676,47.06544],[14.86834,47.06545],[14.87024,47.06485],[14.87052,47.06449]]}},{"type":"Feature","properties":{"kind":"piste","difficulty":"easy","name":null,"aerialway":null,"osm":"way/1085306581"},"geometry":{"type":"LineString","coordinates":[[14.86652,47.05943],[14.86597,47.05967]]}},{"type":"Feature","properties":{"kind":"piste","difficulty":"intermediate","name":null,"aerialway":null,"osm":"way/1085306582"},"geometry":{"type":"LineString","coordinates":[[14.86599,47.05985],[14.8669,47.06062],[14.87148,47.06261],[14.87213,47.06275]]}},{"type":"Feature","properties":{"kind":"piste","difficulty":"easy","name":null,"aerialway":null,"osm":"way/1085306583"},"geometry":{"type":"LineString","coordinates":[[14.8676,47.06544],[14.86849,47.0659],[14.87014,47.06731],[14.87139,47.06791],[14.8715,47.06684],[14.87138,47.06636],[14.87071,47.0651],[14.87067,47.06455],[14.87052,47.06449]]}},{"type":"Feature","properties":{"kind":"piste","difficulty":"intermediate","name":null,"aerialway":null,"osm":"way/1085306584"},"geometry":{"type":"LineString","coordinates":[[14.87139,47.06791],[14.87185,47.06767],[14.87253,47.06783],[14.87319,47.06819],[14.87446,47.06805],[14.87536,47.06757],[14.87635,47.06731],[14.87657,47.06709],[14.87669,47.06671],[14.87661,47.06617],[14.87681,47.0654],[14.87675,47.06472],[14.87641,47.06388]]}},{"type":"Feature","properties":{"kind":"piste","difficulty":"easy","name":null,"aerialway":null,"osm":"way/1085306585"},"geometry":{"type":"LineString","coordinates":[[14.87412,47.06809],[14.8737,47.06712],[14.87383,47.06659],[14.87303,47.06554],[14.87284,47.0651],[14.87302,47.06409],[14.87263,47.06365],[14.87235,47.06295]]}},{"type":"Feature","properties":{"kind":"piste","difficulty":"intermediate","name":null,"aerialway":null,"osm":"way/1085306586"},"geometry":{"type":"LineString","coordinates":[[14.87763,47.05878],[14.87787,47.0594],[14.87876,47.06017],[14.87987,47.06071]]}},{"type":"Feature","properties":{"kind":"piste","difficulty":"easy","name":null,"aerialway":null,"osm":"way/1085306587"},"geometry":{"type":"LineString","coordinates":[[14.87987,47.06071],[14.87962,47.06089],[14.87948,47.06147],[14.87877,47.06236]]}},{"type":"Feature","properties":{"kind":"lift","difficulty":null,"name":null,"aerialway":"rope_tow","osm":"way/1138910074"},"geometry":{"type":"LineString","coordinates":[[14.87874,47.0623],[14.8778,47.06281]]}},{"type":"Feature","properties":{"kind":"piste","difficulty":"unknown","name":null,"aerialway":null,"osm":"way/1138910075"},"geometry":{"type":"LineString","coordinates":[[14.87782,47.0628],[14.87871,47.06232]]}}]}