{"type":"FeatureCollection","features":[{"type":"Feature","properties":{"kind":"lift","difficulty":null,"name":"Latzerlift","aerialway":"platter","osm":"way/128279903"},"geometry":{"type":"LineString","coordinates":[[9.64098,47.19437],[9.63788,47.19642]]}},{"type":"Feature","properties":{"kind":"lift","difficulty":null,"name":"Bazora","aerialway":"t-bar","osm":"way/128279906"},"geometry":{"type":"LineString","coordinates":[[9.62075,47.19541],[9.62481,47.1884]]}},{"type":"Feature","properties":{"kind":"lift","difficulty":null,"name":"Pultlift","aerialway":"platter","osm":"way/338648837"},"geometry":{"type":"LineString","coordinates":[[9.63936,47.19247],[9.6266,47.19266]]}},{"type":"Feature","properties":{"kind":"piste","difficulty":"intermediate","name":null,"aerialway":null,"osm":"way/737272362"},"geometry":{"type":"LineString","coordinates":[[9.6275,47.19265],[9.62744,47.19294],[9.62755,47.19306],[9.62892,47.19359]]}},{"type":"Feature","properties":{"kind":"piste","difficulty":"easy","name":null,"aerialway":null,"osm":"way/737272363"},"geometry":{"type":"LineString","coordinates":[[9.64098,47.19437],[9.64069,47.19481],[9.63963,47.19549],[9.63928,47.19588],[9.63875,47.19622],[9.63788,47.19642]]}},{"type":"Feature","properties":{"kind":"piste","difficulty":"intermediate","name":null,"aerialway":null,"osm":"way/737272364"},"geometry":{"type":"LineString","coordinates":[[9.62454,47.18884],[9.62407,47.18909],[9.62329,47.19026],[9.62332,47.19052],[9.62406,47.19081],[9.62398,47.19104],[9.62146,47.19212],[9.62091,47.19247],[9.6199,47.19373],[9.61988,47.19461],[9.62004,47.19484],[9.62106,47.19527]]}},{"type":"Feature","properties":{"kind":"piste","difficulty":"advanced","name":null,"aerialway":null,"osm":"way/737272365"},"geometry":{"type":"LineString","coordinates":[[9.6222,47.19188],[9.62144,47.1936],[9.62144,47.19447],[9.62156,47.19487]]}},{"type":"Feature","properties":{"kind":"piste","difficulty":"intermediate","name":null,"aerialway":null,"osm":"way/737272366"},"geometry":{"type":"LineString","coordinates":[[9.63165,47.19283],[9.63219,47.19224],[9.63263,47.19199],[9.63481,47.19162],[9.63584,47.191],[9.63698,47.1913],[9.63769,47.19105],[9.63803,47.19113],[9.63936,47.19247]]}},{"type":"Feature","properties":{"kind":"piste","difficulty":"intermediate","name":null,"aerialway":null,"osm":"way/737272367"},"geometry":{"type":"LineString","coordinates":[[9.62839,47.19263],[9.62848,47.19314],[9.62892,47.19359],[9.62972,47.19363],[9.63165,47.19283],[9.63275,47.19286],[9.63403,47.19311],[9.63562,47.19382],[9.63595,47.19377],[9.63663,47.19322],[9.6374,47.19287],[9.63936,47.19247]]}},{"type":"Feature","properties":{"kind":"piste","difficulty":"easy","name":null,"aerialway":null,"osm":"way/737272368"},"geometry":{"type":"LineString","coordinates":[[9.6275,47.19265],[9.62611,47.19292],[9.62368,47.19371],[9.62283,47.19416],[9.6219,47.19487],[9.62075,47.19541]]}},{"type":"Feature","properties":{"kind":"piste","difficulty":"advanced","name":null,"aerialway":null,"osm":"way/737272369"},"geometry":{"type":"LineString","coordinates":[[9.62454,47.18884],[9.62435,47.18955],[9.62341,47.1911],[9.62322,47.19174],[9.62278,47.19255],[9.62294,47.19329],[9.62203,47.19445],[9.62107,47.19526]]}},{"type":"Feature","properties":{"kind":"piste","difficulty":"intermediate","name":null,"aerialway":null,"osm":"way/1442892824"},"geometry":{"type":"LineString","coordinates":[[9.63212,47.19284],[9.63298,47.1923],[9.63366,47.19209],[9.63502,47.19236],[9.63591,47.19223],[9.63725,47.19245],[9.6393,47.1924]]}},{"type":"Feature","properties":{"kind":"piste","difficulty":"intermediate","name":null,"aerialway":null,"osm":"way/1442892825"},"geometry":{"type":"LineString","coordinates":[[9.62454,47.18884],[9.62471,47.18905],[9.62486,47.18995],[9.6252,47.19023],[9.62436,47.19035],[9.62416,47.19059],[9.62434,47.19083],[9.62398,47.19104]]}},{"type":"Feature","properties":{"kind":"piste","difficulty":"advanced","name":"Skiroute","aerialway":null,"osm":"way/1442892826"},"geometry":{"type":"LineString","coordinates":[[9.62328,47.19039],[9.62245,47.19175]]}},{"type":"Feature","properties":{"kind":"piste","difficulty":"expert","name":"Skiroute","aerialway":null,"osm":"way/1442892827"},"geometry":{"type":"LineString","coordinates":[[9.62454,47.18884],[9.62375,47.18852],[9.62305,47.18846],[9.62133,47.18892],[9.62085,47.18926],[9.62069,47.18959],[9.62092,47.19018],[9.62072,47.19093],[9.62114,47.1918],[9.62102,47.1924]]}},{"type":"Feature","properties":{"kind":"piste","difficulty":"intermediate","name":null,"aerialway":null,"osm":"way/1442892828"},"geometry":{"type":"LineString","coordinates":[[9.6201,47.19344],[9.62028,47.19433],[9.62065,47.1951]]}},{"type":"Feature","properties":{"kind":"piste","difficulty":"advanced","name":"Skiroute","aerialway":null,"osm":"way/1442892829"},"geometry":{"type":"LineString","coordinates":[[9.63525,47.19422],[9.63693,47.19435],[9.63863,47.19477],[9.63864,47.1951],[9.63821,47.19554],[9.63829,47.19603],[9.63788,47.19642]]}},{"type":"Feature","properties":{"kind":"piste","difficulty":"intermediate","name":null,"aerialway":null,"osm":"way/1442892830"},"geometry":{"type":"LineString","coordinates":[[9.63275,47.19286],[9.63357,47.19325],[9.634,47.19385],[9.63433,47.19409],[9.63507,47.19423],[9.63598,47.1941],[9.63643,47.19387],[9.63675,47.19328],[9.63717,47.19296]]}},{"type":"Feature","properties":{"kind":"piste","difficulty":"easy","name":null,"aerialway":null,"osm":"way/1442892831"},"geometry":{"type":"LineString","coordinates":[[9.63895,47.19255],[9.63952,47.19266],[9.64022,47.1923],[9.64325,47.19155],[9.64418,47.19166]]}},{"type":"Feature","properties":{"kind":"piste","difficulty":"easy","name":null,"aerialway":null,"osm":"way/1442892832"},"geometry":{"type":"LineString","coordinates":[[9.6393,47.1924],[9.63986,47.19248]]}},{"type":"Feature","properties":{"kind":"piste","difficulty":"expert","name":"Skiroute nach Frastanz","aerialway":null,"osm":"way/1442892833"},"geometry":{"type":"LineString","coordinates":[[9.62243,47.19446],[9.62253,47.19545],[9.6228,47.19606],[9.62283,47.19692],[9.62393,47.19764],[9.62578,47.19926],[9.6265,47.20022],[9.62723,47.20078],[9.62743,47.20105],[9.62744,47.20129],[9.62698,47.20275],[9.62453,47.20387],[9.62393,47.20402],[9.62412,47.2042],[9.62579,47.20471],[9.6259,47.20484],[9.62405,47.20542],[9.62359,47.206],[9.62146,47.20694],[9.62129,47.20712],[9.62306,47.20739],[9.62489,47.20715],[9.62335,47.20886],[9.62583,47.20787],[9.62597,47.20792],[9.62593,47.208],[9.62528,47.2084],[9.62515,47.20852],[9.62521,47.20863],[9.62744,47.2083]]}}]}