{"type":"FeatureCollection","features":[{"type":"Feature","properties":{"kind":"piste","difficulty":"easy","name":"Waldpiste","aerialway":null,"osm":"way/149901333"},"geometry":{"type":"LineString","coordinates":[[10.1737,47.33013],[10.17339,47.32964],[10.17331,47.32925],[10.17222,47.32798],[10.1687,47.32809],[10.16796,47.32834]]}},{"type":"Feature","properties":{"kind":"piste","difficulty":"intermediate","name":"Wildentalpiste","aerialway":null,"osm":"way/149901340"},"geometry":{"type":"LineString","coordinates":[[10.17498,47.32925],[10.17462,47.32942],[10.17434,47.3294],[10.16937,47.32882],[10.16786,47.32858],[10.16781,47.32847]]}},{"type":"Feature","properties":{"kind":"piste","difficulty":"easy","name":"Panoramapiste","aerialway":null,"osm":"way/149901346"},"geometry":{"type":"LineString","coordinates":[[10.17491,47.32929],[10.17488,47.32974],[10.17409,47.33011],[10.17254,47.33016],[10.17145,47.33005],[10.17078,47.32973],[10.17022,47.32881],[10.16956,47.32853],[10.16829,47.32831],[10.16781,47.32847]]}},{"type":"Feature","properties":{"kind":"lift","difficulty":null,"name":"Wildentallift","aerialway":"platter","osm":"way/149901335"},"geometry":{"type":"LineString","coordinates":[[10.16781,47.32847],[10.17538,47.3293]]}}]}