{"type":"FeatureCollection","features":[{"type":"Feature","properties":{"kind":"lift","difficulty":null,"name":"Brunnalmbahn","aerialway":"gondola","osm":"way/27161246"},"geometry":{"type":"LineString","coordinates":[[12.3512,46.91129],[12.35646,46.89986]]}},{"type":"Feature","properties":{"kind":"lift","difficulty":null,"name":"Mooserbergbahn","aerialway":"chair_lift","osm":"way/30277982"},"geometry":{"type":"LineString","coordinates":[[12.35621,46.89969],[12.3675,46.89246]]}},{"type":"Feature","properties":{"kind":"lift","difficulty":null,"name":"Weißspitzbahn","aerialway":"chair_lift","osm":"way/30278153"},"geometry":{"type":"LineString","coordinates":[[12.35148,46.89363],[12.37266,46.88771]]}},{"type":"Feature","properties":{"kind":"piste","difficulty":"advanced","name":null,"aerialway":null,"osm":"way/48137983"},"geometry":{"type":"LineString","coordinates":[[12.35646,46.89986],[12.35664,46.89988],[12.35663,46.90015],[12.35637,46.90075],[12.356,46.90122],[12.35574,46.90129],[12.35415,46.90106],[12.35492,46.90172],[12.35489,46.90185],[12.35307,46.90157],[12.35312,46.90183],[12.35386,46.90285],[12.35493,46.9038],[12.35607,46.90509],[12.35622,46.90546],[12.35597,46.90597],[12.35347,46.90734],[12.35316,46.90764],[12.35308,46.90793]]}},{"type":"Feature","properties":{"kind":"piste","difficulty":"intermediate","name":null,"aerialway":null,"osm":"way/48138122"},"geometry":{"type":"LineString","coordinates":[[12.35129,46.89326],[12.35085,46.8933],[12.35041,46.89353],[12.35028,46.89381],[12.35015,46.89529],[12.34955,46.89603],[12.3488,46.8964],[12.34766,46.8963],[12.34744,46.89644],[12.34759,46.89954],[12.34841,46.90123],[12.34925,46.90355],[12.35113,46.90591],[12.3527,46.90737],[12.35326,46.90808],[12.35446,46.90835],[12.35648,46.90854],[12.35812,46.90808],[12.35851,46.90764],[12.3591,46.90741],[12.35924,46.90755],[12.35893,46.90821],[12.359,46.90895],[12.3588,46.90911]]}},{"type":"Feature","properties":{"kind":"piste","difficulty":"advanced","name":null,"aerialway":null,"osm":"way/48142026"},"geometry":{"type":"LineString","coordinates":[[12.37359,46.88615],[12.37244,46.88567],[12.37164,46.88562],[12.36964,46.88617],[12.36929,46.88644],[12.36888,46.88728]]}},{"type":"Feature","properties":{"kind":"piste","difficulty":"advanced","name":null,"aerialway":null,"osm":"way/48166035"},"geometry":{"type":"LineString","coordinates":[[12.37124,46.88783],[12.36972,46.88754],[12.3682,46.88746]]}},{"type":"Feature","properties":{"kind":"piste","difficulty":"advanced","name":null,"aerialway":null,"osm":"way/48166036"},"geometry":{"type":"LineString","coordinates":[[12.36838,46.88923],[12.36721,46.8894],[12.36592,46.88915],[12.36525,46.88875],[12.36504,46.88828],[12.36514,46.88818]]}},{"type":"Feature","properties":{"kind":"piste","difficulty":"easy","name":null,"aerialway":null,"osm":"way/48166415"},"geometry":{"type":"LineString","coordinates":[[12.36713,46.89255],[12.36583,46.8914],[12.36499,46.89095]]}},{"type":"Feature","properties":{"kind":"lift","difficulty":null,"name":"St. Leonhardlift","aerialway":"t-bar","osm":"way/72251687"},"geometry":{"type":"LineString","coordinates":[[12.35264,46.91109],[12.36093,46.90885]]}},{"type":"Feature","properties":{"kind":"lift","difficulty":null,"name":"Feistritzlift","aerialway":"t-bar","osm":"way/72253438"},"geometry":{"type":"LineString","coordinates":[[12.36163,46.91468],[12.36097,46.90822]]}},{"type":"Feature","properties":{"kind":"piste","difficulty":"advanced","name":null,"aerialway":null,"osm":"way/156790436"},"geometry":{"type":"LineString","coordinates":[[12.37867,46.885],[12.37931,46.88554],[12.37925,46.8857],[12.37784,46.88612],[12.37585,46.88728],[12.37457,46.88785],[12.37239,46.88822]]}},{"type":"Feature","properties":{"kind":"piste","difficulty":"easy","name":null,"aerialway":null,"osm":"way/156790437"},"geometry":{"type":"LineString","coordinates":[[12.37239,46.88822],[12.37242,46.88844],[12.37305,46.88866],[12.37305,46.88887],[12.37148,46.88956],[12.36969,46.89003],[12.36767,46.89022],[12.36641,46.89194]]}},{"type":"Feature","properties":{"kind":"piste","difficulty":"easy","name":null,"aerialway":null,"osm":"way/784894124"},"geometry":{"type":"LineString","coordinates":[[12.36025,46.90904],[12.36089,46.90908],[12.36191,46.90963],[12.36248,46.91005],[12.36261,46.91034],[12.36212,46.91206],[12.36184,46.91469],[12.36168,46.9147]]}},{"type":"Feature","properties":{"kind":"piste","difficulty":"easy","name":null,"aerialway":null,"osm":"way/784894125"},"geometry":{"type":"LineString","coordinates":[[12.36025,46.90904],[12.36019,46.90901]]}},{"type":"Feature","properties":{"kind":"piste","difficulty":"easy","name":null,"aerialway":null,"osm":"way/784894127"},"geometry":{"type":"LineString","coordinates":[[12.3588,46.90911],[12.35784,46.9096]]}},{"type":"Feature","properties":{"kind":"piste","difficulty":"intermediate","name":null,"aerialway":null,"osm":"way/784894128"},"geometry":{"type":"LineString","coordinates":[[12.36499,46.89095],[12.36158,46.89081],[12.35923,46.89109],[12.35137,46.89279],[12.35121,46.89289],[12.35137,46.89359]]}},{"type":"Feature","properties":{"kind":"piste","difficulty":"intermediate","name":null,"aerialway":null,"osm":"way/784894129"},"geometry":{"type":"LineString","coordinates":[[12.35391,46.89597],[12.35351,46.89539],[12.35295,46.89513],[12.35256,46.89514],[12.35219,46.89533],[12.35197,46.89576],[12.35172,46.89588],[12.35142,46.89582],[12.35062,46.89533],[12.35004,46.89547]]}},{"type":"Feature","properties":{"kind":"piste","difficulty":"advanced","name":null,"aerialway":null,"osm":"way/784894130"},"geometry":{"type":"LineString","coordinates":[[12.35601,46.89945],[12.35588,46.89964],[12.35581,46.90042],[12.35604,46.90089],[12.356,46.90122]]}},{"type":"Feature","properties":{"kind":"piste","difficulty":"intermediate","name":null,"aerialway":null,"osm":"way/784894132"},"geometry":{"type":"LineString","coordinates":[[12.36699,46.89278],[12.36728,46.89268],[12.36731,46.89285],[12.36693,46.893],[12.36616,46.89278],[12.36591,46.89366]]}},{"type":"Feature","properties":{"kind":"piste","difficulty":"intermediate","name":null,"aerialway":null,"osm":"way/784894133"},"geometry":{"type":"LineString","coordinates":[[12.36693,46.893],[12.36163,46.89644]]}},{"type":"Feature","properties":{"kind":"piste","difficulty":"intermediate","name":null,"aerialway":null,"osm":"way/784894134"},"geometry":{"type":"LineString","coordinates":[[12.36163,46.89644],[12.35792,46.89911],[12.35728,46.89935],[12.35673,46.89931],[12.35601,46.89945]]}},{"type":"Feature","properties":{"kind":"piste","difficulty":"intermediate","name":"Slalom","aerialway":null,"osm":"way/784894135"},"geometry":{"type":"LineString","coordinates":[[12.36731,46.89285],[12.36641,46.89373],[12.36274,46.89611],[12.36163,46.89644]]}},{"type":"Feature","properties":{"kind":"piste","difficulty":"advanced","name":null,"aerialway":null,"osm":"way/784894136"},"geometry":{"type":"LineString","coordinates":[[12.36499,46.89095],[12.36517,46.88899],[12.36504,46.88828]]}},{"type":"Feature","properties":{"kind":"piste","difficulty":"easy","name":null,"aerialway":null,"osm":"way/784894137"},"geometry":{"type":"LineString","coordinates":[[12.36717,46.8927],[12.36713,46.89255],[12.36639,46.89242],[12.36465,46.89276],[12.36385,46.89271],[12.36137,46.89176],[12.36044,46.89257],[12.36079,46.89332],[12.36082,46.89359],[12.36068,46.89388],[12.35947,46.89519],[12.35825,46.89751],[12.35619,46.89929],[12.35605,46.89967],[12.35621,46.89969]]}},{"type":"Feature","properties":{"kind":"piste","difficulty":"intermediate","name":null,"aerialway":null,"osm":"way/784894139"},"geometry":{"type":"LineString","coordinates":[[12.36616,46.89278],[12.36523,46.89302],[12.35825,46.89751]]}},{"type":"Feature","properties":{"kind":"piste","difficulty":"intermediate","name":null,"aerialway":null,"osm":"way/784894140"},"geometry":{"type":"LineString","coordinates":[[12.36099,46.89688],[12.35961,46.8966]]}},{"type":"Feature","properties":{"kind":"piste","difficulty":"intermediate","name":null,"aerialway":null,"osm":"way/784894141"},"geometry":{"type":"LineString","coordinates":[[12.36079,46.89332],[12.36076,46.8935],[12.36038,46.89361],[12.35912,46.89318],[12.35799,46.89296],[12.35629,46.89284],[12.35535,46.89245]]}},{"type":"Feature","properties":{"kind":"piste","difficulty":"easy","name":null,"aerialway":null,"osm":"way/784894143"},"geometry":{"type":"LineString","coordinates":[[12.35782,46.89788],[12.35746,46.89801],[12.35667,46.89785],[12.35603,46.89691],[12.35572,46.8967],[12.35404,46.89615],[12.35391,46.89597],[12.35422,46.89521],[12.35411,46.89455],[12.35285,46.89405],[12.35172,46.89323]]}},{"type":"Feature","properties":{"kind":"piste","difficulty":"advanced","name":null,"aerialway":null,"osm":"way/784894144"},"geometry":{"type":"LineString","coordinates":[[12.37885,46.8852],[12.3784,46.88522],[12.37836,46.88505],[12.37807,46.88491],[12.37616,46.88498],[12.37518,46.88527],[12.37452,46.88573],[12.37359,46.88615]]}},{"type":"Feature","properties":{"kind":"piste","difficulty":"advanced","name":null,"aerialway":null,"osm":"way/784894145"},"geometry":{"type":"LineString","coordinates":[[12.37115,46.88672],[12.36964,46.88617]]}},{"type":"Feature","properties":{"kind":"piste","difficulty":"advanced","name":null,"aerialway":null,"osm":"way/784894146"},"geometry":{"type":"LineString","coordinates":[[12.37448,46.88575],[12.37326,46.88674],[12.37287,46.88721],[12.37276,46.88757]]}},{"type":"Feature","properties":{"kind":"piste","difficulty":"intermediate","name":null,"aerialway":null,"osm":"way/784894148"},"geometry":{"type":"LineString","coordinates":[[12.37275,46.88769],[12.3729,46.88782],[12.37281,46.88798],[12.37239,46.88822],[12.37049,46.88861],[12.36838,46.88923],[12.36796,46.88993],[12.36499,46.89095],[12.36238,46.89162],[12.3583,46.89195],[12.35129,46.89326]]}},{"type":"Feature","properties":{"kind":"piste","difficulty":"intermediate","name":null,"aerialway":null,"osm":"way/784894149"},"geometry":{"type":"LineString","coordinates":[[12.37276,46.88757],[12.37124,46.88783],[12.36838,46.88923]]}},{"type":"Feature","properties":{"kind":"piste","difficulty":"easy","name":null,"aerialway":null,"osm":"way/784894151"},"geometry":{"type":"LineString","coordinates":[[12.37148,46.88956],[12.36929,46.89069],[12.36802,46.89118],[12.36663,46.89217],[12.36616,46.89278],[12.36465,46.89276]]}},{"type":"Feature","properties":{"kind":"piste","difficulty":"easy","name":"2","aerialway":null,"osm":"way/784894152"},"geometry":{"type":"LineString","coordinates":[[12.36796,46.88993],[12.36767,46.89022],[12.36648,46.89051]]}},{"type":"Feature","properties":{"kind":"piste","difficulty":"easy","name":null,"aerialway":null,"osm":"way/784894153"},"geometry":{"type":"LineString","coordinates":[[12.35619,46.89929],[12.35647,46.89948],[12.35659,46.8998]]}},{"type":"Feature","properties":{"kind":"piste","difficulty":"easy","name":null,"aerialway":null,"osm":"way/784894154"},"geometry":{"type":"LineString","coordinates":[[12.35924,46.90755],[12.35993,46.90796],[12.36061,46.90872],[12.36135,46.90891]]}},{"type":"Feature","properties":{"kind":"piste","difficulty":"easy","name":null,"aerialway":null,"osm":"way/784894155"},"geometry":{"type":"LineString","coordinates":[[12.36277,46.91004],[12.36338,46.9101],[12.36383,46.91043],[12.36628,46.91128],[12.36651,46.91157],[12.37101,46.91179],[12.37158,46.91165],[12.37308,46.91215],[12.37385,46.91198],[12.37658,46.91249],[12.37718,46.91302],[12.37747,46.91353]]}},{"type":"Feature","properties":{"kind":"piste","difficulty":"easy","name":null,"aerialway":null,"osm":"way/784894156"},"geometry":{"type":"LineString","coordinates":[[12.36051,46.90865],[12.36052,46.90891]]}},{"type":"Feature","properties":{"kind":"piste","difficulty":"easy","name":null,"aerialway":null,"osm":"way/784894157"},"geometry":{"type":"LineString","coordinates":[[12.36103,46.90875],[12.35365,46.91072],[12.35241,46.91079],[12.35236,46.91088],[12.35264,46.91109]]}},{"type":"Feature","properties":{"kind":"piste","difficulty":"easy","name":null,"aerialway":null,"osm":"way/784894158"},"geometry":{"type":"LineString","coordinates":[[12.36103,46.90875],[12.36135,46.90891],[12.36191,46.90963],[12.36277,46.91004]]}},{"type":"Feature","properties":{"kind":"piste","difficulty":"advanced","name":null,"aerialway":null,"osm":"way/1093547507"},"geometry":{"type":"LineString","coordinates":[[12.37359,46.88615],[12.36514,46.88818]]}},{"type":"Feature","properties":{"kind":"piste","difficulty":"advanced","name":null,"aerialway":null,"osm":"way/1093547508"},"geometry":{"type":"LineString","coordinates":[[12.37014,46.887],[12.36972,46.88754]]}},{"type":"Feature","properties":{"kind":"lift","difficulty":null,"name":"Leppleskofelbahn","aerialway":"chair_lift","osm":"way/1093547509"},"geometry":{"type":"LineString","coordinates":[[12.36517,46.88826],[12.37867,46.885]]}},{"type":"Feature","properties":{"kind":"piste","difficulty":"intermediate","name":null,"aerialway":null,"osm":"way/1246935791"},"geometry":{"type":"LineString","coordinates":[[12.35241,46.91079],[12.35178,46.91088],[12.35153,46.91126],[12.3512,46.91129]]}},{"type":"Feature","properties":{"kind":"piste","difficulty":"intermediate","name":null,"aerialway":null,"osm":"way/1246935792"},"geometry":{"type":"LineString","coordinates":[[12.35947,46.89519],[12.35903,46.89552],[12.35726,46.8958],[12.35621,46.89557],[12.35537,46.89479],[12.35475,46.89462],[12.35428,46.89467],[12.35375,46.89511],[12.35327,46.8952]]}},{"type":"Feature","properties":{"kind":"piste","difficulty":"intermediate","name":null,"aerialway":null,"osm":"way/1246935793"},"geometry":{"type":"LineString","coordinates":[[12.37266,46.88771],[12.37279,46.88767],[12.37276,46.88757]]}},{"type":"Feature","properties":{"kind":"lift","difficulty":null,"name":"Übungslift","aerialway":"rope_tow","osm":"way/1246935794"},"geometry":{"type":"LineString","coordinates":[[12.34943,46.91278],[12.34973,46.91191]]}},{"type":"Feature","properties":{"kind":"piste","difficulty":"easy","name":null,"aerialway":null,"osm":"way/1246935795"},"geometry":{"type":"LineString","coordinates":[[12.34973,46.91191],[12.3495,46.91213],[12.34943,46.91278]]}},{"type":"Feature","properties":{"kind":"piste","difficulty":"easy","name":null,"aerialway":null,"osm":"way/1246935796"},"geometry":{"type":"LineString","coordinates":[[12.3497,46.91161],[12.3495,46.91213]]}}]}