{"type":"FeatureCollection","features":[{"type":"Feature","properties":{"kind":"lift","difficulty":null,"name":"Schlepplift Bungerloch","aerialway":"rope_tow","osm":"way/425519210"},"geometry":{"type":"LineString","coordinates":[[10.75511,47.2681],[10.75106,47.2679]]}},{"type":"Feature","properties":{"kind":"piste","difficulty":"intermediate","name":"Skipiste Bungerloch","aerialway":null,"osm":"way/425519211"},"geometry":{"type":"LineString","coordinates":[[10.75106,47.2679],[10.75171,47.26779],[10.75453,47.26785],[10.75511,47.2681]]}}]}