{"type":"FeatureCollection","features":[{"type":"Feature","properties":{"kind":"lift","difficulty":null,"name":"DSL Hochegger","aerialway":"chair_lift","osm":"way/67219164"},"geometry":{"type":"LineString","coordinates":[[14.69116,46.94389],[14.6846,46.95144]]}},{"type":"Feature","properties":{"kind":"lift","difficulty":null,"name":"Bärenwaldlift","aerialway":"chair_lift","osm":"way/144107906"},"geometry":{"type":"LineString","coordinates":[[14.69383,46.96127],[14.68523,46.95444]]}},{"type":"Feature","properties":{"kind":"lift","difficulty":null,"name":"Kuhgraben II","aerialway":"t-bar","osm":"way/144107907"},"geometry":{"type":"LineString","coordinates":[[14.69833,46.94924],[14.68517,46.95384]]}},{"type":"Feature","properties":{"kind":"lift","difficulty":null,"name":"Kuhgraben I","aerialway":"t-bar","osm":"way/144107908"},"geometry":{"type":"LineString","coordinates":[[14.69832,46.9493],[14.68508,46.95392]]}},{"type":"Feature","properties":{"kind":"piste","difficulty":"easy","name":null,"aerialway":null,"osm":"way/171835606"},"geometry":{"type":"LineString","coordinates":[[14.6796,46.96364],[14.67987,46.96322]]}},{"type":"Feature","properties":{"kind":"piste","difficulty":"easy","name":null,"aerialway":null,"osm":"way/171835617"},"geometry":{"type":"LineString","coordinates":[[14.6796,46.96364],[14.67934,46.96397]]}},{"type":"Feature","properties":{"kind":"lift","difficulty":null,"name":"Flutlichtlift","aerialway":"platter","osm":"way/196636150"},"geometry":{"type":"LineString","coordinates":[[14.69036,46.94377],[14.68793,46.94494]]}},{"type":"Feature","properties":{"kind":"piste","difficulty":"easy","name":"Flutlichtpiste","aerialway":null,"osm":"way/196636166"},"geometry":{"type":"LineString","coordinates":[[14.68831,46.94475],[14.68817,46.94464],[14.68828,46.94445],[14.68921,46.94425],[14.68925,46.94403],[14.68962,46.94378],[14.69036,46.94377]]}},{"type":"Feature","properties":{"kind":"lift","difficulty":null,"name":"Babylift","aerialway":"rope_tow","osm":"way/196636171"},"geometry":{"type":"LineString","coordinates":[[14.68927,46.94351],[14.68998,46.94347]]}},{"type":"Feature","properties":{"kind":"piste","difficulty":"easy","name":"Gugl-Karner-Abfahrt","aerialway":null,"osm":"way/198960521"},"geometry":{"type":"LineString","coordinates":[[14.68497,46.95441],[14.68505,46.95468],[14.68565,46.95484],[14.68751,46.95476],[14.68785,46.9549],[14.68825,46.95546],[14.68859,46.95561],[14.69005,46.95556],[14.69072,46.95575],[14.69065,46.95642],[14.69203,46.95654],[14.69271,46.95715],[14.69373,46.95721],[14.69375,46.95746],[14.69355,46.95767],[14.69237,46.95828],[14.69214,46.95863],[14.69204,46.95992],[14.69242,46.96046]]}},{"type":"Feature","properties":{"kind":"piste","difficulty":"easy","name":"Hohenwart Abfahrt","aerialway":null,"osm":"way/203110044"},"geometry":{"type":"LineString","coordinates":[[14.68581,46.95366],[14.68549,46.95333],[14.68568,46.9526],[14.68683,46.95145],[14.68753,46.95126],[14.6881,46.95134],[14.68877,46.95164],[14.68932,46.95208],[14.68962,46.95252],[14.68956,46.95302],[14.6899,46.95334],[14.69017,46.95339],[14.69114,46.95287],[14.69155,46.95247]]}},{"type":"Feature","properties":{"kind":"piste","difficulty":"easy","name":null,"aerialway":null,"osm":"way/203110045"},"geometry":{"type":"LineString","coordinates":[[14.68578,46.95362],[14.68602,46.95401],[14.68605,46.95483]]}},{"type":"Feature","properties":{"kind":"piste","difficulty":"easy","name":"Hohenwart Abfahrt","aerialway":null,"osm":"way/203110982"},"geometry":{"type":"LineString","coordinates":[[14.69209,46.95115],[14.69305,46.95049],[14.69342,46.95008],[14.69535,46.94954],[14.69617,46.94956],[14.69759,46.94925],[14.69866,46.94885],[14.6988,46.94896]]}},{"type":"Feature","properties":{"kind":"piste","difficulty":"intermediate","name":"Bischofshütten-Skiroute","aerialway":null,"osm":"way/203112499"},"geometry":{"type":"LineString","coordinates":[[14.69072,46.95575],[14.69197,46.9557],[14.6923,46.95602],[14.69283,46.95623],[14.69347,46.95627],[14.69534,46.95525],[14.69591,46.95528]]}},{"type":"Feature","properties":{"kind":"piste","difficulty":"intermediate","name":"Alte Rennstrecke","aerialway":null,"osm":"way/203112501"},"geometry":{"type":"LineString","coordinates":[[14.68801,46.95503],[14.68877,46.95497],[14.68958,46.95428],[14.69054,46.95316],[14.69119,46.95291],[14.69167,46.95246],[14.69209,46.95231],[14.69322,46.95244]]}},{"type":"Feature","properties":{"kind":"piste","difficulty":"easy","name":null,"aerialway":null,"osm":"way/203112504"},"geometry":{"type":"LineString","coordinates":[[14.69209,46.95115],[14.69214,46.95163],[14.69155,46.95247]]}},{"type":"Feature","properties":{"kind":"piste","difficulty":"easy","name":"Abfahrt Kuhgraben","aerialway":null,"osm":"way/203112506"},"geometry":{"type":"LineString","coordinates":[[14.68949,46.9556],[14.68952,46.95529],[14.68998,46.95503],[14.69036,46.95432],[14.69238,46.95281],[14.69477,46.95173],[14.69512,46.9512],[14.69656,46.95053]]}},{"type":"Feature","properties":{"kind":"piste","difficulty":"easy","name":null,"aerialway":null,"osm":"way/203112507"},"geometry":{"type":"LineString","coordinates":[[14.69881,46.94905],[14.69791,46.94981],[14.69656,46.95053]]}},{"type":"Feature","properties":{"kind":"piste","difficulty":"intermediate","name":"FIS Rennstrecke","aerialway":null,"osm":"way/203113253"},"geometry":{"type":"LineString","coordinates":[[14.69021,46.95562],[14.69041,46.95558],[14.6908,46.95519],[14.69094,46.95465],[14.69146,46.95444],[14.69203,46.95374],[14.69262,46.95343],[14.69374,46.95328],[14.69408,46.95307],[14.69421,46.95237],[14.69477,46.95173]]}},{"type":"Feature","properties":{"kind":"piste","difficulty":"intermediate","name":"Abfahrt Fellner","aerialway":null,"osm":"way/203116595"},"geometry":{"type":"LineString","coordinates":[[14.69248,46.94788],[14.69321,46.94731],[14.69443,46.94704],[14.69483,46.94669],[14.69556,46.9465],[14.69649,46.94589],[14.6972,46.94592],[14.69777,46.94639],[14.69823,46.94704],[14.69919,46.94751]]}},{"type":"Feature","properties":{"kind":"piste","difficulty":"easy","name":null,"aerialway":null,"osm":"way/203116599"},"geometry":{"type":"LineString","coordinates":[[14.69299,46.96155],[14.69383,46.96137]]}},{"type":"Feature","properties":{"kind":"piste","difficulty":"easy","name":"Familienabfahrt","aerialway":null,"osm":"way/203116600"},"geometry":{"type":"LineString","coordinates":[[14.68975,46.94828],[14.69053,46.94845],[14.69248,46.94788],[14.69337,46.94688],[14.69405,46.9467],[14.69545,46.94548],[14.69611,46.94521]]}},{"type":"Feature","properties":{"kind":"piste","difficulty":"easy","name":null,"aerialway":null,"osm":"way/203116601"},"geometry":{"type":"LineString","coordinates":[[14.69611,46.94521],[14.69705,46.94527],[14.69802,46.94551]]}},{"type":"Feature","properties":{"kind":"piste","difficulty":"easy","name":null,"aerialway":null,"osm":"way/203116602"},"geometry":{"type":"LineString","coordinates":[[14.69405,46.9467],[14.69524,46.94632],[14.69582,46.94628]]}},{"type":"Feature","properties":{"kind":"piste","difficulty":"easy","name":null,"aerialway":null,"osm":"way/203116603"},"geometry":{"type":"LineString","coordinates":[[14.68752,46.96155],[14.68848,46.96175],[14.68983,46.96181],[14.69062,46.9617],[14.69099,46.96152],[14.69219,46.96166],[14.69299,46.96155]]}},{"type":"Feature","properties":{"kind":"piste","difficulty":"easy","name":"Weitenbach-Skiroute","aerialway":null,"osm":"way/203116605"},"geometry":{"type":"LineString","coordinates":[[14.68245,46.95697],[14.6821,46.95726],[14.68133,46.95868],[14.67979,46.96013],[14.67939,46.96181],[14.6801,46.96231],[14.67987,46.96322]]}},{"type":"Feature","properties":{"kind":"piste","difficulty":"easy","name":"Familienabfahrt","aerialway":null,"osm":"way/203116606"},"geometry":{"type":"LineString","coordinates":[[14.69802,46.94551],[14.69884,46.94633],[14.69916,46.9469],[14.69917,46.94817],[14.6988,46.94896]]}},{"type":"Feature","properties":{"kind":"piste","difficulty":"intermediate","name":null,"aerialway":null,"osm":"way/203116607"},"geometry":{"type":"LineString","coordinates":[[14.6972,46.94592],[14.69802,46.94551]]}},{"type":"Feature","properties":{"kind":"piste","difficulty":"easy","name":null,"aerialway":null,"osm":"way/317191279"},"geometry":{"type":"LineString","coordinates":[[14.67934,46.96397],[14.68029,46.96403],[14.68047,46.9638],[14.68055,46.96339],[14.6813,46.96313],[14.68154,46.96275],[14.6818,46.96261],[14.6825,46.96248],[14.683,46.96217],[14.68419,46.96205],[14.68508,46.96159],[14.68669,46.96189],[14.68723,46.96157],[14.68752,46.96155]]}},{"type":"Feature","properties":{"kind":"piste","difficulty":"intermediate","name":"Moslebauer - Skiroute","aerialway":null,"osm":"way/320067613"},"geometry":{"type":"LineString","coordinates":[[14.69203,46.95374],[14.69258,46.95358],[14.69413,46.95344],[14.69477,46.95381],[14.69583,46.95471],[14.69599,46.95502]]}},{"type":"Feature","properties":{"kind":"piste","difficulty":"intermediate","name":"Alte Rennstrecke - Skiroute","aerialway":null,"osm":"way/320067614"},"geometry":{"type":"LineString","coordinates":[[14.69167,46.95246],[14.69215,46.95189],[14.69274,46.9515],[14.69372,46.95139],[14.69462,46.95083],[14.69758,46.94977],[14.69864,46.94922],[14.69824,46.94927]]}},{"type":"Feature","properties":{"kind":"piste","difficulty":"easy","name":null,"aerialway":null,"osm":"way/325927161"},"geometry":{"type":"LineString","coordinates":[[14.69542,46.94629],[14.6955,46.94622],[14.6951,46.94603],[14.69512,46.94585]]}},{"type":"Feature","properties":{"kind":"piste","difficulty":"easy","name":"Abfahrt Hochegger","aerialway":null,"osm":"way/325927162"},"geometry":{"type":"LineString","coordinates":[[14.69405,46.9467],[14.69347,46.94641],[14.69203,46.94525]]}},{"type":"Feature","properties":{"kind":"piste","difficulty":"intermediate","name":"Alte Rennstrecke - Skiroute","aerialway":null,"osm":"way/1071705073"},"geometry":{"type":"LineString","coordinates":[[14.6986,46.94919],[14.69827,46.94931]]}},{"type":"Feature","properties":{"kind":"piste","difficulty":"easy","name":"Hohenwart Abfahrt","aerialway":null,"osm":"way/1071705074"},"geometry":{"type":"LineString","coordinates":[[14.68543,46.95372],[14.68549,46.95333]]}},{"type":"Feature","properties":{"kind":"piste","difficulty":"easy","name":null,"aerialway":null,"osm":"way/1071705075"},"geometry":{"type":"LineString","coordinates":[[14.68547,46.95383],[14.68592,46.95385]]}},{"type":"Feature","properties":{"kind":"piste","difficulty":"easy","name":"Abfahrt Seetal","aerialway":null,"osm":"relation/2672328"},"geometry":{"type":"MultiLineString","coordinates":[[[14.68452,46.95152],[14.68472,46.95169],[14.68541,46.9516],[14.68587,46.95111],[14.68592,46.95041],[14.68637,46.94989],[14.68794,46.94878],[14.689,46.94836],[14.69046,46.94811],[14.69162,46.94733],[14.69179,46.94705],[14.69169,46.94645],[14.69179,46.94583],[14.69203,46.94525],[14.69275,46.94461],[14.69255,46.94441],[14.69195,46.94424]],[[14.69195,46.94424],[14.69123,46.94388]],[[14.69123,46.94388],[14.69115,46.94386],[14.69123,46.94388]],[[14.6846,46.95144],[14.68452,46.95152]]]}},{"type":"Feature","properties":{"kind":"piste","difficulty":"easy","name":"Abfahrt Steinkellner","aerialway":null,"osm":"relation/2672329"},"geometry":{"type":"MultiLineString","coordinates":[[[14.6846,46.95144],[14.68452,46.95152]],[[14.68452,46.95152],[14.68414,46.95174]],[[14.68414,46.95174],[14.68313,46.95231],[14.68301,46.95277]],[[14.68301,46.95277],[14.68302,46.95324],[14.68257,46.95531],[14.68258,46.95595],[14.68235,46.95655],[14.68259,46.95715],[14.68289,46.95728],[14.6838,46.95723],[14.68436,46.95754],[14.68532,46.95758],[14.68561,46.95786],[14.6863,46.95787],[14.68707,46.95887],[14.68844,46.96028],[14.68943,46.96049],[14.69282,46.96049],[14.69295,46.96059],[14.69316,46.96132],[14.69362,46.9614],[14.69383,46.96137],[14.69383,46.96127]],[[14.68497,46.95441],[14.68235,46.95655]],[[14.68523,46.95444],[14.68497,46.95441]]]}}]}