{"type":"FeatureCollection","features":[{"type":"Feature","properties":{"kind":"lift","difficulty":null,"name":"Hannesen I","aerialway":"drag_lift","osm":"way/50596942"},"geometry":{"type":"LineString","coordinates":[[16.01573,47.56815],[16.00201,47.56873]]}},{"type":"Feature","properties":{"kind":"piste","difficulty":"intermediate","name":null,"aerialway":null,"osm":"way/378282207"},"geometry":{"type":"LineString","coordinates":[[16.00212,47.56878],[16.00196,47.56921],[16.00293,47.56947],[16.00534,47.56983],[16.00761,47.5695],[16.00952,47.56865],[16.01272,47.56845],[16.01369,47.56849],[16.01396,47.56866],[16.01561,47.56842],[16.01554,47.56829],[16.01573,47.56815]]}},{"type":"Feature","properties":{"kind":"piste","difficulty":"intermediate","name":null,"aerialway":null,"osm":"way/378282240"},"geometry":{"type":"LineString","coordinates":[[16.01041,47.56859],[16.01107,47.56804],[16.01168,47.5678],[16.01294,47.56796],[16.01514,47.56794],[16.01561,47.56823]]}},{"type":"Feature","properties":{"kind":"piste","difficulty":"freeride","name":"Fun-Park","aerialway":null,"osm":"way/378282803"},"geometry":{"type":"LineString","coordinates":[[16.01014,47.5686],[16.01036,47.56829],[16.01012,47.56814],[16.01035,47.56796],[16.01095,47.56782],[16.01154,47.56785]]}},{"type":"Feature","properties":{"kind":"piste","difficulty":"intermediate","name":null,"aerialway":null,"osm":"way/378283052"},"geometry":{"type":"LineString","coordinates":[[16.00196,47.56921],[16.00188,47.56946],[16.00274,47.56969],[16.00355,47.56954]]}},{"type":"Feature","properties":{"kind":"lift","difficulty":null,"name":"Corona Coaster","aerialway":"drag_lift","osm":"way/431560910"},"geometry":{"type":"LineString","coordinates":[[16.00762,47.58466],[16.00465,47.58026]]}},{"type":"Feature","properties":{"kind":"lift","difficulty":null,"name":"Skiland Tellerlift","aerialway":"platter","osm":"way/900665429"},"geometry":{"type":"LineString","coordinates":[[16.02057,47.57797],[16.01658,47.57697]]}},{"type":"Feature","properties":{"kind":"lift","difficulty":null,"name":"Bikelift Wexl Trails / Skiland Schlepplift","aerialway":"drag_lift","osm":"way/991951747"},"geometry":{"type":"LineString","coordinates":[[16.02032,47.57804],[16.00597,47.57461]]}},{"type":"Feature","properties":{"kind":"lift","difficulty":null,"name":"Zauberteppich lang","aerialway":"magic_carpet","osm":"way/1084488137"},"geometry":{"type":"LineString","coordinates":[[16.02123,47.57772],[16.02021,47.57737]]}},{"type":"Feature","properties":{"kind":"piste","difficulty":"novice","name":"Zauberteppichland","aerialway":null,"osm":"way/1252280960"},"geometry":{"type":"LineString","coordinates":[[16.02021,47.57737],[16.02126,47.57752],[16.02123,47.57772]]}},{"type":"Feature","properties":{"kind":"lift","difficulty":null,"name":"Zauberteppich mittel","aerialway":"magic_carpet","osm":"way/1252280961"},"geometry":{"type":"LineString","coordinates":[[16.02161,47.57752],[16.02116,47.57736]]}},{"type":"Feature","properties":{"kind":"lift","difficulty":null,"name":"Zauberteppich kurz","aerialway":"magic_carpet","osm":"way/1252280962"},"geometry":{"type":"LineString","coordinates":[[16.02167,47.57767],[16.02156,47.57761]]}},{"type":"Feature","properties":{"kind":"piste","difficulty":"novice","name":"Zauberteppichland","aerialway":null,"osm":"way/1252280963"},"geometry":{"type":"LineString","coordinates":[[16.02116,47.57736],[16.02126,47.57752],[16.02161,47.57752]]}},{"type":"Feature","properties":{"kind":"piste","difficulty":"novice","name":"Zauberteppichland","aerialway":null,"osm":"way/1252280964"},"geometry":{"type":"LineString","coordinates":[[16.02149,47.57758],[16.02167,47.57767]]}},{"type":"Feature","properties":{"kind":"piste","difficulty":"novice","name":"Zauberteppichland","aerialway":null,"osm":"way/1252280965"},"geometry":{"type":"LineString","coordinates":[[16.02156,47.57761],[16.02151,47.57765]]}},{"type":"Feature","properties":{"kind":"piste","difficulty":"novice","name":"Zauberteppichland","aerialway":null,"osm":"way/1252280966"},"geometry":{"type":"LineString","coordinates":[[16.02149,47.57758],[16.02167,47.57767]]}},{"type":"Feature","properties":{"kind":"piste","difficulty":"novice","name":"Zauberteppichland","aerialway":null,"osm":"way/1252280967"},"geometry":{"type":"LineString","coordinates":[[16.02116,47.57736],[16.02164,47.57745],[16.0216,47.57758]]}},{"type":"Feature","properties":{"kind":"piste","difficulty":"novice","name":"Skiland Zauberteppich","aerialway":null,"osm":"way/1252280968"},"geometry":{"type":"LineString","coordinates":[[16.02021,47.57737],[16.02031,47.57758],[16.02125,47.57773]]}},{"type":"Feature","properties":{"kind":"piste","difficulty":"easy","name":"Skiland Tellerliftabfahrt","aerialway":null,"osm":"way/1252280969"},"geometry":{"type":"LineString","coordinates":[[16.01658,47.57697],[16.01659,47.57681],[16.02028,47.57768],[16.02067,47.5778],[16.02057,47.57797]]}},{"type":"Feature","properties":{"kind":"piste","difficulty":"unknown","name":null,"aerialway":null,"osm":"way/1252280970"},"geometry":{"type":"LineString","coordinates":[[16.02031,47.57758],[16.02037,47.57771]]}},{"type":"Feature","properties":{"kind":"piste","difficulty":"unknown","name":null,"aerialway":null,"osm":"way/1252280971"},"geometry":{"type":"LineString","coordinates":[[16.02067,47.5778],[16.02093,47.57773]]}},{"type":"Feature","properties":{"kind":"piste","difficulty":"unknown","name":null,"aerialway":null,"osm":"way/1252280972"},"geometry":{"type":"LineString","coordinates":[[16.0196,47.57755],[16.02024,47.57744]]}},{"type":"Feature","properties":{"kind":"piste","difficulty":"unknown","name":null,"aerialway":null,"osm":"way/1252280973"},"geometry":{"type":"LineString","coordinates":[[16.0196,47.57755],[16.02039,47.57732]]}},{"type":"Feature","properties":{"kind":"piste","difficulty":"easy","name":"Skiland Schleppliftabfahrt","aerialway":null,"osm":"way/1252280974"},"geometry":{"type":"LineString","coordinates":[[16.01168,47.57597],[16.01175,47.57621],[16.01998,47.57809],[16.02032,47.57804]]}},{"type":"Feature","properties":{"kind":"piste","difficulty":"unknown","name":null,"aerialway":null,"osm":"way/1252280975"},"geometry":{"type":"LineString","coordinates":[[16.02027,47.57812],[16.02067,47.57792]]}},{"type":"Feature","properties":{"kind":"piste","difficulty":"unknown","name":null,"aerialway":null,"osm":"way/1252280976"},"geometry":{"type":"LineString","coordinates":[[16.01651,47.57696],[16.01633,47.57725]]}},{"type":"Feature","properties":{"kind":"piste","difficulty":"unknown","name":null,"aerialway":null,"osm":"way/1252280977"},"geometry":{"type":"LineString","coordinates":[[16.01565,47.57709],[16.01659,47.57681]]}},{"type":"Feature","properties":{"kind":"piste","difficulty":"easy","name":"Sumsis Zeitmesstrecke","aerialway":null,"osm":"way/1252280978"},"geometry":{"type":"LineString","coordinates":[[16.01591,47.57715],[16.01583,47.57744],[16.01619,47.57742],[16.01889,47.57799],[16.01934,47.57795]]}},{"type":"Feature","properties":{"kind":"piste","difficulty":"easy","name":"Coronas Funline (Kinderabfahrt)","aerialway":null,"osm":"way/1252280979"},"geometry":{"type":"LineString","coordinates":[[16.01175,47.57621],[16.01184,47.57645],[16.01211,47.57656],[16.0127,47.57655],[16.01307,47.57678],[16.01362,47.57677],[16.01406,47.57702],[16.01475,47.57689],[16.01503,47.57726],[16.0154,47.57736],[16.01591,47.57715]]}},{"type":"Feature","properties":{"kind":"lift","difficulty":null,"name":"Teichlift","aerialway":"drag_lift","osm":"way/1499077633"},"geometry":{"type":"LineString","coordinates":[[16.00519,47.57727],[15.99622,47.57032]]}}]}