{"type":"FeatureCollection","features":[{"type":"Feature","properties":{"kind":"lift","difficulty":null,"name":"Birkenlift I","aerialway":"t-bar","osm":"way/46929104"},"geometry":{"type":"LineString","coordinates":[[11.17936,47.33719],[11.18358,47.33575]]}},{"type":"Feature","properties":{"kind":"lift","difficulty":null,"name":"Birkenlift II","aerialway":"t-bar","osm":"way/46929117"},"geometry":{"type":"LineString","coordinates":[[11.1795,47.33708],[11.18354,47.33569]]}},{"type":"Feature","properties":{"kind":"lift","difficulty":null,"name":"Zauberteppich Pfarrhügel","aerialway":"magic_carpet","osm":"way/146138355"},"geometry":{"type":"LineString","coordinates":[[11.18184,47.32525],[11.18139,47.32448]]}},{"type":"Feature","properties":{"kind":"piste","difficulty":"novice","name":"Geigenbühel","aerialway":null,"osm":"way/264798261"},"geometry":{"type":"LineString","coordinates":[[11.18416,47.33399],[11.18452,47.33415],[11.18507,47.33415],[11.18587,47.33372],[11.18654,47.33356],[11.18731,47.33257],[11.18715,47.33233],[11.18661,47.33247]]}},{"type":"Feature","properties":{"kind":"lift","difficulty":null,"name":"Geigenbühellift","aerialway":"t-bar","osm":"way/264798262"},"geometry":{"type":"LineString","coordinates":[[11.18665,47.33241],[11.18359,47.33435]]}},{"type":"Feature","properties":{"kind":"piste","difficulty":"novice","name":"Birkenlift-Abfahrt","aerialway":null,"osm":"way/264798263"},"geometry":{"type":"LineString","coordinates":[[11.18416,47.33399],[11.18415,47.33416],[11.18317,47.33482],[11.18136,47.33496],[11.18066,47.33537],[11.18035,47.33651],[11.1795,47.33691],[11.1794,47.33706],[11.1795,47.33708]]}},{"type":"Feature","properties":{"kind":"piste","difficulty":"easy","name":"Birkenlift-Abfahrt","aerialway":null,"osm":"way/264798264"},"geometry":{"type":"LineString","coordinates":[[11.18269,47.33598],[11.18171,47.33592],[11.18035,47.33651]]}},{"type":"Feature","properties":{"kind":"piste","difficulty":"novice","name":null,"aerialway":null,"osm":"way/264798265"},"geometry":{"type":"LineString","coordinates":[[11.18271,47.33605],[11.18265,47.33561],[11.18282,47.33477],[11.18259,47.33408],[11.18309,47.33334],[11.18374,47.33283],[11.18473,47.33303],[11.18563,47.33281],[11.18643,47.33206],[11.18699,47.33237]]}},{"type":"Feature","properties":{"kind":"piste","difficulty":"novice","name":"Birkenlift-Abfahrt","aerialway":null,"osm":"way/324092271"},"geometry":{"type":"LineString","coordinates":[[11.18171,47.33592],[11.18119,47.33518],[11.18038,47.33533],[11.17903,47.33622],[11.1791,47.33675],[11.17938,47.33684],[11.17938,47.33713],[11.17947,47.33715]]}},{"type":"Feature","properties":{"kind":"piste","difficulty":"easy","name":null,"aerialway":null,"osm":"way/469363365"},"geometry":{"type":"LineString","coordinates":[[11.18159,47.3243],[11.18197,47.32467],[11.18208,47.32498],[11.18184,47.32525]]}},{"type":"Feature","properties":{"kind":"lift","difficulty":null,"name":"Zauberteppich","aerialway":"magic_carpet","osm":"way/869904585"},"geometry":{"type":"LineString","coordinates":[[11.1791,47.33675],[11.17996,47.33572]]}},{"type":"Feature","properties":{"kind":"lift","difficulty":null,"name":null,"aerialway":"magic_carpet","osm":"way/989688317"},"geometry":{"type":"LineString","coordinates":[[11.1865,47.33258],[11.18563,47.33314]]}},{"type":"Feature","properties":{"kind":"lift","difficulty":null,"name":null,"aerialway":"magic_carpet","osm":"way/989688318"},"geometry":{"type":"LineString","coordinates":[[11.18702,47.33282],[11.18679,47.33295]]}},{"type":"Feature","properties":{"kind":"lift","difficulty":null,"name":null,"aerialway":"magic_carpet","osm":"way/989688319"},"geometry":{"type":"LineString","coordinates":[[11.18721,47.33293],[11.18708,47.33301]]}},{"type":"Feature","properties":{"kind":"lift","difficulty":null,"name":null,"aerialway":"magic_carpet","osm":"way/989688320"},"geometry":{"type":"LineString","coordinates":[[11.18665,47.33344],[11.18627,47.33366]]}},{"type":"Feature","properties":{"kind":"piste","difficulty":"easy","name":null,"aerialway":null,"osm":"way/1060300553"},"geometry":{"type":"LineString","coordinates":[[11.18139,47.32448],[11.18197,47.32467]]}},{"type":"Feature","properties":{"kind":"piste","difficulty":"novice","name":"Geigenbühel","aerialway":null,"osm":"way/1060662186"},"geometry":{"type":"LineString","coordinates":[[11.18416,47.33399],[11.18436,47.33405],[11.18513,47.33363],[11.18646,47.33267],[11.18658,47.33245]]}},{"type":"Feature","properties":{"kind":"lift","difficulty":null,"name":"Zauberteppich","aerialway":"magic_carpet","osm":"way/1223204987"},"geometry":{"type":"LineString","coordinates":[[11.17956,47.33686],[11.1798,47.33673]]}}]}