{"type":"FeatureCollection","features":[{"type":"Feature","properties":{"kind":"lift","difficulty":null,"name":"Ballunspitzbahn","aerialway":"chair_lift","osm":"way/23109097"},"geometry":{"type":"LineString","coordinates":[[10.14529,46.96558],[10.13974,46.95896]]}},{"type":"Feature","properties":{"kind":"piste","difficulty":"advanced","name":null,"aerialway":null,"osm":"way/23109098"},"geometry":{"type":"LineString","coordinates":[[10.13963,46.95891],[10.13952,46.9592],[10.14003,46.95958],[10.14037,46.96048],[10.14083,46.96113],[10.14272,46.96503]]}},{"type":"Feature","properties":{"kind":"piste","difficulty":"unknown","name":null,"aerialway":null,"osm":"way/23109099"},"geometry":{"type":"LineString","coordinates":[[10.13896,46.95941],[10.13769,46.95993],[10.13659,46.96021],[10.13589,46.96081],[10.1359,46.96103],[10.1362,46.96134],[10.13658,46.96147],[10.13736,46.96141],[10.13764,46.96164],[10.13776,46.96198]]}},{"type":"Feature","properties":{"kind":"piste","difficulty":"intermediate","name":null,"aerialway":null,"osm":"way/23109100"},"geometry":{"type":"LineString","coordinates":[[10.1377,46.96409],[10.13535,46.96507],[10.13192,46.96561],[10.13025,46.96554],[10.12871,46.96567],[10.12538,46.96524],[10.12419,46.96533],[10.12362,46.96523]]}},{"type":"Feature","properties":{"kind":"piste","difficulty":"easy","name":null,"aerialway":null,"osm":"way/23109101"},"geometry":{"type":"LineString","coordinates":[[10.14298,46.96213],[10.14257,46.96225]]}},{"type":"Feature","properties":{"kind":"piste","difficulty":"intermediate","name":null,"aerialway":null,"osm":"way/23109105"},"geometry":{"type":"LineString","coordinates":[[10.1322,46.96317],[10.13375,46.96351],[10.13628,46.96364],[10.1377,46.96409]]}},{"type":"Feature","properties":{"kind":"piste","difficulty":"intermediate","name":null,"aerialway":null,"osm":"way/23109106"},"geometry":{"type":"LineString","coordinates":[[10.13893,46.95964],[10.13974,46.96011],[10.13981,46.96027],[10.13928,46.96134]]}},{"type":"Feature","properties":{"kind":"piste","difficulty":"intermediate","name":null,"aerialway":null,"osm":"way/23109108"},"geometry":{"type":"LineString","coordinates":[[10.13921,46.96147],[10.13776,46.96198],[10.13747,46.96227],[10.13544,46.96309],[10.13375,46.96351],[10.13326,46.96413],[10.13305,46.96421],[10.13059,46.96437],[10.12812,46.96419],[10.1257,46.96376],[10.12431,46.96395]]}},{"type":"Feature","properties":{"kind":"piste","difficulty":"intermediate","name":null,"aerialway":null,"osm":"way/23109109"},"geometry":{"type":"LineString","coordinates":[[10.14379,46.96687],[10.14535,46.96688],[10.15129,46.96778],[10.15359,46.96754],[10.15521,46.96757]]}},{"type":"Feature","properties":{"kind":"piste","difficulty":"intermediate","name":null,"aerialway":null,"osm":"way/23109113"},"geometry":{"type":"LineString","coordinates":[[10.13866,46.96286],[10.1394,46.96307],[10.14172,46.96302]]}},{"type":"Feature","properties":{"kind":"lift","difficulty":null,"name":"Alpkogelbahn","aerialway":"gondola","osm":"way/23109116"},"geometry":{"type":"LineString","coordinates":[[10.16215,46.96626],[10.14387,46.96703]]}},{"type":"Feature","properties":{"kind":"piste","difficulty":"intermediate","name":null,"aerialway":null,"osm":"way/23109117"},"geometry":{"type":"LineString","coordinates":[[10.13849,46.96314],[10.13751,46.96433],[10.13713,46.96549],[10.1372,46.96631],[10.13759,46.96773],[10.13737,46.96808],[10.1344,46.9689],[10.13203,46.96998],[10.13192,46.97008],[10.13201,46.97012]]}},{"type":"Feature","properties":{"kind":"lift","difficulty":null,"name":"Rückbringerlift","aerialway":"t-bar","osm":"way/23109119"},"geometry":{"type":"LineString","coordinates":[[10.12643,46.96354],[10.13264,46.96314]]}},{"type":"Feature","properties":{"kind":"lift","difficulty":null,"name":"Kopsseelift I","aerialway":"t-bar","osm":"way/23109120"},"geometry":{"type":"LineString","coordinates":[[10.13182,46.97017],[10.14215,46.96766]]}},{"type":"Feature","properties":{"kind":"lift","difficulty":null,"name":"Klein-Zenislift","aerialway":"t-bar","osm":"way/23109122"},"geometry":{"type":"LineString","coordinates":[[10.15153,46.97042],[10.14083,46.96892]]}},{"type":"Feature","properties":{"kind":"piste","difficulty":"intermediate","name":null,"aerialway":null,"osm":"way/23109124"},"geometry":{"type":"LineString","coordinates":[[10.13963,46.95891],[10.13896,46.95941],[10.13893,46.95996],[10.13928,46.96134],[10.13849,46.96314],[10.1383,46.96391],[10.13847,46.96428],[10.13876,46.96447],[10.14104,46.96459],[10.14214,46.96481],[10.14272,46.96503],[10.1439,46.96588]]}},{"type":"Feature","properties":{"kind":"piste","difficulty":"intermediate","name":null,"aerialway":null,"osm":"way/23109125"},"geometry":{"type":"LineString","coordinates":[[10.12373,46.96243],[10.12447,46.96278],[10.12516,46.96278],[10.12561,46.96308],[10.12625,46.96308],[10.12691,46.96377],[10.12687,46.96395]]}},{"type":"Feature","properties":{"kind":"lift","difficulty":null,"name":"Birkhahnbahn","aerialway":"chair_lift","osm":"way/23109126"},"geometry":{"type":"LineString","coordinates":[[10.16223,46.96463],[10.14298,46.96213]]}},{"type":"Feature","properties":{"kind":"piste","difficulty":"intermediate","name":null,"aerialway":null,"osm":"way/23167034"},"geometry":{"type":"LineString","coordinates":[[10.14157,46.96802],[10.14224,46.96889]]}},{"type":"Feature","properties":{"kind":"piste","difficulty":"intermediate","name":null,"aerialway":null,"osm":"way/23167035"},"geometry":{"type":"LineString","coordinates":[[10.14208,46.96863],[10.14374,46.96863],[10.14524,46.96831],[10.14737,46.96813],[10.14934,46.9684],[10.15185,46.96846],[10.15286,46.96894],[10.15322,46.96895]]}},{"type":"Feature","properties":{"kind":"piste","difficulty":"intermediate","name":null,"aerialway":null,"osm":"way/23167058"},"geometry":{"type":"LineString","coordinates":[[10.14793,46.96589],[10.15269,46.96708],[10.15563,46.96691],[10.15638,46.96663]]}},{"type":"Feature","properties":{"kind":"piste","difficulty":"intermediate","name":null,"aerialway":null,"osm":"way/23167059"},"geometry":{"type":"LineString","coordinates":[[10.14379,46.96687],[10.14344,46.96696],[10.14322,46.96718],[10.14319,46.96742],[10.14357,46.9678],[10.14524,46.96831]]}},{"type":"Feature","properties":{"kind":"piste","difficulty":"advanced","name":null,"aerialway":null,"osm":"way/23231233"},"geometry":{"type":"LineString","coordinates":[[10.14112,46.96177],[10.14251,46.96237]]}},{"type":"Feature","properties":{"kind":"piste","difficulty":"advanced","name":null,"aerialway":null,"osm":"way/23231235"},"geometry":{"type":"LineString","coordinates":[[10.14257,46.96225],[10.14261,46.96248],[10.14425,46.96348],[10.14502,46.96362],[10.14558,46.96344],[10.14654,46.96428],[10.14683,46.9644],[10.14872,46.96468],[10.14877,46.96517],[10.14902,46.96538],[10.15353,46.96547],[10.15599,46.96461],[10.15856,46.96438]]}},{"type":"Feature","properties":{"kind":"piste","difficulty":"easy","name":null,"aerialway":null,"osm":"way/23231237"},"geometry":{"type":"LineString","coordinates":[[10.14477,46.9625],[10.14541,46.96214],[10.14572,46.96213],[10.14594,46.96221],[10.14605,46.96248],[10.14572,46.96324],[10.14496,46.96396],[10.14462,46.96457],[10.14448,46.96518],[10.14471,46.96559],[10.14508,46.96587]]}},{"type":"Feature","properties":{"kind":"piste","difficulty":"intermediate","name":null,"aerialway":null,"osm":"way/23231238"},"geometry":{"type":"LineString","coordinates":[[10.14477,46.9625],[10.14516,46.96261],[10.14526,46.96284],[10.14543,46.96438]]}},{"type":"Feature","properties":{"kind":"piste","difficulty":"intermediate","name":null,"aerialway":null,"osm":"way/23231251"},"geometry":{"type":"LineString","coordinates":[[10.15153,46.96683],[10.15186,46.96656],[10.15324,46.96602],[10.15346,46.96578],[10.15353,46.96547]]}},{"type":"Feature","properties":{"kind":"piste","difficulty":"intermediate","name":null,"aerialway":null,"osm":"way/23231252"},"geometry":{"type":"LineString","coordinates":[[10.15638,46.96663],[10.15856,46.96438]]}},{"type":"Feature","properties":{"kind":"piste","difficulty":"novice","name":null,"aerialway":null,"osm":"way/23231751"},"geometry":{"type":"LineString","coordinates":[[10.16234,46.96578],[10.16281,46.96543],[10.16363,46.96583],[10.16354,46.96602],[10.16242,46.96624],[10.16209,46.96612],[10.16234,46.96578]]}},{"type":"Feature","properties":{"kind":"piste","difficulty":"easy","name":null,"aerialway":null,"osm":"way/23231753"},"geometry":{"type":"LineString","coordinates":[[10.1615,46.96604],[10.16197,46.96601],[10.16209,46.96612]]}},{"type":"Feature","properties":{"kind":"piste","difficulty":"intermediate","name":null,"aerialway":null,"osm":"way/23231754"},"geometry":{"type":"LineString","coordinates":[[10.1615,46.96604],[10.16152,46.96575],[10.1622,46.96516]]}},{"type":"Feature","properties":{"kind":"piste","difficulty":"easy","name":null,"aerialway":null,"osm":"way/24376531"},"geometry":{"type":"LineString","coordinates":[[10.15638,46.96663],[10.1615,46.96604]]}},{"type":"Feature","properties":{"kind":"piste","difficulty":"intermediate","name":null,"aerialway":null,"osm":"way/50090033"},"geometry":{"type":"LineString","coordinates":[[10.12733,46.95613],[10.12727,46.95774],[10.12709,46.95876],[10.12719,46.95907],[10.12784,46.95934],[10.12876,46.95936],[10.13063,46.96001],[10.13161,46.96014],[10.13218,46.96035],[10.13268,46.96081],[10.13355,46.96133],[10.13559,46.96196],[10.13772,46.96205],[10.13789,46.96254],[10.13849,46.96314]]}},{"type":"Feature","properties":{"kind":"piste","difficulty":"intermediate","name":null,"aerialway":null,"osm":"way/135324746"},"geometry":{"type":"LineString","coordinates":[[10.14153,46.96909],[10.14198,46.96942],[10.14349,46.96973],[10.14516,46.96968],[10.15143,46.97063],[10.15157,46.97059],[10.15153,46.97042]]}},{"type":"Feature","properties":{"kind":"piste","difficulty":"intermediate","name":null,"aerialway":null,"osm":"way/135324750"},"geometry":{"type":"LineString","coordinates":[[10.14153,46.96902],[10.14138,46.96938],[10.13895,46.96971]]}},{"type":"Feature","properties":{"kind":"piste","difficulty":"intermediate","name":null,"aerialway":null,"osm":"way/135324754"},"geometry":{"type":"LineString","coordinates":[[10.14153,46.96902],[10.14224,46.96889],[10.14485,46.96899],[10.14814,46.96977],[10.1507,46.97011],[10.15155,46.97034],[10.15153,46.97042]]}},{"type":"Feature","properties":{"kind":"piste","difficulty":"intermediate","name":null,"aerialway":null,"osm":"way/135325087"},"geometry":{"type":"LineString","coordinates":[[10.14144,46.96783],[10.13737,46.96808]]}},{"type":"Feature","properties":{"kind":"piste","difficulty":"easy","name":null,"aerialway":null,"osm":"way/135325088"},"geometry":{"type":"LineString","coordinates":[[10.14144,46.96783],[10.14186,46.96696],[10.14238,46.96658],[10.14243,46.96636],[10.14311,46.96608],[10.1439,46.96588],[10.14618,46.96591],[10.14691,46.96625],[10.14779,46.96696],[10.1496,46.96748],[10.15035,46.96798],[10.1508,46.96877],[10.15083,46.96911],[10.15055,46.96978],[10.1507,46.96989],[10.1522,46.96952],[10.15288,46.96921],[10.15638,46.96663]]}},{"type":"Feature","properties":{"kind":"piste","difficulty":"intermediate","name":"Variante","aerialway":null,"osm":"way/135325089"},"geometry":{"type":"LineString","coordinates":[[10.14146,46.96787],[10.14157,46.96802],[10.14129,46.96828],[10.13966,46.96875],[10.13899,46.96969],[10.13718,46.97029],[10.13423,46.97074],[10.13304,46.97058],[10.1321,46.9703],[10.13203,46.97017]]}},{"type":"Feature","properties":{"kind":"piste","difficulty":"easy","name":null,"aerialway":null,"osm":"way/148240321"},"geometry":{"type":"LineString","coordinates":[[10.14387,46.96703],[10.14355,46.9666],[10.1428,46.9665],[10.14267,46.96628]]}},{"type":"Feature","properties":{"kind":"piste","difficulty":"advanced","name":null,"aerialway":null,"osm":"way/149365646"},"geometry":{"type":"LineString","coordinates":[[10.12733,46.95613],[10.12739,46.95597],[10.12671,46.95584],[10.12573,46.95626],[10.12413,46.95664],[10.1237,46.95694],[10.12141,46.95748],[10.12114,46.95765]]}},{"type":"Feature","properties":{"kind":"lift","difficulty":null,"name":"Soppalift","aerialway":"platter","osm":"way/211573343"},"geometry":{"type":"LineString","coordinates":[[10.16048,46.96468],[10.15659,46.96593]]}},{"type":"Feature","properties":{"kind":"piste","difficulty":"intermediate","name":null,"aerialway":null,"osm":"way/313840649"},"geometry":{"type":"LineString","coordinates":[[10.16025,46.9639],[10.16036,46.96388]]}},{"type":"Feature","properties":{"kind":"piste","difficulty":"intermediate","name":null,"aerialway":null,"osm":"way/313840652"},"geometry":{"type":"LineString","coordinates":[[10.16036,46.96388],[10.16246,46.96453],[10.1625,46.96465]]}},{"type":"Feature","properties":{"kind":"lift","difficulty":null,"name":"Kopsseelift II","aerialway":"t-bar","osm":"way/320235017"},"geometry":{"type":"LineString","coordinates":[[10.13185,46.97021],[10.14217,46.9677]]}},{"type":"Feature","properties":{"kind":"lift","difficulty":null,"name":"Breitspitzbahn","aerialway":"gondola","osm":"way/409026949"},"geometry":{"type":"LineString","coordinates":[[10.11211,46.96793],[10.12708,46.95608]]}},{"type":"Feature","properties":{"kind":"piste","difficulty":"easy","name":null,"aerialway":null,"osm":"way/409044148"},"geometry":{"type":"LineString","coordinates":[[10.14272,46.96503],[10.14449,46.96533],[10.14471,46.96559]]}},{"type":"Feature","properties":{"kind":"lift","difficulty":null,"name":null,"aerialway":"magic_carpet","osm":"way/468762060"},"geometry":{"type":"LineString","coordinates":[[10.16283,46.96559],[10.16222,46.96601]]}},{"type":"Feature","properties":{"kind":"piste","difficulty":"advanced","name":null,"aerialway":null,"osm":"way/486504043"},"geometry":{"type":"LineString","coordinates":[[10.12114,46.95765],[10.1194,46.95813],[10.11905,46.9584],[10.11842,46.96008],[10.11702,46.96137],[10.11631,46.9637],[10.11569,46.96412],[10.11501,46.96418],[10.11446,46.9644],[10.11367,46.96518],[10.11302,46.96669],[10.11317,46.96701],[10.11367,46.96722],[10.11387,46.96749]]}},{"type":"Feature","properties":{"kind":"piste","difficulty":"intermediate","name":null,"aerialway":null,"osm":"way/1161400251"},"geometry":{"type":"LineString","coordinates":[[10.12733,46.95613],[10.12711,46.95635],[10.12565,46.9571],[10.12533,46.95741],[10.12513,46.95775],[10.12524,46.95841],[10.125,46.95861],[10.1233,46.95922],[10.12171,46.95957],[10.12106,46.96008],[10.12051,46.96077],[10.12069,46.96103],[10.12325,46.96197],[10.12388,46.96258],[10.12431,46.96395],[10.12419,46.96493],[10.12404,46.96515],[10.12183,46.96554],[10.11987,46.9671],[10.11867,46.96771],[10.11448,46.96726],[10.1141,46.96734],[10.1133,46.96788],[10.11211,46.96793]]}},{"type":"Feature","properties":{"kind":"piste","difficulty":"advanced","name":null,"aerialway":null,"osm":"way/1161400252"},"geometry":{"type":"LineString","coordinates":[[10.1237,46.95694],[10.12333,46.95854],[10.12339,46.96038],[10.12325,46.96197],[10.12273,46.96416],[10.12183,46.96554]]}},{"type":"Feature","properties":{"kind":"piste","difficulty":"advanced","name":null,"aerialway":null,"osm":"way/1161400253"},"geometry":{"type":"LineString","coordinates":[[10.12023,46.96076],[10.11972,46.96154],[10.11972,46.96297],[10.12038,46.96363],[10.12057,46.9645],[10.12137,46.96515],[10.1217,46.96561]]}},{"type":"Feature","properties":{"kind":"piste","difficulty":"advanced","name":null,"aerialway":null,"osm":"way/1161400255"},"geometry":{"type":"LineString","coordinates":[[10.12513,46.95775],[10.12353,46.95781]]}},{"type":"Feature","properties":{"kind":"piste","difficulty":"intermediate","name":null,"aerialway":null,"osm":"way/1161400257"},"geometry":{"type":"LineString","coordinates":[[10.15856,46.96438],[10.16025,46.9639]]}},{"type":"Feature","properties":{"kind":"piste","difficulty":"easy","name":null,"aerialway":null,"osm":"way/1161400258"},"geometry":{"type":"LineString","coordinates":[[10.15059,46.96987],[10.15065,46.9701]]}},{"type":"Feature","properties":{"kind":"piste","difficulty":"easy","name":null,"aerialway":null,"osm":"way/1161400259"},"geometry":{"type":"LineString","coordinates":[[10.15002,46.97001],[10.15059,46.96987]]}},{"type":"Feature","properties":{"kind":"piste","difficulty":"intermediate","name":null,"aerialway":null,"osm":"way/1161400260"},"geometry":{"type":"LineString","coordinates":[[10.14771,46.96819],[10.14806,46.96851],[10.14814,46.96926],[10.14854,46.96983]]}},{"type":"Feature","properties":{"kind":"piste","difficulty":"intermediate","name":null,"aerialway":null,"osm":"way/1161400261"},"geometry":{"type":"LineString","coordinates":[[10.14572,46.96213],[10.14608,46.962],[10.1469,46.96203],[10.1475,46.96181],[10.14798,46.96186],[10.14821,46.96202],[10.14834,46.96268],[10.14885,46.9634],[10.14936,46.96493],[10.14982,46.96474],[10.15027,46.96496],[10.15071,46.96476],[10.15244,46.96467],[10.15384,46.96539]]}},{"type":"Feature","properties":{"kind":"piste","difficulty":"intermediate","name":null,"aerialway":null,"osm":"way/1161400262"},"geometry":{"type":"LineString","coordinates":[[10.15677,46.96627],[10.1584,46.96571],[10.15986,46.96553],[10.16181,46.96602]]}},{"type":"Feature","properties":{"kind":"piste","difficulty":"intermediate","name":null,"aerialway":null,"osm":"way/1161400263"},"geometry":{"type":"LineString","coordinates":[[10.1504,46.96845],[10.15093,46.96791],[10.15129,46.96778]]}},{"type":"Feature","properties":{"kind":"piste","difficulty":"advanced","name":null,"aerialway":null,"osm":"way/1161400264"},"geometry":{"type":"LineString","coordinates":[[10.14138,46.96938],[10.1415,46.96967],[10.14182,46.9698],[10.14191,46.96997],[10.14188,46.97023],[10.1415,46.97077],[10.14164,46.97099],[10.14375,46.97183],[10.14481,46.97195],[10.14756,46.97123],[10.14774,46.97103],[10.14775,46.97078],[10.14746,46.97054],[10.14749,46.97039],[10.14787,46.97006]]}},{"type":"Feature","properties":{"kind":"piste","difficulty":"advanced","name":"Ballunspitze","aerialway":null,"osm":"way/1161400265"},"geometry":{"type":"LineString","coordinates":[[10.13963,46.95891],[10.14016,46.95898],[10.14218,46.95839],[10.14284,46.9584],[10.14361,46.95862],[10.14394,46.959],[10.1453,46.95964],[10.14564,46.96016],[10.14798,46.96186]]}},{"type":"Feature","properties":{"kind":"piste","difficulty":"intermediate","name":null,"aerialway":null,"osm":"way/1161400266"},"geometry":{"type":"LineString","coordinates":[[10.13718,46.96532],[10.14338,46.96558]]}},{"type":"Feature","properties":{"kind":"piste","difficulty":"intermediate","name":null,"aerialway":null,"osm":"way/1161400267"},"geometry":{"type":"LineString","coordinates":[[10.1496,46.96748],[10.15054,46.96741],[10.15148,46.96712],[10.15269,46.96708]]}},{"type":"Feature","properties":{"kind":"piste","difficulty":"advanced","name":null,"aerialway":null,"osm":"way/1243556469"},"geometry":{"type":"LineString","coordinates":[[10.12023,46.96076],[10.12055,46.96092]]}},{"type":"Feature","properties":{"kind":"piste","difficulty":"advanced","name":null,"aerialway":null,"osm":"way/1243556470"},"geometry":{"type":"LineString","coordinates":[[10.12114,46.95765],[10.12097,46.95785],[10.1206,46.95899],[10.12023,46.96076]]}},{"type":"Feature","properties":{"kind":"piste","difficulty":"intermediate","name":null,"aerialway":null,"osm":"way/1243556471"},"geometry":{"type":"LineString","coordinates":[[10.14919,46.96453],[10.14874,46.96493]]}},{"type":"Feature","properties":{"kind":"piste","difficulty":"advanced","name":null,"aerialway":null,"osm":"way/1243556472"},"geometry":{"type":"LineString","coordinates":[[10.14885,46.9634],[10.15131,46.96392],[10.15333,46.96417],[10.15581,46.96425],[10.15754,46.96453]]}},{"type":"Feature","properties":{"kind":"piste","difficulty":"intermediate","name":null,"aerialway":null,"osm":"way/1243556473"},"geometry":{"type":"LineString","coordinates":[[10.12727,46.95774],[10.12524,46.95841]]}},{"type":"Feature","properties":{"kind":"piste","difficulty":"intermediate","name":null,"aerialway":null,"osm":"way/1456263275"},"geometry":{"type":"LineString","coordinates":[[10.14543,46.96438],[10.14661,46.96537],[10.14738,46.96574],[10.14811,46.96591]]}},{"type":"Feature","properties":{"kind":"piste","difficulty":"easy","name":null,"aerialway":null,"osm":"way/1536844623"},"geometry":{"type":"LineString","coordinates":[[10.16209,46.96612],[10.16215,46.96626]]}},{"type":"Feature","properties":{"kind":"piste","difficulty":"intermediate","name":null,"aerialway":null,"osm":"way/1556536343"},"geometry":{"type":"LineString","coordinates":[[10.14618,46.96591],[10.14793,46.96589]]}},{"type":"Feature","properties":{"kind":"piste","difficulty":"intermediate","name":null,"aerialway":null,"osm":"way/1556536344"},"geometry":{"type":"LineString","coordinates":[[10.14543,46.96438],[10.1457,46.96545],[10.14563,46.96576],[10.14548,46.96584],[10.14529,46.96558]]}},{"type":"Feature","properties":{"kind":"piste","difficulty":"easy","name":null,"aerialway":null,"osm":"way/1556536345"},"geometry":{"type":"LineString","coordinates":[[10.14257,46.96225],[10.14304,46.96262],[10.14447,46.96261],[10.14477,46.9625]]}}]}