{"type":"FeatureCollection","features":[{"type":"Feature","properties":{"kind":"piste","difficulty":"easy","name":null,"aerialway":null,"osm":"way/39208295"},"geometry":{"type":"LineString","coordinates":[[12.28508,47.29173],[12.28519,47.29141]]}},{"type":"Feature","properties":{"kind":"piste","difficulty":"easy","name":null,"aerialway":null,"osm":"way/39217935"},"geometry":{"type":"LineString","coordinates":[[12.2994,47.27055],[12.29921,47.27046],[12.3,47.26987],[12.29897,47.26977],[12.29885,47.26965],[12.29944,47.26933],[12.29953,47.26906],[12.30024,47.26862],[12.29847,47.26844],[12.30004,47.26776],[12.30077,47.26758],[12.30074,47.26748],[12.29976,47.26738],[12.30044,47.26713],[12.30042,47.26701],[12.29908,47.26695],[12.30094,47.26631],[12.29965,47.26622],[12.30079,47.26584],[12.30076,47.26574],[12.29972,47.26556],[12.29801,47.2656],[12.29797,47.26551],[12.29952,47.26446],[12.29794,47.26415],[12.29998,47.26355],[12.3006,47.26366],[12.30032,47.2633],[12.29979,47.26314],[12.29878,47.26297],[12.29787,47.26304],[12.29861,47.26255],[12.30092,47.26232],[12.29934,47.26202],[12.29933,47.26194],[12.29985,47.26193]]}},{"type":"Feature","properties":{"kind":"piste","difficulty":"easy","name":null,"aerialway":null,"osm":"way/39218191"},"geometry":{"type":"LineString","coordinates":[[12.30352,47.27195],[12.30335,47.27115],[12.30211,47.27053],[12.30119,47.27035],[12.2994,47.27055]]}},{"type":"Feature","properties":{"kind":"piste","difficulty":"easy","name":"Anfänger Tellerlift","aerialway":null,"osm":"way/46267551"},"geometry":{"type":"LineString","coordinates":[[12.27923,47.28095],[12.2785,47.28321],[12.27863,47.28342],[12.27875,47.28333]]}},{"type":"Feature","properties":{"kind":"piste","difficulty":"advanced","name":"Braunkogel","aerialway":null,"osm":"way/46578570"},"geometry":{"type":"LineString","coordinates":[[12.26626,47.28852],[12.26614,47.28834],[12.26646,47.2882],[12.27565,47.28797]]}},{"type":"Feature","properties":{"kind":"piste","difficulty":"intermediate","name":"Braunkogel","aerialway":null,"osm":"way/48051109"},"geometry":{"type":"LineString","coordinates":[[12.26626,47.28852],[12.26605,47.28834],[12.26607,47.28808],[12.26792,47.28749],[12.27024,47.287],[12.27309,47.28576],[12.27434,47.28632],[12.27569,47.28774],[12.27565,47.28797]]}},{"type":"Feature","properties":{"kind":"piste","difficulty":"intermediate","name":"Wilkogelbahn Berg - Mitte","aerialway":null,"osm":"way/48135117"},"geometry":{"type":"LineString","coordinates":[[12.28141,47.28054],[12.28118,47.27957],[12.28087,47.27944],[12.28021,47.2769],[12.27921,47.27581],[12.27858,47.27477],[12.27757,47.27424],[12.2766,47.27433],[12.27637,47.27414],[12.27689,47.27268],[12.277,47.27177],[12.27724,47.27148],[12.27808,47.27101],[12.27971,47.27074],[12.27949,47.27049],[12.27896,47.27033],[12.27893,47.27018],[12.28029,47.27011]]}},{"type":"Feature","properties":{"kind":"piste","difficulty":"easy","name":"Pfeifferköpfl (\"Autobahn\")","aerialway":null,"osm":"way/48214568"},"geometry":{"type":"LineString","coordinates":[[12.28782,47.282],[12.28817,47.2822],[12.29014,47.28474],[12.29082,47.28493],[12.29127,47.28522],[12.29248,47.28688],[12.29358,47.29105],[12.2933,47.29213],[12.29258,47.29378],[12.29254,47.29468],[12.29242,47.29491],[12.29171,47.29434],[12.291,47.29406],[12.29057,47.2936],[12.29026,47.29273],[12.29031,47.2923],[12.28984,47.29184],[12.28907,47.29144],[12.28843,47.2909],[12.28736,47.29049],[12.2867,47.29038],[12.28557,47.29131]]}},{"type":"Feature","properties":{"kind":"piste","difficulty":"intermediate","name":"Smaragdbahn Berg - Mitte","aerialway":null,"osm":"way/48215511"},"geometry":{"type":"LineString","coordinates":[[12.29885,47.27668],[12.29952,47.27515],[12.29977,47.27487],[12.3018,47.27434],[12.30294,47.27345],[12.30362,47.27264]]}},{"type":"Feature","properties":{"kind":"piste","difficulty":"intermediate","name":"Wildkogelscharte","aerialway":null,"osm":"way/48215512"},"geometry":{"type":"LineString","coordinates":[[12.29283,47.28307],[12.29268,47.28299],[12.29298,47.28276],[12.29389,47.28099],[12.29443,47.28058]]}},{"type":"Feature","properties":{"kind":"piste","difficulty":"easy","name":null,"aerialway":null,"osm":"way/48348677"},"geometry":{"type":"LineString","coordinates":[[12.27081,47.28433],[12.27076,47.28456],[12.27401,47.28541],[12.27533,47.28549]]}},{"type":"Feature","properties":{"kind":"piste","difficulty":"easy","name":"Wildkogelbahn Berg - Ganzeralm","aerialway":null,"osm":"way/48348680"},"geometry":{"type":"LineString","coordinates":[[12.27467,47.28166],[12.27436,47.28179],[12.27357,47.28271],[12.27305,47.28308],[12.27613,47.28602],[12.27683,47.28796],[12.27715,47.28834],[12.27885,47.28934],[12.27912,47.28937]]}},{"type":"Feature","properties":{"kind":"piste","difficulty":"easy","name":"Ganzeralm","aerialway":null,"osm":"way/48348681"},"geometry":{"type":"LineString","coordinates":[[12.2792,47.28328],[12.27874,47.28497],[12.27675,47.28521],[12.27624,47.28565],[12.27668,47.28591],[12.27756,47.28683],[12.27729,47.28726],[12.27763,47.28821]]}},{"type":"Feature","properties":{"kind":"piste","difficulty":"intermediate","name":"Ganzeralm","aerialway":null,"osm":"way/48348682"},"geometry":{"type":"LineString","coordinates":[[12.28068,47.28278],[12.28091,47.28291],[12.28092,47.28386],[12.28078,47.28456],[12.28034,47.28485],[12.27874,47.28497],[12.27874,47.28777],[12.27845,47.28854],[12.27866,47.28922]]}},{"type":"Feature","properties":{"kind":"piste","difficulty":"easy","name":"Frühmesser","aerialway":null,"osm":"way/48348684"},"geometry":{"type":"LineString","coordinates":[[12.26747,47.29507],[12.26745,47.29496],[12.26863,47.29455],[12.27265,47.29386],[12.27549,47.29357],[12.2774,47.29324],[12.27959,47.29277],[12.28071,47.29228],[12.28478,47.29185],[12.28508,47.29173]]}},{"type":"Feature","properties":{"kind":"piste","difficulty":"intermediate","name":"Frühmesser - Ganzeralm","aerialway":null,"osm":"way/48348685"},"geometry":{"type":"LineString","coordinates":[[12.27143,47.29169],[12.2754,47.2922],[12.27576,47.29187],[12.27708,47.29144],[12.27859,47.29055],[12.27928,47.28996],[12.27938,47.28971],[12.27912,47.28937]]}},{"type":"Feature","properties":{"kind":"piste","difficulty":"intermediate","name":"Braunkogel / Frühmesser Süd - Ganzeralm","aerialway":null,"osm":"way/48348686"},"geometry":{"type":"LineString","coordinates":[[12.26617,47.28874],[12.2663,47.28911],[12.26693,47.28956],[12.2678,47.28993],[12.2699,47.29053],[12.2719,47.29134],[12.2732,47.29054],[12.27404,47.29054],[12.27567,47.29083],[12.27764,47.29025],[12.27912,47.28937]]}},{"type":"Feature","properties":{"kind":"piste","difficulty":"easy","name":"Gensbichlalm - Braunkogel","aerialway":null,"osm":"way/48348688"},"geometry":{"type":"LineString","coordinates":[[12.26606,47.28577],[12.26792,47.2863],[12.26911,47.28639],[12.27309,47.28576],[12.27399,47.28549],[12.27529,47.28555]]}},{"type":"Feature","properties":{"kind":"piste","difficulty":"advanced","name":"Peifferköpfl","aerialway":null,"osm":"way/48356189"},"geometry":{"type":"LineString","coordinates":[[12.28615,47.28453],[12.28498,47.28555],[12.28492,47.28693],[12.28516,47.28776],[12.28429,47.28958]]}},{"type":"Feature","properties":{"kind":"piste","difficulty":"easy","name":"Smaragdbahn Berg - Ganzer X-Press","aerialway":null,"osm":"way/48356190"},"geometry":{"type":"LineString","coordinates":[[12.27838,47.28673],[12.278,47.2868],[12.27764,47.2871],[12.27614,47.28782],[12.2795,47.28856],[12.2831,47.28895],[12.28501,47.28985],[12.28608,47.29051],[12.2869,47.29162],[12.28701,47.29249],[12.28729,47.29288],[12.28726,47.29305],[12.2868,47.29344],[12.28656,47.29411],[12.28647,47.29508],[12.28633,47.29499]]}},{"type":"Feature","properties":{"kind":"piste","difficulty":"advanced","name":"Pfeifferköpfl (Route)","aerialway":null,"osm":"way/48356197"},"geometry":{"type":"LineString","coordinates":[[12.28683,47.28401],[12.28687,47.28468],[12.28546,47.28983],[12.28551,47.29012]]}},{"type":"Feature","properties":{"kind":"piste","difficulty":"easy","name":"Wildkogelbahn Berg - Pfeifferköpfl","aerialway":null,"osm":"way/48356209"},"geometry":{"type":"LineString","coordinates":[[12.28727,47.28204],[12.28629,47.28201],[12.28225,47.28077]]}},{"type":"Feature","properties":{"kind":"piste","difficulty":"intermediate","name":null,"aerialway":null,"osm":"way/48598430"},"geometry":{"type":"LineString","coordinates":[[12.28091,47.28291],[12.2815,47.2828],[12.28292,47.28308],[12.28429,47.2844],[12.28498,47.28555]]}},{"type":"Feature","properties":{"kind":"piste","difficulty":"easy","name":"Neukichen Talabfahrt - Umfahrung Steilhang","aerialway":null,"osm":"way/48646419"},"geometry":{"type":"LineString","coordinates":[[12.26678,47.27416],[12.26716,47.27419],[12.26802,47.27478],[12.2681,47.27508],[12.26826,47.27509],[12.26822,47.27398],[12.26793,47.27332],[12.26807,47.27329],[12.26881,47.27377],[12.26933,47.27457],[12.27047,47.27444],[12.26973,47.27422],[12.26978,47.27345],[12.26905,47.27196],[12.26831,47.27135],[12.26762,47.27122],[12.26726,47.27029],[12.26684,47.27007]]}},{"type":"Feature","properties":{"kind":"piste","difficulty":"intermediate","name":"Wilkogelbahn Berg - Mitte","aerialway":null,"osm":"way/48646420"},"geometry":{"type":"LineString","coordinates":[[12.27757,47.27424],[12.27747,47.27349],[12.2778,47.27305],[12.27697,47.27227]]}},{"type":"Feature","properties":{"kind":"piste","difficulty":"intermediate","name":"Wildkogelscharte","aerialway":null,"osm":"way/48646421"},"geometry":{"type":"LineString","coordinates":[[12.29795,47.27787],[12.29866,47.278],[12.29998,47.27751],[12.30026,47.27706],[12.30017,47.2766]]}},{"type":"Feature","properties":{"kind":"piste","difficulty":"intermediate","name":"Wildkogelscharte","aerialway":null,"osm":"way/48646422"},"geometry":{"type":"LineString","coordinates":[[12.29627,47.27974],[12.29867,47.27997],[12.3002,47.27902],[12.30044,47.27862],[12.3006,47.27739]]}},{"type":"Feature","properties":{"kind":"piste","difficulty":"easy","name":"Wildkogelscharte","aerialway":null,"osm":"way/48646423"},"geometry":{"type":"LineString","coordinates":[[12.29654,47.27975],[12.29719,47.28047],[12.29749,47.28058],[12.29867,47.27997]]}},{"type":"Feature","properties":{"kind":"piste","difficulty":"easy","name":"Wildkogelbahn Mitte - Neukichen Talabfahrt","aerialway":null,"osm":"way/48646425"},"geometry":{"type":"LineString","coordinates":[[12.28029,47.27011],[12.2789,47.26966],[12.27595,47.26919],[12.2745,47.26922],[12.27367,47.26953],[12.27355,47.26945],[12.27426,47.26895],[12.27522,47.26872],[12.27675,47.26864],[12.27679,47.2685],[12.27652,47.26845],[12.27334,47.26854],[12.27235,47.26894],[12.27164,47.2694],[12.27157,47.26934],[12.27248,47.26848],[12.27318,47.26801],[12.27278,47.26802],[12.27158,47.26863],[12.27084,47.26874],[12.27023,47.26899],[12.26995,47.26977],[12.26995,47.27016],[12.26984,47.27024],[12.26917,47.26986],[12.26796,47.26822],[12.26744,47.26721],[12.26705,47.26698],[12.26665,47.26479],[12.26676,47.26418],[12.26648,47.26341],[12.26663,47.26219],[12.26743,47.26177],[12.26819,47.26166],[12.27044,47.26036],[12.27019,47.25967],[12.26992,47.2593],[12.26959,47.25915],[12.26838,47.25909],[12.26487,47.25794],[12.26498,47.25765],[12.26564,47.25727],[12.26583,47.25701],[12.26559,47.25688],[12.2646,47.25705],[12.26435,47.25692],[12.26443,47.25644],[12.26492,47.25597],[12.26487,47.2558],[12.26428,47.25554],[12.26474,47.25376],[12.26496,47.25359],[12.26567,47.25379],[12.26655,47.25373],[12.26787,47.25312],[12.26919,47.253],[12.27189,47.2524],[12.27208,47.25254],[12.27336,47.25268]]}},{"type":"Feature","properties":{"kind":"piste","difficulty":"easy","name":"Gensbichlalm","aerialway":null,"osm":"way/48646515"},"geometry":{"type":"LineString","coordinates":[[12.26606,47.28577],[12.26634,47.28479],[12.27003,47.28409],[12.27258,47.28321]]}},{"type":"Feature","properties":{"kind":"piste","difficulty":"easy","name":"Wilkogelbahn Berg - Gensbichlalm","aerialway":null,"osm":"way/49607527"},"geometry":{"type":"LineString","coordinates":[[12.27467,47.28166],[12.27336,47.28172],[12.2705,47.28113],[12.26963,47.2801],[12.26927,47.27917],[12.26734,47.27767],[12.26616,47.27716],[12.266,47.27691],[12.26587,47.27536],[12.26546,47.27529]]}},{"type":"Feature","properties":{"kind":"piste","difficulty":"intermediate","name":"14b-Talabfahrt Bramberg","aerialway":null,"osm":"way/49801627"},"geometry":{"type":"LineString","coordinates":[[12.32621,47.2718],[12.3271,47.27116],[12.32717,47.27066],[12.32677,47.27017],[12.32686,47.26995],[12.32742,47.2699]]}},{"type":"Feature","properties":{"kind":"piste","difficulty":"intermediate","name":"Gensbichlalm","aerialway":null,"osm":"way/94586134"},"geometry":{"type":"LineString","coordinates":[[12.26606,47.28577],[12.26613,47.28483],[12.26651,47.28394],[12.26658,47.28293],[12.26644,47.28105],[12.26652,47.27773],[12.26647,47.27744],[12.26616,47.27716]]}},{"type":"Feature","properties":{"kind":"piste","difficulty":"easy","name":null,"aerialway":null,"osm":"way/94596118"},"geometry":{"type":"LineString","coordinates":[[12.28069,47.28089],[12.28011,47.28058],[12.27969,47.28055]]}},{"type":"Feature","properties":{"kind":"piste","difficulty":"intermediate","name":"Wilkogelbahn Berg - Mitte","aerialway":null,"osm":"way/94596121"},"geometry":{"type":"LineString","coordinates":[[12.27969,47.28055],[12.27954,47.28001],[12.27965,47.27978],[12.28063,47.27866]]}},{"type":"Feature","properties":{"kind":"piste","difficulty":"intermediate","name":null,"aerialway":null,"osm":"way/127683519"},"geometry":{"type":"LineString","coordinates":[[12.27565,47.28797],[12.27536,47.28825]]}},{"type":"Feature","properties":{"kind":"piste","difficulty":"easy","name":null,"aerialway":null,"osm":"way/127683523"},"geometry":{"type":"LineString","coordinates":[[12.29251,47.29412],[12.29221,47.29438],[12.29171,47.29434]]}},{"type":"Feature","properties":{"kind":"piste","difficulty":"advanced","name":null,"aerialway":null,"osm":"way/127683525"},"geometry":{"type":"LineString","coordinates":[[12.26793,47.27332],[12.26771,47.27291]]}},{"type":"Feature","properties":{"kind":"piste","difficulty":"easy","name":null,"aerialway":null,"osm":"way/127683528"},"geometry":{"type":"LineString","coordinates":[[12.28763,47.2906],[12.28557,47.29131]]}},{"type":"Feature","properties":{"kind":"piste","difficulty":"easy","name":null,"aerialway":null,"osm":"way/127683532"},"geometry":{"type":"LineString","coordinates":[[12.27912,47.28937],[12.279,47.28925],[12.27904,47.2891]]}},{"type":"Feature","properties":{"kind":"piste","difficulty":"easy","name":null,"aerialway":null,"osm":"way/127683535"},"geometry":{"type":"LineString","coordinates":[[12.28508,47.29173],[12.28513,47.29227]]}},{"type":"Feature","properties":{"kind":"piste","difficulty":"easy","name":"Neukichen Talabfahrt","aerialway":null,"osm":"way/127683536"},"geometry":{"type":"LineString","coordinates":[[12.26587,47.27536],[12.26609,47.27477],[12.26678,47.27416]]}},{"type":"Feature","properties":{"kind":"piste","difficulty":"easy","name":"Neukichen Talabfahrt","aerialway":null,"osm":"way/127683539"},"geometry":{"type":"LineString","coordinates":[[12.26684,47.27007],[12.26639,47.26934],[12.26647,47.2688],[12.26682,47.26818],[12.26705,47.26698]]}},{"type":"Feature","properties":{"kind":"piste","difficulty":"advanced","name":"Neukichen Talabfahrt","aerialway":null,"osm":"way/127683540"},"geometry":{"type":"LineString","coordinates":[[12.26678,47.27416],[12.26771,47.27291],[12.2666,47.27211],[12.26707,47.27095],[12.26684,47.27007]]}},{"type":"Feature","properties":{"kind":"piste","difficulty":"intermediate","name":null,"aerialway":null,"osm":"way/139014984"},"geometry":{"type":"LineString","coordinates":[[12.28657,47.24432],[12.28621,47.24536],[12.28522,47.24684],[12.28465,47.24741],[12.28435,47.24751]]}},{"type":"Feature","properties":{"kind":"piste","difficulty":"easy","name":null,"aerialway":null,"osm":"way/139014985"},"geometry":{"type":"LineString","coordinates":[[12.28657,47.24432],[12.28735,47.24464],[12.28872,47.24492],[12.28888,47.24507],[12.28881,47.24525],[12.28789,47.2459],[12.28638,47.2464],[12.28465,47.24741]]}},{"type":"Feature","properties":{"kind":"piste","difficulty":"easy","name":null,"aerialway":null,"osm":"way/146790084"},"geometry":{"type":"LineString","coordinates":[[12.29625,47.28031],[12.29651,47.27986]]}},{"type":"Feature","properties":{"kind":"piste","difficulty":"easy","name":null,"aerialway":null,"osm":"way/206864229"},"geometry":{"type":"LineString","coordinates":[[12.29343,47.28271],[12.29446,47.28283],[12.29472,47.28264],[12.29461,47.28224],[12.29469,47.28211],[12.29541,47.28202],[12.2941,47.28118]]}},{"type":"Feature","properties":{"kind":"piste","difficulty":"easy","name":null,"aerialway":null,"osm":"way/206864231"},"geometry":{"type":"LineString","coordinates":[[12.29298,47.28276],[12.29343,47.28271]]}},{"type":"Feature","properties":{"kind":"piste","difficulty":"easy","name":null,"aerialway":null,"osm":"way/206873915"},"geometry":{"type":"LineString","coordinates":[[12.31315,47.27399],[12.31431,47.27429],[12.31524,47.27431],[12.31627,47.27462]]}},{"type":"Feature","properties":{"kind":"piste","difficulty":"easy","name":"14b-Talabfahrt Bramberg","aerialway":null,"osm":"way/206873916"},"geometry":{"type":"LineString","coordinates":[[12.30701,47.27335],[12.30741,47.2727],[12.30819,47.27198],[12.30829,47.27174]]}},{"type":"Feature","properties":{"kind":"piste","difficulty":"easy","name":"14b-Talabfahrt Bramberg","aerialway":null,"osm":"way/206873924"},"geometry":{"type":"LineString","coordinates":[[12.30829,47.27174],[12.30844,47.27202],[12.30817,47.27267],[12.30923,47.27254],[12.30954,47.2729],[12.30974,47.27293],[12.31017,47.27254],[12.31068,47.27235],[12.31089,47.27248],[12.31108,47.27289],[12.31158,47.27346],[12.31255,47.27394],[12.31315,47.27399]]}},{"type":"Feature","properties":{"kind":"piste","difficulty":"easy","name":null,"aerialway":null,"osm":"way/209825227"},"geometry":{"type":"LineString","coordinates":[[12.29286,47.29295],[12.293,47.29331],[12.29288,47.29495],[12.29309,47.29557],[12.29336,47.29588],[12.293,47.29574],[12.29242,47.29491]]}},{"type":"Feature","properties":{"kind":"piste","difficulty":"easy","name":"Skiweg und Rodelbahn \"Stockenbaum\"","aerialway":null,"osm":"way/209825228"},"geometry":{"type":"LineString","coordinates":[[12.27318,47.26801],[12.27414,47.26778],[12.27489,47.26783],[12.27762,47.2672],[12.27877,47.26726],[12.27943,47.26711],[12.28099,47.26706],[12.28214,47.26722],[12.28214,47.26712],[12.28019,47.2666],[12.27637,47.26603],[12.27324,47.26575],[12.27111,47.26584],[12.27106,47.26575],[12.27382,47.26486],[12.27405,47.26465],[12.27558,47.26452],[12.28035,47.2637],[12.2822,47.26358],[12.28327,47.26325],[12.28377,47.26285],[12.28373,47.26271],[12.28337,47.26287],[12.28244,47.26286],[12.2841,47.26202],[12.28529,47.26192],[12.28533,47.26177],[12.28257,47.26139],[12.28263,47.26124],[12.28396,47.26098],[12.28039,47.26023]]}},{"type":"Feature","properties":{"kind":"piste","difficulty":"easy","name":null,"aerialway":null,"osm":"way/299803494"},"geometry":{"type":"LineString","coordinates":[[12.30044,47.279],[12.30062,47.27901],[12.3009,47.27938],[12.30144,47.27882],[12.30116,47.27805],[12.3006,47.27739],[12.30041,47.27685],[12.30017,47.2766]]}},{"type":"Feature","properties":{"kind":"piste","difficulty":"easy","name":"14b-Talabfahrt Bramberg","aerialway":null,"osm":"way/299803496"},"geometry":{"type":"LineString","coordinates":[[12.30362,47.27264],[12.30404,47.27308],[12.30438,47.27302],[12.30414,47.27277]]}},{"type":"Feature","properties":{"kind":"piste","difficulty":"easy","name":"Ganzeralm - Pfeifferköpfle","aerialway":null,"osm":"way/474012914"},"geometry":{"type":"LineString","coordinates":[[12.27912,47.28937],[12.28068,47.28984],[12.28094,47.28999],[12.28104,47.2903],[12.28204,47.29061],[12.28272,47.29104],[12.28508,47.29173]]}},{"type":"Feature","properties":{"kind":"piste","difficulty":"easy","name":null,"aerialway":null,"osm":"way/474012915"},"geometry":{"type":"LineString","coordinates":[[12.2795,47.28856],[12.27912,47.28937]]}},{"type":"Feature","properties":{"kind":"piste","difficulty":"easy","name":"Pfeifferköpfl Berg - Smaragdbahn Berg","aerialway":null,"osm":"way/474012916"},"geometry":{"type":"LineString","coordinates":[[12.28782,47.282],[12.28811,47.28161],[12.28858,47.28138],[12.28982,47.28146],[12.2912,47.28195],[12.29283,47.28307]]}},{"type":"Feature","properties":{"kind":"piste","difficulty":"easy","name":"14b-Talabfahrt Bramberg","aerialway":null,"osm":"way/507963317"},"geometry":{"type":"LineString","coordinates":[[12.30504,47.27283],[12.30527,47.27281],[12.30572,47.2725],[12.30592,47.27256],[12.30637,47.27312],[12.30633,47.27375],[12.30666,47.27401],[12.30671,47.27368],[12.30701,47.27335]]}},{"type":"Feature","properties":{"kind":"piste","difficulty":"novice","name":null,"aerialway":null,"osm":"way/801292833"},"geometry":{"type":"LineString","coordinates":[[12.27202,47.25328],[12.27212,47.25309],[12.27336,47.25268]]}},{"type":"Feature","properties":{"kind":"piste","difficulty":"easy","name":"1A / 6B","aerialway":null,"osm":"way/801292834"},"geometry":{"type":"LineString","coordinates":[[12.26473,47.25389],[12.26463,47.25348],[12.26229,47.25181],[12.26135,47.25084],[12.26011,47.25062],[12.25862,47.24994],[12.25504,47.24912],[12.25479,47.24845]]}},{"type":"Feature","properties":{"kind":"piste","difficulty":"easy","name":null,"aerialway":null,"osm":"way/809974690"},"geometry":{"type":"LineString","coordinates":[[12.26737,47.29498],[12.26668,47.2944],[12.26643,47.2937],[12.26786,47.29235]]}},{"type":"Feature","properties":{"kind":"piste","difficulty":"easy","name":null,"aerialway":null,"osm":"way/809977769"},"geometry":{"type":"LineString","coordinates":[[12.2941,47.28118],[12.29542,47.28107],[12.29586,47.28118],[12.2964,47.28152],[12.29646,47.28071],[12.29625,47.28031]]}},{"type":"Feature","properties":{"kind":"piste","difficulty":"easy","name":null,"aerialway":null,"osm":"way/1023587340"},"geometry":{"type":"LineString","coordinates":[[12.27305,47.28308],[12.27258,47.28321]]}},{"type":"Feature","properties":{"kind":"piste","difficulty":"easy","name":null,"aerialway":null,"osm":"way/1023587341"},"geometry":{"type":"LineString","coordinates":[[12.27549,47.2854],[12.27533,47.28549]]}},{"type":"Feature","properties":{"kind":"piste","difficulty":"easy","name":"Umfahrung","aerialway":null,"osm":"way/1023623641"},"geometry":{"type":"LineString","coordinates":[[12.26842,47.27842],[12.26839,47.27827],[12.26871,47.27819],[12.26988,47.2783],[12.26896,47.2778],[12.2671,47.27706],[12.26864,47.2771],[12.26703,47.27656],[12.26665,47.27597],[12.26587,47.27536]]}},{"type":"Feature","properties":{"kind":"piste","difficulty":"easy","name":"Geisl Hochalm - Ganzer X-Press","aerialway":null,"osm":"way/1023623642"},"geometry":{"type":"LineString","coordinates":[[12.29204,47.29461],[12.29075,47.29629],[12.29082,47.29658],[12.2917,47.29766],[12.29171,47.29782],[12.29119,47.29797],[12.29035,47.298],[12.28898,47.29726],[12.28831,47.29661],[12.28795,47.2959],[12.28751,47.29441],[12.28674,47.29371]]}},{"type":"Feature","properties":{"kind":"piste","difficulty":"easy","name":null,"aerialway":null,"osm":"way/1023623645"},"geometry":{"type":"LineString","coordinates":[[12.2831,47.28895],[12.2841,47.28962],[12.28441,47.28998]]}},{"type":"Feature","properties":{"kind":"piste","difficulty":"easy","name":null,"aerialway":null,"osm":"way/1023634262"},"geometry":{"type":"LineString","coordinates":[[12.2867,47.29038],[12.28551,47.29012],[12.28502,47.29048]]}},{"type":"Feature","properties":{"kind":"piste","difficulty":"easy","name":null,"aerialway":null,"osm":"way/1023634263"},"geometry":{"type":"LineString","coordinates":[[12.28502,47.29048],[12.28491,47.29143],[12.28508,47.29173]]}},{"type":"Feature","properties":{"kind":"piste","difficulty":"easy","name":null,"aerialway":null,"osm":"way/1023634264"},"geometry":{"type":"LineString","coordinates":[[12.28225,47.28077],[12.2818,47.28059]]}},{"type":"Feature","properties":{"kind":"piste","difficulty":"easy","name":null,"aerialway":null,"osm":"way/1023634265"},"geometry":{"type":"LineString","coordinates":[[12.28069,47.28089],[12.2816,47.28051]]}},{"type":"Feature","properties":{"kind":"piste","difficulty":"easy","name":"Ganzeralm","aerialway":null,"osm":"way/1023634267"},"geometry":{"type":"LineString","coordinates":[[12.28092,47.28386],[12.28013,47.28445],[12.27958,47.28439],[12.27874,47.28472]]}},{"type":"Feature","properties":{"kind":"piste","difficulty":"easy","name":"Peifferköpfl","aerialway":null,"osm":"way/1023634269"},"geometry":{"type":"LineString","coordinates":[[12.28429,47.28958],[12.28441,47.28998],[12.28502,47.29048]]}},{"type":"Feature","properties":{"kind":"piste","difficulty":"advanced","name":"Ganzer X-Press","aerialway":null,"osm":"way/1023634270"},"geometry":{"type":"LineString","coordinates":[[12.29054,47.29332],[12.28967,47.2933],[12.28674,47.29371]]}},{"type":"Feature","properties":{"kind":"piste","difficulty":"intermediate","name":null,"aerialway":null,"osm":"way/1023638419"},"geometry":{"type":"LineString","coordinates":[[12.27143,47.29169],[12.2719,47.29134]]}},{"type":"Feature","properties":{"kind":"piste","difficulty":"easy","name":null,"aerialway":null,"osm":"way/1023643064"},"geometry":{"type":"LineString","coordinates":[[12.27533,47.28549],[12.27517,47.28547]]}},{"type":"Feature","properties":{"kind":"piste","difficulty":"easy","name":null,"aerialway":null,"osm":"way/1023643065"},"geometry":{"type":"LineString","coordinates":[[12.26592,47.28572],[12.26606,47.28577]]}},{"type":"Feature","properties":{"kind":"piste","difficulty":"easy","name":"\"Skimovie\" Rennstrecke","aerialway":null,"osm":"way/1023643066"},"geometry":{"type":"LineString","coordinates":[[12.27305,47.28308],[12.27383,47.28319],[12.27567,47.28521],[12.27549,47.2854]]}},{"type":"Feature","properties":{"kind":"piste","difficulty":"easy","name":null,"aerialway":null,"osm":"way/1023643069"},"geometry":{"type":"LineString","coordinates":[[12.27969,47.28055],[12.27923,47.28095]]}},{"type":"Feature","properties":{"kind":"piste","difficulty":"intermediate","name":null,"aerialway":null,"osm":"way/1023645128"},"geometry":{"type":"LineString","coordinates":[[12.27949,47.28238],[12.2801,47.28295],[12.28091,47.28291]]}},{"type":"Feature","properties":{"kind":"piste","difficulty":"easy","name":"Smaragdbahn Berg - Mitte","aerialway":null,"osm":"way/1023657460"},"geometry":{"type":"LineString","coordinates":[[12.29885,47.27668],[12.29978,47.27672],[12.30017,47.2766],[12.29966,47.27609],[12.29857,47.27546],[12.2977,47.27527],[12.29851,47.27509],[12.29957,47.27451],[12.30032,47.27452],[12.3001,47.27433],[12.29964,47.27422],[12.29969,47.2741],[12.30031,47.27403],[12.30131,47.2742],[12.30285,47.27472],[12.30344,47.27513],[12.30343,47.27458],[12.30317,47.27373],[12.30227,47.27283],[12.30171,47.27261],[12.30242,47.27254],[12.30302,47.27269]]}},{"type":"Feature","properties":{"kind":"piste","difficulty":"easy","name":null,"aerialway":null,"osm":"way/1023663382"},"geometry":{"type":"LineString","coordinates":[[12.29597,47.28007],[12.29625,47.28031]]}},{"type":"Feature","properties":{"kind":"piste","difficulty":"easy","name":null,"aerialway":null,"osm":"way/1102899056"},"geometry":{"type":"LineString","coordinates":[[12.28066,47.28104],[12.28069,47.28089]]}},{"type":"Feature","properties":{"kind":"piste","difficulty":"easy","name":null,"aerialway":null,"osm":"way/1102899057"},"geometry":{"type":"LineString","coordinates":[[12.28683,47.28184],[12.28701,47.28178],[12.28727,47.28204]]}},{"type":"Feature","properties":{"kind":"piste","difficulty":"easy","name":null,"aerialway":null,"osm":"way/1102899058"},"geometry":{"type":"LineString","coordinates":[[12.28701,47.28178],[12.28776,47.28177],[12.28811,47.28161]]}},{"type":"Feature","properties":{"kind":"piste","difficulty":"easy","name":null,"aerialway":null,"osm":"way/1102899059"},"geometry":{"type":"LineString","coordinates":[[12.28701,47.28178],[12.28782,47.282]]}},{"type":"Feature","properties":{"kind":"piste","difficulty":"easy","name":null,"aerialway":null,"osm":"way/1102899062"},"geometry":{"type":"LineString","coordinates":[[12.28159,47.28035],[12.2816,47.28051]]}},{"type":"Feature","properties":{"kind":"piste","difficulty":"easy","name":null,"aerialway":null,"osm":"way/1102899063"},"geometry":{"type":"LineString","coordinates":[[12.28108,47.28263],[12.28043,47.28282]]}},{"type":"Feature","properties":{"kind":"piste","difficulty":"easy","name":null,"aerialway":null,"osm":"way/1102899064"},"geometry":{"type":"LineString","coordinates":[[12.28131,47.28088],[12.28141,47.2809],[12.28146,47.2812]]}},{"type":"Feature","properties":{"kind":"piste","difficulty":"easy","name":null,"aerialway":null,"osm":"way/1102899065"},"geometry":{"type":"LineString","coordinates":[[12.2816,47.28051],[12.28011,47.28058]]}},{"type":"Feature","properties":{"kind":"piste","difficulty":"easy","name":null,"aerialway":null,"osm":"way/1102899066"},"geometry":{"type":"LineString","coordinates":[[12.27954,47.28085],[12.2793,47.28082]]}},{"type":"Feature","properties":{"kind":"piste","difficulty":"easy","name":null,"aerialway":null,"osm":"way/1102899067"},"geometry":{"type":"LineString","coordinates":[[12.29233,47.2845],[12.29197,47.28464],[12.29252,47.28535],[12.29264,47.28536]]}},{"type":"Feature","properties":{"kind":"piste","difficulty":"easy","name":null,"aerialway":null,"osm":"way/1102899068"},"geometry":{"type":"LineString","coordinates":[[12.29282,47.28343],[12.29245,47.2834]]}},{"type":"Feature","properties":{"kind":"piste","difficulty":"easy","name":null,"aerialway":null,"osm":"way/1102899069"},"geometry":{"type":"LineString","coordinates":[[12.29221,47.28418],[12.29246,47.28447]]}},{"type":"Feature","properties":{"kind":"piste","difficulty":"easy","name":null,"aerialway":null,"osm":"way/1102899070"},"geometry":{"type":"LineString","coordinates":[[12.27565,47.28797],[12.27614,47.28782]]}},{"type":"Feature","properties":{"kind":"piste","difficulty":"easy","name":"Pfeifferköpfl","aerialway":null,"osm":"way/1104058285"},"geometry":{"type":"LineString","coordinates":[[12.28831,47.28198],[12.28829,47.28214],[12.28963,47.28377],[12.29013,47.28467],[12.29074,47.28478],[12.29141,47.28459],[12.29135,47.28495],[12.29071,47.28528],[12.29056,47.28504],[12.28984,47.28477],[12.28975,47.28436],[12.28836,47.28292],[12.28787,47.28213],[12.28831,47.28198]]}},{"type":"Feature","properties":{"kind":"piste","difficulty":"easy","name":"Autobahn","aerialway":null,"osm":"way/1104058286"},"geometry":{"type":"LineString","coordinates":[[12.29247,47.28316],[12.29223,47.28323],[12.29167,47.2844],[12.29141,47.28459],[12.29135,47.28495],[12.29071,47.28528],[12.29232,47.28728],[12.29268,47.2885],[12.29264,47.2889],[12.29293,47.29065],[12.29335,47.29162],[12.29329,47.2922],[12.29218,47.29347],[12.29245,47.29393],[12.29243,47.29468],[12.29215,47.29464],[12.29169,47.29427],[12.29162,47.2944],[12.29242,47.29496],[12.29258,47.2945],[12.29255,47.29406],[12.29379,47.29192],[12.29389,47.29093],[12.29363,47.29045],[12.29339,47.28943],[12.29305,47.28711],[12.29194,47.28556],[12.29203,47.28501],[12.29236,47.28535],[12.2926,47.28539],[12.29218,47.28446],[12.29243,47.28446],[12.29281,47.28334],[12.29247,47.28316]]}},{"type":"Feature","properties":{"kind":"piste","difficulty":"easy","name":"Geisl Hochalm - Ganzer X-Press","aerialway":null,"osm":"way/1122586092"},"geometry":{"type":"LineString","coordinates":[[12.29217,47.29479],[12.29119,47.29595],[12.29113,47.2962],[12.2913,47.29689],[12.29176,47.29753],[12.29174,47.29792],[12.2903,47.29806],[12.28901,47.29731],[12.29046,47.29794],[12.29148,47.29777],[12.29084,47.29713],[12.29062,47.2963],[12.29153,47.29512],[12.29169,47.29456],[12.29162,47.2944],[12.29217,47.29479]]}},{"type":"Feature","properties":{"kind":"piste","difficulty":"advanced","name":"Ganzer X-Press","aerialway":null,"osm":"way/1122586093"},"geometry":{"type":"LineString","coordinates":[[12.29051,47.29345],[12.28846,47.29348],[12.28718,47.29375],[12.2871,47.29347],[12.28889,47.29314],[12.29036,47.29317],[12.29051,47.29345]]}},{"type":"Feature","properties":{"kind":"piste","difficulty":"intermediate","name":null,"aerialway":null,"osm":"way/1137060111"},"geometry":{"type":"LineString","coordinates":[[12.2816,47.28051],[12.2818,47.28059]]}},{"type":"Feature","properties":{"kind":"piste","difficulty":"easy","name":null,"aerialway":null,"osm":"way/1137849615"},"geometry":{"type":"LineString","coordinates":[[12.26607,47.28808],[12.266,47.2876],[12.26566,47.28719],[12.26611,47.28653],[12.26606,47.28577]]}},{"type":"Feature","properties":{"kind":"piste","difficulty":"intermediate","name":"14b-Talabfahrt Bramberg","aerialway":null,"osm":"way/1348957610"},"geometry":{"type":"LineString","coordinates":[[12.30362,47.27264],[12.30644,47.27232],[12.3074,47.2718],[12.30784,47.27167],[12.30829,47.27174]]}},{"type":"Feature","properties":{"kind":"piste","difficulty":"intermediate","name":"14b-Talabfahrt Bramberg","aerialway":null,"osm":"way/1348957611"},"geometry":{"type":"LineString","coordinates":[[12.31315,47.27399],[12.31297,47.27356],[12.313,47.27321],[12.31323,47.27287],[12.31355,47.27273],[12.31384,47.27276],[12.31427,47.27327]]}},{"type":"Feature","properties":{"kind":"piste","difficulty":"easy","name":"14b-Talabfahrt Bramberg","aerialway":null,"osm":"way/1348957612"},"geometry":{"type":"LineString","coordinates":[[12.31427,47.27327],[12.31484,47.27346],[12.31614,47.27327],[12.31711,47.27379],[12.31738,47.27407],[12.31803,47.27404],[12.32002,47.27442],[12.32142,47.2745],[12.32187,47.27462],[12.32228,47.27493],[12.32352,47.27508],[12.32398,47.2756],[12.32432,47.27579],[12.3252,47.27556],[12.32591,47.27588],[12.32556,47.27514],[12.32493,47.27518],[12.32452,47.27505],[12.32425,47.27452],[12.32424,47.27424],[12.32387,47.27403],[12.32394,47.27368],[12.32423,47.27346],[12.32428,47.27326],[12.32353,47.27193],[12.32237,47.27118],[12.32145,47.27114],[12.32115,47.27085],[12.31952,47.27042],[12.31906,47.26974],[12.31991,47.27009],[12.32069,47.26984],[12.32149,47.2703],[12.3221,47.27035],[12.32254,47.27021],[12.32334,47.27044],[12.32447,47.27044],[12.32487,47.27095],[12.3257,47.27154],[12.32634,47.27185],[12.3278,47.27225],[12.32902,47.27292],[12.32918,47.27285],[12.32917,47.27244],[12.32894,47.27214],[12.32921,47.2722],[12.3295,47.27253],[12.32951,47.27272],[12.32965,47.27273],[12.32952,47.27208],[12.32871,47.27142],[12.32816,47.27122],[12.32796,47.27057],[12.32737,47.26997],[12.32756,47.26992],[12.32852,47.2706],[12.32972,47.27099]]}},{"type":"Feature","properties":{"kind":"piste","difficulty":"intermediate","name":null,"aerialway":null,"osm":"way/1446725535"},"geometry":{"type":"LineString","coordinates":[[12.3273,47.27],[12.327,47.27007],[12.32693,47.27021],[12.32728,47.27073],[12.32709,47.27143],[12.32651,47.27182],[12.32612,47.2717],[12.32707,47.27104],[12.32711,47.27083],[12.32673,47.2703],[12.32675,47.26997],[12.32722,47.26976],[12.32749,47.26984],[12.3273,47.27]]}},{"type":"Feature","properties":{"kind":"piste","difficulty":"intermediate","name":null,"aerialway":null,"osm":"way/1446725536"},"geometry":{"type":"LineString","coordinates":[[12.32075,47.27071],[12.32034,47.27063],[12.32026,47.2704],[12.32055,47.26985],[12.32088,47.27002],[12.32059,47.2703],[12.32075,47.27071]]}},{"type":"Feature","properties":{"kind":"piste","difficulty":"intermediate","name":null,"aerialway":null,"osm":"way/1446725537"},"geometry":{"type":"LineString","coordinates":[[12.32083,47.2744],[12.32179,47.27324],[12.32182,47.27269],[12.32272,47.27211],[12.32333,47.27184],[12.32347,47.27193],[12.32352,47.27211],[12.32304,47.2722],[12.32229,47.27271],[12.32219,47.27318],[12.32167,47.27384],[12.3214,47.27443],[12.32083,47.2744]]}},{"type":"Feature","properties":{"kind":"piste","difficulty":"easy","name":null,"aerialway":null,"osm":"way/1446725538"},"geometry":{"type":"LineString","coordinates":[[12.31627,47.27462],[12.31531,47.27381],[12.3144,47.27354],[12.31427,47.27327]]}},{"type":"Feature","properties":{"kind":"piste","difficulty":"easy","name":null,"aerialway":null,"osm":"way/1446725540"},"geometry":{"type":"LineString","coordinates":[[12.30412,47.27242],[12.30388,47.27212],[12.30352,47.27195]]}},{"type":"Feature","properties":{"kind":"piste","difficulty":"intermediate","name":null,"aerialway":null,"osm":"way/1446725543"},"geometry":{"type":"LineString","coordinates":[[12.30419,47.2725],[12.30652,47.2722],[12.30748,47.27166],[12.30821,47.27169],[12.30814,47.27182],[12.30771,47.2718],[12.30639,47.27237],[12.30374,47.27271],[12.30369,47.27261],[12.30419,47.2725]]}},{"type":"Feature","properties":{"kind":"piste","difficulty":"easy","name":"Skiweg und Rodelbahn \"Neuhaus\"","aerialway":null,"osm":"way/1446725546"},"geometry":{"type":"LineString","coordinates":[[12.29985,47.26193],[12.29995,47.26189],[12.29969,47.26176],[12.29922,47.26114]]}},{"type":"Feature","properties":{"kind":"piste","difficulty":"easy","name":null,"aerialway":null,"osm":"way/1446725548"},"geometry":{"type":"LineString","coordinates":[[12.30394,47.2726],[12.30412,47.27242]]}},{"type":"Feature","properties":{"kind":"piste","difficulty":"easy","name":null,"aerialway":null,"osm":"way/1446725549"},"geometry":{"type":"LineString","coordinates":[[12.30351,47.27242],[12.30365,47.27249],[12.30362,47.27264]]}},{"type":"Feature","properties":{"kind":"piste","difficulty":"easy","name":"Smaragdbahn Berg - Mitte","aerialway":null,"osm":"way/1446725550"},"geometry":{"type":"LineString","coordinates":[[12.30362,47.27264],[12.30351,47.27242]]}},{"type":"Feature","properties":{"kind":"piste","difficulty":"intermediate","name":null,"aerialway":null,"osm":"way/1446725551"},"geometry":{"type":"LineString","coordinates":[[12.30365,47.27277],[12.30315,47.27333],[12.30305,47.27382],[12.30223,47.27438],[12.29998,47.27494],[12.2995,47.27562],[12.29945,47.27608],[12.29911,47.27657],[12.29862,47.27662],[12.29944,47.2748],[12.29968,47.27464],[12.3003,47.27461],[12.30167,47.2742],[12.30252,47.27356],[12.30296,47.27299],[12.30351,47.27273],[12.30365,47.27277]]}},{"type":"Feature","properties":{"kind":"piste","difficulty":"intermediate","name":null,"aerialway":null,"osm":"way/1446725552"},"geometry":{"type":"LineString","coordinates":[[12.29654,47.27975],[12.29646,47.27961]]}},{"type":"Feature","properties":{"kind":"piste","difficulty":"intermediate","name":"Smaragdbahn Berg - Mitte","aerialway":null,"osm":"way/1446725553"},"geometry":{"type":"LineString","coordinates":[[12.29081,47.28177],[12.29127,47.2818],[12.29592,47.28003],[12.29646,47.27961]]}},{"type":"Feature","properties":{"kind":"piste","difficulty":"intermediate","name":"Smaragdbahn Berg - Mitte","aerialway":null,"osm":"way/1446725554"},"geometry":{"type":"LineString","coordinates":[[12.29646,47.27961],[12.29744,47.27877],[12.29839,47.27716],[12.29885,47.27668]]}},{"type":"Feature","properties":{"kind":"piste","difficulty":"intermediate","name":null,"aerialway":null,"osm":"way/1446725555"},"geometry":{"type":"LineString","coordinates":[[12.29674,47.27922],[12.29622,47.27958],[12.29658,47.27979],[12.2976,47.27886],[12.29911,47.27657],[12.29862,47.27662],[12.29823,47.27681],[12.2972,47.27866],[12.29674,47.27922]]}},{"type":"Feature","properties":{"kind":"piste","difficulty":"intermediate","name":null,"aerialway":null,"osm":"way/1446725558"},"geometry":{"type":"LineString","coordinates":[[12.29361,47.28105],[12.29305,47.28257],[12.29324,47.2826],[12.29407,47.2809],[12.29361,47.28105]]}},{"type":"Feature","properties":{"kind":"piste","difficulty":"intermediate","name":null,"aerialway":null,"osm":"way/1446725559"},"geometry":{"type":"LineString","coordinates":[[12.29361,47.28105],[12.29137,47.28191],[12.29099,47.28171],[12.29145,47.28165],[12.29325,47.28059],[12.29542,47.27996],[12.29594,47.28013],[12.29525,47.28053],[12.29361,47.28105]]}},{"type":"Feature","properties":{"kind":"piste","difficulty":"easy","name":null,"aerialway":null,"osm":"way/1446725560"},"geometry":{"type":"LineString","coordinates":[[12.29594,47.28013],[12.29658,47.27979],[12.29603,47.27957],[12.29586,47.27998],[12.29569,47.27997],[12.29594,47.28013]]}},{"type":"Feature","properties":{"kind":"piste","difficulty":"easy","name":null,"aerialway":null,"osm":"way/1446735700"},"geometry":{"type":"LineString","coordinates":[[12.28701,47.28159],[12.28789,47.28168],[12.28831,47.28198],[12.2876,47.28213],[12.28758,47.28228],[12.28675,47.28209],[12.28697,47.28196],[12.28701,47.28159]]}},{"type":"Feature","properties":{"kind":"piste","difficulty":"easy","name":null,"aerialway":null,"osm":"way/1446735701"},"geometry":{"type":"LineString","coordinates":[[12.28831,47.28198],[12.28844,47.2816],[12.28885,47.28153],[12.29011,47.28168],[12.29126,47.28214],[12.2925,47.28297],[12.29265,47.2829],[12.2923,47.28274],[12.2919,47.28225],[12.29099,47.28171],[12.28886,47.28114],[12.28749,47.28164],[12.28789,47.28168],[12.28831,47.28198]]}},{"type":"Feature","properties":{"kind":"piste","difficulty":"easy","name":null,"aerialway":null,"osm":"way/1446735702"},"geometry":{"type":"LineString","coordinates":[[12.28675,47.28209],[12.2848,47.28181],[12.28332,47.28109],[12.28199,47.28068],[12.28634,47.28195],[12.28697,47.28196],[12.28675,47.28209]]}},{"type":"Feature","properties":{"kind":"piste","difficulty":"easy","name":null,"aerialway":null,"osm":"way/1446735703"},"geometry":{"type":"LineString","coordinates":[[12.28207,47.28064],[12.28167,47.28045],[12.27996,47.28054],[12.27955,47.28041],[12.27933,47.28065],[12.27979,47.28064],[12.28049,47.281],[12.28078,47.28099],[12.28137,47.28064],[12.28207,47.28064]]}},{"type":"Feature","properties":{"kind":"piste","difficulty":"easy","name":null,"aerialway":null,"osm":"way/1446735704"},"geometry":{"type":"LineString","coordinates":[[12.28146,47.2812],[12.28068,47.28278]]}},{"type":"Feature","properties":{"kind":"piste","difficulty":"easy","name":null,"aerialway":null,"osm":"way/1446735706"},"geometry":{"type":"LineString","coordinates":[[12.2816,47.28051],[12.28146,47.2812]]}},{"type":"Feature","properties":{"kind":"piste","difficulty":"easy","name":null,"aerialway":null,"osm":"way/1446735707"},"geometry":{"type":"LineString","coordinates":[[12.28225,47.28077],[12.28146,47.2812]]}},{"type":"Feature","properties":{"kind":"piste","difficulty":"easy","name":null,"aerialway":null,"osm":"way/1446735708"},"geometry":{"type":"LineString","coordinates":[[12.28137,47.28085],[12.28048,47.28282],[12.2809,47.28273],[12.2812,47.28188],[12.28173,47.28123],[12.28242,47.28087],[12.28199,47.28068],[12.2816,47.28067],[12.28137,47.28085]]}},{"type":"Feature","properties":{"kind":"piste","difficulty":"easy","name":null,"aerialway":null,"osm":"way/1446735709"},"geometry":{"type":"LineString","coordinates":[[12.27954,47.28064],[12.2788,47.28292],[12.27862,47.28337],[12.27846,47.28337],[12.27814,47.28288],[12.27858,47.28145],[12.2792,47.28074],[12.27954,47.28064]]}},{"type":"Feature","properties":{"kind":"piste","difficulty":"easy","name":null,"aerialway":null,"osm":"way/1446735710"},"geometry":{"type":"LineString","coordinates":[[12.27989,47.28072],[12.27987,47.28089],[12.27962,47.28103],[12.27886,47.28338],[12.27891,47.28354],[12.27936,47.28366],[12.28009,47.28222],[12.28016,47.28122],[12.28049,47.281],[12.27989,47.28072]]}},{"type":"Feature","properties":{"kind":"piste","difficulty":"intermediate","name":null,"aerialway":null,"osm":"way/1446735711"},"geometry":{"type":"LineString","coordinates":[[12.28065,47.27943],[12.28015,47.27833],[12.28019,47.27734],[12.27995,47.27679],[12.2791,47.27619],[12.27868,47.27522],[12.27744,47.27443],[12.27652,47.27444],[12.27632,47.27439],[12.27628,47.27424],[12.27814,47.27416],[12.27923,47.27497],[12.27942,47.27555],[12.27989,47.27629],[12.28029,47.27649],[12.28074,47.27708],[12.28116,47.27906],[12.28111,47.27946],[12.28065,47.27943]]}},{"type":"Feature","properties":{"kind":"piste","difficulty":"advanced","name":null,"aerialway":null,"osm":"way/1446735712"},"geometry":{"type":"LineString","coordinates":[[12.27733,47.27415],[12.27734,47.27354],[12.27764,47.27301],[12.2771,47.27258],[12.27731,47.27225],[12.27784,47.2728],[12.27793,47.27305],[12.27762,47.27356],[12.27761,47.27398],[12.2778,47.27419],[12.27733,47.27415]]}},{"type":"Feature","properties":{"kind":"piste","difficulty":"intermediate","name":null,"aerialway":null,"osm":"way/1446735713"},"geometry":{"type":"LineString","coordinates":[[12.27628,47.27424],[12.27624,47.27404],[12.27654,47.27337],[12.27665,47.27228],[12.2771,47.27258],[12.27671,47.27328],[12.27646,47.2741],[12.27658,47.27423],[12.27628,47.27424]]}},{"type":"Feature","properties":{"kind":"piste","difficulty":"intermediate","name":null,"aerialway":null,"osm":"way/1446735714"},"geometry":{"type":"LineString","coordinates":[[12.27957,47.27065],[12.27778,47.27099],[12.27707,47.2715],[12.27664,47.27203],[12.27665,47.27228],[12.2771,47.27258],[12.27731,47.27225],[12.27717,47.27182],[12.27729,47.27156],[12.27806,47.27113],[12.27971,47.27078],[12.27957,47.27065]]}},{"type":"Feature","properties":{"kind":"piste","difficulty":"easy","name":"Wilkogelbahn Berg - Mitte","aerialway":null,"osm":"way/1446735715"},"geometry":{"type":"LineString","coordinates":[[12.28029,47.27011],[12.28082,47.2705]]}},{"type":"Feature","properties":{"kind":"piste","difficulty":"easy","name":null,"aerialway":null,"osm":"way/1446735716"},"geometry":{"type":"LineString","coordinates":[[12.27132,47.25247],[12.27134,47.25256],[12.27198,47.25244],[12.27132,47.25247]]}},{"type":"Feature","properties":{"kind":"piste","difficulty":"novice","name":null,"aerialway":null,"osm":"way/1446735717"},"geometry":{"type":"LineString","coordinates":[[12.27392,47.25257],[12.2719,47.25329],[12.27226,47.2528],[12.27202,47.25255],[12.27212,47.25251],[12.27376,47.25247],[12.27392,47.25257]]}},{"type":"Feature","properties":{"kind":"piste","difficulty":"easy","name":null,"aerialway":null,"osm":"way/1446735718"},"geometry":{"type":"LineString","coordinates":[[12.27122,47.25247],[12.26951,47.25299],[12.26799,47.25315],[12.2664,47.2538],[12.26585,47.25387],[12.26491,47.25358],[12.26605,47.25379],[12.26825,47.25301],[12.26924,47.25293],[12.27122,47.25247]]}},{"type":"Feature","properties":{"kind":"piste","difficulty":"easy","name":null,"aerialway":null,"osm":"way/1446735719"},"geometry":{"type":"LineString","coordinates":[[12.26395,47.25297],[12.26231,47.25196],[12.26248,47.25185],[12.26415,47.25277],[12.2642,47.25291],[12.26395,47.25297]]}},{"type":"Feature","properties":{"kind":"piste","difficulty":"easy","name":null,"aerialway":null,"osm":"way/1446735720"},"geometry":{"type":"LineString","coordinates":[[12.26479,47.25368],[12.26462,47.25379],[12.26417,47.25522],[12.26422,47.25565],[12.2648,47.25592],[12.26433,47.25645],[12.26432,47.25694],[12.26457,47.2571],[12.26566,47.2569],[12.26588,47.25711],[12.26596,47.25696],[12.26566,47.25684],[12.26464,47.25703],[12.26445,47.25696],[12.26459,47.25633],[12.26509,47.25593],[12.2644,47.2555],[12.26448,47.25491],[12.2648,47.25406],[12.26479,47.25368]]}},{"type":"Feature","properties":{"kind":"piste","difficulty":"easy","name":null,"aerialway":null,"osm":"way/1446735721"},"geometry":{"type":"LineString","coordinates":[[12.26915,47.25902],[12.26986,47.25919],[12.27024,47.25957],[12.27071,47.26038],[12.26949,47.26095],[12.26835,47.26169],[12.26719,47.2619],[12.26677,47.26221],[12.26662,47.26265],[12.26637,47.26262],[12.26652,47.26222],[12.26705,47.2618],[12.26818,47.26154],[12.26913,47.26098],[12.2702,47.26054],[12.27012,47.26005],[12.26952,47.25924],[12.26843,47.25919],[12.26832,47.25909],[12.26915,47.25902]]}},{"type":"Feature","properties":{"kind":"piste","difficulty":"easy","name":null,"aerialway":null,"osm":"way/1446735722"},"geometry":{"type":"LineString","coordinates":[[12.26826,47.25906],[12.26501,47.25815],[12.26482,47.25804],[12.26483,47.25775],[12.26563,47.25727],[12.26504,47.25772],[12.26508,47.25801],[12.26799,47.25883],[12.26837,47.25902],[12.26826,47.25906]]}},{"type":"Feature","properties":{"kind":"piste","difficulty":"intermediate","name":null,"aerialway":null,"osm":"way/1446735723"},"geometry":{"type":"LineString","coordinates":[[12.26668,47.26681],[12.26681,47.26746],[12.26623,47.26912],[12.26665,47.26905],[12.26712,47.26801],[12.26723,47.26728],[12.26748,47.26724],[12.26736,47.26693],[12.26668,47.26681]]}},{"type":"Feature","properties":{"kind":"piste","difficulty":"advanced","name":null,"aerialway":null,"osm":"way/1446735724"},"geometry":{"type":"LineString","coordinates":[[12.26675,47.27008],[12.26692,47.27057],[12.26688,47.27116],[12.26658,47.27168],[12.26649,47.27211],[12.26759,47.27285],[12.26672,47.27397],[12.26709,47.2741],[12.26792,47.27303],[12.2674,47.27251],[12.26671,47.27217],[12.26667,47.27206],[12.26704,47.27159],[12.26725,47.27104],[12.26717,47.2703],[12.26675,47.27008]]}},{"type":"Feature","properties":{"kind":"piste","difficulty":"easy","name":null,"aerialway":null,"osm":"way/1446735725"},"geometry":{"type":"LineString","coordinates":[[12.26672,47.27397],[12.26589,47.2747],[12.26568,47.27528],[12.26605,47.27537],[12.26648,47.27462],[12.26709,47.2741],[12.26672,47.27397]]}},{"type":"Feature","properties":{"kind":"piste","difficulty":"easy","name":null,"aerialway":null,"osm":"way/1446735726"},"geometry":{"type":"LineString","coordinates":[[12.26568,47.27528],[12.26571,47.27672],[12.26622,47.27729],[12.26678,47.2773],[12.26635,47.27702],[12.26622,47.2757],[12.26605,47.27537],[12.26568,47.27528]]}},{"type":"Feature","properties":{"kind":"piste","difficulty":"easy","name":null,"aerialway":null,"osm":"way/1446735727"},"geometry":{"type":"LineString","coordinates":[[12.26622,47.27729],[12.26793,47.27819],[12.26901,47.27912],[12.26946,47.28019],[12.26986,47.28007],[12.2692,47.27886],[12.26866,47.27832],[12.26678,47.2773],[12.26622,47.27729]]}},{"type":"Feature","properties":{"kind":"piste","difficulty":"intermediate","name":"Speedcheck","aerialway":null,"osm":"way/1446735728"},"geometry":{"type":"LineString","coordinates":[[12.26597,47.28269],[12.26595,47.28114]]}},{"type":"Feature","properties":{"kind":"piste","difficulty":"intermediate","name":null,"aerialway":null,"osm":"way/1446735729"},"geometry":{"type":"LineString","coordinates":[[12.26622,47.27729],[12.26634,47.27741],[12.26612,47.28018],[12.26627,47.28397],[12.26592,47.2846],[12.26648,47.28444],[12.26672,47.28394],[12.26685,47.28113],[12.2667,47.28003],[12.26685,47.2776],[12.26622,47.27729]]}},{"type":"Feature","properties":{"kind":"piste","difficulty":"easy","name":null,"aerialway":null,"osm":"way/1446735730"},"geometry":{"type":"LineString","coordinates":[[12.26946,47.28019],[12.27015,47.28112],[12.27224,47.28322],[12.27282,47.28307],[12.27005,47.2805],[12.26986,47.28007],[12.26946,47.28019]]}},{"type":"Feature","properties":{"kind":"piste","difficulty":"easy","name":null,"aerialway":null,"osm":"way/1446735731"},"geometry":{"type":"LineString","coordinates":[[12.26784,47.28439],[12.26639,47.28469],[12.26645,47.28487],[12.26919,47.28443],[12.27262,47.28325],[12.27224,47.28322],[12.26904,47.2842],[12.26784,47.28439]]}},{"type":"Feature","properties":{"kind":"piste","difficulty":"easy","name":null,"aerialway":null,"osm":"way/1446735732"},"geometry":{"type":"LineString","coordinates":[[12.26639,47.28469],[12.26592,47.2846],[12.26601,47.28571],[12.26644,47.28565],[12.26639,47.28469]]}},{"type":"Feature","properties":{"kind":"piste","difficulty":"easy","name":null,"aerialway":null,"osm":"way/1446735733"},"geometry":{"type":"LineString","coordinates":[[12.26592,47.2846],[12.26648,47.28444],[12.2675,47.28446],[12.26639,47.28469],[12.26592,47.2846]]}},{"type":"Feature","properties":{"kind":"piste","difficulty":"easy","name":null,"aerialway":null,"osm":"way/1446735734"},"geometry":{"type":"LineString","coordinates":[[12.27224,47.28322],[12.27331,47.28285],[12.27339,47.28319],[12.27306,47.28337],[12.27294,47.28318],[12.27224,47.28322]]}},{"type":"Feature","properties":{"kind":"piste","difficulty":"intermediate","name":null,"aerialway":null,"osm":"way/1446735735"},"geometry":{"type":"LineString","coordinates":[[12.26658,47.28293],[12.26597,47.28269]]}},{"type":"Feature","properties":{"kind":"piste","difficulty":"intermediate","name":null,"aerialway":null,"osm":"way/1446735736"},"geometry":{"type":"LineString","coordinates":[[12.26595,47.28114],[12.26647,47.28044]]}},{"type":"Feature","properties":{"kind":"piste","difficulty":"easy","name":null,"aerialway":null,"osm":"way/1446735737"},"geometry":{"type":"LineString","coordinates":[[12.27324,47.28187],[12.2711,47.28149],[12.27033,47.28075],[12.27434,47.28165],[12.27389,47.28184],[12.27324,47.28187]]}},{"type":"Feature","properties":{"kind":"piste","difficulty":"easy","name":null,"aerialway":null,"osm":"way/1446743378"},"geometry":{"type":"LineString","coordinates":[[12.27065,47.28434],[12.27044,47.28461],[12.27334,47.2853],[12.27265,47.28564],[12.2737,47.28573],[12.27415,47.28553],[12.27536,47.28559],[12.27542,47.28549],[12.27411,47.28537],[12.27339,47.28505],[12.27065,47.28434]]}},{"type":"Feature","properties":{"kind":"piste","difficulty":"easy","name":null,"aerialway":null,"osm":"way/1446743379"},"geometry":{"type":"LineString","coordinates":[[12.27118,47.28584],[12.2683,47.28621],[12.26764,47.28613],[12.26645,47.28573],[12.2663,47.28592],[12.26747,47.28636],[12.269,47.28674],[12.27099,47.28642],[12.27265,47.28564],[12.27118,47.28584]]}},{"type":"Feature","properties":{"kind":"piste","difficulty":"easy","name":null,"aerialway":null,"osm":"way/1446743380"},"geometry":{"type":"LineString","coordinates":[[12.26601,47.28571],[12.26591,47.28587],[12.26623,47.28593],[12.26645,47.28573],[12.26601,47.28571]]}},{"type":"Feature","properties":{"kind":"piste","difficulty":"intermediate","name":null,"aerialway":null,"osm":"way/1446743381"},"geometry":{"type":"LineString","coordinates":[[12.27419,47.28578],[12.27572,47.28711],[12.27597,47.28764],[12.27549,47.28777],[12.27398,47.28653],[12.27325,47.2861],[12.27316,47.28568],[12.27419,47.28578]]}},{"type":"Feature","properties":{"kind":"piste","difficulty":"intermediate","name":null,"aerialway":null,"osm":"way/1446743382"},"geometry":{"type":"LineString","coordinates":[[12.2719,47.29134],[12.27213,47.29178]]}},{"type":"Feature","properties":{"kind":"piste","difficulty":"advanced","name":null,"aerialway":null,"osm":"way/1446743383"},"geometry":{"type":"LineString","coordinates":[[12.2732,47.29054],[12.27348,47.29018],[12.27617,47.28957],[12.27824,47.28919],[12.27866,47.28922]]}},{"type":"Feature","properties":{"kind":"piste","difficulty":"intermediate","name":null,"aerialway":null,"osm":"way/1446743384"},"geometry":{"type":"LineString","coordinates":[[12.27316,47.28568],[12.27265,47.28564],[12.27099,47.28642],[12.2678,47.28738],[12.26612,47.28756],[12.26813,47.288],[12.27325,47.2861],[12.27316,47.28568]]}},{"type":"Feature","properties":{"kind":"piste","difficulty":"intermediate","name":null,"aerialway":null,"osm":"way/1446743385"},"geometry":{"type":"LineString","coordinates":[[12.26612,47.28756],[12.26555,47.28817],[12.26556,47.28834],[12.266,47.28845],[12.26606,47.28863],[12.26637,47.28859],[12.26634,47.2884],[12.26813,47.288],[12.26612,47.28756]]}},{"type":"Feature","properties":{"kind":"piste","difficulty":"easy","name":null,"aerialway":null,"osm":"way/1446743386"},"geometry":{"type":"LineString","coordinates":[[12.26759,47.29479],[12.26764,47.29497],[12.26733,47.29502],[12.26725,47.29487],[12.26731,47.2946],[12.26759,47.29479]]}},{"type":"Feature","properties":{"kind":"piste","difficulty":"intermediate","name":null,"aerialway":null,"osm":"way/1446743387"},"geometry":{"type":"LineString","coordinates":[[12.26754,47.29423],[12.2678,47.29384],[12.26916,47.29273],[12.27216,47.291],[12.27245,47.29126],[12.26838,47.29387],[12.27065,47.29447],[12.26857,47.29482],[12.26802,47.29435],[12.26754,47.29423]]}},{"type":"Feature","properties":{"kind":"piste","difficulty":"intermediate","name":null,"aerialway":null,"osm":"way/1446743388"},"geometry":{"type":"LineString","coordinates":[[12.27913,47.28995],[12.27767,47.29103],[12.27536,47.29195],[12.27524,47.29212],[12.27203,47.29155],[12.2716,47.29183],[12.27532,47.29234],[12.27558,47.29228],[12.27606,47.29192],[12.27729,47.29161],[12.2788,47.29075],[12.27941,47.29019],[12.27962,47.2898],[12.27927,47.28975],[12.27913,47.28995]]}},{"type":"Feature","properties":{"kind":"piste","difficulty":"intermediate","name":null,"aerialway":null,"osm":"way/1446743389"},"geometry":{"type":"LineString","coordinates":[[12.27216,47.291],[12.273,47.29031],[12.27367,47.29027],[12.27495,47.29068],[12.27543,47.2907],[12.27742,47.28996],[12.2785,47.28932],[12.27889,47.28956],[12.27775,47.29034],[12.27515,47.29109],[12.27395,47.29073],[12.27337,47.29079],[12.27245,47.29126],[12.27216,47.291]]}},{"type":"Feature","properties":{"kind":"piste","difficulty":"easy","name":null,"aerialway":null,"osm":"way/1446743390"},"geometry":{"type":"LineString","coordinates":[[12.2727,47.29361],[12.26947,47.29415],[12.27065,47.29447],[12.27955,47.29304],[12.28084,47.29247],[12.28223,47.29222],[12.28489,47.29199],[12.28458,47.29168],[12.28292,47.29131],[12.27748,47.29246],[12.27521,47.29327],[12.2727,47.29361]]}},{"type":"Feature","properties":{"kind":"piste","difficulty":"easy","name":null,"aerialway":null,"osm":"way/1446748417"},"geometry":{"type":"LineString","coordinates":[[12.27509,47.28519],[12.27285,47.28436],[12.27116,47.28395],[12.27126,47.28364],[12.27088,47.28379],[12.27073,47.28425],[12.27452,47.28525],[12.27536,47.28543],[12.27509,47.28519]]}},{"type":"Feature","properties":{"kind":"piste","difficulty":"easy","name":null,"aerialway":null,"osm":"way/1446748418"},"geometry":{"type":"LineString","coordinates":[[12.27306,47.28337],[12.27536,47.28543],[12.27571,47.28531],[12.27394,47.28359],[12.27339,47.28319],[12.27306,47.28337]]}},{"type":"Feature","properties":{"kind":"piste","difficulty":"easy","name":null,"aerialway":null,"osm":"way/1446748419"},"geometry":{"type":"LineString","coordinates":[[12.27536,47.28543],[12.27536,47.28559],[12.27565,47.28579],[12.27616,47.28545],[12.27571,47.28531],[12.27536,47.28543]]}},{"type":"Feature","properties":{"kind":"piste","difficulty":"easy","name":null,"aerialway":null,"osm":"way/1446748420"},"geometry":{"type":"LineString","coordinates":[[12.27565,47.28579],[12.27564,47.28594],[12.2759,47.28618],[12.27726,47.28691],[12.27589,47.28744],[12.27597,47.28764],[12.27632,47.28777],[12.27797,47.28705],[12.27797,47.28683],[12.27735,47.28641],[12.2765,47.28556],[12.27616,47.28545],[12.27565,47.28579]]}},{"type":"Feature","properties":{"kind":"piste","difficulty":"easy","name":null,"aerialway":null,"osm":"way/1446748421"},"geometry":{"type":"LineString","coordinates":[[12.2765,47.28556],[12.27724,47.28524],[12.27847,47.28511],[12.27841,47.28487],[12.27676,47.28511],[12.27616,47.28545],[12.2765,47.28556]]}},{"type":"Feature","properties":{"kind":"piste","difficulty":"easy","name":null,"aerialway":null,"osm":"way/1446748422"},"geometry":{"type":"LineString","coordinates":[[12.27549,47.28777],[12.27548,47.28817],[12.27564,47.28818],[12.27632,47.28777],[12.27597,47.28764],[12.27549,47.28777]]}},{"type":"Feature","properties":{"kind":"piste","difficulty":"easy","name":null,"aerialway":null,"osm":"way/1446748423"},"geometry":{"type":"LineString","coordinates":[[12.27614,47.28794],[12.27721,47.28866],[12.27825,47.28904],[12.2785,47.28932],[12.27873,47.28912],[12.27808,47.28875],[12.27834,47.28819],[12.27681,47.28788],[12.2766,47.28763],[12.27614,47.28794]]}},{"type":"Feature","properties":{"kind":"piste","difficulty":"intermediate","name":null,"aerialway":null,"osm":"way/1446748424"},"geometry":{"type":"LineString","coordinates":[[12.27847,47.28511],[12.27829,47.28599],[12.27845,47.28779],[12.27808,47.28875],[12.27862,47.28899],[12.27863,47.28855],[12.27902,47.28824],[12.27926,47.28734],[12.27931,47.28633],[12.2791,47.28608],[12.27947,47.28498],[12.27847,47.28511]]}},{"type":"Feature","properties":{"kind":"piste","difficulty":"easy","name":null,"aerialway":null,"osm":"way/1446748425"},"geometry":{"type":"LineString","coordinates":[[12.27891,47.28354],[12.27853,47.28426],[12.27847,47.28511],[12.27947,47.28498],[12.2791,47.28471],[12.27936,47.28366],[12.27891,47.28354]]}},{"type":"Feature","properties":{"kind":"piste","difficulty":"intermediate","name":null,"aerialway":null,"osm":"way/1446748426"},"geometry":{"type":"LineString","coordinates":[[12.28058,47.28285],[12.28066,47.28434],[12.28058,47.28462],[12.28025,47.28491],[12.28091,47.28466],[12.28102,47.28433],[12.28117,47.28297],[12.2809,47.28273],[12.28058,47.28285]]}},{"type":"Feature","properties":{"kind":"piste","difficulty":"advanced","name":null,"aerialway":null,"osm":"way/1446748427"},"geometry":{"type":"LineString","coordinates":[[12.28078,47.28456],[12.28068,47.28532],[12.28011,47.287],[12.28028,47.2886]]}},{"type":"Feature","properties":{"kind":"piste","difficulty":"easy","name":null,"aerialway":null,"osm":"way/1446748428"},"geometry":{"type":"LineString","coordinates":[[12.27925,47.28853],[12.27917,47.28918],[12.27975,47.28911],[12.27954,47.28882],[12.27984,47.28856],[12.27925,47.28853]]}},{"type":"Feature","properties":{"kind":"piste","difficulty":"easy","name":null,"aerialway":null,"osm":"way/1446748429"},"geometry":{"type":"LineString","coordinates":[[12.27962,47.2898],[12.27953,47.28931],[12.27975,47.28911],[12.27917,47.28918],[12.27901,47.28932],[12.27873,47.28912],[12.2785,47.28932],[12.27927,47.28975],[12.27962,47.2898]]}},{"type":"Feature","properties":{"kind":"piste","difficulty":"easy","name":null,"aerialway":null,"osm":"way/1446748430"},"geometry":{"type":"LineString","coordinates":[[12.27962,47.2898],[12.28067,47.28995],[12.28101,47.29037],[12.282,47.29069],[12.28245,47.29112],[12.28292,47.29131],[12.28458,47.29168],[12.28481,47.29141],[12.28136,47.29037],[12.28106,47.2902],[12.28084,47.28986],[12.28048,47.28971],[12.27954,47.28948],[12.27962,47.2898]]}},{"type":"Feature","properties":{"kind":"piste","difficulty":"easy","name":null,"aerialway":null,"osm":"way/1446748431"},"geometry":{"type":"LineString","coordinates":[[12.28481,47.29141],[12.28525,47.29173],[12.28521,47.29209],[12.28506,47.29212],[12.28458,47.29168],[12.28481,47.29141]]}},{"type":"Feature","properties":{"kind":"piste","difficulty":"easy","name":null,"aerialway":null,"osm":"way/1446748432"},"geometry":{"type":"LineString","coordinates":[[12.27969,47.28849],[12.27941,47.28842],[12.27907,47.28808],[12.27881,47.28841],[12.27969,47.28849]]}},{"type":"Feature","properties":{"kind":"piste","difficulty":"easy","name":null,"aerialway":null,"osm":"way/1446748433"},"geometry":{"type":"LineString","coordinates":[[12.27969,47.28849],[12.28309,47.28889],[12.2841,47.28942],[12.28396,47.28958],[12.28307,47.28898],[12.28277,47.28912],[12.28204,47.28887],[12.28008,47.28862],[12.27976,47.2887],[12.27984,47.28856],[12.27969,47.28849]]}},{"type":"Feature","properties":{"kind":"piste","difficulty":"intermediate","name":null,"aerialway":null,"osm":"way/1446772799"},"geometry":{"type":"LineString","coordinates":[[12.28237,47.28089],[12.28264,47.28232],[12.28337,47.28329],[12.28475,47.2847],[12.28521,47.28555],[12.28482,47.28548],[12.28455,47.28497],[12.28254,47.28282],[12.28223,47.28122],[12.28205,47.28105],[12.28237,47.28089]]}},{"type":"Feature","properties":{"kind":"piste","difficulty":"advanced","name":null,"aerialway":null,"osm":"way/1446772800"},"geometry":{"type":"LineString","coordinates":[[12.28579,47.28448],[12.28627,47.28463],[12.28557,47.2851],[12.28521,47.28555],[12.28504,47.2852],[12.28579,47.28448]]}},{"type":"Feature","properties":{"kind":"piste","difficulty":"intermediate","name":null,"aerialway":null,"osm":"way/1446772801"},"geometry":{"type":"LineString","coordinates":[[12.28758,47.28228],[12.2872,47.2822],[12.28684,47.28362],[12.28579,47.28448],[12.28627,47.28463],[12.28692,47.28413],[12.28758,47.28228]]}},{"type":"Feature","properties":{"kind":"piste","difficulty":"intermediate","name":"Peifferköpfl","aerialway":null,"osm":"way/1446772802"},"geometry":{"type":"LineString","coordinates":[[12.28615,47.28453],[12.28543,47.28431],[12.2845,47.28378],[12.28411,47.28377],[12.28383,47.28391]]}},{"type":"Feature","properties":{"kind":"piste","difficulty":"intermediate","name":"Peifferköpfl","aerialway":null,"osm":"way/1446772803"},"geometry":{"type":"LineString","coordinates":[[12.28782,47.282],[12.28745,47.28226],[12.28683,47.28401],[12.28615,47.28453]]}},{"type":"Feature","properties":{"kind":"piste","difficulty":"intermediate","name":"Wildkogelbahn Berg - Pfeifferköpfl","aerialway":null,"osm":"way/1446772804"},"geometry":{"type":"LineString","coordinates":[[12.2823,47.28108],[12.28263,47.28269],[12.28292,47.28308]]}},{"type":"Feature","properties":{"kind":"piste","difficulty":"easy","name":"Wildkogelbahn Berg - Pfeifferköpfl","aerialway":null,"osm":"way/1446772805"},"geometry":{"type":"LineString","coordinates":[[12.28774,47.28227],[12.28782,47.282]]}},{"type":"Feature","properties":{"kind":"piste","difficulty":"easy","name":"Wildkogelbahn Berg - Pfeifferköpfl","aerialway":null,"osm":"way/1446772806"},"geometry":{"type":"LineString","coordinates":[[12.28782,47.282],[12.28727,47.28204]]}},{"type":"Feature","properties":{"kind":"piste","difficulty":"advanced","name":null,"aerialway":null,"osm":"way/1446772807"},"geometry":{"type":"LineString","coordinates":[[12.28477,47.28556],[12.28521,47.28563],[12.28524,47.28683],[12.28548,47.2875],[12.28526,47.28835],[12.28468,47.28962],[12.28394,47.28934],[12.28467,47.28755],[12.28461,47.28611],[12.28477,47.28556]]}},{"type":"Feature","properties":{"kind":"piste","difficulty":"intermediate","name":null,"aerialway":null,"osm":"way/1446772808"},"geometry":{"type":"LineString","coordinates":[[12.27793,47.28817],[12.27772,47.28717],[12.2766,47.28763],[12.27681,47.28788],[12.27793,47.28817]]}},{"type":"Feature","properties":{"kind":"piste","difficulty":"easy","name":null,"aerialway":null,"osm":"way/1446772809"},"geometry":{"type":"LineString","coordinates":[[12.29074,47.28535],[12.29018,47.28567],[12.2892,47.28565],[12.28881,47.28585],[12.28844,47.28629],[12.28879,47.28619],[12.28927,47.28581],[12.29073,47.28575],[12.29099,47.28556],[12.29074,47.28535]]}},{"type":"Feature","properties":{"kind":"piste","difficulty":"easy","name":null,"aerialway":null,"osm":"way/1446772811"},"geometry":{"type":"LineString","coordinates":[[12.29051,47.29345],[12.29057,47.29369],[12.29108,47.29422],[12.29128,47.29429],[12.29144,47.29419],[12.29114,47.2941],[12.2907,47.29369],[12.29048,47.29316],[12.29036,47.29317],[12.29051,47.29345]]}},{"type":"Feature","properties":{"kind":"piste","difficulty":"easy","name":null,"aerialway":null,"osm":"way/1446772812"},"geometry":{"type":"LineString","coordinates":[[12.29169,47.29427],[12.29144,47.29419],[12.29128,47.29429],[12.29162,47.2944],[12.29169,47.29427]]}},{"type":"Feature","properties":{"kind":"piste","difficulty":"easy","name":null,"aerialway":null,"osm":"way/1446772813"},"geometry":{"type":"LineString","coordinates":[[12.28798,47.29078],[12.28844,47.29098],[12.28911,47.29155],[12.28981,47.29187],[12.28991,47.29209],[12.29025,47.29228],[12.29024,47.29294],[12.29036,47.29317],[12.29047,47.29316],[12.29032,47.29277],[12.29044,47.29231],[12.29006,47.2921],[12.28988,47.29183],[12.28917,47.29148],[12.2885,47.29086],[12.28799,47.2907],[12.28798,47.29078]]}},{"type":"Feature","properties":{"kind":"piste","difficulty":"intermediate","name":null,"aerialway":null,"osm":"way/1446772814"},"geometry":{"type":"LineString","coordinates":[[12.28771,47.29067],[12.28661,47.29102],[12.28696,47.2906],[12.28771,47.29067]]}},{"type":"Feature","properties":{"kind":"piste","difficulty":"easy","name":null,"aerialway":null,"osm":"way/1446772815"},"geometry":{"type":"LineString","coordinates":[[12.28516,47.2916],[12.28591,47.29085],[12.28592,47.29063],[12.28563,47.29009],[12.28754,47.29053],[12.28686,47.29047],[12.28681,47.29056],[12.28696,47.2906],[12.28661,47.29102],[12.2856,47.29135],[12.28525,47.29173],[12.28516,47.2916]]}},{"type":"Feature","properties":{"kind":"piste","difficulty":"easy","name":null,"aerialway":null,"osm":"way/1446772816"},"geometry":{"type":"LineString","coordinates":[[12.28572,47.29036],[12.28536,47.29033],[12.285,47.29154],[12.28481,47.29141],[12.28481,47.29072],[12.28467,47.29044],[12.28525,47.29016],[12.28535,47.28998],[12.28563,47.29009],[12.28572,47.29036]]}},{"type":"Feature","properties":{"kind":"piste","difficulty":"easy","name":"Pfeifferköpfl (\"Autobahn\")","aerialway":null,"osm":"way/1446772817"},"geometry":{"type":"LineString","coordinates":[[12.28557,47.29131],[12.28508,47.29173]]}},{"type":"Feature","properties":{"kind":"piste","difficulty":"easy","name":null,"aerialway":null,"osm":"way/1446772818"},"geometry":{"type":"LineString","coordinates":[[12.28557,47.29131],[12.28613,47.29126],[12.2869,47.29162]]}},{"type":"Feature","properties":{"kind":"piste","difficulty":"easy","name":null,"aerialway":null,"osm":"way/1446772819"},"geometry":{"type":"LineString","coordinates":[[12.28396,47.28958],[12.28467,47.29044],[12.28498,47.29027],[12.2846,47.29006],[12.28468,47.28962],[12.28394,47.28934],[12.2841,47.28942],[12.28396,47.28958]]}},{"type":"Feature","properties":{"kind":"piste","difficulty":"easy","name":null,"aerialway":null,"osm":"way/1446772820"},"geometry":{"type":"LineString","coordinates":[[12.28661,47.29102],[12.28703,47.29151],[12.28708,47.29216],[12.28737,47.29292],[12.28699,47.29349],[12.28661,47.29363],[12.28718,47.29297],[12.28685,47.29243],[12.28694,47.29177],[12.28635,47.29135],[12.28589,47.29127],[12.28661,47.29102]]}},{"type":"Feature","properties":{"kind":"piste","difficulty":"easy","name":null,"aerialway":null,"osm":"way/1446772821"},"geometry":{"type":"LineString","coordinates":[[12.2871,47.29347],[12.28661,47.29363],[12.28646,47.29388],[12.28644,47.29506],[12.28657,47.29506],[12.28682,47.29405],[12.28718,47.29375],[12.2871,47.29347]]}},{"type":"Feature","properties":{"kind":"piste","difficulty":"intermediate","name":null,"aerialway":null,"osm":"way/1446896448"},"geometry":{"type":"LineString","coordinates":[[12.29169,47.29427],[12.29144,47.29419],[12.29151,47.29401],[12.29218,47.29347],[12.29245,47.29393],[12.29243,47.29468],[12.29215,47.29464],[12.29169,47.29427]]}},{"type":"Feature","properties":{"kind":"piste","difficulty":"easy","name":null,"aerialway":null,"osm":"way/1446896449"},"geometry":{"type":"LineString","coordinates":[[12.28746,47.29057],[12.28798,47.29078],[12.28746,47.29057]]}},{"type":"Feature","properties":{"kind":"piste","difficulty":"intermediate","name":null,"aerialway":null,"osm":"way/1446896450"},"geometry":{"type":"LineString","coordinates":[[12.27589,47.28744],[12.2758,47.28727],[12.2759,47.28711],[12.2759,47.28618],[12.27726,47.28691],[12.27589,47.28744]]}},{"type":"Feature","properties":{"kind":"piste","difficulty":"novice","name":null,"aerialway":null,"osm":"way/1447546275"},"geometry":{"type":"LineString","coordinates":[[12.27336,47.25268],[12.27356,47.25279]]}},{"type":"Feature","properties":{"kind":"piste","difficulty":"easy","name":"Wildkogelbahn Mitte - Neukichen Talabfahrt","aerialway":null,"osm":"way/1447546276"},"geometry":{"type":"LineString","coordinates":[[12.27336,47.25268],[12.27409,47.25248]]}},{"type":"Feature","properties":{"kind":"piste","difficulty":"easy","name":null,"aerialway":null,"osm":"way/1447546277"},"geometry":{"type":"LineString","coordinates":[[12.26623,47.26912],[12.26634,47.26972],[12.26717,47.2703],[12.26714,47.27007],[12.26664,47.26947],[12.26665,47.26905],[12.26623,47.26912]]}},{"type":"Feature","properties":{"kind":"piste","difficulty":"intermediate","name":null,"aerialway":null,"osm":"way/1447546278"},"geometry":{"type":"LineString","coordinates":[[12.26637,47.26262],[12.26629,47.26352],[12.26656,47.26419],[12.2664,47.26485],[12.26659,47.26557],[12.26668,47.26681],[12.26736,47.26693],[12.26714,47.26635],[12.26696,47.26504],[12.26701,47.26433],[12.26662,47.26301],[12.26662,47.26265],[12.26637,47.26262]]}},{"type":"Feature","properties":{"kind":"piste","difficulty":"intermediate","name":"14b-Talabfahrt Bramberg","aerialway":null,"osm":"way/1447546279"},"geometry":{"type":"LineString","coordinates":[[12.32054,47.27071],[12.32045,47.27029],[12.32054,47.27008],[12.32084,47.26989]]}},{"type":"Feature","properties":{"kind":"piste","difficulty":"intermediate","name":"14b-Talabfahrt Bramberg","aerialway":null,"osm":"way/1447546280"},"geometry":{"type":"LineString","coordinates":[[12.32103,47.27445],[12.32196,47.27327],[12.32199,47.27288],[12.32213,47.27269],[12.32285,47.27218],[12.32353,47.27193]]}},{"type":"Feature","properties":{"kind":"piste","difficulty":"easy","name":null,"aerialway":null,"osm":"way/1471736869"},"geometry":{"type":"LineString","coordinates":[[12.27258,47.28321],[12.2705,47.28113]]}},{"type":"Feature","properties":{"kind":"piste","difficulty":"advanced","name":null,"aerialway":null,"osm":"way/1471736870"},"geometry":{"type":"LineString","coordinates":[[12.26634,47.2884],[12.27526,47.28813],[12.27549,47.28811],[12.27549,47.28777],[12.26813,47.288],[12.26634,47.2884]]}},{"type":"Feature","properties":{"kind":"piste","difficulty":"easy","name":null,"aerialway":null,"osm":"way/1471773145"},"geometry":{"type":"LineString","coordinates":[[12.26747,47.29507],[12.26737,47.29498]]}},{"type":"Feature","properties":{"kind":"piste","difficulty":"intermediate","name":"Braunkogel / Frühmesser Süd - Ganzeralm","aerialway":null,"osm":"way/1471773146"},"geometry":{"type":"LineString","coordinates":[[12.26626,47.28852],[12.26617,47.28874]]}},{"type":"Feature","properties":{"kind":"piste","difficulty":"easy","name":null,"aerialway":null,"osm":"way/1471773147"},"geometry":{"type":"LineString","coordinates":[[12.26786,47.29235],[12.26841,47.29147],[12.26647,47.29008],[12.26614,47.28947],[12.26617,47.28874]]}},{"type":"Feature","properties":{"kind":"piste","difficulty":"easy","name":null,"aerialway":null,"osm":"way/1471773148"},"geometry":{"type":"LineString","coordinates":[[12.26737,47.29498],[12.26694,47.29429],[12.26699,47.29364],[12.26786,47.29235]]}},{"type":"Feature","properties":{"kind":"piste","difficulty":"easy","name":null,"aerialway":null,"osm":"way/1471773149"},"geometry":{"type":"LineString","coordinates":[[12.26699,47.29364],[12.26836,47.29366],[12.27057,47.29419]]}},{"type":"Feature","properties":{"kind":"piste","difficulty":"advanced","name":null,"aerialway":null,"osm":"way/1471773150"},"geometry":{"type":"LineString","coordinates":[[12.26764,47.29497],[12.26857,47.29482],[12.26802,47.29435],[12.26754,47.29423],[12.26731,47.2946],[12.26759,47.29479],[12.26764,47.29497]]}},{"type":"Feature","properties":{"kind":"piste","difficulty":"easy","name":null,"aerialway":null,"osm":"way/1471773151"},"geometry":{"type":"LineString","coordinates":[[12.26838,47.29387],[12.26947,47.29415],[12.27058,47.29396],[12.26882,47.29359],[12.26838,47.29387]]}},{"type":"Feature","properties":{"kind":"piste","difficulty":"advanced","name":null,"aerialway":null,"osm":"way/1471773152"},"geometry":{"type":"LineString","coordinates":[[12.27753,47.28946],[12.27367,47.29027],[12.273,47.29031],[12.2733,47.29005],[12.27825,47.28904],[12.2785,47.28932],[12.27753,47.28946]]}},{"type":"Feature","properties":{"kind":"piste","difficulty":"easy","name":null,"aerialway":null,"osm":"way/1471773153"},"geometry":{"type":"LineString","coordinates":[[12.29121,47.28593],[12.29158,47.28817],[12.29264,47.2889],[12.29268,47.2885],[12.29199,47.28807],[12.29163,47.28695],[12.29165,47.28636],[12.29121,47.28593]]}},{"type":"Feature","properties":{"kind":"piste","difficulty":"easy","name":null,"aerialway":null,"osm":"way/1471773154"},"geometry":{"type":"LineString","coordinates":[[12.29127,47.28522],[12.29158,47.28739],[12.29178,47.28797],[12.29305,47.28895]]}},{"type":"Feature","properties":{"kind":"piste","difficulty":"easy","name":"Ganzeralm","aerialway":null,"osm":"way/1471773155"},"geometry":{"type":"LineString","coordinates":[[12.28069,47.28089],[12.28002,47.28102],[12.27968,47.28149],[12.2792,47.28328]]}},{"type":"Feature","properties":{"kind":"piste","difficulty":"easy","name":null,"aerialway":null,"osm":"way/1471773156"},"geometry":{"type":"LineString","coordinates":[[12.27863,47.28342],[12.2792,47.28328]]}},{"type":"Feature","properties":{"kind":"piste","difficulty":"intermediate","name":null,"aerialway":null,"osm":"way/1471773157"},"geometry":{"type":"LineString","coordinates":[[12.28254,47.28282],[12.28128,47.28267],[12.2809,47.28273],[12.28117,47.28297],[12.2828,47.28315],[12.28254,47.28282]]}},{"type":"Feature","properties":{"kind":"piste","difficulty":"intermediate","name":"Ganzeralm","aerialway":null,"osm":"way/1471773158"},"geometry":{"type":"LineString","coordinates":[[12.2818,47.28059],[12.2823,47.28108],[12.28153,47.28172],[12.28091,47.28291]]}},{"type":"Feature","properties":{"kind":"piste","difficulty":"easy","name":"Funslope / Familypark","aerialway":null,"osm":"way/1472052954"},"geometry":{"type":"LineString","coordinates":[[12.2675,47.28457],[12.26884,47.28476],[12.26845,47.28552],[12.26845,47.28567],[12.26861,47.28575],[12.26884,47.28569],[12.26888,47.28555],[12.26867,47.28566]]}},{"type":"Feature","properties":{"kind":"piste","difficulty":"easy","name":"Funslope / Familypark","aerialway":null,"osm":"way/1472052955"},"geometry":{"type":"LineString","coordinates":[[12.26867,47.28566],[12.26877,47.28576]]}},{"type":"Feature","properties":{"kind":"piste","difficulty":"easy","name":"Funslope / Familypark","aerialway":null,"osm":"way/1472052956"},"geometry":{"type":"LineString","coordinates":[[12.26877,47.28576],[12.26915,47.28579],[12.2696,47.28549],[12.27144,47.28506],[12.27197,47.28536],[12.27276,47.28526],[12.27399,47.28549]]}},{"type":"Feature","properties":{"kind":"piste","difficulty":"easy","name":null,"aerialway":null,"osm":"way/1472052957"},"geometry":{"type":"LineString","coordinates":[[12.26879,47.28474],[12.26975,47.28416]]}},{"type":"Feature","properties":{"kind":"piste","difficulty":"easy","name":null,"aerialway":null,"osm":"way/1472052958"},"geometry":{"type":"LineString","coordinates":[[12.27081,47.28433],[12.27117,47.28363]]}},{"type":"Feature","properties":{"kind":"piste","difficulty":"easy","name":null,"aerialway":null,"osm":"way/1472052959"},"geometry":{"type":"LineString","coordinates":[[12.27081,47.28433],[12.27124,47.28418],[12.27549,47.2854]]}},{"type":"Feature","properties":{"kind":"piste","difficulty":"intermediate","name":null,"aerialway":null,"osm":"way/1472052960"},"geometry":{"type":"LineString","coordinates":[[12.26637,47.28859],[12.26637,47.28896],[12.2669,47.28936],[12.27165,47.29109],[12.27201,47.29109],[12.27155,47.29136],[12.26689,47.2897],[12.26639,47.28938],[12.26621,47.2891],[12.26606,47.28863],[12.26637,47.28859]]}},{"type":"Feature","properties":{"kind":"piste","difficulty":"intermediate","name":"Frühmesser - Ganzeralm","aerialway":null,"osm":"way/1472052961"},"geometry":{"type":"LineString","coordinates":[[12.26836,47.29366],[12.27143,47.29169]]}},{"type":"Feature","properties":{"kind":"piste","difficulty":"easy","name":null,"aerialway":null,"osm":"way/1472052963"},"geometry":{"type":"LineString","coordinates":[[12.3002,47.27902],[12.30044,47.279]]}},{"type":"Feature","properties":{"kind":"piste","difficulty":"intermediate","name":null,"aerialway":null,"osm":"way/1472052964"},"geometry":{"type":"LineString","coordinates":[[12.29658,47.27979],[12.29814,47.2801],[12.2985,47.27992],[12.29669,47.2797],[12.29658,47.27979]]}},{"type":"Feature","properties":{"kind":"piste","difficulty":"easy","name":null,"aerialway":null,"osm":"way/1472052965"},"geometry":{"type":"LineString","coordinates":[[12.30013,47.27894],[12.2976,47.28041],[12.29773,47.28049],[12.29959,47.27957],[12.30043,47.27894],[12.30013,47.27894]]}},{"type":"Feature","properties":{"kind":"piste","difficulty":"intermediate","name":null,"aerialway":null,"osm":"way/1472052966"},"geometry":{"type":"LineString","coordinates":[[12.30013,47.27894],[12.30056,47.27748],[12.30088,47.27781],[12.30043,47.27894],[12.30013,47.27894]]}},{"type":"Feature","properties":{"kind":"piste","difficulty":"intermediate","name":null,"aerialway":null,"osm":"way/1472052967"},"geometry":{"type":"LineString","coordinates":[[12.30247,47.27303],[12.30285,47.27258]]}},{"type":"Feature","properties":{"kind":"piste","difficulty":"intermediate","name":null,"aerialway":null,"osm":"way/1472052968"},"geometry":{"type":"LineString","coordinates":[[12.30253,47.27301],[12.30243,47.27291],[12.30273,47.27259],[12.30289,47.27263],[12.30253,47.27301]]}},{"type":"Feature","properties":{"kind":"piste","difficulty":"easy","name":null,"aerialway":null,"osm":"way/1472058492"},"geometry":{"type":"LineString","coordinates":[[12.30302,47.27269],[12.30351,47.27242]]}},{"type":"Feature","properties":{"kind":"piste","difficulty":"easy","name":"Smaragdbahn Berg - Mitte","aerialway":null,"osm":"way/1472058493"},"geometry":{"type":"LineString","coordinates":[[12.30302,47.27269],[12.30317,47.27278],[12.30362,47.27264]]}},{"type":"Feature","properties":{"kind":"piste","difficulty":"easy","name":"14b-Talabfahrt Bramberg","aerialway":null,"osm":"way/1472058496"},"geometry":{"type":"LineString","coordinates":[[12.30414,47.27277],[12.30438,47.27261],[12.30504,47.27283]]}},{"type":"Feature","properties":{"kind":"piste","difficulty":"intermediate","name":null,"aerialway":null,"osm":"way/1472464057"},"geometry":{"type":"LineString","coordinates":[[12.28727,47.28204],[12.28745,47.28226]]}},{"type":"Feature","properties":{"kind":"piste","difficulty":"intermediate","name":null,"aerialway":null,"osm":"way/1472464058"},"geometry":{"type":"LineString","coordinates":[[12.30024,47.27456],[12.30055,47.27467]]}},{"type":"Feature","properties":{"kind":"piste","difficulty":"easy","name":null,"aerialway":null,"osm":"way/1472464059"},"geometry":{"type":"LineString","coordinates":[[12.30016,47.27474],[12.30024,47.27456]]}},{"type":"Feature","properties":{"kind":"piste","difficulty":"easy","name":null,"aerialway":null,"osm":"way/1472464060"},"geometry":{"type":"LineString","coordinates":[[12.30056,47.27748],[12.30004,47.27683],[12.29998,47.27646],[12.30009,47.27641],[12.30044,47.27676],[12.3006,47.27727],[12.30093,47.27768],[12.30088,47.27781],[12.30056,47.27748]]}},{"type":"Feature","properties":{"kind":"piste","difficulty":"easy","name":null,"aerialway":null,"osm":"way/1473393035"},"geometry":{"type":"LineString","coordinates":[[12.29651,47.27986],[12.29654,47.27975]]}},{"type":"Feature","properties":{"kind":"piste","difficulty":"intermediate","name":null,"aerialway":null,"osm":"way/1473393036"},"geometry":{"type":"LineString","coordinates":[[12.31292,47.27393],[12.31328,47.27397],[12.31303,47.27352],[12.31348,47.27285],[12.31379,47.2728],[12.31419,47.27326],[12.31431,47.27323],[12.31394,47.27276],[12.31347,47.27266],[12.31324,47.27276],[12.31284,47.27333],[12.31299,47.27382],[12.31292,47.27393]]}},{"type":"Feature","properties":{"kind":"piste","difficulty":"advanced","name":null,"aerialway":null,"osm":"way/1473393037"},"geometry":{"type":"LineString","coordinates":[[12.26643,47.2937],[12.26699,47.29364]]}},{"type":"Feature","properties":{"kind":"piste","difficulty":"easy","name":"Wildkogelbahn Berg - Ganzeralm","aerialway":null,"osm":"way/1473393038"},"geometry":{"type":"LineString","coordinates":[[12.27969,47.28055],[12.27771,47.28053],[12.27467,47.28166]]}},{"type":"Feature","properties":{"kind":"piste","difficulty":"intermediate","name":"Frühmesser - Ganzeralm","aerialway":null,"osm":"way/1479807776"},"geometry":{"type":"LineString","coordinates":[[12.26747,47.29507],[12.26767,47.29435],[12.26836,47.29366]]}},{"type":"Feature","properties":{"kind":"piste","difficulty":"easy","name":null,"aerialway":null,"osm":"way/1479807777"},"geometry":{"type":"LineString","coordinates":[[12.27624,47.28565],[12.27613,47.28602]]}},{"type":"Feature","properties":{"kind":"piste","difficulty":"easy","name":null,"aerialway":null,"osm":"way/1479807778"},"geometry":{"type":"LineString","coordinates":[[12.2757,47.28558],[12.27624,47.28565]]}},{"type":"Feature","properties":{"kind":"piste","difficulty":"easy","name":"Gensbichlalm - Braunkogel","aerialway":null,"osm":"way/1479807779"},"geometry":{"type":"LineString","coordinates":[[12.27529,47.28555],[12.2757,47.28558]]}},{"type":"Feature","properties":{"kind":"piste","difficulty":"easy","name":"Smaragdbahn Berg - Ganzer X-Press","aerialway":null,"osm":"way/1479807780"},"geometry":{"type":"LineString","coordinates":[[12.29127,47.28522],[12.29077,47.28558],[12.29024,47.28577],[12.28921,47.28574],[12.28832,47.28633],[12.2867,47.28615],[12.28617,47.28602],[12.28554,47.28565],[12.28352,47.28536],[12.28244,47.28602],[12.28179,47.28607],[12.28079,47.28592],[12.27933,47.28616]]}},{"type":"Feature","properties":{"kind":"piste","difficulty":"easy","name":"Smaragdbahn Berg - Ganzer X-Press","aerialway":null,"osm":"way/1479807781"},"geometry":{"type":"LineString","coordinates":[[12.27933,47.28616],[12.27838,47.28673]]}},{"type":"Feature","properties":{"kind":"piste","difficulty":"easy","name":"Pfeifferköpfl (\"Autobahn\")","aerialway":null,"osm":"way/1479807782"},"geometry":{"type":"LineString","coordinates":[[12.29283,47.28307],[12.29268,47.28299],[12.29255,47.28309],[12.29197,47.28464],[12.29127,47.28522]]}},{"type":"Feature","properties":{"kind":"piste","difficulty":"easy","name":null,"aerialway":null,"osm":"way/1479807783"},"geometry":{"type":"LineString","coordinates":[[12.29221,47.29438],[12.29204,47.29461]]}},{"type":"Feature","properties":{"kind":"lift","difficulty":null,"name":"Wildkogelbahn II","aerialway":"gondola","osm":"way/39207599"},"geometry":{"type":"LineString","coordinates":[[12.28093,47.27048],[12.28159,47.28035]]}},{"type":"Feature","properties":{"kind":"lift","difficulty":null,"name":"Ganzeralm","aerialway":"chair_lift","osm":"way/39207822"},"geometry":{"type":"LineString","coordinates":[[12.27904,47.2891],[12.28066,47.28104]]}},{"type":"Feature","properties":{"kind":"lift","difficulty":null,"name":"Gensbichlalm","aerialway":"chair_lift","osm":"way/39208765"},"geometry":{"type":"LineString","coordinates":[[12.26546,47.27529],[12.26592,47.28572]]}},{"type":"Feature","properties":{"kind":"lift","difficulty":null,"name":"Braunkogel","aerialway":"t-bar","osm":"way/39209093"},"geometry":{"type":"LineString","coordinates":[[12.27557,47.28824],[12.26567,47.28855]]}},{"type":"Feature","properties":{"kind":"lift","difficulty":null,"name":"Frühmesser X-Press","aerialway":"chair_lift","osm":"way/39209327"},"geometry":{"type":"LineString","coordinates":[[12.28513,47.29227],[12.26747,47.29507]]}},{"type":"Feature","properties":{"kind":"lift","difficulty":null,"name":"Wildkogelbahn I","aerialway":"gondola","osm":"way/39209432"},"geometry":{"type":"LineString","coordinates":[[12.28077,47.25439],[12.28082,47.2705],[12.28093,47.27048]]}},{"type":"Feature","properties":{"kind":"lift","difficulty":null,"name":"Ganzeralm","aerialway":"platter","osm":"way/39250773"},"geometry":{"type":"LineString","coordinates":[[12.27872,47.28342],[12.2796,47.28068]]}},{"type":"Feature","properties":{"kind":"lift","difficulty":null,"name":"Wolkenstein","aerialway":"platter","osm":"way/39250774"},"geometry":{"type":"LineString","coordinates":[[12.27528,47.2855],[12.27028,47.28419]]}},{"type":"Feature","properties":{"kind":"lift","difficulty":null,"name":"Smaragdbahn I","aerialway":"gondola","osm":"way/91607134"},"geometry":{"type":"LineString","coordinates":[[12.34061,47.27255],[12.30351,47.27242]]}},{"type":"Feature","properties":{"kind":"lift","difficulty":null,"name":"Smaragdbahn II","aerialway":"gondola","osm":"way/91607135"},"geometry":{"type":"LineString","coordinates":[[12.30351,47.27242],[12.29283,47.28307]]}},{"type":"Feature","properties":{"kind":"lift","difficulty":null,"name":"Preimis","aerialway":"t-bar","osm":"way/139014983"},"geometry":{"type":"LineString","coordinates":[[12.28435,47.24751],[12.28702,47.24367]]}},{"type":"Feature","properties":{"kind":"lift","difficulty":null,"name":"Eggerfeld","aerialway":"j-bar","osm":"way/209821824"},"geometry":{"type":"LineString","coordinates":[[12.27356,47.25279],[12.27197,47.2533]]}},{"type":"Feature","properties":{"kind":"lift","difficulty":null,"name":"Kaserboden","aerialway":"platter","osm":"way/444903368"},"geometry":{"type":"LineString","coordinates":[[12.2804,47.28289],[12.28138,47.28073]]}},{"type":"Feature","properties":{"kind":"lift","difficulty":null,"name":"Wildkogelscharte I","aerialway":"j-bar","osm":"way/444905580"},"geometry":{"type":"LineString","coordinates":[[12.29243,47.28456],[12.29285,47.28335]]}},{"type":"Feature","properties":{"kind":"lift","difficulty":null,"name":"Wildkogelscharte II","aerialway":"j-bar","osm":"way/444905581"},"geometry":{"type":"LineString","coordinates":[[12.29267,47.28544],[12.29233,47.2845]]}},{"type":"Feature","properties":{"kind":"lift","difficulty":null,"name":null,"aerialway":"magic_carpet","osm":"way/462852027"},"geometry":{"type":"LineString","coordinates":[[12.29203,47.28348],[12.29217,47.28311]]}},{"type":"Feature","properties":{"kind":"lift","difficulty":null,"name":"Pfeifferköpfl","aerialway":"chair_lift","osm":"way/478378623"},"geometry":{"type":"LineString","coordinates":[[12.28519,47.29141],[12.28776,47.28218]]}},{"type":"Feature","properties":{"kind":"lift","difficulty":null,"name":"Ganzer X-press","aerialway":"gondola","osm":"way/549394654"},"geometry":{"type":"LineString","coordinates":[[12.28633,47.29499],[12.28683,47.28184]]}},{"type":"Feature","properties":{"kind":"lift","difficulty":null,"name":"Dürrnbach","aerialway":"rope_tow","osm":"way/1137060112"},"geometry":{"type":"LineString","coordinates":[[12.26251,47.25218],[12.2639,47.25296]]}}]}