{"type":"FeatureCollection","features":[{"type":"Feature","properties":{"kind":"piste","difficulty":"intermediate","name":"Elferhütte","aerialway":null,"osm":"way/29356702"},"geometry":{"type":"LineString","coordinates":[[11.31927,47.09407],[11.32365,47.09849],[11.32478,47.09837],[11.3238,47.09691],[11.32372,47.09573],[11.32349,47.09534],[11.32255,47.09494],[11.32123,47.09493],[11.32091,47.09444],[11.32085,47.09397],[11.31927,47.09407]]}},{"type":"Feature","properties":{"kind":"piste","difficulty":"intermediate","name":"Hölltal","aerialway":null,"osm":"way/29356866"},"geometry":{"type":"LineString","coordinates":[[11.32365,47.09849],[11.32478,47.09837],[11.32547,47.09982],[11.32599,47.10197],[11.32535,47.10253],[11.32584,47.10275],[11.32554,47.10291],[11.32408,47.10242],[11.32395,47.10194],[11.32421,47.10183],[11.32448,47.10074],[11.32444,47.10034],[11.32428,47.09997],[11.32346,47.09895],[11.32365,47.09849]]}},{"type":"Feature","properties":{"kind":"piste","difficulty":"freeride","name":"Skiroute Pinnistal","aerialway":null,"osm":"way/324346077"},"geometry":{"type":"LineString","coordinates":[[11.32482,47.09847],[11.3257,47.09873],[11.32646,47.09834],[11.32691,47.09768],[11.32685,47.09722],[11.32657,47.09685],[11.32702,47.09605],[11.32703,47.09578],[11.3282,47.09535],[11.32859,47.09494],[11.32857,47.09468],[11.32891,47.09418],[11.32895,47.09468],[11.32924,47.09498],[11.32917,47.09554],[11.32883,47.096],[11.32846,47.09623],[11.32842,47.09666],[11.32876,47.09703],[11.32961,47.0974],[11.32983,47.09767],[11.33018,47.09918],[11.33077,47.09828],[11.3308,47.09793],[11.33025,47.0967],[11.33154,47.09647],[11.33212,47.09622],[11.33281,47.09486],[11.33268,47.0945],[11.33307,47.09419],[11.33293,47.0945],[11.33341,47.09484],[11.33354,47.09542],[11.33349,47.09639],[11.33361,47.09664],[11.33356,47.09684],[11.33313,47.09711],[11.33311,47.09724],[11.33374,47.09828],[11.33346,47.10047],[11.33376,47.10026],[11.33457,47.09924],[11.33519,47.09895],[11.33539,47.09902],[11.33503,47.09949],[11.3352,47.10046],[11.33519,47.10123],[11.3348,47.10237],[11.33505,47.10311],[11.33497,47.10363],[11.33533,47.10401],[11.33619,47.10623],[11.33708,47.1068]]}},{"type":"Feature","properties":{"kind":"piste","difficulty":"freeride","name":"Skiroute Pinnistal","aerialway":null,"osm":"way/324346078"},"geometry":{"type":"LineString","coordinates":[[11.33708,47.1068],[11.33664,47.10712],[11.33686,47.10723],[11.33729,47.10714]]}},{"type":"Feature","properties":{"kind":"piste","difficulty":"freeride","name":"Skiroute Pinnistal","aerialway":null,"osm":"way/324346079"},"geometry":{"type":"LineString","coordinates":[[11.33254,47.11361],[11.3325,47.11398],[11.33224,47.1144],[11.33127,47.11502],[11.33107,47.11532],[11.33113,47.11548]]}},{"type":"Feature","properties":{"kind":"piste","difficulty":"freeride","name":"Skiroute Pinnistal","aerialway":null,"osm":"way/324346081"},"geometry":{"type":"LineString","coordinates":[[11.33078,47.11603],[11.33094,47.11633]]}},{"type":"Feature","properties":{"kind":"piste","difficulty":"freeride","name":"Skiroute Pinnistal","aerialway":null,"osm":"way/324346083"},"geometry":{"type":"LineString","coordinates":[[11.33094,47.11633],[11.33085,47.11652],[11.3303,47.11671],[11.3298,47.11715],[11.32908,47.11744],[11.32863,47.11793],[11.32868,47.11818],[11.32805,47.11864],[11.32722,47.11875],[11.32677,47.11899]]}},{"type":"Feature","properties":{"kind":"piste","difficulty":"intermediate","name":"Talbabfahrt","aerialway":null,"osm":"way/324354149"},"geometry":{"type":"LineString","coordinates":[[11.32408,47.10242],[11.32395,47.10194],[11.32265,47.10199],[11.32195,47.10211],[11.32161,47.1024],[11.32052,47.1028],[11.31951,47.10277],[11.31947,47.10293],[11.32094,47.10309],[11.3223,47.10284],[11.3224,47.10271],[11.32217,47.10256],[11.32255,47.10229],[11.32343,47.10222],[11.32408,47.10242]]}},{"type":"Feature","properties":{"kind":"piste","difficulty":"intermediate","name":"Hölltal","aerialway":null,"osm":"way/324354151"},"geometry":{"type":"LineString","coordinates":[[11.32517,47.09757],[11.3251,47.09778],[11.32526,47.09892],[11.32502,47.0999],[11.32552,47.10075],[11.32558,47.10117],[11.3255,47.10163],[11.32503,47.10242],[11.32515,47.10275],[11.32632,47.10326]]}},{"type":"Feature","properties":{"kind":"piste","difficulty":"intermediate","name":"1 Abfahrt Elferhütte","aerialway":null,"osm":"way/324354152"},"geometry":{"type":"LineString","coordinates":[[11.32008,47.09488],[11.31917,47.09487],[11.3189,47.0947],[11.31889,47.09422],[11.31918,47.09416],[11.31912,47.09448],[11.31927,47.09466],[11.32008,47.09488]]}},{"type":"Feature","properties":{"kind":"piste","difficulty":"intermediate","name":"Talbabfahrt Variante","aerialway":null,"osm":"way/324495852"},"geometry":{"type":"LineString","coordinates":[[11.32033,47.1069],[11.31848,47.10683],[11.31788,47.10696],[11.31848,47.10706],[11.31911,47.10742],[11.31921,47.10765],[11.31911,47.10827],[11.31921,47.10876]]}},{"type":"Feature","properties":{"kind":"piste","difficulty":"intermediate","name":"Talabfahrt","aerialway":null,"osm":"way/324497111"},"geometry":{"type":"LineString","coordinates":[[11.32088,47.10801],[11.32064,47.108],[11.32054,47.10827],[11.31996,47.10852],[11.31944,47.1084],[11.31889,47.10846],[11.31812,47.10916],[11.31774,47.10933],[11.31767,47.1096],[11.31629,47.11019],[11.31636,47.11035],[11.31664,47.1105],[11.31731,47.11054],[11.31809,47.1098],[11.3191,47.10925],[11.31989,47.10947],[11.32095,47.10853],[11.32118,47.10806],[11.32088,47.10801]]}},{"type":"Feature","properties":{"kind":"piste","difficulty":"intermediate","name":"Talbabfahrt","aerialway":null,"osm":"way/324497112"},"geometry":{"type":"LineString","coordinates":[[11.32342,47.09861],[11.32384,47.09867],[11.32448,47.09933],[11.32536,47.10193],[11.32469,47.10216],[11.32257,47.10217],[11.32084,47.10293],[11.31864,47.10277],[11.31812,47.10286],[11.31734,47.10429],[11.31735,47.1048],[11.31772,47.10523],[11.32056,47.10707],[11.32087,47.10767],[11.32087,47.10807],[11.32066,47.10846],[11.32019,47.10876],[11.31887,47.10882],[11.31741,47.11011],[11.3158,47.1105],[11.31502,47.11026],[11.31249,47.10984],[11.31296,47.11026],[11.31241,47.11049],[11.31264,47.11074],[11.31238,47.11095]]}},{"type":"Feature","properties":{"kind":"piste","difficulty":"intermediate","name":"Talbabfahrt","aerialway":null,"osm":"way/324758774"},"geometry":{"type":"LineString","coordinates":[[11.31947,47.10293],[11.31865,47.10285],[11.31802,47.10317],[11.31824,47.10351],[11.31758,47.10462],[11.31797,47.1053],[11.31826,47.10551],[11.31918,47.10589],[11.3192,47.10602],[11.32013,47.10644],[11.32023,47.10662],[11.32073,47.10678],[11.32061,47.10696],[11.32128,47.10756],[11.32101,47.10788],[11.32118,47.10806],[11.32064,47.108],[11.32047,47.10717],[11.31755,47.1053],[11.31689,47.10437],[11.31769,47.10325],[11.31772,47.10249],[11.31786,47.10241],[11.31951,47.10277],[11.31947,47.10293]]}},{"type":"Feature","properties":{"kind":"piste","difficulty":"freeride","name":"Skiroute Pinnistal","aerialway":null,"osm":"way/328838927"},"geometry":{"type":"LineString","coordinates":[[11.33729,47.10714],[11.33658,47.10764],[11.33605,47.10843],[11.33571,47.1098],[11.33518,47.1107],[11.33267,47.1125],[11.33249,47.1129],[11.33254,47.11361]]}},{"type":"Feature","properties":{"kind":"piste","difficulty":"novice","name":null,"aerialway":null,"osm":"way/408653334"},"geometry":{"type":"LineString","coordinates":[[11.30781,47.11148],[11.3082,47.11144]]}},{"type":"Feature","properties":{"kind":"piste","difficulty":"intermediate","name":"Elferhütte","aerialway":null,"osm":"way/744137967"},"geometry":{"type":"LineString","coordinates":[[11.31932,47.09418],[11.32004,47.09444],[11.32101,47.0953],[11.32226,47.09603],[11.32252,47.0963],[11.32274,47.0969],[11.3237,47.0977],[11.32376,47.09828],[11.3236,47.09845],[11.32341,47.0984]]}},{"type":"Feature","properties":{"kind":"piste","difficulty":"intermediate","name":"Talbabfahrt","aerialway":null,"osm":"way/744137969"},"geometry":{"type":"LineString","coordinates":[[11.32019,47.10876],[11.31991,47.10917],[11.32016,47.10973],[11.31988,47.10999],[11.31833,47.11043],[11.3166,47.11034]]}},{"type":"Feature","properties":{"kind":"piste","difficulty":"intermediate","name":"Hölltal","aerialway":null,"osm":"way/877656808"},"geometry":{"type":"LineString","coordinates":[[11.32532,47.09741],[11.32567,47.09721],[11.32688,47.09826],[11.32772,47.09835],[11.3278,47.09896],[11.32551,47.10003],[11.32482,47.09847],[11.32532,47.09741]]}},{"type":"Feature","properties":{"kind":"piste","difficulty":"intermediate","name":"Hölltal","aerialway":null,"osm":"way/877656809"},"geometry":{"type":"LineString","coordinates":[[11.32528,47.09759],[11.32575,47.09791],[11.32644,47.09873],[11.32643,47.09925],[11.32547,47.09982]]}},{"type":"Feature","properties":{"kind":"piste","difficulty":"novice","name":null,"aerialway":null,"osm":"way/1348257370"},"geometry":{"type":"LineString","coordinates":[[11.30596,47.11188],[11.30637,47.1119],[11.30677,47.1117]]}},{"type":"Feature","properties":{"kind":"piste","difficulty":"freeride","name":"Skiroute Pinnistal","aerialway":null,"osm":"way/1421980715"},"geometry":{"type":"LineString","coordinates":[[11.33113,47.11548],[11.33117,47.1156],[11.33078,47.11603]]}},{"type":"Feature","properties":{"kind":"lift","difficulty":null,"name":"Panoramabahn Elfer","aerialway":"gondola","osm":"way/26778085"},"geometry":{"type":"LineString","coordinates":[[11.31238,47.11095],[11.32342,47.09861]]}},{"type":"Feature","properties":{"kind":"lift","difficulty":null,"name":"Elferhütte","aerialway":"t-bar","osm":"way/29356639"},"geometry":{"type":"LineString","coordinates":[[11.32345,47.09845],[11.31886,47.0937]]}},{"type":"Feature","properties":{"kind":"lift","difficulty":null,"name":"Hölltal","aerialway":"t-bar","osm":"way/29356714"},"geometry":{"type":"LineString","coordinates":[[11.32633,47.10332],[11.32502,47.09683]]}},{"type":"Feature","properties":{"kind":"lift","difficulty":null,"name":null,"aerialway":"magic_carpet","osm":"way/408653333"},"geometry":{"type":"LineString","coordinates":[[11.3082,47.11144],[11.30781,47.11148]]}},{"type":"Feature","properties":{"kind":"lift","difficulty":null,"name":null,"aerialway":"magic_carpet","osm":"way/1348257368"},"geometry":{"type":"LineString","coordinates":[[11.30677,47.1117],[11.30596,47.11188]]}}]}