{"type":"FeatureCollection","features":[{"type":"Feature","properties":{"kind":"piste","difficulty":"intermediate","name":null,"aerialway":null,"osm":"way/49244719"},"geometry":{"type":"LineString","coordinates":[[10.93219,47.21228],[10.93237,47.21259],[10.93238,47.21291],[10.93076,47.21606],[10.92996,47.21674],[10.92849,47.21782],[10.92813,47.21792],[10.92698,47.2178],[10.92612,47.21755],[10.92587,47.21762],[10.92589,47.2179],[10.92659,47.21863],[10.92745,47.21905]]}},{"type":"Feature","properties":{"kind":"piste","difficulty":"easy","name":null,"aerialway":null,"osm":"way/49244721"},"geometry":{"type":"LineString","coordinates":[[10.95215,47.21607],[10.95224,47.21615],[10.95201,47.21632],[10.95146,47.21643],[10.94993,47.2164],[10.94885,47.21662],[10.94705,47.2173],[10.94619,47.21743],[10.9456,47.21698]]}},{"type":"Feature","properties":{"kind":"piste","difficulty":"intermediate","name":"Brunnenkopf Süd","aerialway":null,"osm":"way/49244722"},"geometry":{"type":"LineString","coordinates":[[10.93609,47.20779],[10.93473,47.20716],[10.934,47.20727],[10.93347,47.2075],[10.93325,47.20802],[10.93326,47.20893],[10.93353,47.20967]]}},{"type":"Feature","properties":{"kind":"piste","difficulty":"intermediate","name":"Brunnenkopf","aerialway":null,"osm":"way/49244724"},"geometry":{"type":"LineString","coordinates":[[10.93589,47.20764],[10.93554,47.2079],[10.93539,47.20832],[10.93567,47.20875]]}},{"type":"Feature","properties":{"kind":"piste","difficulty":"intermediate","name":"Brunnenkopf","aerialway":null,"osm":"way/49244725"},"geometry":{"type":"LineString","coordinates":[[10.93609,47.20779],[10.93559,47.20917],[10.93544,47.20927],[10.93464,47.2096],[10.93353,47.20967],[10.93161,47.21045],[10.93018,47.21129],[10.92986,47.21137],[10.92919,47.21115],[10.92869,47.21057]]}},{"type":"Feature","properties":{"kind":"piste","difficulty":"intermediate","name":"Brunnenkopf","aerialway":null,"osm":"way/49244727"},"geometry":{"type":"LineString","coordinates":[[10.93184,47.21206],[10.9318,47.21187],[10.93042,47.21117]]}},{"type":"Feature","properties":{"kind":"piste","difficulty":"easy","name":null,"aerialway":null,"osm":"way/49244728"},"geometry":{"type":"LineString","coordinates":[[10.93353,47.20967],[10.93311,47.21103],[10.93311,47.21165],[10.93276,47.21202],[10.93219,47.21228]]}},{"type":"Feature","properties":{"kind":"piste","difficulty":"easy","name":null,"aerialway":null,"osm":"way/49244730"},"geometry":{"type":"LineString","coordinates":[[10.93421,47.21297],[10.93423,47.21281],[10.93402,47.21285],[10.9341,47.21334],[10.93586,47.21753],[10.9361,47.21761],[10.93706,47.21858],[10.93543,47.21844],[10.93411,47.21814],[10.9328,47.21732]]}},{"type":"Feature","properties":{"kind":"piste","difficulty":"intermediate","name":null,"aerialway":null,"osm":"way/49244732"},"geometry":{"type":"LineString","coordinates":[[10.94158,47.21969],[10.94137,47.21993],[10.94162,47.22]]}},{"type":"Feature","properties":{"kind":"piste","difficulty":"intermediate","name":"Brunnenkopf","aerialway":null,"osm":"way/50555609"},"geometry":{"type":"LineString","coordinates":[[10.93539,47.20832],[10.93502,47.20867],[10.93464,47.2096],[10.93406,47.2105],[10.93416,47.21109]]}},{"type":"Feature","properties":{"kind":"piste","difficulty":"easy","name":"Skiweg Morhenkopf","aerialway":null,"osm":"way/50555611"},"geometry":{"type":"LineString","coordinates":[[10.93728,47.21486],[10.93684,47.21494],[10.93497,47.21332],[10.93468,47.21287],[10.93446,47.2116],[10.93416,47.21109]]}},{"type":"Feature","properties":{"kind":"piste","difficulty":"easy","name":null,"aerialway":null,"osm":"way/93714378"},"geometry":{"type":"LineString","coordinates":[[10.93219,47.21228],[10.93218,47.21275],[10.9311,47.21306],[10.9291,47.21468],[10.92756,47.21533],[10.92561,47.21575],[10.92485,47.2154],[10.92455,47.2154]]}},{"type":"Feature","properties":{"kind":"piste","difficulty":"intermediate","name":"Ochsengarten","aerialway":null,"osm":"way/93716245"},"geometry":{"type":"LineString","coordinates":[[10.92123,47.21621],[10.92132,47.21675],[10.92173,47.21706],[10.92229,47.21729],[10.92428,47.21759]]}},{"type":"Feature","properties":{"kind":"piste","difficulty":"easy","name":null,"aerialway":null,"osm":"way/93716564"},"geometry":{"type":"LineString","coordinates":[[10.95215,47.21607],[10.95094,47.21572],[10.94891,47.21577],[10.9462,47.2165],[10.9456,47.21698]]}},{"type":"Feature","properties":{"kind":"piste","difficulty":"easy","name":null,"aerialway":null,"osm":"way/93716565"},"geometry":{"type":"LineString","coordinates":[[10.93586,47.21753],[10.93487,47.21707],[10.93314,47.21655],[10.93277,47.21629]]}},{"type":"Feature","properties":{"kind":"piste","difficulty":"intermediate","name":"Wetterkreuzbahn","aerialway":null,"osm":"way/150275371"},"geometry":{"type":"LineString","coordinates":[[10.94846,47.21127],[10.94882,47.21189],[10.95061,47.21285],[10.95082,47.21309],[10.95065,47.21363],[10.95209,47.21534],[10.95215,47.21607]]}},{"type":"Feature","properties":{"kind":"piste","difficulty":"advanced","name":"Wetterkreuzbahn","aerialway":null,"osm":"way/150275373"},"geometry":{"type":"LineString","coordinates":[[10.95062,47.21347],[10.95006,47.21398],[10.94721,47.21563],[10.9462,47.2165]]}},{"type":"Feature","properties":{"kind":"piste","difficulty":"easy","name":"Ochsengarten","aerialway":null,"osm":"way/201629814"},"geometry":{"type":"LineString","coordinates":[[10.93667,47.22527],[10.93592,47.22636],[10.93519,47.22696],[10.93473,47.22724],[10.93462,47.22718]]}},{"type":"Feature","properties":{"kind":"piste","difficulty":"intermediate","name":null,"aerialway":null,"osm":"way/201629815"},"geometry":{"type":"LineString","coordinates":[[10.93069,47.212],[10.92986,47.21137],[10.92883,47.21138]]}},{"type":"Feature","properties":{"kind":"piste","difficulty":"intermediate","name":"Brunnenkopf Süd","aerialway":null,"osm":"way/201629816"},"geometry":{"type":"LineString","coordinates":[[10.93326,47.20827],[10.93041,47.2107],[10.92977,47.21109],[10.92919,47.21115]]}},{"type":"Feature","properties":{"kind":"piste","difficulty":"easy","name":null,"aerialway":null,"osm":"way/201629817"},"geometry":{"type":"LineString","coordinates":[[10.93706,47.21858],[10.94051,47.21719],[10.94118,47.21728],[10.94075,47.21746]]}},{"type":"Feature","properties":{"kind":"piste","difficulty":"intermediate","name":null,"aerialway":null,"osm":"way/201629818"},"geometry":{"type":"LineString","coordinates":[[10.92123,47.21621],[10.92009,47.21577],[10.91877,47.21547],[10.91741,47.21498],[10.91721,47.21478],[10.91711,47.21429],[10.91686,47.21387],[10.91768,47.2129],[10.91779,47.21244],[10.91845,47.21184],[10.9192,47.21167],[10.91961,47.21121],[10.91976,47.21079],[10.92013,47.21047],[10.91976,47.21051],[10.91915,47.21091],[10.91835,47.21114],[10.91829,47.21108],[10.91878,47.21071],[10.91891,47.21038],[10.91882,47.21029],[10.9176,47.2106],[10.91752,47.21054],[10.9181,47.21015]]}},{"type":"Feature","properties":{"kind":"piste","difficulty":"easy","name":null,"aerialway":null,"osm":"way/201629819"},"geometry":{"type":"LineString","coordinates":[[10.93219,47.21228],[10.93271,47.21257],[10.93276,47.21274],[10.93278,47.21404],[10.9331,47.21539],[10.93277,47.21629],[10.9328,47.21732]]}},{"type":"Feature","properties":{"kind":"piste","difficulty":"easy","name":null,"aerialway":null,"osm":"way/201629820"},"geometry":{"type":"LineString","coordinates":[[10.93277,47.21629],[10.93076,47.21606]]}},{"type":"Feature","properties":{"kind":"piste","difficulty":"intermediate","name":null,"aerialway":null,"osm":"way/258599443"},"geometry":{"type":"LineString","coordinates":[[10.9181,47.21015],[10.91859,47.20906],[10.91858,47.20871],[10.9166,47.20807],[10.91657,47.20782],[10.91675,47.20753]]}},{"type":"Feature","properties":{"kind":"piste","difficulty":"advanced","name":null,"aerialway":null,"osm":"way/389071349"},"geometry":{"type":"LineString","coordinates":[[10.93708,47.2149],[10.93723,47.21535],[10.93757,47.21568],[10.93758,47.21593],[10.93752,47.21664],[10.9371,47.21786],[10.93704,47.21858]]}},{"type":"Feature","properties":{"kind":"piste","difficulty":"intermediate","name":"Wetterkreuz Couloir","aerialway":null,"osm":"way/675118341"},"geometry":{"type":"LineString","coordinates":[[10.94864,47.2116],[10.94817,47.21241],[10.94785,47.21367],[10.94744,47.21422],[10.94653,47.21463],[10.94559,47.21488],[10.94444,47.21556],[10.94378,47.21612],[10.94269,47.21808]]}},{"type":"Feature","properties":{"kind":"piste","difficulty":"easy","name":"Skiweg Morhenkopf","aerialway":null,"osm":"way/704826455"},"geometry":{"type":"LineString","coordinates":[[10.93279,47.2108],[10.93277,47.21105],[10.93255,47.21122],[10.93166,47.21149],[10.9313,47.21146]]}},{"type":"Feature","properties":{"kind":"piste","difficulty":"easy","name":"Skiweg Morhenkopf","aerialway":null,"osm":"way/704826456"},"geometry":{"type":"LineString","coordinates":[[10.93277,47.21105],[10.93266,47.21153],[10.93219,47.21228]]}},{"type":"Feature","properties":{"kind":"piste","difficulty":"easy","name":"Skiroute","aerialway":null,"osm":"way/704826457"},"geometry":{"type":"LineString","coordinates":[[10.92469,47.21537],[10.92388,47.21534],[10.92405,47.21437],[10.92397,47.21435],[10.92319,47.21542],[10.92316,47.2159],[10.92294,47.2157]]}},{"type":"Feature","properties":{"kind":"piste","difficulty":"easy","name":"Skiroute","aerialway":null,"osm":"way/704826458"},"geometry":{"type":"LineString","coordinates":[[10.93604,47.22523],[10.93384,47.22448],[10.93239,47.22432],[10.93152,47.22443],[10.9307,47.22413],[10.92951,47.22403],[10.93209,47.22627]]}},{"type":"Feature","properties":{"kind":"piste","difficulty":"advanced","name":"Wetterkreuz Couloir","aerialway":null,"osm":"way/704826459"},"geometry":{"type":"LineString","coordinates":[[10.94922,47.21212],[10.94885,47.21281],[10.94869,47.2136],[10.94795,47.21451],[10.94609,47.21585],[10.94593,47.21667]]}},{"type":"Feature","properties":{"kind":"piste","difficulty":"intermediate","name":"Ochsengarten","aerialway":null,"osm":"way/704826460"},"geometry":{"type":"LineString","coordinates":[[10.93594,47.22567],[10.93562,47.2266]]}},{"type":"Feature","properties":{"kind":"piste","difficulty":"easy","name":"Ochsengarten","aerialway":null,"osm":"way/704826461"},"geometry":{"type":"LineString","coordinates":[[10.93519,47.22696],[10.93527,47.22745],[10.93584,47.22783],[10.9358,47.22791],[10.9347,47.22791],[10.93369,47.22767],[10.93281,47.22724]]}},{"type":"Feature","properties":{"kind":"piste","difficulty":"easy","name":"Ochsengarten","aerialway":null,"osm":"way/704826462"},"geometry":{"type":"LineString","coordinates":[[10.93562,47.2266],[10.93849,47.22824],[10.93858,47.22842],[10.93839,47.22865]]}},{"type":"Feature","properties":{"kind":"piste","difficulty":"intermediate","name":null,"aerialway":null,"osm":"way/764208082"},"geometry":{"type":"LineString","coordinates":[[10.9456,47.21698],[10.94508,47.21732],[10.94426,47.21743],[10.94274,47.21805],[10.94212,47.21846],[10.94173,47.21906],[10.94169,47.21961],[10.94103,47.21994],[10.94075,47.21986]]}},{"type":"Feature","properties":{"kind":"piste","difficulty":"intermediate","name":null,"aerialway":null,"osm":"way/764208083"},"geometry":{"type":"LineString","coordinates":[[10.94075,47.21746],[10.94137,47.21846],[10.94087,47.21894],[10.94067,47.21891]]}},{"type":"Feature","properties":{"kind":"piste","difficulty":"intermediate","name":"Brunnenkopf","aerialway":null,"osm":"way/764208085"},"geometry":{"type":"LineString","coordinates":[[10.93416,47.21109],[10.93353,47.21203],[10.9333,47.21219],[10.93219,47.21228]]}},{"type":"Feature","properties":{"kind":"piste","difficulty":"intermediate","name":null,"aerialway":null,"osm":"way/764208088"},"geometry":{"type":"LineString","coordinates":[[10.93416,47.21109],[10.93327,47.21064]]}},{"type":"Feature","properties":{"kind":"piste","difficulty":"easy","name":null,"aerialway":null,"osm":"way/764208089"},"geometry":{"type":"LineString","coordinates":[[10.93424,47.21285],[10.93394,47.21232],[10.93347,47.21207]]}},{"type":"Feature","properties":{"kind":"piste","difficulty":"intermediate","name":"Ochsengarten","aerialway":null,"osm":"way/764208090"},"geometry":{"type":"LineString","coordinates":[[10.93534,47.22348],[10.9351,47.22413],[10.93539,47.22464],[10.93604,47.22523],[10.93607,47.22549],[10.93547,47.22604],[10.93484,47.22627],[10.93372,47.22612],[10.93209,47.22627],[10.93192,47.22642],[10.93206,47.22681],[10.93251,47.22719],[10.93281,47.22724]]}},{"type":"Feature","properties":{"kind":"piste","difficulty":"easy","name":"Ochsengarten","aerialway":null,"osm":"way/764208091"},"geometry":{"type":"LineString","coordinates":[[10.92428,47.21759],[10.92745,47.21905],[10.92876,47.21948],[10.92993,47.21961],[10.93018,47.22008],[10.93062,47.22041],[10.93214,47.22078],[10.93306,47.22129],[10.93442,47.22248],[10.93534,47.22348]]}},{"type":"Feature","properties":{"kind":"piste","difficulty":"intermediate","name":null,"aerialway":null,"osm":"way/764208092"},"geometry":{"type":"LineString","coordinates":[[10.92455,47.2154],[10.92258,47.21616],[10.92123,47.21621]]}},{"type":"Feature","properties":{"kind":"piste","difficulty":"intermediate","name":"Skiroute","aerialway":null,"osm":"way/764208093"},"geometry":{"type":"LineString","coordinates":[[10.92294,47.2157],[10.92274,47.21525],[10.92305,47.21465],[10.92171,47.21563],[10.92009,47.21577]]}},{"type":"Feature","properties":{"kind":"piste","difficulty":"easy","name":null,"aerialway":null,"osm":"way/764208094"},"geometry":{"type":"LineString","coordinates":[[10.93148,47.21616],[10.92883,47.21797],[10.92842,47.21807]]}},{"type":"Feature","properties":{"kind":"piste","difficulty":"novice","name":"Übungshang","aerialway":null,"osm":"way/778508307"},"geometry":{"type":"LineString","coordinates":[[10.93244,47.21189],[10.93152,47.21151]]}},{"type":"Feature","properties":{"kind":"piste","difficulty":"intermediate","name":"Brunnenkopf","aerialway":null,"osm":"way/778508308"},"geometry":{"type":"LineString","coordinates":[[10.93382,47.21163],[10.93256,47.21172]]}},{"type":"Feature","properties":{"kind":"piste","difficulty":"novice","name":"Übungshang","aerialway":null,"osm":"way/778508309"},"geometry":{"type":"LineString","coordinates":[[10.93261,47.21161],[10.93209,47.21134]]}},{"type":"Feature","properties":{"kind":"piste","difficulty":"novice","name":null,"aerialway":null,"osm":"way/778508310"},"geometry":{"type":"LineString","coordinates":[[10.93284,47.21194],[10.93244,47.21189]]}},{"type":"Feature","properties":{"kind":"piste","difficulty":"intermediate","name":null,"aerialway":null,"osm":"way/778508311"},"geometry":{"type":"LineString","coordinates":[[10.93347,47.21207],[10.93292,47.21185]]}},{"type":"Feature","properties":{"kind":"piste","difficulty":"intermediate","name":"Ziehweg schmal","aerialway":null,"osm":"way/778508312"},"geometry":{"type":"LineString","coordinates":[[10.9457,47.21706],[10.94446,47.21593],[10.94422,47.21585],[10.94367,47.21619]]}},{"type":"Feature","properties":{"kind":"piste","difficulty":"easy","name":"Ziehweg","aerialway":null,"osm":"way/778508313"},"geometry":{"type":"LineString","coordinates":[[10.94361,47.2162],[10.94283,47.21642],[10.942,47.21701],[10.94058,47.21737],[10.9391,47.21865],[10.93925,47.21875],[10.93959,47.21856],[10.94093,47.21823],[10.9416,47.21856],[10.94173,47.21906]]}},{"type":"Feature","properties":{"kind":"piste","difficulty":"intermediate","name":null,"aerialway":null,"osm":"way/778509921"},"geometry":{"type":"LineString","coordinates":[[10.94104,47.21916],[10.94053,47.21908],[10.94081,47.21875]]}},{"type":"Feature","properties":{"kind":"piste","difficulty":"intermediate","name":null,"aerialway":null,"osm":"way/778509922"},"geometry":{"type":"LineString","coordinates":[[10.94153,47.2185],[10.94149,47.2187],[10.94104,47.21916]]}},{"type":"Feature","properties":{"kind":"piste","difficulty":"easy","name":null,"aerialway":null,"osm":"way/778509923"},"geometry":{"type":"LineString","coordinates":[[10.94104,47.21916],[10.94096,47.21995]]}},{"type":"Feature","properties":{"kind":"piste","difficulty":"intermediate","name":null,"aerialway":null,"osm":"way/778511663"},"geometry":{"type":"LineString","coordinates":[[10.93326,47.21045],[10.93226,47.21077]]}},{"type":"Feature","properties":{"kind":"piste","difficulty":"easy","name":null,"aerialway":null,"osm":"way/778511664"},"geometry":{"type":"LineString","coordinates":[[10.93279,47.2108],[10.93266,47.21064]]}},{"type":"Feature","properties":{"kind":"piste","difficulty":"easy","name":null,"aerialway":null,"osm":"way/778511665"},"geometry":{"type":"LineString","coordinates":[[10.93226,47.21077],[10.93147,47.21109],[10.9313,47.21146]]}},{"type":"Feature","properties":{"kind":"piste","difficulty":"novice","name":"Widi","aerialway":null,"osm":"way/858282924"},"geometry":{"type":"LineString","coordinates":[[10.93156,47.21],[10.93173,47.21014],[10.93142,47.21038],[10.93099,47.21064],[10.93075,47.2107],[10.93067,47.21061]]}},{"type":"Feature","properties":{"kind":"piste","difficulty":"advanced","name":"Balbach-Ochsengarten","aerialway":null,"osm":"way/1025474898"},"geometry":{"type":"LineString","coordinates":[[10.94073,47.21913],[10.93986,47.22021],[10.93953,47.22033],[10.93874,47.21997],[10.937,47.22114],[10.93649,47.22174],[10.93606,47.22309],[10.93603,47.22371],[10.93512,47.22396]]}},{"type":"Feature","properties":{"kind":"lift","difficulty":null,"name":"Acherkogelbahn","aerialway":"gondola","osm":"way/27755623"},"geometry":{"type":"LineString","coordinates":[[10.90307,47.19987],[10.93184,47.21206]]}},{"type":"Feature","properties":{"kind":"lift","difficulty":null,"name":"Ochsengartenbahn","aerialway":"gondola","osm":"way/30816450"},"geometry":{"type":"LineString","coordinates":[[10.93281,47.22724],[10.9319,47.21277]]}},{"type":"Feature","properties":{"kind":"lift","difficulty":null,"name":"Kühtaile","aerialway":"chair_lift","osm":"way/30816451"},"geometry":{"type":"LineString","coordinates":[[10.92849,47.21782],[10.93421,47.21297]]}},{"type":"Feature","properties":{"kind":"lift","difficulty":null,"name":"Mohrenkopf","aerialway":"chair_lift","osm":"way/30816521"},"geometry":{"type":"LineString","coordinates":[[10.94075,47.21986],[10.93728,47.21486]]}},{"type":"Feature","properties":{"kind":"lift","difficulty":null,"name":"Balbach","aerialway":"chair_lift","osm":"way/30816522"},"geometry":{"type":"LineString","coordinates":[[10.94162,47.22],[10.95215,47.21607]]}},{"type":"Feature","properties":{"kind":"lift","difficulty":null,"name":"Brunnenkopf","aerialway":"chair_lift","osm":"way/30816523"},"geometry":{"type":"LineString","coordinates":[[10.92869,47.21057],[10.93609,47.20779]]}},{"type":"Feature","properties":{"kind":"lift","difficulty":null,"name":"Zirbenlift","aerialway":"platter","osm":"way/30816525"},"geometry":{"type":"LineString","coordinates":[[10.9328,47.21732],[10.93639,47.21756]]}},{"type":"Feature","properties":{"kind":"lift","difficulty":null,"name":"Acherkogel Sektion II","aerialway":"chair_lift","osm":"way/93716244"},"geometry":{"type":"LineString","coordinates":[[10.91675,47.20753],[10.93179,47.21219]]}},{"type":"Feature","properties":{"kind":"lift","difficulty":null,"name":"Wetterkreuzbahn","aerialway":"chair_lift","osm":"way/150275370"},"geometry":{"type":"LineString","coordinates":[[10.94081,47.21875],[10.94846,47.21127]]}},{"type":"Feature","properties":{"kind":"lift","difficulty":null,"name":"Ötzilift","aerialway":"platter","osm":"way/201629810"},"geometry":{"type":"LineString","coordinates":[[10.9313,47.21146],[10.93308,47.21067]]}},{"type":"Feature","properties":{"kind":"lift","difficulty":null,"name":"Weselelift","aerialway":"platter","osm":"way/201629811"},"geometry":{"type":"LineString","coordinates":[[10.92883,47.21138],[10.93101,47.21211]]}},{"type":"Feature","properties":{"kind":"lift","difficulty":null,"name":"Balbach Wiesenlift","aerialway":"platter","osm":"way/201629812"},"geometry":{"type":"LineString","coordinates":[[10.93462,47.22718],[10.93667,47.22527]]}},{"type":"Feature","properties":{"kind":"lift","difficulty":null,"name":"WidiLift","aerialway":"rope_tow","osm":"way/655628223"},"geometry":{"type":"LineString","coordinates":[[10.93063,47.21064],[10.93166,47.20993]]}}]}