{"type":"FeatureCollection","features":[{"type":"Feature","properties":{"kind":"lift","difficulty":null,"name":"Rudolfshütte II","aerialway":"gondola","osm":"way/27312702"},"geometry":{"type":"LineString","coordinates":[[12.62565,47.13496],[12.62377,47.15673]]}},{"type":"Feature","properties":{"kind":"lift","difficulty":null,"name":"Medelz","aerialway":"chair_lift","osm":"way/27644594"},"geometry":{"type":"LineString","coordinates":[[12.62706,47.13212],[12.62686,47.1264],[12.62639,47.11995]]}},{"type":"Feature","properties":{"kind":"lift","difficulty":null,"name":"Hüttenlift","aerialway":"t-bar","osm":"way/30045553"},"geometry":{"type":"LineString","coordinates":[[12.62664,47.13216],[12.62751,47.13534]]}},{"type":"Feature","properties":{"kind":"piste","difficulty":"intermediate","name":null,"aerialway":null,"osm":"way/30045614"},"geometry":{"type":"LineString","coordinates":[[12.6264,47.12013],[12.62667,47.12001],[12.62723,47.12182],[12.62722,47.12336],[12.62701,47.12378],[12.62699,47.12429],[12.62706,47.12555],[12.62728,47.12641],[12.62642,47.12764],[12.62642,47.12782],[12.62664,47.1284],[12.62668,47.12892],[12.6271,47.12916],[12.62764,47.12923],[12.62686,47.13136],[12.62685,47.13209]]}},{"type":"Feature","properties":{"kind":"piste","difficulty":"freeride","name":null,"aerialway":null,"osm":"way/30045721"},"geometry":{"type":"LineString","coordinates":[[12.62521,47.11853],[12.62425,47.11862],[12.62418,47.11882],[12.62369,47.11861],[12.62267,47.11882],[12.62224,47.11898],[12.62135,47.11968],[12.61942,47.12261],[12.61956,47.12297],[12.61947,47.12348],[12.61884,47.12395],[12.61954,47.1242],[12.62091,47.12432],[12.62143,47.12409],[12.62152,47.12393],[12.62256,47.12377],[12.62284,47.12463],[12.62265,47.12495],[12.62307,47.12636]]}},{"type":"Feature","properties":{"kind":"lift","difficulty":null,"name":"Rudolfshütte I","aerialway":"gondola","osm":"way/77410680"},"geometry":{"type":"LineString","coordinates":[[12.62338,47.15686],[12.62441,47.16959]]}},{"type":"Feature","properties":{"kind":"lift","difficulty":null,"name":"Tauernmoos","aerialway":"chair_lift","osm":"way/209911889"},"geometry":{"type":"LineString","coordinates":[[12.63699,47.13526],[12.62783,47.13578]]}},{"type":"Feature","properties":{"kind":"piste","difficulty":"intermediate","name":null,"aerialway":null,"osm":"way/209911890"},"geometry":{"type":"LineString","coordinates":[[12.627,47.12695],[12.62654,47.12699],[12.62588,47.12681],[12.62564,47.12688],[12.62565,47.12701],[12.62611,47.12721],[12.62612,47.12743],[12.62642,47.12764]]}},{"type":"Feature","properties":{"kind":"piste","difficulty":"intermediate","name":null,"aerialway":null,"osm":"way/209911891"},"geometry":{"type":"LineString","coordinates":[[12.62801,47.13543],[12.62818,47.13565],[12.62843,47.13655],[12.62903,47.13728],[12.62968,47.13837]]}},{"type":"Feature","properties":{"kind":"piste","difficulty":"expert","name":null,"aerialway":null,"osm":"way/209911893"},"geometry":{"type":"LineString","coordinates":[[12.62933,47.13869],[12.62875,47.13847],[12.6282,47.13855],[12.627,47.13916],[12.62649,47.14011],[12.62423,47.14148],[12.62319,47.14187]]}},{"type":"Feature","properties":{"kind":"lift","difficulty":null,"name":"Schafbühellift","aerialway":"platter","osm":"way/209911894"},"geometry":{"type":"LineString","coordinates":[[12.62922,47.13853],[12.6272,47.1354]]}},{"type":"Feature","properties":{"kind":"piste","difficulty":"expert","name":null,"aerialway":null,"osm":"way/209911895"},"geometry":{"type":"LineString","coordinates":[[12.62968,47.13837],[12.62933,47.13869],[12.62922,47.13853]]}},{"type":"Feature","properties":{"kind":"piste","difficulty":"intermediate","name":null,"aerialway":null,"osm":"way/209911896"},"geometry":{"type":"LineString","coordinates":[[12.62604,47.14622],[12.62663,47.14624]]}},{"type":"Feature","properties":{"kind":"lift","difficulty":null,"name":"Zehnerlift","aerialway":"t-bar","osm":"way/209911898"},"geometry":{"type":"LineString","coordinates":[[12.62328,47.14185],[12.62996,47.13845]]}},{"type":"Feature","properties":{"kind":"piste","difficulty":"intermediate","name":null,"aerialway":null,"osm":"way/209911899"},"geometry":{"type":"LineString","coordinates":[[12.62968,47.13837],[12.63193,47.13654],[12.6324,47.13677],[12.63289,47.13761],[12.63353,47.13829],[12.63392,47.13848],[12.634,47.13907],[12.63526,47.13755],[12.63546,47.13676],[12.63579,47.13645],[12.63718,47.13571],[12.63723,47.13546],[12.63699,47.13526]]}},{"type":"Feature","properties":{"kind":"piste","difficulty":"intermediate","name":null,"aerialway":null,"osm":"way/209911900"},"geometry":{"type":"LineString","coordinates":[[12.62724,47.1231],[12.62645,47.12327],[12.62488,47.123],[12.62458,47.12307],[12.6234,47.12443],[12.62311,47.12541],[12.62307,47.12636],[12.62398,47.12821],[12.62537,47.12917],[12.62603,47.13011],[12.62627,47.13089],[12.62654,47.13125],[12.62686,47.13136]]}},{"type":"Feature","properties":{"kind":"piste","difficulty":"easy","name":null,"aerialway":null,"osm":"way/209911901"},"geometry":{"type":"LineString","coordinates":[[12.62621,47.13436],[12.62605,47.13427],[12.62568,47.13282],[12.62614,47.13251],[12.62704,47.13222]]}},{"type":"Feature","properties":{"kind":"piste","difficulty":"novice","name":null,"aerialway":null,"osm":"way/209911902"},"geometry":{"type":"LineString","coordinates":[[12.62414,47.15623],[12.62397,47.15699]]}},{"type":"Feature","properties":{"kind":"piste","difficulty":"intermediate","name":null,"aerialway":null,"osm":"way/209911903"},"geometry":{"type":"LineString","coordinates":[[12.6259,47.13464],[12.62556,47.13458],[12.62526,47.13479],[12.62489,47.13579],[12.62451,47.13588],[12.62433,47.13628],[12.62445,47.13665],[12.62517,47.13768],[12.6253,47.13947],[12.62467,47.14027],[12.62414,47.14134],[12.62321,47.1417],[12.62319,47.14187],[12.62415,47.14326],[12.62448,47.14448],[12.62633,47.14655],[12.62658,47.14652],[12.62675,47.14599],[12.627,47.14602],[12.62983,47.14703],[12.63,47.1472],[12.63042,47.14842],[12.63036,47.14894],[12.62999,47.1496],[12.62951,47.15018],[12.6289,47.15052],[12.62895,47.15207],[12.62875,47.15277],[12.62812,47.15292],[12.6279,47.15339],[12.62727,47.15354],[12.62667,47.15388],[12.6261,47.15462],[12.62393,47.15562],[12.62356,47.15673]]}},{"type":"Feature","properties":{"kind":"piste","difficulty":"easy","name":null,"aerialway":null,"osm":"way/209911904"},"geometry":{"type":"LineString","coordinates":[[12.62358,47.15643],[12.62316,47.15665],[12.62316,47.15696],[12.62325,47.15716],[12.62353,47.1573],[12.62362,47.1576]]}},{"type":"Feature","properties":{"kind":"piste","difficulty":"easy","name":null,"aerialway":null,"osm":"way/209911905"},"geometry":{"type":"LineString","coordinates":[[12.6261,47.15462],[12.62414,47.15623],[12.62371,47.15609]]}},{"type":"Feature","properties":{"kind":"piste","difficulty":"intermediate","name":null,"aerialway":null,"osm":"way/209911906"},"geometry":{"type":"LineString","coordinates":[[12.62491,47.1373],[12.62488,47.13767],[12.62438,47.1379],[12.62401,47.13829],[12.62359,47.13833],[12.62331,47.13822],[12.62285,47.13853],[12.62298,47.14001],[12.62331,47.14093],[12.62321,47.1417]]}},{"type":"Feature","properties":{"kind":"piste","difficulty":"easy","name":null,"aerialway":null,"osm":"way/209911907"},"geometry":{"type":"LineString","coordinates":[[12.62131,47.16276],[12.62132,47.16338],[12.62064,47.16397],[12.62055,47.16456],[12.62089,47.16455],[12.62097,47.16496],[12.62133,47.16563],[12.62203,47.16483],[12.6226,47.16562],[12.62262,47.16591],[12.62277,47.16591],[12.62304,47.16555]]}},{"type":"Feature","properties":{"kind":"piste","difficulty":"intermediate","name":null,"aerialway":null,"osm":"way/279501909"},"geometry":{"type":"LineString","coordinates":[[12.62756,47.13549],[12.62799,47.13637],[12.62843,47.13655]]}},{"type":"Feature","properties":{"kind":"piste","difficulty":"intermediate","name":null,"aerialway":null,"osm":"way/279501979"},"geometry":{"type":"LineString","coordinates":[[12.62742,47.13573],[12.62799,47.13637]]}},{"type":"Feature","properties":{"kind":"piste","difficulty":"intermediate","name":null,"aerialway":null,"osm":"way/279501981"},"geometry":{"type":"LineString","coordinates":[[12.62565,47.13496],[12.6259,47.13464]]}},{"type":"Feature","properties":{"kind":"lift","difficulty":null,"name":"Grünseelift","aerialway":"platter","osm":"way/385833101"},"geometry":{"type":"LineString","coordinates":[[12.62408,47.15639],[12.62584,47.15496]]}},{"type":"Feature","properties":{"kind":"piste","difficulty":"intermediate","name":null,"aerialway":null,"osm":"way/554563839"},"geometry":{"type":"LineString","coordinates":[[12.62801,47.13543],[12.62678,47.13451],[12.62621,47.13436]]}},{"type":"Feature","properties":{"kind":"piste","difficulty":"intermediate","name":null,"aerialway":null,"osm":"way/554563841"},"geometry":{"type":"LineString","coordinates":[[12.63171,47.13666],[12.6315,47.1363],[12.63193,47.13654]]}},{"type":"Feature","properties":{"kind":"piste","difficulty":"intermediate","name":null,"aerialway":null,"osm":"way/554563843"},"geometry":{"type":"LineString","coordinates":[[12.63392,47.13848],[12.63445,47.13851]]}},{"type":"Feature","properties":{"kind":"piste","difficulty":"easy","name":null,"aerialway":null,"osm":"way/563328689"},"geometry":{"type":"LineString","coordinates":[[12.62397,47.15699],[12.62353,47.1573]]}},{"type":"Feature","properties":{"kind":"piste","difficulty":"easy","name":null,"aerialway":null,"osm":"way/620782432"},"geometry":{"type":"LineString","coordinates":[[12.62362,47.1576],[12.6233,47.15838],[12.622,47.1605],[12.62158,47.16097],[12.62144,47.1616],[12.62117,47.16204]]}},{"type":"Feature","properties":{"kind":"piste","difficulty":"easy","name":null,"aerialway":null,"osm":"way/620782433"},"geometry":{"type":"LineString","coordinates":[[12.62304,47.16555],[12.62321,47.16637],[12.62361,47.16734],[12.62461,47.16839],[12.62483,47.16896],[12.62482,47.16932]]}},{"type":"Feature","properties":{"kind":"piste","difficulty":"easy","name":null,"aerialway":null,"osm":"way/992562839"},"geometry":{"type":"LineString","coordinates":[[12.62112,47.16208],[12.62131,47.16276]]}},{"type":"Feature","properties":{"kind":"piste","difficulty":"easy","name":null,"aerialway":null,"osm":"way/992562840"},"geometry":{"type":"LineString","coordinates":[[12.62117,47.16204],[12.62112,47.16208]]}},{"type":"Feature","properties":{"kind":"piste","difficulty":"easy","name":null,"aerialway":null,"osm":"way/1053420111"},"geometry":{"type":"LineString","coordinates":[[12.62579,47.15499],[12.62565,47.15501]]}},{"type":"Feature","properties":{"kind":"piste","difficulty":"intermediate","name":null,"aerialway":null,"osm":"way/1053420115"},"geometry":{"type":"LineString","coordinates":[[12.62607,47.13451],[12.6259,47.13464]]}},{"type":"Feature","properties":{"kind":"piste","difficulty":"intermediate","name":null,"aerialway":null,"osm":"way/1053420116"},"geometry":{"type":"LineString","coordinates":[[12.62783,47.13578],[12.62775,47.13583]]}},{"type":"Feature","properties":{"kind":"piste","difficulty":"easy","name":null,"aerialway":null,"osm":"way/1053420117"},"geometry":{"type":"LineString","coordinates":[[12.62678,47.13451],[12.62607,47.13451]]}},{"type":"Feature","properties":{"kind":"piste","difficulty":"intermediate","name":null,"aerialway":null,"osm":"way/1053420118"},"geometry":{"type":"LineString","coordinates":[[12.62321,47.1417],[12.62328,47.14185]]}},{"type":"Feature","properties":{"kind":"lift","difficulty":null,"name":null,"aerialway":"gondola","osm":"way/1368117780"},"geometry":{"type":"LineString","coordinates":[[12.62338,47.15686],[12.62371,47.15684],[12.62377,47.15673]]}}]}