{"type":"FeatureCollection","features":[{"type":"Feature","properties":{"kind":"piste","difficulty":"easy","name":"Mohnenmähder","aerialway":null,"osm":"way/25661397"},"geometry":{"type":"LineString","coordinates":[[10.11264,47.22964],[10.11274,47.22946],[10.1134,47.22916],[10.11324,47.22879],[10.11343,47.22836],[10.11527,47.22749],[10.11542,47.22666],[10.11587,47.22601],[10.11555,47.22512],[10.11556,47.22473],[10.11572,47.2245],[10.11797,47.22338],[10.12029,47.22259],[10.12183,47.22172],[10.1224,47.22166],[10.12328,47.22183]]}},{"type":"Feature","properties":{"kind":"piste","difficulty":"easy","name":null,"aerialway":null,"osm":"way/25661399"},"geometry":{"type":"LineString","coordinates":[[10.11231,47.22045],[10.11171,47.22042],[10.11237,47.22017],[10.11282,47.21978],[10.11316,47.21966],[10.11437,47.21961],[10.11485,47.2192],[10.11647,47.21826]]}},{"type":"Feature","properties":{"kind":"piste","difficulty":"easy","name":null,"aerialway":null,"osm":"way/27332180"},"geometry":{"type":"LineString","coordinates":[[10.11029,47.21277],[10.11076,47.2131],[10.11129,47.21399],[10.11149,47.21469],[10.1123,47.21549],[10.11234,47.21614],[10.11324,47.21723],[10.113,47.21756],[10.11204,47.21788],[10.10497,47.21623],[10.10307,47.21531],[10.10188,47.21536],[10.1013,47.21509],[10.10119,47.2151],[10.10121,47.21523]]}},{"type":"Feature","properties":{"kind":"piste","difficulty":"advanced","name":"Langer Zug","aerialway":null,"osm":"way/29979785"},"geometry":{"type":"LineString","coordinates":[[10.16237,47.20701],[10.16316,47.20714],[10.16424,47.20708],[10.16529,47.20684],[10.16616,47.20685],[10.16779,47.20883],[10.16939,47.2104],[10.16957,47.21089],[10.1695,47.21165],[10.16928,47.21231],[10.16849,47.21311],[10.16698,47.21419],[10.16698,47.21433],[10.16737,47.21461],[10.16737,47.21476],[10.1672,47.21487],[10.16332,47.21566],[10.16065,47.217],[10.15976,47.21703],[10.15812,47.21737],[10.15684,47.21739],[10.15576,47.21783],[10.15543,47.21783],[10.15493,47.21763],[10.15464,47.21729],[10.15419,47.21625],[10.15421,47.21592],[10.15398,47.21561],[10.15132,47.21277],[10.14848,47.21287],[10.14776,47.21274],[10.14744,47.21235],[10.14701,47.21227],[10.14604,47.21234],[10.14556,47.21254]]}},{"type":"Feature","properties":{"kind":"piste","difficulty":"easy","name":null,"aerialway":null,"osm":"way/29980090"},"geometry":{"type":"LineString","coordinates":[[10.1221,47.21872],[10.12187,47.21878],[10.12201,47.21886],[10.12249,47.21882],[10.12303,47.21851]]}},{"type":"Feature","properties":{"kind":"piste","difficulty":"intermediate","name":null,"aerialway":null,"osm":"way/29980093"},"geometry":{"type":"LineString","coordinates":[[10.11278,47.22991],[10.11264,47.22964],[10.11378,47.22957],[10.11553,47.22883],[10.11576,47.22777],[10.11689,47.2264],[10.11765,47.22476],[10.11979,47.22334],[10.1217,47.22177]]}},{"type":"Feature","properties":{"kind":"piste","difficulty":"easy","name":null,"aerialway":null,"osm":"way/29980094"},"geometry":{"type":"LineString","coordinates":[[10.11397,47.21395],[10.11391,47.21411],[10.11343,47.21377],[10.11228,47.21358],[10.11152,47.21295],[10.11073,47.21262],[10.11029,47.21277]]}},{"type":"Feature","properties":{"kind":"piste","difficulty":"easy","name":null,"aerialway":null,"osm":"way/29980095"},"geometry":{"type":"LineString","coordinates":[[10.11963,47.21803],[10.12083,47.21796],[10.12154,47.21813],[10.12231,47.21804],[10.12303,47.21851],[10.12459,47.21858],[10.12761,47.21904],[10.12975,47.21889],[10.13147,47.21918],[10.13389,47.21881],[10.13575,47.21888],[10.1358,47.21845],[10.13518,47.21773],[10.13531,47.21731],[10.13568,47.217],[10.13658,47.21666],[10.13719,47.21598],[10.13724,47.21573],[10.13724,47.21559],[10.13662,47.21501],[10.13634,47.21402],[10.13535,47.21365],[10.1354,47.21342],[10.1359,47.21309],[10.13609,47.21277],[10.13596,47.21149],[10.13946,47.21072],[10.1397,47.21036],[10.14027,47.21],[10.14124,47.20962]]}},{"type":"Feature","properties":{"kind":"piste","difficulty":"intermediate","name":null,"aerialway":null,"osm":"way/29980096"},"geometry":{"type":"LineString","coordinates":[[10.10265,47.22644],[10.10269,47.2255],[10.10242,47.22472],[10.10222,47.22447],[10.10122,47.22392],[10.10112,47.22338],[10.10145,47.22299],[10.10291,47.22273],[10.10316,47.22206],[10.10199,47.22098],[10.10062,47.2204],[10.10024,47.21999],[10.1,47.21566],[10.10043,47.21528],[10.10119,47.2151]]}},{"type":"Feature","properties":{"kind":"piste","difficulty":"intermediate","name":null,"aerialway":null,"osm":"way/29980097"},"geometry":{"type":"LineString","coordinates":[[10.10265,47.22644],[10.10596,47.22608],[10.10622,47.22596],[10.10666,47.22548],[10.10806,47.22302],[10.10923,47.22202],[10.10983,47.22112],[10.11113,47.22052],[10.11171,47.22042]]}},{"type":"Feature","properties":{"kind":"piste","difficulty":"intermediate","name":null,"aerialway":null,"osm":"way/29980098"},"geometry":{"type":"LineString","coordinates":[[10.11171,47.22042],[10.10875,47.21934],[10.10732,47.21922],[10.10618,47.21817],[10.10497,47.21623]]}},{"type":"Feature","properties":{"kind":"piste","difficulty":"intermediate","name":"Steinmähder","aerialway":null,"osm":"way/30071965"},"geometry":{"type":"LineString","coordinates":[[10.10217,47.22114],[10.10166,47.21601],[10.10146,47.21522]]}},{"type":"Feature","properties":{"kind":"piste","difficulty":"easy","name":null,"aerialway":null,"osm":"way/46732265"},"geometry":{"type":"LineString","coordinates":[[10.12303,47.21851],[10.12401,47.21787],[10.1242,47.21695],[10.12439,47.2168],[10.12675,47.21602],[10.12749,47.21494],[10.12835,47.21467],[10.1289,47.21393],[10.13083,47.2132],[10.13145,47.21279],[10.13346,47.21254],[10.13596,47.21149],[10.13591,47.2111],[10.13648,47.21067],[10.13733,47.20968],[10.13771,47.20944],[10.13825,47.20939]]}},{"type":"Feature","properties":{"kind":"piste","difficulty":"easy","name":null,"aerialway":null,"osm":"way/46732266"},"geometry":{"type":"LineString","coordinates":[[10.12652,47.21589],[10.12632,47.21637],[10.12756,47.21666]]}},{"type":"Feature","properties":{"kind":"piste","difficulty":"intermediate","name":null,"aerialway":null,"osm":"way/46732268"},"geometry":{"type":"LineString","coordinates":[[10.11391,47.21411],[10.11472,47.21438],[10.11587,47.21513],[10.1123,47.21549]]}},{"type":"Feature","properties":{"kind":"piste","difficulty":"easy","name":null,"aerialway":null,"osm":"way/46732273"},"geometry":{"type":"LineString","coordinates":[[10.13531,47.21731],[10.13518,47.21673],[10.13528,47.21656],[10.13549,47.21641],[10.13589,47.21637],[10.13601,47.21656],[10.13593,47.21669]]}},{"type":"Feature","properties":{"kind":"piste","difficulty":"easy","name":null,"aerialway":null,"osm":"way/46732282"},"geometry":{"type":"LineString","coordinates":[[10.12312,47.2201],[10.12308,47.22138],[10.12328,47.22183]]}},{"type":"Feature","properties":{"kind":"piste","difficulty":"advanced","name":null,"aerialway":null,"osm":"way/56222603"},"geometry":{"type":"LineString","coordinates":[[10.10781,47.21086],[10.1066,47.21049],[10.10634,47.21025],[10.10596,47.2103],[10.1057,47.21146],[10.10479,47.21175],[10.10425,47.21217],[10.10382,47.21443],[10.10328,47.21492],[10.1026,47.21531]]}},{"type":"Feature","properties":{"kind":"piste","difficulty":"intermediate","name":null,"aerialway":null,"osm":"way/56222604"},"geometry":{"type":"LineString","coordinates":[[10.11979,47.22334],[10.12085,47.22344],[10.1221,47.22379],[10.12257,47.22397],[10.12296,47.22439],[10.12556,47.22513],[10.12587,47.22556],[10.12648,47.22584]]}},{"type":"Feature","properties":{"kind":"piste","difficulty":"easy","name":null,"aerialway":null,"osm":"way/127683355"},"geometry":{"type":"LineString","coordinates":[[10.12362,47.22209],[10.12374,47.22226],[10.1236,47.22238]]}},{"type":"Feature","properties":{"kind":"piste","difficulty":"easy","name":null,"aerialway":null,"osm":"way/128238246"},"geometry":{"type":"LineString","coordinates":[[10.13653,47.2208],[10.13526,47.22043],[10.13508,47.22023]]}},{"type":"Feature","properties":{"kind":"piste","difficulty":"easy","name":null,"aerialway":null,"osm":"way/128571937"},"geometry":{"type":"LineString","coordinates":[[10.13613,47.21684],[10.13588,47.2167]]}},{"type":"Feature","properties":{"kind":"piste","difficulty":"easy","name":null,"aerialway":null,"osm":"way/130309382"},"geometry":{"type":"LineString","coordinates":[[10.13825,47.20939],[10.13877,47.20938]]}},{"type":"Feature","properties":{"kind":"piste","difficulty":"easy","name":null,"aerialway":null,"osm":"way/130882824"},"geometry":{"type":"LineString","coordinates":[[10.1391,47.22419],[10.13884,47.22428],[10.13842,47.22416],[10.13672,47.2233],[10.13611,47.22277],[10.13579,47.22178],[10.13584,47.22151],[10.13662,47.22087],[10.14017,47.21862],[10.14054,47.21847],[10.14147,47.21841],[10.14235,47.21812],[10.14427,47.21608],[10.1452,47.21458],[10.14595,47.21404],[10.14566,47.21343],[10.14501,47.21285],[10.14528,47.21262]]}},{"type":"Feature","properties":{"kind":"piste","difficulty":"easy","name":null,"aerialway":null,"osm":"way/148855671"},"geometry":{"type":"LineString","coordinates":[[10.12652,47.21589],[10.12594,47.21589],[10.12601,47.21561],[10.12749,47.21494]]}},{"type":"Feature","properties":{"kind":"piste","difficulty":"easy","name":null,"aerialway":null,"osm":"way/148855673"},"geometry":{"type":"LineString","coordinates":[[10.12187,47.21878],[10.12308,47.22025]]}},{"type":"Feature","properties":{"kind":"piste","difficulty":"easy","name":null,"aerialway":null,"osm":"way/148855682"},"geometry":{"type":"LineString","coordinates":[[10.12348,47.22023],[10.12312,47.2201],[10.12438,47.21951],[10.12458,47.21904],[10.12458,47.2179],[10.12412,47.21719]]}},{"type":"Feature","properties":{"kind":"piste","difficulty":"easy","name":"Furka-Steinmähder","aerialway":null,"osm":"way/149174679"},"geometry":{"type":"LineString","coordinates":[[10.10749,47.2106],[10.11029,47.21277]]}},{"type":"Feature","properties":{"kind":"piste","difficulty":"easy","name":null,"aerialway":null,"osm":"way/166719638"},"geometry":{"type":"LineString","coordinates":[[10.13877,47.20938],[10.14015,47.20966],[10.14124,47.20962],[10.14148,47.20989],[10.14128,47.20978],[10.14089,47.20994],[10.14094,47.21001]]}},{"type":"Feature","properties":{"kind":"piste","difficulty":"easy","name":null,"aerialway":null,"osm":"way/166719639"},"geometry":{"type":"LineString","coordinates":[[10.13946,47.21072],[10.14092,47.21051],[10.14144,47.21033],[10.14159,47.21006],[10.14158,47.20984],[10.14143,47.21008]]}},{"type":"Feature","properties":{"kind":"piste","difficulty":"easy","name":null,"aerialway":null,"osm":"way/167167322"},"geometry":{"type":"LineString","coordinates":[[10.14124,47.20962],[10.14163,47.2097]]}},{"type":"Feature","properties":{"kind":"piste","difficulty":"intermediate","name":"Madloch - Zug","aerialway":null,"osm":"way/167168337"},"geometry":{"type":"LineString","coordinates":[[10.11271,47.18226],[10.11406,47.18312],[10.11631,47.18393],[10.11647,47.18419],[10.1166,47.18507],[10.1163,47.18609],[10.11599,47.18632],[10.11416,47.18657],[10.11322,47.18717],[10.1125,47.18721],[10.11209,47.18779],[10.11159,47.18912]]}},{"type":"Feature","properties":{"kind":"piste","difficulty":"intermediate","name":"Skiroute - Madloch - Zug","aerialway":null,"osm":"way/167168339"},"geometry":{"type":"LineString","coordinates":[[10.12125,47.17673],[10.12116,47.17639],[10.12099,47.17634],[10.12031,47.17664],[10.11996,47.17754],[10.11971,47.17774],[10.1174,47.17757],[10.11657,47.17789],[10.1151,47.17821],[10.11367,47.17912],[10.11337,47.17972],[10.11279,47.1804],[10.11267,47.18266],[10.11224,47.18338],[10.11185,47.18466],[10.11097,47.1864],[10.11173,47.1896],[10.11225,47.19012],[10.11384,47.19055],[10.11453,47.19088],[10.1156,47.1918],[10.11773,47.19294],[10.11794,47.19321],[10.11718,47.19425],[10.11571,47.19481],[10.11567,47.19532],[10.116,47.19591],[10.11596,47.19603],[10.1144,47.19556],[10.11382,47.19576],[10.11373,47.19594],[10.11402,47.19637],[10.11426,47.19708],[10.11407,47.19725],[10.11341,47.19741],[10.11299,47.19796],[10.11253,47.19807],[10.11254,47.19879],[10.11236,47.19896],[10.11205,47.19901]]}},{"type":"Feature","properties":{"kind":"piste","difficulty":"intermediate","name":null,"aerialway":null,"osm":"way/197645453"},"geometry":{"type":"LineString","coordinates":[[10.1026,47.21531],[10.1025,47.2151],[10.10066,47.2143],[10.10029,47.21391],[10.09906,47.21317],[10.09892,47.21205],[10.09806,47.21083],[10.0982,47.21017],[10.09779,47.20967],[10.09664,47.20899],[10.09652,47.20842],[10.09664,47.20789],[10.0962,47.20743],[10.09543,47.20603],[10.09464,47.20491],[10.09465,47.20307],[10.09534,47.202],[10.09688,47.20156],[10.09685,47.20141],[10.09636,47.2012],[10.09726,47.20066],[10.10553,47.19999],[10.10582,47.19951],[10.11002,47.19917],[10.11051,47.19896]]}},{"type":"Feature","properties":{"kind":"piste","difficulty":"advanced","name":null,"aerialway":null,"osm":"way/197645699"},"geometry":{"type":"LineString","coordinates":[[10.11029,47.21277],[10.10957,47.2134],[10.10911,47.21401],[10.10881,47.21418],[10.10691,47.21392],[10.10642,47.21415],[10.10601,47.21462],[10.10552,47.21487],[10.10328,47.21492]]}},{"type":"Feature","properties":{"kind":"piste","difficulty":"advanced","name":null,"aerialway":null,"osm":"way/197646048"},"geometry":{"type":"LineString","coordinates":[[10.11442,47.21431],[10.11585,47.21426],[10.11669,47.2145],[10.11801,47.21466],[10.11825,47.21484],[10.11838,47.21554],[10.11894,47.2157],[10.11939,47.2156],[10.11973,47.2153],[10.12091,47.21308],[10.12478,47.2119],[10.12648,47.21165],[10.12741,47.21167],[10.12888,47.21238],[10.13102,47.21272]]}},{"type":"Feature","properties":{"kind":"piste","difficulty":"advanced","name":null,"aerialway":null,"osm":"way/197646345"},"geometry":{"type":"LineString","coordinates":[[10.11553,47.21519],[10.11608,47.21552],[10.1175,47.21586],[10.1183,47.21647],[10.11952,47.21681],[10.12031,47.2167],[10.12197,47.21606],[10.12261,47.21599],[10.12479,47.21612],[10.1255,47.216],[10.12592,47.21578]]}},{"type":"Feature","properties":{"kind":"piste","difficulty":"intermediate","name":null,"aerialway":null,"osm":"way/197647385"},"geometry":{"type":"LineString","coordinates":[[10.12799,47.21707],[10.12807,47.21689],[10.12869,47.21696],[10.13036,47.21669],[10.13142,47.21578],[10.13216,47.21558],[10.13471,47.21598],[10.13549,47.21641]]}},{"type":"Feature","properties":{"kind":"piste","difficulty":"easy","name":null,"aerialway":null,"osm":"way/203268982"},"geometry":{"type":"LineString","coordinates":[[10.14501,47.21283],[10.14511,47.21276]]}},{"type":"Feature","properties":{"kind":"piste","difficulty":"easy","name":null,"aerialway":null,"osm":"way/203268983"},"geometry":{"type":"LineString","coordinates":[[10.1454,47.21245],[10.14569,47.21262],[10.14592,47.2126]]}},{"type":"Feature","properties":{"kind":"piste","difficulty":"easy","name":null,"aerialway":null,"osm":"way/203268987"},"geometry":{"type":"LineString","coordinates":[[10.14528,47.21262],[10.1454,47.21245]]}},{"type":"Feature","properties":{"kind":"piste","difficulty":"easy","name":null,"aerialway":null,"osm":"way/203268991"},"geometry":{"type":"LineString","coordinates":[[10.12231,47.21804],[10.1231,47.2181],[10.12373,47.218],[10.12541,47.21703],[10.12595,47.21644],[10.12632,47.21637]]}},{"type":"Feature","properties":{"kind":"piste","difficulty":"intermediate","name":null,"aerialway":null,"osm":"way/203370167"},"geometry":{"type":"LineString","coordinates":[[10.11051,47.19896],[10.11073,47.19886]]}},{"type":"Feature","properties":{"kind":"piste","difficulty":"advanced","name":null,"aerialway":null,"osm":"way/203370168"},"geometry":{"type":"LineString","coordinates":[[10.10799,47.21096],[10.10984,47.21124],[10.1112,47.21117],[10.11445,47.20853],[10.11487,47.20783],[10.11478,47.20663],[10.11374,47.20318],[10.11358,47.20204],[10.11368,47.20151],[10.11294,47.20074],[10.11136,47.1997],[10.11051,47.19896]]}},{"type":"Feature","properties":{"kind":"piste","difficulty":"intermediate","name":"Skiroute - Madloch - Zug","aerialway":null,"osm":"way/203370169"},"geometry":{"type":"LineString","coordinates":[[10.11205,47.19901],[10.11143,47.19905]]}},{"type":"Feature","properties":{"kind":"piste","difficulty":"easy","name":null,"aerialway":null,"osm":"way/203618003"},"geometry":{"type":"LineString","coordinates":[[10.10719,47.22449],[10.10868,47.22488],[10.10979,47.22589],[10.11081,47.22715]]}},{"type":"Feature","properties":{"kind":"piste","difficulty":"intermediate","name":null,"aerialway":null,"osm":"way/203618004"},"geometry":{"type":"LineString","coordinates":[[10.11081,47.22715],[10.11186,47.22693],[10.11288,47.22641],[10.11352,47.2257],[10.11384,47.22483],[10.11575,47.22345],[10.11633,47.22332],[10.11797,47.22338]]}},{"type":"Feature","properties":{"kind":"piste","difficulty":"intermediate","name":"Skiroute 170 - Madloch - Zug","aerialway":null,"osm":"way/203763851"},"geometry":{"type":"LineString","coordinates":[[10.11571,47.19481],[10.11511,47.19532],[10.1144,47.19556]]}},{"type":"Feature","properties":{"kind":"piste","difficulty":"easy","name":"Furka-Steinmähder","aerialway":null,"osm":"way/208439203"},"geometry":{"type":"LineString","coordinates":[[10.10983,47.21246],[10.10987,47.21242]]}},{"type":"Feature","properties":{"kind":"piste","difficulty":"intermediate","name":"Skiroute - Madloch - Zug","aerialway":null,"osm":"way/208439205"},"geometry":{"type":"LineString","coordinates":[[10.11531,47.19158],[10.11501,47.19224],[10.11508,47.19271],[10.11531,47.19308],[10.11616,47.19363],[10.11635,47.19397],[10.11625,47.1943],[10.11587,47.1947]]}},{"type":"Feature","properties":{"kind":"piste","difficulty":"easy","name":null,"aerialway":null,"osm":"way/208439208"},"geometry":{"type":"LineString","coordinates":[[10.13589,47.21637],[10.13778,47.21629],[10.13766,47.21596],[10.13724,47.21559]]}},{"type":"Feature","properties":{"kind":"piste","difficulty":"intermediate","name":null,"aerialway":null,"osm":"way/251699528"},"geometry":{"type":"LineString","coordinates":[[10.12125,47.17673],[10.12116,47.17639],[10.1219,47.1766],[10.12243,47.17642],[10.12295,47.17584],[10.12487,47.17547],[10.12598,47.17563],[10.1267,47.1756],[10.12686,47.17571],[10.12678,47.17597],[10.12691,47.17604],[10.13028,47.1758],[10.13179,47.17593],[10.13316,47.17579],[10.13434,47.17607],[10.13534,47.17606],[10.13589,47.17591],[10.1363,47.17562],[10.13703,47.17557],[10.13741,47.1757],[10.13899,47.17672],[10.14016,47.17705]]}},{"type":"Feature","properties":{"kind":"piste","difficulty":"intermediate","name":"Madloch-Lech","aerialway":null,"osm":"way/251699531"},"geometry":{"type":"LineString","coordinates":[[10.11453,47.19088],[10.11633,47.19168],[10.11838,47.19208],[10.12002,47.19274],[10.12099,47.19362],[10.1224,47.19424],[10.12324,47.19479],[10.12348,47.19545],[10.12401,47.19595],[10.12592,47.19697],[10.12716,47.19745],[10.12743,47.19787],[10.12782,47.19813],[10.12929,47.19847],[10.13082,47.19913],[10.13107,47.19931],[10.1313,47.19995],[10.13649,47.20257],[10.1372,47.20327],[10.13726,47.20375],[10.1371,47.20418]]}},{"type":"Feature","properties":{"kind":"piste","difficulty":"intermediate","name":null,"aerialway":null,"osm":"way/251701334"},"geometry":{"type":"LineString","coordinates":[[10.10269,47.2255],[10.10199,47.22523],[10.1,47.22484],[10.09948,47.22193],[10.09955,47.22111],[10.09978,47.22041],[10.10022,47.21978]]}},{"type":"Feature","properties":{"kind":"piste","difficulty":"intermediate","name":null,"aerialway":null,"osm":"way/251701335"},"geometry":{"type":"LineString","coordinates":[[10.10875,47.21934],[10.10788,47.21856],[10.10795,47.21769],[10.10745,47.21675]]}},{"type":"Feature","properties":{"kind":"piste","difficulty":"easy","name":null,"aerialway":null,"osm":"way/251702651"},"geometry":{"type":"LineString","coordinates":[[10.11218,47.22052],[10.11296,47.22085],[10.11405,47.22107],[10.11473,47.22103],[10.11537,47.22067],[10.11622,47.22068],[10.1182,47.22149],[10.1189,47.22164],[10.1224,47.22164],[10.12446,47.22213],[10.12542,47.22262]]}},{"type":"Feature","properties":{"kind":"piste","difficulty":"intermediate","name":null,"aerialway":null,"osm":"way/253933667"},"geometry":{"type":"LineString","coordinates":[[10.10775,47.22344],[10.10726,47.22303],[10.10538,47.22218],[10.10498,47.22181],[10.10511,47.22087],[10.1065,47.21851]]}},{"type":"Feature","properties":{"kind":"piste","difficulty":"intermediate","name":null,"aerialway":null,"osm":"way/253933668"},"geometry":{"type":"LineString","coordinates":[[10.10265,47.22644],[10.10287,47.2261],[10.10303,47.22503],[10.10321,47.22473],[10.10368,47.22457],[10.10484,47.22446],[10.1062,47.22395],[10.10628,47.22369],[10.10615,47.22326],[10.10618,47.22257]]}},{"type":"Feature","properties":{"kind":"piste","difficulty":"intermediate","name":null,"aerialway":null,"osm":"way/321792906"},"geometry":{"type":"LineString","coordinates":[[10.12761,47.21904],[10.12988,47.22017],[10.13026,47.22025],[10.13273,47.21998],[10.13465,47.21943],[10.1354,47.21891],[10.13575,47.21888]]}},{"type":"Feature","properties":{"kind":"piste","difficulty":"easy","name":null,"aerialway":null,"osm":"way/381293512"},"geometry":{"type":"LineString","coordinates":[[10.12308,47.22025],[10.12348,47.22023]]}},{"type":"Feature","properties":{"kind":"piste","difficulty":"easy","name":null,"aerialway":null,"osm":"way/560008452"},"geometry":{"type":"LineString","coordinates":[[10.1391,47.22419],[10.13976,47.22431],[10.14043,47.22411],[10.14175,47.22268],[10.14182,47.2222],[10.14171,47.22133],[10.14126,47.21999],[10.14235,47.21812]]}},{"type":"Feature","properties":{"kind":"piste","difficulty":"easy","name":null,"aerialway":null,"osm":"way/567909870"},"geometry":{"type":"LineString","coordinates":[[10.14797,47.20691],[10.14827,47.20737],[10.14744,47.20813],[10.14554,47.20903],[10.14464,47.20926]]}},{"type":"Feature","properties":{"kind":"piste","difficulty":"easy","name":null,"aerialway":null,"osm":"way/567909872"},"geometry":{"type":"LineString","coordinates":[[10.14797,47.20691],[10.1471,47.20732],[10.1457,47.20824],[10.14489,47.20895],[10.14477,47.20925]]}},{"type":"Feature","properties":{"kind":"piste","difficulty":"intermediate","name":"Skiroute - Wiesele","aerialway":null,"osm":"way/580231918"},"geometry":{"type":"LineString","coordinates":[[10.13885,47.17665],[10.1381,47.17749],[10.13723,47.17783],[10.13721,47.17796],[10.13817,47.17852],[10.13914,47.17877],[10.13905,47.17914],[10.13783,47.17974],[10.13771,47.18005],[10.13804,47.18098],[10.13911,47.18172],[10.13956,47.18281],[10.13958,47.18348],[10.13975,47.18374],[10.14056,47.18402],[10.14157,47.18489],[10.14166,47.18522],[10.14156,47.18553],[10.14171,47.1858],[10.14334,47.18619],[10.14376,47.18651],[10.14642,47.18921],[10.14748,47.18983],[10.14792,47.19041],[10.14798,47.1908],[10.1483,47.19126],[10.14881,47.19171]]}},{"type":"Feature","properties":{"kind":"piste","difficulty":"intermediate","name":"Skiroute - Rinderhütte","aerialway":null,"osm":"way/580671971"},"geometry":{"type":"LineString","coordinates":[[10.12116,47.17639],[10.1211,47.17625],[10.12072,47.17614],[10.1204,47.17588],[10.11904,47.17691],[10.11782,47.17723],[10.11641,47.17732],[10.11601,47.17748],[10.11536,47.17812]]}},{"type":"Feature","properties":{"kind":"piste","difficulty":"freeride","name":"Großes Stierloch","aerialway":null,"osm":"way/582619202"},"geometry":{"type":"LineString","coordinates":[[10.1204,47.17588],[10.11986,47.1754],[10.11905,47.17516],[10.11875,47.17484],[10.11946,47.17428],[10.11932,47.17416],[10.11758,47.17442],[10.11663,47.17441],[10.11573,47.17409],[10.1137,47.17377],[10.11281,47.17338],[10.11116,47.17194],[10.10996,47.17114],[10.10631,47.1705],[10.10425,47.17074],[10.10262,47.1714],[10.10127,47.17334],[10.10056,47.17524],[10.10049,47.17614],[10.10077,47.17673],[10.10182,47.17772],[10.10127,47.17911],[10.09965,47.1802],[10.09946,47.18073],[10.09994,47.18128],[10.10019,47.18229],[10.1007,47.18293],[10.10063,47.18321],[10.10077,47.18342],[10.10089,47.18441],[10.10082,47.18507],[10.1019,47.18648],[10.10252,47.18775],[10.10338,47.18835],[10.10387,47.18892],[10.10405,47.18943],[10.10527,47.19026],[10.10688,47.19094],[10.1073,47.19175],[10.10808,47.19215],[10.10902,47.19322],[10.11173,47.19497],[10.11203,47.19531],[10.11159,47.19594],[10.10955,47.19639],[10.11118,47.1972],[10.11172,47.19732],[10.11014,47.19771]]}},{"type":"Feature","properties":{"kind":"piste","difficulty":"freeride","name":"Heuwetrinne","aerialway":null,"osm":"way/582619203"},"geometry":{"type":"LineString","coordinates":[[10.11062,47.18317],[10.10736,47.18363],[10.10602,47.1837],[10.102,47.18434],[10.10122,47.18453],[10.10082,47.18507]]}},{"type":"Feature","properties":{"kind":"piste","difficulty":"freeride","name":"Kleines Stierloch","aerialway":null,"osm":"way/582619204"},"geometry":{"type":"LineString","coordinates":[[10.11945,47.1753],[10.11522,47.17563],[10.10829,47.17551],[10.10312,47.17514],[10.10084,47.17553],[10.10049,47.17614]]}},{"type":"Feature","properties":{"kind":"piste","difficulty":"freeride","name":"Stierfall","aerialway":null,"osm":"way/582619205"},"geometry":{"type":"LineString","coordinates":[[10.11354,47.17938],[10.11149,47.17906],[10.1101,47.179],[10.10899,47.1791],[10.10349,47.1805],[10.10082,47.1816],[10.10019,47.18229]]}},{"type":"Feature","properties":{"kind":"piste","difficulty":"freeride","name":"Heuwet","aerialway":null,"osm":"way/582619206"},"geometry":{"type":"LineString","coordinates":[[10.11269,47.18249],[10.1118,47.183],[10.11062,47.18317],[10.1096,47.18403],[10.10876,47.1849],[10.10823,47.18629],[10.10753,47.18705],[10.10542,47.18746],[10.1038,47.18818],[10.10345,47.18852]]}},{"type":"Feature","properties":{"kind":"piste","difficulty":"freeride","name":"Gamshang","aerialway":null,"osm":"way/582619207"},"geometry":{"type":"LineString","coordinates":[[10.1219,47.1766],[10.12432,47.17765],[10.12631,47.17901],[10.12688,47.17901],[10.12847,47.17834],[10.1297,47.1781],[10.13271,47.17794],[10.13301,47.17813],[10.13365,47.17907],[10.13377,47.17974],[10.1343,47.18071],[10.13624,47.18263],[10.13794,47.18336],[10.13862,47.18384],[10.13975,47.18374]]}},{"type":"Feature","properties":{"kind":"piste","difficulty":"expert","name":"Götzneralpe","aerialway":null,"osm":"way/582632354"},"geometry":{"type":"LineString","coordinates":[[10.1,47.22484],[10.09636,47.22399],[10.09476,47.22389],[10.09283,47.22268],[10.09145,47.22141],[10.09107,47.22061],[10.09182,47.21889],[10.09245,47.21819],[10.09426,47.21683],[10.09656,47.21617],[10.09793,47.21627],[10.09931,47.216],[10.1001,47.21551]]}},{"type":"Feature","properties":{"kind":"piste","difficulty":"freeride","name":"Abendweide","aerialway":null,"osm":"way/582632357"},"geometry":{"type":"LineString","coordinates":[[10.09523,47.22398],[10.09413,47.22423],[10.09197,47.2233],[10.09071,47.22259],[10.08802,47.22154],[10.08661,47.22082],[10.0856,47.22],[10.08536,47.21938],[10.08551,47.21911],[10.08652,47.21865],[10.08721,47.21817],[10.09027,47.21732],[10.09264,47.21711],[10.09426,47.21683]]}},{"type":"Feature","properties":{"kind":"piste","difficulty":"easy","name":null,"aerialway":null,"osm":"way/663317716"},"geometry":{"type":"LineString","coordinates":[[10.13124,47.2122],[10.13171,47.21226],[10.13555,47.20864],[10.13548,47.20843]]}},{"type":"Feature","properties":{"kind":"piste","difficulty":"easy","name":null,"aerialway":null,"osm":"way/697612802"},"geometry":{"type":"LineString","coordinates":[[10.12308,47.22025],[10.1251,47.221],[10.12568,47.22195],[10.12683,47.22311],[10.12794,47.22357],[10.12813,47.22428],[10.12858,47.22451],[10.12947,47.22455],[10.13076,47.22436],[10.1323,47.22372],[10.13264,47.22383],[10.13301,47.22417],[10.13306,47.22483],[10.13322,47.22495],[10.1345,47.22396],[10.13575,47.22364],[10.13603,47.22326],[10.13611,47.22277]]}},{"type":"Feature","properties":{"kind":"piste","difficulty":"easy","name":null,"aerialway":null,"osm":"way/962687318"},"geometry":{"type":"LineString","coordinates":[[10.12114,47.21962],[10.12247,47.2199],[10.12308,47.22025]]}},{"type":"Feature","properties":{"kind":"piste","difficulty":"easy","name":null,"aerialway":null,"osm":"way/962687319"},"geometry":{"type":"LineString","coordinates":[[10.12015,47.21943],[10.12024,47.21958],[10.12114,47.21962]]}},{"type":"Feature","properties":{"kind":"piste","difficulty":"easy","name":null,"aerialway":null,"osm":"way/972063873"},"geometry":{"type":"LineString","coordinates":[[10.11647,47.21826],[10.11963,47.21803]]}},{"type":"Feature","properties":{"kind":"piste","difficulty":"unknown","name":null,"aerialway":null,"osm":"way/1058613836"},"geometry":{"type":"LineString","coordinates":[[10.14163,47.2097],[10.14155,47.20877]]}},{"type":"Feature","properties":{"kind":"piste","difficulty":"easy","name":null,"aerialway":null,"osm":"way/1061453123"},"geometry":{"type":"LineString","coordinates":[[10.14017,47.21862],[10.1402,47.21831]]}},{"type":"Feature","properties":{"kind":"piste","difficulty":"easy","name":null,"aerialway":null,"osm":"way/1164563735"},"geometry":{"type":"LineString","coordinates":[[10.14001,47.20963],[10.13995,47.20925],[10.14017,47.20887]]}},{"type":"Feature","properties":{"kind":"piste","difficulty":"easy","name":null,"aerialway":null,"osm":"way/1164563736"},"geometry":{"type":"LineString","coordinates":[[10.14124,47.20962],[10.1416,47.2093]]}},{"type":"Feature","properties":{"kind":"piste","difficulty":"easy","name":null,"aerialway":null,"osm":"way/1164563737"},"geometry":{"type":"LineString","coordinates":[[10.12114,47.21962],[10.12224,47.2193],[10.12369,47.21857]]}},{"type":"Feature","properties":{"kind":"piste","difficulty":"intermediate","name":"Skiroute - Schlosskopf","aerialway":null,"osm":"way/1230958849"},"geometry":{"type":"LineString","coordinates":[[10.13575,47.21888],[10.13757,47.21949],[10.13816,47.21927],[10.13918,47.21929]]}},{"type":"Feature","properties":{"kind":"piste","difficulty":"easy","name":null,"aerialway":null,"osm":"way/1249875234"},"geometry":{"type":"LineString","coordinates":[[10.12308,47.22025],[10.12422,47.22085],[10.12522,47.2221],[10.12589,47.22412],[10.12604,47.22515],[10.12629,47.22563]]}},{"type":"Feature","properties":{"kind":"piste","difficulty":"intermediate","name":null,"aerialway":null,"osm":"way/1382287752"},"geometry":{"type":"LineString","coordinates":[[10.12914,47.21692],[10.13039,47.21717],[10.13096,47.21621]]}},{"type":"Feature","properties":{"kind":"piste","difficulty":"easy","name":null,"aerialway":null,"osm":"way/1382287759"},"geometry":{"type":"LineString","coordinates":[[10.13343,47.21065],[10.13443,47.2107],[10.13591,47.2111],[10.13568,47.21046],[10.13586,47.2094],[10.13558,47.20851]]}},{"type":"Feature","properties":{"kind":"piste","difficulty":"easy","name":"Hinterwies - Rudalpe","aerialway":null,"osm":"way/1382287760"},"geometry":{"type":"LineString","coordinates":[[10.13145,47.21279],[10.13138,47.21253],[10.13171,47.21226]]}},{"type":"Feature","properties":{"kind":"piste","difficulty":"easy","name":null,"aerialway":null,"osm":"way/1382287776"},"geometry":{"type":"LineString","coordinates":[[10.12512,47.21716],[10.12651,47.21716],[10.12737,47.2168],[10.12797,47.21635],[10.12835,47.21467],[10.13032,47.21423],[10.13346,47.21254]]}},{"type":"Feature","properties":{"kind":"piste","difficulty":"easy","name":null,"aerialway":null,"osm":"way/1382511391"},"geometry":{"type":"LineString","coordinates":[[10.1289,47.21393],[10.12965,47.21318],[10.13102,47.21272],[10.13145,47.21279]]}},{"type":"Feature","properties":{"kind":"piste","difficulty":"intermediate","name":null,"aerialway":null,"osm":"way/1382551951"},"geometry":{"type":"LineString","coordinates":[[10.10983,47.22112],[10.10863,47.2204],[10.10732,47.21922]]}},{"type":"Feature","properties":{"kind":"piste","difficulty":"easy","name":"Hinterwies - Rudalpe","aerialway":null,"osm":"way/1382556838"},"geometry":{"type":"LineString","coordinates":[[10.13102,47.21272],[10.13144,47.21246]]}},{"type":"Feature","properties":{"kind":"piste","difficulty":"easy","name":null,"aerialway":null,"osm":"way/1382629531"},"geometry":{"type":"LineString","coordinates":[[10.13207,47.22373],[10.13316,47.22347],[10.13516,47.22377]]}},{"type":"Feature","properties":{"kind":"piste","difficulty":"easy","name":null,"aerialway":null,"osm":"way/1382629533"},"geometry":{"type":"LineString","coordinates":[[10.13653,47.2208],[10.13689,47.22071]]}},{"type":"Feature","properties":{"kind":"piste","difficulty":"easy","name":null,"aerialway":null,"osm":"way/1382669652"},"geometry":{"type":"LineString","coordinates":[[10.14135,47.22045],[10.1409,47.22014],[10.14128,47.21986]]}},{"type":"Feature","properties":{"kind":"piste","difficulty":"easy","name":null,"aerialway":null,"osm":"way/1382694523"},"geometry":{"type":"LineString","coordinates":[[10.13579,47.22178],[10.1351,47.22085],[10.13501,47.22041],[10.13561,47.21965],[10.13575,47.21888]]}},{"type":"Feature","properties":{"kind":"piste","difficulty":"easy","name":null,"aerialway":null,"osm":"way/1382762644"},"geometry":{"type":"LineString","coordinates":[[10.12508,47.21864],[10.12634,47.2182],[10.12775,47.21741],[10.12799,47.21707]]}},{"type":"Feature","properties":{"kind":"piste","difficulty":"intermediate","name":null,"aerialway":null,"osm":"way/1382766014"},"geometry":{"type":"LineString","coordinates":[[10.13147,47.21918],[10.13411,47.21954]]}},{"type":"Feature","properties":{"kind":"piste","difficulty":"advanced","name":null,"aerialway":null,"osm":"way/1382943125"},"geometry":{"type":"LineString","coordinates":[[10.1624,47.2069],[10.16316,47.20707],[10.16465,47.20695],[10.16575,47.20671],[10.16627,47.20678],[10.16729,47.20811],[10.16949,47.21034],[10.16968,47.21089],[10.16938,47.21244],[10.16838,47.21338],[10.16707,47.21422],[10.16704,47.21431],[10.16745,47.21464],[10.16721,47.21492],[10.16329,47.21574],[10.16076,47.21701],[10.15977,47.21707],[10.15814,47.21741],[10.15704,47.2174],[10.15627,47.2176],[10.15575,47.21788],[10.15543,47.21787],[10.15483,47.2176],[10.15429,47.21661],[10.15407,47.21577],[10.15124,47.21277],[10.14846,47.21289],[10.14773,47.21277],[10.14731,47.21233],[10.14588,47.21237],[10.14734,47.21226],[10.14757,47.21237],[10.14778,47.21271],[10.14848,47.21284],[10.15056,47.21282],[10.15121,47.21266],[10.15406,47.21565],[10.15468,47.21727],[10.15504,47.21765],[10.15548,47.21781],[10.1567,47.21736],[10.15839,47.21729],[10.15973,47.217],[10.16059,47.21697],[10.16333,47.21556],[10.16706,47.21488],[10.16731,47.21466],[10.16687,47.21431],[10.1669,47.21413],[10.16839,47.21299],[10.16922,47.21216],[10.16947,47.21092],[10.16926,47.21042],[10.1677,47.20892],[10.16611,47.20695],[10.16526,47.20692],[10.16424,47.20715],[10.16326,47.2072],[10.16242,47.2071],[10.1624,47.2069]]}},{"type":"Feature","properties":{"kind":"piste","difficulty":"easy","name":null,"aerialway":null,"osm":"way/1383017480"},"geometry":{"type":"LineString","coordinates":[[10.11204,47.21788],[10.11227,47.21807],[10.11317,47.21815],[10.11364,47.21834]]}},{"type":"Feature","properties":{"kind":"piste","difficulty":"easy","name":null,"aerialway":null,"osm":"way/1383017482"},"geometry":{"type":"LineString","coordinates":[[10.11364,47.21834],[10.11521,47.21828]]}},{"type":"Feature","properties":{"kind":"piste","difficulty":"easy","name":null,"aerialway":null,"osm":"way/1383848533"},"geometry":{"type":"LineString","coordinates":[[10.12721,47.21639],[10.12703,47.21648]]}},{"type":"Feature","properties":{"kind":"piste","difficulty":"easy","name":null,"aerialway":null,"osm":"way/1383848534"},"geometry":{"type":"LineString","coordinates":[[10.12756,47.21666],[10.12807,47.21689],[10.12799,47.21707],[10.12765,47.21701]]}},{"type":"Feature","properties":{"kind":"piste","difficulty":"easy","name":null,"aerialway":null,"osm":"way/1383848535"},"geometry":{"type":"LineString","coordinates":[[10.11521,47.21828],[10.11539,47.21825]]}},{"type":"Feature","properties":{"kind":"piste","difficulty":"easy","name":null,"aerialway":null,"osm":"way/1383848536"},"geometry":{"type":"LineString","coordinates":[[10.11309,47.21695],[10.1139,47.21713],[10.11457,47.21798],[10.11494,47.21819],[10.11647,47.21826]]}},{"type":"Feature","properties":{"kind":"piste","difficulty":"easy","name":null,"aerialway":null,"osm":"way/1383848539"},"geometry":{"type":"LineString","coordinates":[[10.12328,47.22183],[10.12362,47.22209],[10.12279,47.22196]]}},{"type":"Feature","properties":{"kind":"piste","difficulty":"easy","name":null,"aerialway":null,"osm":"way/1383854900"},"geometry":{"type":"LineString","coordinates":[[10.14464,47.20926],[10.14452,47.20925]]}},{"type":"Feature","properties":{"kind":"piste","difficulty":"easy","name":null,"aerialway":null,"osm":"way/1383854901"},"geometry":{"type":"LineString","coordinates":[[10.14477,47.20925],[10.14453,47.21028]]}},{"type":"Feature","properties":{"kind":"piste","difficulty":"intermediate","name":null,"aerialway":null,"osm":"way/1384195717"},"geometry":{"type":"LineString","coordinates":[[10.12678,47.17597],[10.1271,47.17628],[10.12848,47.17632],[10.13,47.17663],[10.13053,47.17694],[10.13125,47.17674],[10.13214,47.17694],[10.13299,47.17684],[10.13303,47.17699],[10.13279,47.17727],[10.13326,47.17737],[10.13391,47.17728],[10.13432,47.17662],[10.13489,47.1762],[10.13534,47.17606]]}},{"type":"Feature","properties":{"kind":"piste","difficulty":"intermediate","name":null,"aerialway":null,"osm":"way/1384291369"},"geometry":{"type":"LineString","coordinates":[[10.11073,47.19886],[10.11143,47.19905]]}},{"type":"Feature","properties":{"kind":"piste","difficulty":"intermediate","name":"Skiroute - Madloch - Zug","aerialway":null,"osm":"way/1384291371"},"geometry":{"type":"LineString","coordinates":[[10.11205,47.19901],[10.11175,47.1988],[10.11124,47.19869],[10.11098,47.19874],[10.11094,47.19887]]}},{"type":"Feature","properties":{"kind":"piste","difficulty":"easy","name":null,"aerialway":null,"osm":"way/1460163810"},"geometry":{"type":"LineString","coordinates":[[10.11647,47.21826],[10.11713,47.21803],[10.11883,47.21784],[10.11963,47.21803]]}},{"type":"Feature","properties":{"kind":"piste","difficulty":"easy","name":null,"aerialway":null,"osm":"way/1460163811"},"geometry":{"type":"LineString","coordinates":[[10.11963,47.21803],[10.12005,47.21848],[10.12022,47.21912],[10.12015,47.21943]]}},{"type":"Feature","properties":{"kind":"piste","difficulty":"easy","name":null,"aerialway":null,"osm":"relation/19054913"},"geometry":{"type":"MultiLineString","coordinates":[[[10.13634,47.217],[10.13733,47.2165],[10.13797,47.21635],[10.13746,47.21569]],[[10.14164,47.20981],[10.14159,47.21022],[10.14145,47.21037],[10.13788,47.21182],[10.13664,47.21256],[10.13544,47.21349],[10.13548,47.21369],[10.13631,47.21391],[10.13668,47.21499],[10.13746,47.21569]],[[10.14164,47.20981],[10.14165,47.2096]],[[10.14165,47.2096],[10.14165,47.20932],[10.14146,47.20927],[10.14097,47.20951],[10.14017,47.20959],[10.14002,47.20919],[10.14016,47.20885],[10.13986,47.20919],[10.13982,47.20948],[10.13877,47.20938],[10.14019,47.20975],[10.13965,47.21015],[10.13752,47.211],[10.13764,47.21034],[10.13792,47.21002],[10.13785,47.20961],[10.13825,47.20939],[10.13699,47.20932],[10.13645,47.20996],[10.13579,47.21033],[10.13599,47.20964],[10.13596,47.20927],[10.13578,47.20866],[10.13589,47.20855],[10.13563,47.20839],[10.13262,47.21097],[10.13135,47.21224],[10.13124,47.21219],[10.13128,47.21227],[10.13087,47.21264],[10.12931,47.2132],[10.12853,47.21382],[10.12789,47.21411]],[[10.12789,47.21411],[10.12705,47.21409],[10.12659,47.21426],[10.12541,47.21548]],[[10.12541,47.21548],[10.1252,47.21636]],[[10.1252,47.21636],[10.12502,47.21646]],[[10.12502,47.21646],[10.12417,47.21679],[10.12382,47.21738]],[[10.11271,47.22991],[10.11248,47.22969],[10.11202,47.22953],[10.11095,47.22953],[10.10859,47.22874],[10.10619,47.22875],[10.10449,47.2285],[10.10388,47.22818],[10.10359,47.22715],[10.10236,47.22661],[10.10214,47.22636],[10.10218,47.22625],[10.10247,47.22642],[10.10389,47.22659],[10.10422,47.22789],[10.1044,47.22818],[10.10608,47.22852],[10.10831,47.22835],[10.10896,47.22846],[10.11051,47.22922],[10.11257,47.2294],[10.1133,47.22912],[10.11312,47.22879],[10.1134,47.22825],[10.11411,47.22785],[10.11488,47.22761],[10.11521,47.22681],[10.1136,47.22727],[10.11091,47.22737],[10.10882,47.22508],[10.10799,47.22471],[10.10731,47.22463],[10.10739,47.22437],[10.10896,47.22497],[10.11003,47.22597],[10.1108,47.22708],[10.11151,47.22717],[10.11344,47.22706],[10.11525,47.22656],[10.11574,47.2258],[10.11528,47.22498],[10.11531,47.22474],[10.11554,47.22446],[10.11766,47.22339],[10.11873,47.22309],[10.12068,47.2223],[10.12146,47.22174],[10.11894,47.22176],[10.11788,47.22151],[10.11584,47.22074],[10.11528,47.22083],[10.11486,47.22115],[10.11436,47.22126],[10.11265,47.22098],[10.11169,47.22061],[10.11172,47.22025],[10.11211,47.22014],[10.11281,47.21969],[10.11429,47.21959],[10.11558,47.21871],[10.11546,47.21856],[10.11523,47.21865],[10.11501,47.2184],[10.11375,47.2184],[10.11319,47.21819],[10.11233,47.21812],[10.11149,47.21778],[10.1103,47.2177],[10.10772,47.21694],[10.10499,47.21644],[10.10262,47.21539],[10.10135,47.21542],[10.10119,47.21504],[10.10196,47.21532],[10.10289,47.21503],[10.10333,47.21511],[10.10445,47.21575],[10.10622,47.21646],[10.10799,47.21677],[10.11178,47.21777],[10.11304,47.2175],[10.11315,47.2172],[10.11241,47.21655],[10.1121,47.21587],[10.11213,47.21554],[10.11142,47.21476],[10.1112,47.2139],[10.11072,47.21313],[10.10799,47.21096],[10.10735,47.21079],[10.10754,47.21076],[10.1076,47.21059],[10.10804,47.21081],[10.11008,47.21242],[10.11106,47.21255],[10.11226,47.21343],[10.11379,47.21373],[10.11391,47.21389],[10.11384,47.21402],[10.11423,47.21411],[10.11396,47.21421],[10.11335,47.21387],[10.11259,47.21381],[10.11202,47.21356],[10.1109,47.21274],[10.11076,47.21293],[10.11123,47.21372],[10.11159,47.21468],[10.11188,47.21502],[10.11258,47.21542],[10.11253,47.21597],[10.11289,47.21654],[10.11399,47.21692],[10.11434,47.2172],[10.11494,47.21805],[10.11662,47.21811],[10.11875,47.21776],[10.11938,47.21788],[10.12092,47.21786],[10.12179,47.21805],[10.12195,47.21785],[10.12217,47.21782],[10.12302,47.21802],[10.12355,47.21775],[10.12382,47.21738]],[[10.11206,47.22994],[10.11271,47.22991]],[[10.11278,47.22991],[10.11239,47.23002],[10.11206,47.22994]],[[10.11278,47.22991],[10.11283,47.22977],[10.11269,47.2296],[10.11351,47.22918],[10.11334,47.22886],[10.11346,47.22843],[10.11595,47.22731],[10.1156,47.22698],[10.11611,47.22608],[10.1158,47.22546],[10.11581,47.22457],[10.11714,47.22408],[10.1181,47.22339],[10.12,47.22293],[10.1217,47.22177],[10.12321,47.22197],[10.12319,47.22205],[10.12358,47.22215],[10.12371,47.22236],[10.12375,47.22208],[10.12388,47.22209],[10.1249,47.22252],[10.12548,47.22434],[10.12546,47.2246],[10.126,47.22557],[10.12717,47.22679],[10.12749,47.22696],[10.12779,47.2269],[10.12765,47.22675],[10.12775,47.22673],[10.12771,47.22659],[10.12743,47.22652],[10.12694,47.22612],[10.12723,47.22602],[10.12767,47.22612],[10.12793,47.22656],[10.12803,47.22655],[10.12795,47.22628],[10.12743,47.22597],[10.12684,47.22594],[10.12636,47.22557],[10.12619,47.22474],[10.12621,47.22381],[10.12566,47.22203],[10.12688,47.22326],[10.12779,47.22354],[10.12796,47.22369],[10.12814,47.22437],[10.12865,47.22458],[10.12943,47.22466],[10.13051,47.22456],[10.13233,47.22379],[10.13296,47.22417],[10.13306,47.22434],[10.13302,47.22486],[10.13323,47.22501],[10.13453,47.224],[10.13573,47.22375],[10.13633,47.22325],[10.1387,47.22431],[10.1401,47.22444],[10.1405,47.22429],[10.14154,47.22322],[10.14195,47.22254],[10.14186,47.22105],[10.1414,47.2201],[10.14258,47.21816],[10.1444,47.2161],[10.1451,47.21484],[10.146,47.21408],[10.14603,47.21393],[10.14573,47.21344],[10.14502,47.21285],[10.1453,47.21263],[10.14499,47.21285],[10.14564,47.21345],[10.14588,47.21402],[10.14495,47.21474],[10.14392,47.21632],[10.14275,47.21722],[10.14207,47.21805],[10.14111,47.21839],[10.14017,47.21833],[10.13656,47.22078],[10.13536,47.22043],[10.13519,47.22026],[10.13574,47.21978],[10.13582,47.21926],[10.13612,47.2187],[10.13607,47.21824],[10.13543,47.21791],[10.1353,47.21764],[10.13549,47.21727],[10.13636,47.2173],[10.13646,47.21721],[10.13634,47.217]],[[10.12602,47.21862],[10.12591,47.2186],[10.12602,47.21862]],[[10.14077,47.22354],[10.13994,47.22419],[10.13901,47.2242],[10.13823,47.22402],[10.13649,47.22303],[10.13595,47.22195],[10.13598,47.2217],[10.13648,47.22109],[10.1389,47.21973],[10.14056,47.21859],[10.14198,47.21838],[10.14084,47.22007],[10.14085,47.22022],[10.14143,47.22087],[10.14168,47.22238],[10.14158,47.22264],[10.14077,47.22354]],[[10.14115,47.22013],[10.141,47.22017],[10.14115,47.22013]],[[10.13737,47.21582],[10.13766,47.21608],[10.1376,47.21629],[10.13736,47.21631],[10.13737,47.21582]],[[10.13601,47.21676],[10.13554,47.21689],[10.13526,47.21673],[10.13542,47.21651],[10.13584,47.2164],[10.13595,47.21652],[10.13644,47.21645],[10.13635,47.21668],[10.13601,47.21676]],[[10.1361,47.21694],[10.13627,47.21714],[10.13612,47.21722],[10.13565,47.21713],[10.1361,47.21694]],[[10.13489,47.22019],[10.13501,47.2209],[10.13591,47.22235],[10.13582,47.22332],[10.13566,47.22357],[10.13511,47.22369],[10.13356,47.22341],[10.13271,47.22341],[10.13191,47.22363],[10.13049,47.22431],[10.12882,47.22448],[10.12834,47.22442],[10.12818,47.22428],[10.12799,47.22353],[10.12692,47.22311],[10.12542,47.22147],[10.12527,47.2211],[10.12485,47.2207],[10.12418,47.22038],[10.12445,47.21998],[10.12465,47.21929],[10.12509,47.21909],[10.1279,47.21936],[10.13012,47.21916],[10.13185,47.21935],[10.13397,47.21886],[10.13561,47.21899],[10.13546,47.21963],[10.13526,47.21995],[10.13489,47.22019]],[[10.12677,47.21814],[10.12656,47.21838],[10.12678,47.21856],[10.12988,47.21869],[10.13189,47.21904],[10.13383,47.21872],[10.13535,47.21873],[10.13555,47.2185],[10.13517,47.21816],[10.13497,47.21773],[10.13515,47.21736],[10.13509,47.21678],[10.13524,47.21646],[10.1355,47.21632],[10.13686,47.21625],[10.13714,47.21564],[10.13665,47.2152],[10.13621,47.21402],[10.13537,47.21378],[10.13519,47.21358],[10.13589,47.21297],[10.1356,47.21243],[10.13248,47.2139],[10.13162,47.21386],[10.13,47.21474],[10.12864,47.21511],[10.1283,47.21626],[10.12796,47.21664],[10.12834,47.21679],[10.12844,47.21702],[10.12822,47.21697],[10.12793,47.21744],[10.12677,47.21814]],[[10.13557,47.22054],[10.1365,47.22082],[10.13592,47.22122],[10.13552,47.22117],[10.13532,47.22104],[10.13513,47.22059],[10.13515,47.22047],[10.13557,47.22054]],[[10.13255,47.22371],[10.13305,47.22416],[10.13315,47.22493],[10.13457,47.22382],[10.13332,47.2236],[10.13255,47.22371]],[[10.12332,47.22158],[10.12329,47.22079],[10.12361,47.22063],[10.12463,47.22201],[10.12348,47.22176],[10.12332,47.22158]],[[10.11245,47.22052],[10.11214,47.22047],[10.11217,47.22038],[10.11264,47.22021],[10.11292,47.21983],[10.11445,47.21962],[10.11512,47.21913],[10.11673,47.21833],[10.11959,47.21807],[10.11995,47.21838],[10.1202,47.21959],[10.12207,47.21986],[10.12253,47.22006],[10.12288,47.22148],[10.12285,47.22162],[10.12206,47.22147],[10.11929,47.22159],[10.11806,47.22133],[10.11722,47.22081],[10.11629,47.22056],[10.11544,47.22055],[10.11433,47.22099],[10.11245,47.22052]],[[10.1235,47.22038],[10.12321,47.22006],[10.12349,47.22],[10.12368,47.22027],[10.1235,47.22038]],[[10.12214,47.2194],[10.12168,47.21956],[10.12248,47.21981],[10.12214,47.2194]],[[10.12207,47.21929],[10.12165,47.21856],[10.12225,47.21821],[10.11981,47.2181],[10.12014,47.21852],[10.12028,47.21946],[10.121,47.21932],[10.12155,47.2195],[10.12207,47.21929]],[[10.12274,47.21942],[10.123,47.21921],[10.12366,47.21909],[10.12426,47.21921],[10.12416,47.2194],[10.12345,47.21982],[10.12267,47.21966],[10.12253,47.21956],[10.12274,47.21942]],[[10.12228,47.21877],[10.12223,47.21862],[10.12192,47.21866],[10.12195,47.21882],[10.12228,47.21877]],[[10.13091,47.21287],[10.13012,47.21309],[10.12952,47.2135],[10.131,47.21293],[10.13126,47.2128],[10.13091,47.21287]],[[10.12926,47.21409],[10.12889,47.21443],[10.12978,47.21421],[10.13151,47.21346],[10.13182,47.21316],[10.12979,47.21379],[10.12926,47.21409]],[[10.13994,47.21038],[10.14119,47.2098],[10.14146,47.20992],[10.14147,47.21013],[10.14095,47.21033],[10.13994,47.21038]],[[10.14157,47.2096],[10.14144,47.20954],[10.14157,47.2096]],[[10.13558,47.20882],[10.13537,47.20917],[10.13424,47.21029],[10.13416,47.21057],[10.13497,47.21073],[10.13543,47.21052],[10.13581,47.20959],[10.13558,47.20882]],[[10.13448,47.2108],[10.13486,47.21094],[10.13476,47.21109],[10.13326,47.21199],[10.13149,47.21264],[10.13363,47.21083],[10.134,47.21071],[10.13448,47.2108]],[[10.12647,47.21586],[10.12637,47.21584],[10.12647,47.21586]],[[10.12718,47.21651],[10.12687,47.21636],[10.12691,47.21627],[10.12741,47.21626],[10.12751,47.21637],[10.12718,47.21651]],[[10.12562,47.21649],[10.12542,47.2169],[10.12427,47.2172],[10.1244,47.21687],[10.12518,47.21654],[10.12562,47.21649]],[[10.12779,47.21711],[10.12723,47.21693],[10.12789,47.21692],[10.12779,47.21711]],[[10.12771,47.21715],[10.12744,47.21746],[10.12636,47.21795],[10.12562,47.2181],[10.12474,47.21807],[10.12473,47.21776],[10.12535,47.21719],[10.12669,47.21718],[10.12717,47.217],[10.12771,47.21715]],[[10.12688,47.21694],[10.12624,47.21713],[10.12562,47.21697],[10.12577,47.21674],[10.12632,47.21671],[10.12688,47.21694]],[[10.11702,47.21814],[10.11884,47.21787],[10.1191,47.21795],[10.11818,47.21814],[10.11702,47.21814]],[[10.11388,47.21739],[10.11422,47.21793],[10.11473,47.21829],[10.11385,47.21835],[10.1121,47.21794],[10.11231,47.21778],[10.11301,47.21764],[10.11337,47.21734],[10.11388,47.21739]]]}},{"type":"Feature","properties":{"kind":"piste","difficulty":"intermediate","name":null,"aerialway":null,"osm":"relation/19062156"},"geometry":{"type":"MultiLineString","coordinates":[[[10.10233,47.22624],[10.10228,47.22634],[10.10247,47.22642],[10.10389,47.22659],[10.10396,47.22633],[10.10479,47.22643],[10.1058,47.22689],[10.10625,47.22729],[10.10681,47.22755],[10.10751,47.22768],[10.10761,47.22792],[10.10831,47.22835],[10.10896,47.22846],[10.10788,47.22792],[10.10772,47.22754],[10.10951,47.22697],[10.10991,47.22695],[10.11069,47.22724],[10.11054,47.22697],[10.10972,47.22682],[10.10794,47.22729],[10.10691,47.22736],[10.1065,47.22723],[10.10598,47.2268],[10.10491,47.22623],[10.10608,47.2262],[10.10636,47.22608],[10.10685,47.22546],[10.10745,47.22422],[10.10826,47.22304],[10.10929,47.22236],[10.10986,47.22156],[10.10993,47.22125],[10.11019,47.22103],[10.11125,47.22055],[10.11169,47.22061],[10.11172,47.22025],[10.10891,47.21932],[10.10738,47.21911],[10.1063,47.21809],[10.10579,47.21707],[10.10539,47.21657],[10.10465,47.21635],[10.10634,47.21851],[10.10505,47.22061],[10.10479,47.22134],[10.10481,47.22198],[10.10502,47.22221],[10.10697,47.223],[10.10758,47.22341],[10.10661,47.22525],[10.10613,47.22583],[10.10574,47.22604],[10.10468,47.22614],[10.10379,47.22593],[10.10307,47.22541],[10.10263,47.22448],[10.10236,47.22427],[10.10167,47.22406],[10.10131,47.22359],[10.10129,47.22325],[10.10148,47.22304],[10.10305,47.22286],[10.10326,47.2227],[10.10334,47.22244],[10.10333,47.22191],[10.10275,47.22155],[10.10243,47.22119],[10.10215,47.21992],[10.10193,47.21664],[10.10168,47.21547],[10.10135,47.21542],[10.1015,47.21601],[10.1015,47.2172],[10.10175,47.21839],[10.10187,47.22066],[10.10076,47.22031],[10.10046,47.21995],[10.10045,47.21832],[10.10005,47.21583],[10.10074,47.21522],[10.1012,47.21517],[10.10119,47.21504],[10.10016,47.21523],[10.09981,47.21546],[10.09991,47.21687],[10.09972,47.21769],[10.09996,47.21867],[10.09995,47.2197],[10.10008,47.22013],[10.1007,47.22061],[10.10195,47.22118],[10.10233,47.22166],[10.10303,47.22201],[10.10283,47.22251],[10.10254,47.22277],[10.10113,47.22302],[10.10092,47.22346],[10.10102,47.22399],[10.102,47.22461],[10.10223,47.22497],[10.10233,47.22624]],[[10.1108,47.22708],[10.11151,47.22717],[10.11306,47.22646],[10.11346,47.2261],[10.11405,47.22478],[10.11577,47.22358],[10.11622,47.22344],[10.11753,47.22346],[10.11812,47.22324],[10.11647,47.22318],[10.11553,47.22337],[10.11377,47.22468],[10.11355,47.22497],[10.11336,47.22559],[10.11273,47.22633],[10.11198,47.22677],[10.1108,47.22708]],[[10.11292,47.23],[10.11574,47.22884],[10.11587,47.22858],[10.11594,47.22772],[10.11702,47.22656],[10.11766,47.22517],[10.11821,47.22452],[10.11989,47.22351],[10.12192,47.2218],[10.1217,47.22177],[10.11964,47.22324],[10.11764,47.22443],[10.11714,47.22511],[10.11649,47.22667],[10.11595,47.22731],[10.11567,47.22745],[10.11543,47.22804],[10.11537,47.22874],[10.11375,47.22941],[10.11269,47.2296],[10.11284,47.22987],[10.11262,47.23],[10.11206,47.22991],[10.11206,47.23001],[10.11244,47.23007],[10.11292,47.23]],[[10.10289,47.21503],[10.10188,47.21481],[10.10153,47.21455],[10.10089,47.21435],[10.09983,47.21352],[10.09914,47.21315],[10.0989,47.21185],[10.0981,47.21072],[10.09829,47.21018],[10.09781,47.20961],[10.09668,47.20893],[10.09657,47.20838],[10.09673,47.20796],[10.09631,47.20751],[10.09466,47.20481],[10.09465,47.20333],[10.09478,47.20298],[10.09507,47.2027],[10.09537,47.20201],[10.09694,47.20159],[10.09686,47.20135],[10.09649,47.20121],[10.09731,47.20071],[10.10537,47.20008],[10.10572,47.19992],[10.10592,47.19954],[10.11003,47.1992],[10.11051,47.19896],[10.10999,47.19915],[10.10945,47.19908],[10.10575,47.19948],[10.10548,47.19998],[10.10303,47.20007],[10.09732,47.20055],[10.09624,47.20113],[10.09635,47.20139],[10.09681,47.20156],[10.09529,47.202],[10.09456,47.20309],[10.09455,47.20484],[10.09615,47.20742],[10.0966,47.20791],[10.09647,47.20847],[10.0966,47.20901],[10.09774,47.2097],[10.09815,47.21019],[10.09799,47.21083],[10.09896,47.21234],[10.09894,47.21313],[10.09912,47.21337],[10.10013,47.21384],[10.10065,47.21434],[10.10177,47.21493],[10.1024,47.21522],[10.10289,47.21503]],[[10.1077,47.22316],[10.10539,47.22207],[10.10515,47.2218],[10.10526,47.22089],[10.10656,47.21871],[10.10841,47.2204],[10.1095,47.22108],[10.10864,47.2223],[10.1077,47.22316]],[[10.10992,47.22098],[10.10937,47.22082],[10.10884,47.22046],[10.10758,47.21928],[10.10863,47.21939],[10.10938,47.21977],[10.11123,47.22038],[10.10992,47.22098]]]}},{"type":"Feature","properties":{"kind":"piste","difficulty":"intermediate","name":null,"aerialway":null,"osm":"relation/19064857"},"geometry":{"type":"MultiLineString","coordinates":[[[10.13424,47.21971],[10.13527,47.21928],[10.13561,47.21899],[10.13477,47.21896],[10.13483,47.21914],[10.1347,47.21929],[10.13388,47.21944],[10.13232,47.21916],[10.13185,47.21935],[10.13314,47.21956],[10.13014,47.22017],[10.1283,47.21932],[10.1279,47.21936],[10.12982,47.22026],[10.13029,47.22036],[10.13259,47.22029],[10.13424,47.21971]],[[10.13606,47.21902],[10.13593,47.21902],[10.13606,47.21887],[10.13759,47.21947],[10.13813,47.21924],[10.13889,47.2192],[10.1387,47.21933],[10.13822,47.21928],[10.13752,47.21952],[10.13606,47.21902]]]}},{"type":"Feature","properties":{"kind":"piste","difficulty":"intermediate","name":null,"aerialway":null,"osm":"relation/19064858"},"geometry":{"type":"MultiLineString","coordinates":[[[10.12914,47.21711],[10.13043,47.21718],[10.13103,47.21629],[10.13148,47.21586],[10.13226,47.21569],[10.13269,47.21566],[10.13418,47.21592],[10.1353,47.2164],[10.13575,47.21632],[10.13517,47.21616],[10.13513,47.21596],[10.13485,47.21589],[10.13208,47.21549],[10.13148,47.21563],[10.13017,47.21661],[10.12834,47.21679],[10.12844,47.21702],[10.12832,47.21725],[10.12805,47.21719],[10.1277,47.21761],[10.12914,47.21711]],[[10.12959,47.21698],[10.13065,47.21673],[10.13033,47.21714],[10.12959,47.21698]]]}},{"type":"Feature","properties":{"kind":"piste","difficulty":"easy","name":null,"aerialway":null,"osm":"relation/19064859"},"geometry":{"type":"MultiLineString","coordinates":[[[10.14447,47.20969],[10.14448,47.21026],[10.1446,47.21032],[10.1447,47.20979],[10.14513,47.20931],[10.14767,47.20808],[10.14793,47.20775],[10.14835,47.20752],[10.14842,47.20718],[10.14792,47.20684],[10.1468,47.20734],[10.14554,47.20812],[10.1445,47.20935],[10.14447,47.20969]],[[10.14797,47.20691],[10.14815,47.20738],[10.14758,47.20774],[10.14736,47.20808],[10.14486,47.20918],[10.14507,47.20886],[10.14797,47.20691]]]}},{"type":"Feature","properties":{"kind":"piste","difficulty":"intermediate","name":null,"aerialway":null,"osm":"relation/19091642"},"geometry":{"type":"MultiLineString","coordinates":[[[10.11294,47.1826],[10.11249,47.1834],[10.11237,47.18409],[10.11192,47.18517],[10.11116,47.18637],[10.11148,47.18782],[10.11194,47.18718],[10.11219,47.18703],[10.11324,47.18708],[10.11356,47.18675],[10.11404,47.18654],[10.11583,47.18628],[10.11607,47.18615],[10.11629,47.18568],[10.11646,47.18469],[10.11618,47.18394],[10.1143,47.18326],[10.11294,47.1826]],[[10.12109,47.17667],[10.12106,47.17648],[10.12088,47.17644],[10.12026,47.1769],[10.11999,47.17758],[10.11973,47.1778],[10.11722,47.17765],[10.11649,47.17794],[10.11519,47.17821],[10.11367,47.17923],[10.11294,47.18066],[10.11305,47.18153],[10.11293,47.18232],[10.11431,47.18317],[10.11637,47.18384],[10.11678,47.18468],[10.11679,47.18515],[10.11653,47.1861],[10.11636,47.18625],[10.11549,47.18651],[10.11429,47.18659],[10.11338,47.18719],[10.11268,47.18721],[10.11218,47.18791],[10.11177,47.18895],[10.11205,47.1898],[10.11259,47.19012],[10.11412,47.19054],[10.11634,47.19165],[10.11821,47.192],[10.12004,47.19273],[10.12107,47.19362],[10.12253,47.19426],[10.1233,47.19479],[10.12365,47.19557],[10.1244,47.1961],[10.12578,47.19687],[10.12719,47.19741],[10.12749,47.19784],[10.12784,47.19809],[10.12928,47.19841],[10.13084,47.19912],[10.1311,47.19926],[10.1314,47.19995],[10.13653,47.20255],[10.13725,47.20326],[10.13732,47.20376],[10.1371,47.20418],[10.13721,47.20376],[10.13715,47.20329],[10.13645,47.20259],[10.13409,47.20149],[10.1311,47.19989],[10.13101,47.1993],[10.13081,47.19914],[10.12925,47.19851],[10.12772,47.19814],[10.12704,47.19743],[10.1259,47.19701],[10.12393,47.19599],[10.12329,47.19537],[10.12325,47.19486],[10.12255,47.19435],[10.12094,47.19364],[10.12001,47.19278],[10.11828,47.19208],[10.11634,47.19172],[10.1149,47.19106],[10.11621,47.192],[10.11812,47.19291],[10.11828,47.19308],[10.11824,47.19335],[10.11744,47.19433],[10.11584,47.19494],[10.11572,47.19537],[10.11607,47.19588],[10.11604,47.19608],[10.11584,47.19611],[10.11462,47.19568],[10.11389,47.19588],[10.11425,47.19664],[10.11479,47.19718],[10.11483,47.19736],[10.11362,47.19747],[10.11304,47.198],[10.11255,47.19811],[10.11262,47.19879],[10.11239,47.19901],[10.11157,47.19902],[10.11167,47.19881],[10.11113,47.19873],[10.11102,47.19879],[10.11116,47.19894],[10.11073,47.19886],[10.11116,47.19865],[10.11177,47.19875],[10.11208,47.19896],[10.1124,47.19882],[10.1125,47.19868],[10.1124,47.19813],[10.11291,47.19793],[10.11274,47.19754],[10.11389,47.19705],[10.11405,47.19687],[10.11387,47.19633],[10.11359,47.19597],[10.11363,47.19573],[10.11529,47.19503],[10.11548,47.19463],[10.11599,47.19435],[10.1161,47.19407],[10.11608,47.1937],[10.11522,47.19312],[10.11497,47.19271],[10.11489,47.19239],[10.11508,47.19162],[10.11498,47.19144],[10.11424,47.19081],[10.11277,47.19048],[10.1118,47.19001],[10.11155,47.18964],[10.111,47.18792],[10.11077,47.18629],[10.1118,47.18413],[10.11203,47.18324],[10.11245,47.18263],[10.11255,47.18143],[10.11239,47.18086],[10.11253,47.18047],[10.11321,47.17984],[10.1135,47.1791],[10.1141,47.17887],[10.11508,47.17818],[10.11653,47.17788],[10.11756,47.17748],[10.11974,47.17767],[10.11998,47.17745],[10.1201,47.17696]],[[10.1201,47.17696],[10.12008,47.17659],[10.12063,47.17628],[10.12186,47.17657],[10.12239,47.1764],[10.12296,47.1758],[10.12485,47.17545],[10.12607,47.17562],[10.12663,47.17555],[10.12693,47.1757],[10.12686,47.17597],[10.12701,47.176],[10.13025,47.17576],[10.13139,47.17591],[10.13313,47.17576],[10.13436,47.17605],[10.13535,47.17603],[10.13578,47.17593],[10.13626,47.17559],[10.13702,47.17553],[10.13899,47.17663],[10.13957,47.17687],[10.1401,47.17691],[10.14006,47.17706],[10.13873,47.17672],[10.13799,47.1761],[10.13703,47.17559],[10.13637,47.17564],[10.13606,47.17591],[10.13489,47.17623],[10.13425,47.17671],[10.13415,47.17708],[10.13395,47.17728],[10.1335,47.17739],[10.13275,47.17732],[10.13302,47.17691],[10.13289,47.17685],[10.13203,47.17695],[10.13123,47.17676],[10.13047,47.17696],[10.12994,47.17664],[10.12825,47.1763],[10.12697,47.17628],[10.1267,47.17604],[10.12679,47.17572],[10.12658,47.17561],[10.12581,47.17565],[10.12488,47.17549],[10.12303,47.17583],[10.12234,47.1765],[10.12109,47.17667]],[[10.17886,47.16913],[10.17615,47.16932],[10.17542,47.16983],[10.1754,47.16934],[10.17598,47.16911],[10.17865,47.16881],[10.17886,47.16913]],[[10.16331,47.15832],[10.16168,47.15788],[10.15942,47.15823],[10.15773,47.15787],[10.15593,47.15775],[10.15368,47.15692],[10.15161,47.15717],[10.15041,47.15746],[10.14943,47.15786],[10.14645,47.15834],[10.14435,47.15892],[10.14388,47.15924],[10.14403,47.15965],[10.14381,47.1602],[10.14343,47.16065],[10.14152,47.16194],[10.13886,47.16325],[10.13799,47.16317],[10.13522,47.16186],[10.13495,47.16216],[10.13454,47.16304],[10.1351,47.16416],[10.13487,47.16466],[10.13498,47.16486],[10.13458,47.16473],[10.13474,47.16465],[10.13493,47.16419],[10.13444,47.16309],[10.13511,47.16173],[10.13557,47.16168],[10.13801,47.16282],[10.13867,47.16295],[10.142,47.16146],[10.14279,47.16092],[10.14385,47.15978],[10.14389,47.1596],[10.14363,47.15889],[10.14453,47.15849],[10.14602,47.15815],[10.14916,47.15776],[10.15144,47.15703],[10.15361,47.1568],[10.15495,47.15709],[10.15557,47.15751],[10.15802,47.15773],[10.15923,47.15802],[10.16089,47.15785],[10.16158,47.15758],[10.16369,47.15817],[10.16449,47.15826],[10.16418,47.15851],[10.16411,47.15885],[10.16462,47.15978],[10.16466,47.16102],[10.16426,47.16336],[10.1639,47.16445],[10.16352,47.16654],[10.16344,47.1677],[10.16355,47.16791],[10.16336,47.16768],[10.16346,47.16654],[10.16434,47.16218],[10.16453,47.16005],[10.16389,47.15879],[10.16331,47.15832]],[[10.15157,47.17479],[10.15232,47.17495],[10.15281,47.17531],[10.1557,47.17543],[10.15544,47.17573],[10.15395,47.17553],[10.15458,47.17601],[10.15433,47.1761],[10.15387,47.17567],[10.15133,47.17653],[10.14957,47.17678],[10.14868,47.17722],[10.14717,47.17759],[10.14499,47.17779],[10.14419,47.17764],[10.14193,47.17768],[10.14135,47.17751],[10.14727,47.17736],[10.14972,47.17668],[10.15303,47.17547],[10.15264,47.17542],[10.1521,47.17499],[10.15169,47.17493],[10.14919,47.17543],[10.14821,47.17535],[10.14771,47.175],[10.14722,47.17397],[10.1468,47.17364],[10.14647,47.17355],[10.14473,47.17344],[10.14334,47.17383],[10.14283,47.17423],[10.14268,47.17413],[10.14332,47.17367],[10.14427,47.17337],[10.14532,47.17233],[10.1482,47.17138],[10.14851,47.17119],[10.14926,47.17015],[10.15146,47.16926],[10.1533,47.16886],[10.15438,47.16897],[10.15482,47.16913],[10.15617,47.17009],[10.1587,47.17133],[10.15947,47.17143],[10.16129,47.17139],[10.1617,47.17167],[10.15914,47.17162],[10.15914,47.17255],[10.15861,47.17295],[10.15657,47.17258],[10.15332,47.17244],[10.15188,47.17271],[10.15094,47.17304],[10.14727,47.1737],[10.14795,47.17477],[10.14797,47.175],[10.14835,47.17519],[10.14935,47.17521],[10.15157,47.17479]],[[10.17995,47.15384],[10.18075,47.15371],[10.18172,47.15402],[10.18206,47.15456],[10.18208,47.15481],[10.18173,47.15529],[10.18178,47.15568],[10.18124,47.15646],[10.18068,47.15709],[10.18004,47.15753],[10.17929,47.15844],[10.17838,47.15913],[10.17773,47.15933],[10.17676,47.15908],[10.17431,47.15936],[10.1742,47.15948],[10.17418,47.15992],[10.17373,47.16033],[10.17331,47.16049],[10.17296,47.16103],[10.17212,47.16131],[10.17173,47.16174],[10.17132,47.16172],[10.17076,47.16276],[10.17101,47.16422],[10.17029,47.1637],[10.17,47.16318],[10.16967,47.1632],[10.16948,47.16405],[10.1691,47.16454],[10.16692,47.16496],[10.16586,47.16567],[10.16505,47.1664],[10.165,47.1669],[10.1646,47.16736],[10.16453,47.16772],[10.16431,47.16795],[10.16442,47.16811],[10.16467,47.16781],[10.16473,47.16736],[10.16527,47.16658],[10.1668,47.16524],[10.16741,47.16497],[10.16924,47.16459],[10.16958,47.16412],[10.16984,47.16319],[10.17019,47.16375],[10.17085,47.16435],[10.17111,47.16433],[10.17093,47.16282],[10.17145,47.16179],[10.17157,47.16201],[10.17177,47.16207],[10.17194,47.16164],[10.17258,47.16135],[10.17287,47.16184],[10.17288,47.16237],[10.1733,47.16259],[10.17377,47.1627],[10.17472,47.16241],[10.17523,47.16187],[10.1757,47.1616],[10.17596,47.16097],[10.17604,47.16024],[10.17668,47.15971],[10.17713,47.15951],[10.17808,47.15947],[10.17937,47.15883],[10.1806,47.15864],[10.18235,47.15811],[10.18619,47.15667],[10.18664,47.15679],[10.18668,47.15692],[10.18637,47.15718],[10.18571,47.15837],[10.18521,47.15888],[10.18423,47.15932],[10.18402,47.15953],[10.18478,47.15993],[10.18578,47.16021],[10.18551,47.16118],[10.18504,47.1617],[10.18533,47.16158],[10.18567,47.161],[10.1859,47.1601],[10.1844,47.15971],[10.18413,47.1595],[10.18543,47.15878],[10.18582,47.15835],[10.18642,47.15731],[10.18688,47.15695],[10.18685,47.15682],[10.18617,47.15636],[10.18586,47.15639],[10.1807,47.15844],[10.17938,47.15867],[10.17989,47.15811],[10.18017,47.15754],[10.18072,47.15716],[10.18151,47.15629],[10.18186,47.15572],[10.18181,47.15537],[10.1821,47.15505],[10.18218,47.15468],[10.1818,47.15398],[10.18041,47.15356],[10.17993,47.15355],[10.17995,47.15384]],[[10.17946,47.17122],[10.1789,47.17103],[10.17592,47.17102],[10.17542,47.17055],[10.17535,47.17021],[10.1757,47.17048],[10.17614,47.17057],[10.17721,47.17054],[10.17936,47.17073],[10.17946,47.17122]],[[10.17515,47.17031],[10.17472,47.16976],[10.17397,47.16938],[10.17185,47.1699],[10.16952,47.17139],[10.16796,47.17212],[10.16696,47.17224],[10.16684,47.1719],[10.16807,47.17196],[10.16832,47.17175],[10.16942,47.17131],[10.17215,47.16936],[10.17268,47.16921],[10.1743,47.16922],[10.17517,47.16973],[10.17515,47.17031]],[[10.18199,47.16016],[10.18091,47.16071],[10.18021,47.16128],[10.18025,47.16187],[10.17994,47.16269],[10.18026,47.16318],[10.18087,47.16349],[10.18098,47.16374],[10.18097,47.1641],[10.18076,47.16459],[10.18036,47.16488],[10.17989,47.16501],[10.18047,47.16493],[10.18091,47.16453],[10.1811,47.16385],[10.181,47.16349],[10.18044,47.16328],[10.18003,47.16272],[10.18033,47.16193],[10.18027,47.16131],[10.18104,47.1607],[10.18196,47.16022]],[[10.18196,47.16022],[10.18199,47.16016]],[[10.18058,47.1723],[10.1805,47.17279],[10.17992,47.17379],[10.17865,47.17496],[10.17835,47.17545],[10.1782,47.17606],[10.17824,47.17664],[10.17774,47.17826],[10.17641,47.17876],[10.1756,47.17877],[10.17456,47.17948],[10.17338,47.1795],[10.17283,47.17927],[10.17277,47.17908],[10.1729,47.17903],[10.173,47.17932],[10.17317,47.17938],[10.17386,47.17944],[10.17452,47.17934],[10.17551,47.17873],[10.17629,47.17869],[10.17668,47.17836],[10.17755,47.17796],[10.17766,47.17724],[10.17802,47.17655],[10.17787,47.17593],[10.17799,47.17532],[10.17825,47.17489],[10.17955,47.1736],[10.18007,47.1729],[10.18015,47.17259],[10.18016,47.1722],[10.17863,47.17325],[10.17663,47.17419],[10.17493,47.17557],[10.17452,47.17615],[10.17344,47.17671],[10.17357,47.17642],[10.17427,47.17611],[10.17612,47.17412],[10.17338,47.17508],[10.17334,47.17491],[10.17489,47.17431],[10.17513,47.17407],[10.17953,47.17233],[10.17978,47.17217],[10.17971,47.17206],[10.18011,47.17164],[10.18153,47.17054],[10.18175,47.17017],[10.18243,47.17003],[10.18248,47.17012],[10.18221,47.17015],[10.18209,47.1703],[10.18253,47.17029],[10.1825,47.17019],[10.18269,47.17016],[10.18274,47.1703],[10.1814,47.17093],[10.18045,47.17189],[10.1806,47.17207],[10.18058,47.1723]],[[10.11544,47.19193],[10.11511,47.19222],[10.11517,47.19267],[10.11557,47.19319],[10.11657,47.19376],[10.1166,47.19412],[10.11631,47.19449],[10.11667,47.19439],[10.11697,47.19418],[10.11753,47.19344],[10.11756,47.19308],[10.11544,47.19193]],[[10.17264,47.16132],[10.17306,47.1611],[10.17339,47.16061],[10.17397,47.16035],[10.17467,47.15937],[10.1767,47.15925],[10.17714,47.15945],[10.17597,47.16013],[10.17566,47.16134],[10.17466,47.16232],[10.17382,47.1626],[10.17302,47.16235],[10.17293,47.16185],[10.17264,47.16132]],[[10.16374,47.15824],[10.16403,47.15875],[10.16426,47.15825],[10.16374,47.15824]],[[10.11473,47.19561],[10.11594,47.19594],[10.11563,47.19537],[10.11562,47.19512],[10.1152,47.19549],[10.11473,47.19561]],[[10.13501,47.1761],[10.13433,47.1761],[10.13323,47.17583],[10.1318,47.17596],[10.13025,47.17584],[10.12686,47.17608],[10.12707,47.17626],[10.12794,47.1762],[10.12998,47.1766],[10.13045,47.1769],[10.13125,47.17672],[10.13226,47.17693],[10.13295,47.17681],[10.13307,47.17695],[10.1328,47.17725],[10.13319,47.17734],[10.134,47.17718],[10.13421,47.17669],[10.13501,47.1761]],[[10.15886,47.1726],[10.15903,47.17228],[10.15892,47.17159],[10.157,47.17067],[10.1564,47.17055],[10.15418,47.16922],[10.15348,47.16907],[10.15195,47.16921],[10.14991,47.16988],[10.1494,47.1702],[10.14855,47.17133],[10.14539,47.17248],[10.14496,47.17286],[10.14468,47.17333],[10.148,47.17345],[10.15017,47.17287],[10.15101,47.17284],[10.15206,47.1724],[10.15322,47.17214],[10.15549,47.1722],[10.15886,47.1726]]]}},{"type":"Feature","properties":{"kind":"lift","difficulty":null,"name":"Schlosskopfbahn","aerialway":"chair_lift","osm":"way/29494021"},"geometry":{"type":"LineString","coordinates":[[10.14592,47.2126],[10.1391,47.22419]]}},{"type":"Feature","properties":{"kind":"lift","difficulty":null,"name":"Schlegelkopfbahn I","aerialway":"chair_lift","osm":"way/29494022"},"geometry":{"type":"LineString","coordinates":[[10.14123,47.21016],[10.12721,47.21639]]}},{"type":"Feature","properties":{"kind":"lift","difficulty":null,"name":"Übungslift Oberlech","aerialway":"platter","osm":"way/46732262"},"geometry":{"type":"LineString","coordinates":[[10.1402,47.21831],[10.13597,47.22118]]}},{"type":"Feature","properties":{"kind":"lift","difficulty":null,"name":"Kriegerhornbahn","aerialway":"chair_lift","osm":"way/46732267"},"geometry":{"type":"LineString","coordinates":[[10.12765,47.21701],[10.11397,47.21395]]}},{"type":"Feature","properties":{"kind":"lift","difficulty":null,"name":"Weibermahd","aerialway":"mixed_lift","osm":"way/46732281"},"geometry":{"type":"LineString","coordinates":[[10.12792,47.22673],[10.12348,47.22023]]}},{"type":"Feature","properties":{"kind":"lift","difficulty":null,"name":"Rüfikopfbahn I","aerialway":"cable_car","osm":"way/105896648"},"geometry":{"type":"LineString","coordinates":[[10.14243,47.20798],[10.16633,47.20237]]}},{"type":"Feature","properties":{"kind":"lift","difficulty":null,"name":"Rüfikopfbahn II","aerialway":"cable_car","osm":"way/105896650"},"geometry":{"type":"LineString","coordinates":[[10.14254,47.20786],[10.16694,47.20156]]}},{"type":"Feature","properties":{"kind":"lift","difficulty":null,"name":"Schlegelkopfbahn II","aerialway":"chair_lift","osm":"way/105896652"},"geometry":{"type":"LineString","coordinates":[[10.14109,47.20994],[10.12587,47.21615]]}},{"type":"Feature","properties":{"kind":"lift","difficulty":null,"name":"Bergbahn Lech - Oberlech","aerialway":"cable_car","osm":"way/127674171"},"geometry":{"type":"LineString","coordinates":[[10.1428,47.21129],[10.13608,47.21706]]}},{"type":"Feature","properties":{"kind":"lift","difficulty":null,"name":"Petersbodenbahn","aerialway":"chair_lift","osm":"way/127683356"},"geometry":{"type":"LineString","coordinates":[[10.13588,47.2167],[10.1221,47.21872]]}},{"type":"Feature","properties":{"kind":"lift","difficulty":null,"name":"Rotschrofenbahn","aerialway":"chair_lift","osm":"way/127683357"},"geometry":{"type":"LineString","coordinates":[[10.1236,47.22238],[10.11206,47.22991]]}},{"type":"Feature","properties":{"kind":"lift","difficulty":null,"name":"Balmengratlift","aerialway":"rope_tow","osm":"way/149174684"},"geometry":{"type":"LineString","coordinates":[[10.10799,47.21096],[10.10983,47.21246]]}},{"type":"Feature","properties":{"kind":"lift","difficulty":null,"name":"Hasensprungbahn","aerialway":"chair_lift","osm":"way/155516904"},"geometry":{"type":"LineString","coordinates":[[10.12279,47.22196],[10.11231,47.22045]]}},{"type":"Feature","properties":{"kind":"lift","difficulty":null,"name":"Steinmähderbahn","aerialway":"chair_lift","osm":"way/155516907"},"geometry":{"type":"LineString","coordinates":[[10.10121,47.21523],[10.10225,47.22618]]}},{"type":"Feature","properties":{"kind":"lift","difficulty":null,"name":"Zugerbergbahn","aerialway":"gondola","osm":"way/156311727"},"geometry":{"type":"LineString","coordinates":[[10.11143,47.19905],[10.10749,47.2106]]}},{"type":"Feature","properties":{"kind":"lift","difficulty":null,"name":"Hinterwieslift","aerialway":"t-bar","osm":"way/338652956"},"geometry":{"type":"LineString","coordinates":[[10.13548,47.20843],[10.13081,47.21258]]}},{"type":"Feature","properties":{"kind":"lift","difficulty":null,"name":"Flühenlift","aerialway":"platter","osm":"way/338654664"},"geometry":{"type":"LineString","coordinates":[[10.14452,47.20925],[10.14827,47.20671]]}},{"type":"Feature","properties":{"kind":"lift","difficulty":null,"name":null,"aerialway":"chair_lift","osm":"way/368336422"},"geometry":{"type":"LineString","coordinates":[[10.13749,47.17554],[10.13748,47.17544],[10.13766,47.17543],[10.13767,47.17553],[10.13749,47.17554]]}},{"type":"Feature","properties":{"kind":"lift","difficulty":null,"name":"Madlochbahn","aerialway":"chair_lift","osm":"way/908555787"},"geometry":{"type":"LineString","coordinates":[[10.14097,47.17606],[10.12125,47.17673]]}}]}