{"type":"FeatureCollection","features":[{"type":"Feature","properties":{"kind":"piste","difficulty":"intermediate","name":"Stieralp-Piste","aerialway":null,"osm":"way/23538189"},"geometry":{"type":"LineString","coordinates":[[10.22778,47.34935],[10.22828,47.34909],[10.22963,47.34931],[10.23017,47.34956],[10.23243,47.3489],[10.23248,47.34875],[10.23206,47.34812],[10.23214,47.34788],[10.23204,47.34689]]}},{"type":"Feature","properties":{"kind":"piste","difficulty":"intermediate","name":null,"aerialway":null,"osm":"way/23538485"},"geometry":{"type":"LineString","coordinates":[[10.22778,47.34935],[10.23062,47.35032]]}},{"type":"Feature","properties":{"kind":"piste","difficulty":"intermediate","name":"Schlappold-Abfahrt","aerialway":null,"osm":"way/29289032"},"geometry":{"type":"LineString","coordinates":[[10.23062,47.35032],[10.23152,47.351],[10.23295,47.35157],[10.23561,47.35319],[10.23726,47.35362],[10.23809,47.35367],[10.24091,47.35339],[10.24111,47.35309],[10.24115,47.3523],[10.24146,47.35231],[10.24207,47.35265],[10.24313,47.35278],[10.24608,47.35275],[10.24722,47.35288],[10.24763,47.3525]]}},{"type":"Feature","properties":{"kind":"piste","difficulty":"intermediate","name":"2-Länder-Piste","aerialway":null,"osm":"way/29289041"},"geometry":{"type":"LineString","coordinates":[[10.20377,47.33689],[10.20485,47.33685],[10.20562,47.3372],[10.20584,47.33736],[10.20617,47.33811],[10.20672,47.33891],[10.20771,47.33929],[10.20987,47.33961]]}},{"type":"Feature","properties":{"kind":"piste","difficulty":"easy","name":"Walsergund-Piste","aerialway":null,"osm":"way/29289042"},"geometry":{"type":"LineString","coordinates":[[10.2119,47.33973],[10.21296,47.33949],[10.21471,47.33941],[10.21679,47.3395],[10.21794,47.33975],[10.21939,47.33976],[10.22033,47.34014],[10.2222,47.34117],[10.22343,47.34112],[10.2235,47.34125],[10.22329,47.34135]]}},{"type":"Feature","properties":{"kind":"piste","difficulty":"intermediate","name":"Möser-Piste","aerialway":null,"osm":"way/29289044"},"geometry":{"type":"LineString","coordinates":[[10.21343,47.34632],[10.21462,47.3455],[10.21691,47.3443],[10.21815,47.34315],[10.21881,47.34209],[10.22038,47.34082],[10.22069,47.34067],[10.22118,47.34068]]}},{"type":"Feature","properties":{"kind":"piste","difficulty":"intermediate","name":"Standard-Piste","aerialway":null,"osm":"way/29289045"},"geometry":{"type":"LineString","coordinates":[[10.21224,47.34433],[10.21246,47.34392],[10.21304,47.34347],[10.21399,47.34108],[10.21483,47.34014],[10.217,47.33974],[10.21794,47.33975]]}},{"type":"Feature","properties":{"kind":"piste","difficulty":"intermediate","name":"Talabfahrt Kanzelwand","aerialway":null,"osm":"way/29289047"},"geometry":{"type":"LineString","coordinates":[[10.20366,47.33686],[10.2032,47.33596],[10.20234,47.33527],[10.20148,47.33487],[10.19976,47.33285],[10.19889,47.33261],[10.19809,47.33272],[10.19789,47.33289],[10.19755,47.33485],[10.19725,47.33538],[10.19661,47.33595],[10.19607,47.33624],[10.19538,47.33693],[10.19469,47.33703],[10.19423,47.33725],[10.19228,47.33966],[10.19044,47.34136],[10.18999,47.3424],[10.18993,47.34287],[10.19004,47.34359],[10.18989,47.34435],[10.19012,47.3455],[10.18993,47.34595],[10.18997,47.34689],[10.18982,47.34755],[10.18952,47.34812],[10.18866,47.34882],[10.18862,47.34934],[10.19022,47.35115],[10.19083,47.35224],[10.19128,47.35258],[10.19143,47.35321],[10.19073,47.3541],[10.19009,47.35442],[10.18871,47.35393],[10.18826,47.35394],[10.18782,47.35414]]}},{"type":"Feature","properties":{"kind":"piste","difficulty":"intermediate","name":null,"aerialway":null,"osm":"way/29289049"},"geometry":{"type":"LineString","coordinates":[[10.21302,47.34507],[10.21286,47.34515],[10.21372,47.3462]]}},{"type":"Feature","properties":{"kind":"piste","difficulty":"easy","name":null,"aerialway":null,"osm":"way/29289050"},"geometry":{"type":"LineString","coordinates":[[10.22576,47.34907],[10.2272,47.34911],[10.22778,47.34935]]}},{"type":"Feature","properties":{"kind":"piste","difficulty":"intermediate","name":"Lifttrasse","aerialway":null,"osm":"way/29289051"},"geometry":{"type":"LineString","coordinates":[[10.22861,47.34715],[10.2305,47.34611],[10.23066,47.34596],[10.23073,47.34533],[10.23088,47.34511],[10.23162,47.34478]]}},{"type":"Feature","properties":{"kind":"piste","difficulty":"intermediate","name":"Heubichl-Piste","aerialway":null,"osm":"way/29289053"},"geometry":{"type":"LineString","coordinates":[[10.21372,47.3462],[10.21444,47.34638],[10.21476,47.3463],[10.21462,47.3455],[10.21564,47.34513],[10.21627,47.34517],[10.21826,47.3458],[10.21803,47.34559],[10.218,47.34536],[10.21887,47.34433],[10.22187,47.34256],[10.22228,47.34205],[10.22258,47.34135],[10.22324,47.34105]]}},{"type":"Feature","properties":{"kind":"piste","difficulty":"easy","name":"Kessler-Hang","aerialway":null,"osm":"way/29881368"},"geometry":{"type":"LineString","coordinates":[[10.18945,47.35346],[10.18906,47.35405],[10.18845,47.35426],[10.1862,47.35563],[10.18523,47.35597],[10.18534,47.3558]]}},{"type":"Feature","properties":{"kind":"piste","difficulty":"easy","name":"Walsergund-Piste","aerialway":null,"osm":"way/29881373"},"geometry":{"type":"LineString","coordinates":[[10.22152,47.34281],[10.22232,47.34345],[10.2227,47.34299],[10.22304,47.34281],[10.22323,47.34287],[10.22416,47.34383],[10.22556,47.34455],[10.22573,47.3448],[10.22563,47.34505],[10.22589,47.3452],[10.22679,47.34509],[10.22726,47.34527],[10.2287,47.34532],[10.23079,47.34473],[10.23264,47.34474],[10.23324,47.34502]]}},{"type":"Feature","properties":{"kind":"piste","difficulty":"advanced","name":"Route Buckelpiste Zweiländer","aerialway":null,"osm":"way/30423503"},"geometry":{"type":"LineString","coordinates":[[10.20562,47.3372],[10.20685,47.33707],[10.20889,47.33825],[10.20987,47.33914],[10.20987,47.33961]]}},{"type":"Feature","properties":{"kind":"piste","difficulty":"intermediate","name":"Katzenkopf-Piste","aerialway":null,"osm":"way/30423504"},"geometry":{"type":"LineString","coordinates":[[10.2116,47.34366],[10.21167,47.34206],[10.21137,47.34137],[10.2119,47.33973]]}},{"type":"Feature","properties":{"kind":"piste","difficulty":"intermediate","name":"2-Länder-Piste","aerialway":null,"osm":"way/30423505"},"geometry":{"type":"LineString","coordinates":[[10.20548,47.33629],[10.20562,47.3372]]}},{"type":"Feature","properties":{"kind":"piste","difficulty":"advanced","name":"Branntwein-Piste","aerialway":null,"osm":"way/30423507"},"geometry":{"type":"LineString","coordinates":[[10.22653,47.34905],[10.22685,47.34824],[10.22776,47.34743],[10.22861,47.34715],[10.2311,47.34723],[10.23204,47.34689],[10.23263,47.34652],[10.23337,47.34573]]}},{"type":"Feature","properties":{"kind":"piste","difficulty":"easy","name":"Parsenn-Abfahrt","aerialway":null,"osm":"way/33242978"},"geometry":{"type":"LineString","coordinates":[[10.16208,47.34855],[10.16172,47.34858],[10.16179,47.34869],[10.1629,47.34903],[10.16406,47.34994],[10.16481,47.35033],[10.16558,47.35047],[10.16628,47.35037],[10.16766,47.35067],[10.16855,47.35132],[10.17298,47.35324],[10.17554,47.35406],[10.17653,47.3541],[10.1777,47.35489],[10.17771,47.35508],[10.17745,47.35502]]}},{"type":"Feature","properties":{"kind":"piste","difficulty":"novice","name":null,"aerialway":null,"osm":"way/33242992"},"geometry":{"type":"LineString","coordinates":[[10.17192,47.35147],[10.17154,47.35143],[10.17098,47.35116],[10.17098,47.35105]]}},{"type":"Feature","properties":{"kind":"piste","difficulty":"easy","name":"Sonnenhang Piste","aerialway":null,"osm":"way/33243002"},"geometry":{"type":"LineString","coordinates":[[10.17192,47.35147],[10.17317,47.35195],[10.17333,47.35223],[10.17329,47.3525],[10.17348,47.35268],[10.17524,47.35327],[10.17653,47.3541]]}},{"type":"Feature","properties":{"kind":"piste","difficulty":"easy","name":"Ideallift-Abfahrt","aerialway":null,"osm":"way/33400105"},"geometry":{"type":"LineString","coordinates":[[10.18705,47.35285],[10.18694,47.35313],[10.18547,47.35418],[10.18378,47.35492],[10.18338,47.35497]]}},{"type":"Feature","properties":{"kind":"piste","difficulty":"easy","name":"Ideallift-Abfahrt","aerialway":null,"osm":"way/33400143"},"geometry":{"type":"LineString","coordinates":[[10.18705,47.35285],[10.18638,47.35294],[10.18514,47.3536],[10.18333,47.35472],[10.18338,47.35497]]}},{"type":"Feature","properties":{"kind":"piste","difficulty":"easy","name":"Ideallift-Abfahrt","aerialway":null,"osm":"way/33400175"},"geometry":{"type":"LineString","coordinates":[[10.18672,47.35476],[10.18533,47.35424],[10.18439,47.35424],[10.18312,47.35458],[10.1827,47.35448],[10.18091,47.35476]]}},{"type":"Feature","properties":{"kind":"piste","difficulty":"intermediate","name":"Funpark Crystal Ground","aerialway":null,"osm":"way/33400358"},"geometry":{"type":"LineString","coordinates":[[10.18747,47.35485],[10.18771,47.35525],[10.18775,47.35556],[10.1876,47.35577],[10.18681,47.35586],[10.1862,47.35563]]}},{"type":"Feature","properties":{"kind":"piste","difficulty":"easy","name":null,"aerialway":null,"osm":"way/33400610"},"geometry":{"type":"LineString","coordinates":[[10.18945,47.35346],[10.18914,47.35345],[10.18814,47.35391],[10.18595,47.35518],[10.18485,47.35538],[10.18452,47.35574]]}},{"type":"Feature","properties":{"kind":"piste","difficulty":"easy","name":"Schwandlift-Piste","aerialway":null,"osm":"way/33400847"},"geometry":{"type":"LineString","coordinates":[[10.19105,47.35369],[10.19258,47.35528],[10.19306,47.3556]]}},{"type":"Feature","properties":{"kind":"piste","difficulty":"easy","name":"Schwandlift-Piste","aerialway":null,"osm":"way/33400855"},"geometry":{"type":"LineString","coordinates":[[10.19361,47.3557],[10.19278,47.35564],[10.19159,47.35652],[10.19157,47.35664],[10.19239,47.35727],[10.1924,47.35746],[10.19217,47.35768],[10.19118,47.35797],[10.19056,47.35798]]}},{"type":"Feature","properties":{"kind":"piste","difficulty":"easy","name":"Schwandlift-Piste","aerialway":null,"osm":"way/33400865"},"geometry":{"type":"LineString","coordinates":[[10.19306,47.3556],[10.19215,47.35525],[10.19012,47.35475],[10.18951,47.35444],[10.18915,47.3541]]}},{"type":"Feature","properties":{"kind":"piste","difficulty":"intermediate","name":"Schwandlift-Piste","aerialway":null,"osm":"way/33400912"},"geometry":{"type":"LineString","coordinates":[[10.19157,47.35664],[10.19043,47.35769],[10.19038,47.35786],[10.19056,47.35798]]}},{"type":"Feature","properties":{"kind":"piste","difficulty":"intermediate","name":"Schwandlift-Piste","aerialway":null,"osm":"way/33400915"},"geometry":{"type":"LineString","coordinates":[[10.19361,47.3557],[10.19369,47.35578],[10.19355,47.35612],[10.19317,47.35664],[10.19322,47.35718],[10.19312,47.35743],[10.19247,47.35774],[10.19163,47.35786]]}},{"type":"Feature","properties":{"kind":"piste","difficulty":"intermediate","name":"Damen-Abfahrt","aerialway":null,"osm":"way/33401579"},"geometry":{"type":"LineString","coordinates":[[10.21436,47.34567],[10.21492,47.34491],[10.21554,47.34449],[10.21607,47.34384],[10.2167,47.3426],[10.21774,47.34107],[10.21832,47.34067],[10.22062,47.34032]]}},{"type":"Feature","properties":{"kind":"piste","difficulty":"intermediate","name":null,"aerialway":null,"osm":"way/98041153"},"geometry":{"type":"LineString","coordinates":[[10.20599,47.33638],[10.20548,47.33629],[10.20366,47.33686]]}},{"type":"Feature","properties":{"kind":"piste","difficulty":"intermediate","name":null,"aerialway":null,"osm":"way/98041185"},"geometry":{"type":"LineString","coordinates":[[10.2024,47.3373],[10.20366,47.33686]]}},{"type":"Feature","properties":{"kind":"piste","difficulty":"easy","name":null,"aerialway":null,"osm":"way/103057921"},"geometry":{"type":"LineString","coordinates":[[10.16628,47.35037],[10.16837,47.35029],[10.16981,47.35056],[10.17098,47.35116],[10.17144,47.35221],[10.17216,47.35291]]}},{"type":"Feature","properties":{"kind":"piste","difficulty":"intermediate","name":"2-Länder-Piste","aerialway":null,"osm":"way/148095863"},"geometry":{"type":"LineString","coordinates":[[10.20562,47.3372],[10.20525,47.33805],[10.20527,47.33837],[10.20744,47.33963],[10.20826,47.33979]]}},{"type":"Feature","properties":{"kind":"piste","difficulty":"easy","name":"Bierenwangpiste","aerialway":null,"osm":"way/158795531"},"geometry":{"type":"LineString","coordinates":[[10.22183,47.34308],[10.22241,47.34286],[10.22304,47.34281]]}},{"type":"Feature","properties":{"kind":"piste","difficulty":"intermediate","name":null,"aerialway":null,"osm":"way/305192207"},"geometry":{"type":"LineString","coordinates":[[10.20123,47.33767],[10.20153,47.33747],[10.20217,47.33732]]}},{"type":"Feature","properties":{"kind":"piste","difficulty":"easy","name":"Obere Geren-Piste","aerialway":null,"osm":"way/305259727"},"geometry":{"type":"LineString","coordinates":[[10.21603,47.34816],[10.21534,47.3481],[10.21368,47.34681],[10.21286,47.34515],[10.21224,47.34433],[10.20901,47.34109],[10.20799,47.34024],[10.20799,47.33993],[10.20906,47.33963],[10.20987,47.33961],[10.21088,47.33989],[10.2119,47.33973],[10.21142,47.33963]]}},{"type":"Feature","properties":{"kind":"piste","difficulty":"intermediate","name":null,"aerialway":null,"osm":"way/464204753"},"geometry":{"type":"LineString","coordinates":[[10.22854,47.34954],[10.23061,47.34969],[10.23124,47.34997],[10.23174,47.35039]]}},{"type":"Feature","properties":{"kind":"piste","difficulty":"easy","name":"Schwandalp-Piste","aerialway":null,"osm":"way/464204754"},"geometry":{"type":"LineString","coordinates":[[10.23062,47.35032],[10.23174,47.35039],[10.23512,47.35095],[10.2358,47.35099],[10.23591,47.35085],[10.23547,47.34861],[10.23452,47.34777],[10.2332,47.34524],[10.23287,47.34487],[10.2326,47.34481]]}},{"type":"Feature","properties":{"kind":"piste","difficulty":"advanced","name":"Buckelpiste Heubichl","aerialway":null,"osm":"way/476546900"},"geometry":{"type":"LineString","coordinates":[[10.22778,47.34935],[10.22924,47.34923]]}},{"type":"Feature","properties":{"kind":"piste","difficulty":"advanced","name":"Route Katzenkopf","aerialway":null,"osm":"way/476546901"},"geometry":{"type":"LineString","coordinates":[[10.2133,47.34302],[10.21451,47.34187],[10.21506,47.34055],[10.21483,47.34014]]}},{"type":"Feature","properties":{"kind":"piste","difficulty":"advanced","name":"Möserroute","aerialway":null,"osm":"way/476546902"},"geometry":{"type":"LineString","coordinates":[[10.21271,47.34495],[10.21607,47.34384]]}},{"type":"Feature","properties":{"kind":"piste","difficulty":"intermediate","name":"Heubichl-Piste","aerialway":null,"osm":"way/476941836"},"geometry":{"type":"LineString","coordinates":[[10.21974,47.3438],[10.21841,47.34267]]}},{"type":"Feature","properties":{"kind":"piste","difficulty":"easy","name":null,"aerialway":null,"osm":"way/549522664"},"geometry":{"type":"LineString","coordinates":[[10.20295,47.33572],[10.20308,47.33504]]}},{"type":"Feature","properties":{"kind":"piste","difficulty":"easy","name":"Bierenwangpiste","aerialway":null,"osm":"way/549522668"},"geometry":{"type":"LineString","coordinates":[[10.21838,47.34585],[10.21826,47.3458],[10.22128,47.34352],[10.22152,47.34281]]}},{"type":"Feature","properties":{"kind":"piste","difficulty":"intermediate","name":null,"aerialway":null,"osm":"way/550057675"},"geometry":{"type":"LineString","coordinates":[[10.23017,47.34956],[10.23022,47.34967]]}},{"type":"Feature","properties":{"kind":"piste","difficulty":"easy","name":"Famielienabfahrt","aerialway":null,"osm":"way/561465954"},"geometry":{"type":"LineString","coordinates":[[10.23324,47.34502],[10.23364,47.34527],[10.23508,47.34553],[10.23737,47.34649],[10.24012,47.34728],[10.24073,47.34763],[10.24125,47.34826],[10.2436,47.34794],[10.24507,47.34833],[10.24713,47.34984],[10.24795,47.35133]]}},{"type":"Feature","properties":{"kind":"piste","difficulty":"easy","name":null,"aerialway":null,"osm":"way/561465955"},"geometry":{"type":"LineString","coordinates":[[10.22324,47.34105],[10.22357,47.34113],[10.2244,47.34196],[10.22434,47.34286],[10.2248,47.34422]]}},{"type":"Feature","properties":{"kind":"piste","difficulty":"easy","name":null,"aerialway":null,"osm":"way/564225696"},"geometry":{"type":"LineString","coordinates":[[10.22388,47.34142],[10.22418,47.34191],[10.2241,47.34196]]}},{"type":"Feature","properties":{"kind":"piste","difficulty":"easy","name":"Bierenwangpiste","aerialway":null,"osm":"way/564225700"},"geometry":{"type":"LineString","coordinates":[[10.21664,47.34624],[10.2165,47.34631],[10.21613,47.34601],[10.21598,47.34582],[10.21603,47.34568],[10.21779,47.34562]]}},{"type":"Feature","properties":{"kind":"piste","difficulty":"easy","name":"Schwandalp-Piste","aerialway":null,"osm":"way/1061453131"},"geometry":{"type":"LineString","coordinates":[[10.2329,47.34495],[10.23274,47.34492]]}},{"type":"Feature","properties":{"kind":"piste","difficulty":"intermediate","name":null,"aerialway":null,"osm":"way/1061453132"},"geometry":{"type":"LineString","coordinates":[[10.20201,47.33707],[10.20218,47.33718],[10.20213,47.33731],[10.2024,47.3373]]}},{"type":"Feature","properties":{"kind":"piste","difficulty":"easy","name":null,"aerialway":null,"osm":"way/1376994497"},"geometry":{"type":"LineString","coordinates":[[10.23423,47.34725],[10.23484,47.34741],[10.2348,47.34696],[10.23448,47.34647],[10.23479,47.34574],[10.23559,47.34573]]}},{"type":"Feature","properties":{"kind":"piste","difficulty":"easy","name":null,"aerialway":null,"osm":"way/1376994498"},"geometry":{"type":"LineString","coordinates":[[10.23482,47.34709],[10.23382,47.34622],[10.23343,47.34533],[10.23308,47.34506]]}},{"type":"Feature","properties":{"kind":"piste","difficulty":"easy","name":null,"aerialway":null,"osm":"way/1456525233"},"geometry":{"type":"LineString","coordinates":[[10.23309,47.34492],[10.2329,47.34495]]}},{"type":"Feature","properties":{"kind":"piste","difficulty":"easy","name":null,"aerialway":null,"osm":"way/1462133902"},"geometry":{"type":"LineString","coordinates":[[10.1862,47.35563],[10.18516,47.35533]]}},{"type":"Feature","properties":{"kind":"piste","difficulty":"intermediate","name":null,"aerialway":null,"osm":"way/1462138305"},"geometry":{"type":"LineString","coordinates":[[10.22931,47.3496],[10.23017,47.34956]]}},{"type":"Feature","properties":{"kind":"lift","difficulty":null,"name":"Kanzelwandbahn","aerialway":"gondola","osm":"way/23347385"},"geometry":{"type":"LineString","coordinates":[[10.18486,47.35584],[10.20123,47.33767]]}},{"type":"Feature","properties":{"kind":"lift","difficulty":null,"name":"Zweiländerbahn","aerialway":"chair_lift","osm":"way/23347388"},"geometry":{"type":"LineString","coordinates":[[10.21142,47.33963],[10.20599,47.33638]]}},{"type":"Feature","properties":{"kind":"lift","difficulty":null,"name":"Möserbahn","aerialway":"chair_lift","osm":"way/23364412"},"geometry":{"type":"LineString","coordinates":[[10.22329,47.34135],[10.21302,47.34507]]}},{"type":"Feature","properties":{"kind":"lift","difficulty":null,"name":"Fellhornbahn I","aerialway":"cable_car","osm":"way/23364413"},"geometry":{"type":"LineString","coordinates":[[10.26293,47.35231],[10.22707,47.34938]]}},{"type":"Feature","properties":{"kind":"lift","difficulty":null,"name":"See-Eckbahn","aerialway":"chair_lift","osm":"way/23364415"},"geometry":{"type":"LineString","coordinates":[[10.23274,47.34492],[10.22576,47.34907]]}},{"type":"Feature","properties":{"kind":"lift","difficulty":null,"name":"Scheidtobelbahn","aerialway":"chair_lift","osm":"way/23364416"},"geometry":{"type":"LineString","coordinates":[[10.2326,47.34481],[10.21838,47.34585]]}},{"type":"Feature","properties":{"kind":"lift","difficulty":null,"name":"Schwandlift","aerialway":"t-bar","osm":"way/23364420"},"geometry":{"type":"LineString","coordinates":[[10.19051,47.35802],[10.1939,47.35549]]}},{"type":"Feature","properties":{"kind":"lift","difficulty":null,"name":"Fellhornbahn II Upper","aerialway":"gondola","osm":"way/27851846"},"geometry":{"type":"LineString","coordinates":[[10.24862,47.35132],[10.22739,47.34957]]}},{"type":"Feature","properties":{"kind":"lift","difficulty":null,"name":"Kesslerlift","aerialway":"drag_lift","osm":"way/29881365"},"geometry":{"type":"LineString","coordinates":[[10.18521,47.35588],[10.18989,47.35322]]}},{"type":"Feature","properties":{"kind":"lift","difficulty":null,"name":"Parsennbahn","aerialway":"mixed_lift","osm":"way/33236838"},"geometry":{"type":"LineString","coordinates":[[10.17745,47.35502],[10.16208,47.34855]]}},{"type":"Feature","properties":{"kind":"lift","difficulty":null,"name":"Ski-Kuli Parsenn","aerialway":"drag_lift","osm":"way/33242988"},"geometry":{"type":"LineString","coordinates":[[10.17098,47.35105],[10.17192,47.35147]]}},{"type":"Feature","properties":{"kind":"lift","difficulty":null,"name":"Ideallift","aerialway":"drag_lift","osm":"way/33400050"},"geometry":{"type":"LineString","coordinates":[[10.18325,47.35504],[10.18738,47.35267]]}},{"type":"Feature","properties":{"kind":"lift","difficulty":null,"name":"Fellhorn-Gipfelbahn","aerialway":"cable_car","osm":"way/305376946"},"geometry":{"type":"LineString","coordinates":[[10.22677,47.34933],[10.21603,47.34816]]}},{"type":"Feature","properties":{"kind":"lift","difficulty":null,"name":"Bierenwangbahn","aerialway":"chair_lift","osm":"way/561588730"},"geometry":{"type":"LineString","coordinates":[[10.2241,47.34196],[10.21664,47.34624]]}},{"type":"Feature","properties":{"kind":"lift","difficulty":null,"name":null,"aerialway":"zip_line","osm":"way/1421640125"},"geometry":{"type":"LineString","coordinates":[[10.17185,47.35833],[10.17236,47.35837]]}},{"type":"Feature","properties":{"kind":"piste","difficulty":"intermediate","name":"Faistenoy-Abfahrt","aerialway":null,"osm":"way/29289033"},"geometry":{"type":"LineString","coordinates":[[10.24871,47.35239],[10.2492,47.35238],[10.24963,47.35217],[10.25009,47.35168],[10.25039,47.35115],[10.25042,47.35081],[10.25063,47.35074],[10.25138,47.35085],[10.25204,47.35115],[10.25317,47.35117],[10.25336,47.35102],[10.25355,47.34991],[10.25435,47.34976],[10.25667,47.34977],[10.25699,47.35],[10.25715,47.35065],[10.25767,47.35072],[10.25837,47.35049],[10.25895,47.35051],[10.25927,47.35064],[10.25984,47.35115]]}},{"type":"Feature","properties":{"kind":"piste","difficulty":"advanced","name":"Fellhorn-Steilhang","aerialway":null,"osm":"way/29289035"},"geometry":{"type":"LineString","coordinates":[[10.24091,47.35339],[10.24169,47.35338],[10.24592,47.35394],[10.24618,47.35386],[10.24625,47.35363],[10.24602,47.35293],[10.24674,47.35284]]}},{"type":"Feature","properties":{"kind":"piste","difficulty":"intermediate","name":"Faistenoy-Abfahrt","aerialway":null,"osm":"way/30423506"},"geometry":{"type":"LineString","coordinates":[[10.24763,47.3525],[10.24871,47.35239]]}},{"type":"Feature","properties":{"kind":"piste","difficulty":"easy","name":"Wannenköpfle","aerialway":null,"osm":"way/33243709"},"geometry":{"type":"LineString","coordinates":[[10.24908,47.3982],[10.24952,47.39875],[10.24945,47.39892],[10.24799,47.39927],[10.24702,47.40055],[10.24703,47.40097],[10.24674,47.40142],[10.24679,47.40167],[10.247,47.40182],[10.24752,47.4019],[10.24755,47.40177],[10.24726,47.40178]]}},{"type":"Feature","properties":{"kind":"piste","difficulty":"easy","name":"Schrattenwang West","aerialway":null,"osm":"way/33243914"},"geometry":{"type":"LineString","coordinates":[[10.24043,47.37933],[10.24008,47.37944],[10.23834,47.37927],[10.2385,47.37985],[10.23966,47.38113]]}},{"type":"Feature","properties":{"kind":"piste","difficulty":"easy","name":"Schrattenwang Ost","aerialway":null,"osm":"way/33244008"},"geometry":{"type":"LineString","coordinates":[[10.24132,47.37868],[10.24169,47.37901],[10.24212,47.37918],[10.24243,47.37964],[10.24241,47.37982],[10.24127,47.37998],[10.24017,47.38064],[10.23956,47.38131]]}},{"type":"Feature","properties":{"kind":"piste","difficulty":"easy","name":null,"aerialway":null,"osm":"way/33244151"},"geometry":{"type":"LineString","coordinates":[[10.24598,47.39835],[10.24505,47.39865],[10.2449,47.39926],[10.2446,47.39958],[10.24337,47.4]]}},{"type":"Feature","properties":{"kind":"piste","difficulty":"easy","name":null,"aerialway":null,"osm":"way/33244201"},"geometry":{"type":"LineString","coordinates":[[10.24406,47.39196],[10.24377,47.39239],[10.24385,47.39283],[10.24502,47.39392],[10.24561,47.39414]]}},{"type":"Feature","properties":{"kind":"piste","difficulty":"easy","name":"Ochsenhöfle","aerialway":null,"osm":"way/33244242"},"geometry":{"type":"LineString","coordinates":[[10.24162,47.38582],[10.23918,47.38716],[10.23867,47.38731],[10.23806,47.38726]]}},{"type":"Feature","properties":{"kind":"piste","difficulty":"intermediate","name":"Ochsenhöfle","aerialway":null,"osm":"way/33244276"},"geometry":{"type":"LineString","coordinates":[[10.24114,47.38473],[10.23841,47.38728]]}},{"type":"Feature","properties":{"kind":"piste","difficulty":"easy","name":null,"aerialway":null,"osm":"way/33244295"},"geometry":{"type":"LineString","coordinates":[[10.24032,47.38463],[10.23857,47.38345]]}},{"type":"Feature","properties":{"kind":"piste","difficulty":"easy","name":null,"aerialway":null,"osm":"way/33244322"},"geometry":{"type":"LineString","coordinates":[[10.24032,47.38463],[10.24176,47.38636]]}},{"type":"Feature","properties":{"kind":"piste","difficulty":"intermediate","name":"Schrattenwang Ost","aerialway":null,"osm":"way/33244352"},"geometry":{"type":"LineString","coordinates":[[10.24013,47.3821],[10.2394,47.38298],[10.23857,47.38345]]}},{"type":"Feature","properties":{"kind":"piste","difficulty":"easy","name":null,"aerialway":null,"osm":"way/33244380"},"geometry":{"type":"LineString","coordinates":[[10.24096,47.38384],[10.23885,47.38363]]}},{"type":"Feature","properties":{"kind":"piste","difficulty":"intermediate","name":"Höllwies 6","aerialway":null,"osm":"way/33244506"},"geometry":{"type":"LineString","coordinates":[[10.2408,47.38333],[10.2415,47.38338],[10.24171,47.38296],[10.24284,47.38259],[10.24328,47.38261],[10.24402,47.38313],[10.24547,47.38303],[10.24678,47.38344],[10.24834,47.38425],[10.25217,47.38529],[10.25253,47.38552],[10.2523,47.38589],[10.2525,47.38607]]}},{"type":"Feature","properties":{"kind":"piste","difficulty":"easy","name":"Schlappold-Abfahrt","aerialway":null,"osm":"way/33402823"},"geometry":{"type":"LineString","coordinates":[[10.24506,47.35274],[10.24738,47.35124],[10.24774,47.35122],[10.24802,47.35137]]}},{"type":"Feature","properties":{"kind":"piste","difficulty":"easy","name":"Zauberwald","aerialway":null,"osm":"way/52006017"},"geometry":{"type":"LineString","coordinates":[[10.24312,47.38941],[10.24368,47.38986],[10.24406,47.38999],[10.24436,47.39031],[10.24443,47.39063],[10.24507,47.39132],[10.24641,47.39197],[10.24707,47.39325],[10.24698,47.39402],[10.2476,47.39482],[10.24774,47.39525],[10.24776,47.39661],[10.24734,47.39754],[10.2468,47.39812],[10.24598,47.39835]]}},{"type":"Feature","properties":{"kind":"piste","difficulty":"intermediate","name":"Höllwies West","aerialway":null,"osm":"way/52102841"},"geometry":{"type":"LineString","coordinates":[[10.24402,47.38313],[10.24478,47.38363],[10.24619,47.38485],[10.2476,47.38547],[10.24773,47.38668]]}},{"type":"Feature","properties":{"kind":"piste","difficulty":"intermediate","name":"Höllwies 5","aerialway":null,"osm":"way/52102844"},"geometry":{"type":"LineString","coordinates":[[10.24207,47.38707],[10.24282,47.38723],[10.24345,47.38699],[10.24427,47.38704],[10.24502,47.38728],[10.2464,47.38667],[10.24719,47.38656],[10.24875,47.38695],[10.25136,47.38645],[10.25406,47.38673],[10.25483,47.38666]]}},{"type":"Feature","properties":{"kind":"piste","difficulty":"intermediate","name":"Talabfahrt","aerialway":null,"osm":"way/102542592"},"geometry":{"type":"LineString","coordinates":[[10.31379,47.40935],[10.3127,47.40935],[10.31102,47.40999],[10.30904,47.41004],[10.30716,47.40928],[10.30519,47.40885],[10.30398,47.40927],[10.3023,47.40906],[10.30069,47.40904],[10.3001,47.40916],[10.29965,47.40944],[10.29939,47.41026],[10.29946,47.41117],[10.29926,47.4114],[10.29884,47.41141],[10.29824,47.41115],[10.29741,47.41049],[10.29564,47.41057],[10.29543,47.41041],[10.29526,47.40999],[10.29501,47.40875],[10.29357,47.40785],[10.29341,47.40739],[10.2932,47.40723],[10.28948,47.40718],[10.28894,47.40693],[10.28813,47.40686],[10.28661,47.40643],[10.28639,47.40628],[10.28639,47.4061]]}},{"type":"Feature","properties":{"kind":"piste","difficulty":"intermediate","name":"Schrattenwang Ost","aerialway":null,"osm":"way/144546154"},"geometry":{"type":"LineString","coordinates":[[10.24117,47.37856],[10.2414,47.37886],[10.24141,47.37918],[10.24062,47.38041]]}},{"type":"Feature","properties":{"kind":"piste","difficulty":"expert","name":"Schrattenwang West","aerialway":null,"osm":"way/144546155"},"geometry":{"type":"LineString","coordinates":[[10.24117,47.37856],[10.24087,47.37857],[10.24056,47.37895],[10.24043,47.37933],[10.24009,47.37959],[10.23993,47.38024],[10.23936,47.38082],[10.2391,47.38157],[10.23854,47.38252],[10.23849,47.38277],[10.23874,47.38307],[10.23857,47.38345],[10.23845,47.38338],[10.2385,47.38327]]}},{"type":"Feature","properties":{"kind":"piste","difficulty":"easy","name":null,"aerialway":null,"osm":"way/280667807"},"geometry":{"type":"LineString","coordinates":[[10.24802,47.35137],[10.24824,47.3512],[10.24862,47.35132]]}},{"type":"Feature","properties":{"kind":"piste","difficulty":"novice","name":"Söllis Winterweld","aerialway":null,"osm":"way/327987426"},"geometry":{"type":"LineString","coordinates":[[10.24593,47.39934],[10.24682,47.39996],[10.24751,47.40001]]}},{"type":"Feature","properties":{"kind":"piste","difficulty":"easy","name":"Alpe Schrattenwang","aerialway":null,"osm":"way/327987427"},"geometry":{"type":"LineString","coordinates":[[10.24117,47.37856],[10.23959,47.37813],[10.23824,47.37753],[10.23786,47.37752],[10.23752,47.37774],[10.23747,47.3782],[10.23816,47.37882],[10.23834,47.37927]]}},{"type":"Feature","properties":{"kind":"piste","difficulty":"easy","name":"Wannenköpfle","aerialway":null,"osm":"way/327989130"},"geometry":{"type":"LineString","coordinates":[[10.249,47.39903],[10.24857,47.39963],[10.248,47.40152],[10.24755,47.40177]]}},{"type":"Feature","properties":{"kind":"piste","difficulty":"easy","name":"Söllereck","aerialway":null,"osm":"way/328466619"},"geometry":{"type":"LineString","coordinates":[[10.2397,47.38126],[10.23956,47.38131],[10.23968,47.38165],[10.24045,47.3823],[10.24069,47.38286],[10.24114,47.38473],[10.2426,47.38868],[10.24312,47.38941],[10.2436,47.39092],[10.24369,47.39162],[10.24509,47.39299],[10.24516,47.39346],[10.24568,47.39424],[10.24566,47.39453],[10.24651,47.39532],[10.24623,47.39769],[10.24586,47.39861],[10.24581,47.39922]]}},{"type":"Feature","properties":{"kind":"piste","difficulty":"intermediate","name":"Schlappold-Abfahrt","aerialway":null,"osm":"way/550057682"},"geometry":{"type":"LineString","coordinates":[[10.24763,47.3525],[10.24784,47.35205],[10.24781,47.35154],[10.24802,47.35137]]}},{"type":"Feature","properties":{"kind":"piste","difficulty":"intermediate","name":"Faistenoy-Abfahrt","aerialway":null,"osm":"way/550057685"},"geometry":{"type":"LineString","coordinates":[[10.24802,47.35137],[10.24826,47.35138],[10.24845,47.35217],[10.24871,47.35239]]}},{"type":"Feature","properties":{"kind":"piste","difficulty":"intermediate","name":"Faistenoy-Abfahrt","aerialway":null,"osm":"way/550057688"},"geometry":{"type":"LineString","coordinates":[[10.25984,47.35115],[10.26057,47.35175],[10.26238,47.35238],[10.26305,47.35244],[10.26282,47.35249]]}},{"type":"Feature","properties":{"kind":"piste","difficulty":"intermediate","name":"Faistenoy-Abfahrt","aerialway":null,"osm":"way/550057692"},"geometry":{"type":"LineString","coordinates":[[10.25984,47.35115],[10.26128,47.3516],[10.26274,47.35174],[10.26319,47.35214],[10.26313,47.35233]]}},{"type":"Feature","properties":{"kind":"piste","difficulty":"easy","name":null,"aerialway":null,"osm":"way/1462133903"},"geometry":{"type":"LineString","coordinates":[[10.24779,47.35114],[10.24824,47.3512]]}},{"type":"Feature","properties":{"kind":"piste","difficulty":"easy","name":null,"aerialway":null,"osm":"way/1462589771"},"geometry":{"type":"LineString","coordinates":[[10.24158,47.38357],[10.24096,47.38384]]}},{"type":"Feature","properties":{"kind":"piste","difficulty":"easy","name":null,"aerialway":null,"osm":"way/1462589772"},"geometry":{"type":"LineString","coordinates":[[10.24158,47.38357],[10.24157,47.38332]]}},{"type":"Feature","properties":{"kind":"lift","difficulty":null,"name":"Söllereckbahn II","aerialway":"gondola","osm":"way/27117414"},"geometry":{"type":"LineString","coordinates":[[10.24546,47.39914],[10.23982,47.38139]]}},{"type":"Feature","properties":{"kind":"lift","difficulty":null,"name":"Lochwiesenlift","aerialway":"drag_lift","osm":"way/27851820"},"geometry":{"type":"LineString","coordinates":[[10.23854,47.42313],[10.2363,47.42293]]}},{"type":"Feature","properties":{"kind":"lift","difficulty":null,"name":"Ochsenhöflelift","aerialway":"t-bar","osm":"way/33072277"},"geometry":{"type":"LineString","coordinates":[[10.23806,47.38726],[10.24061,47.38429]]}},{"type":"Feature","properties":{"kind":"lift","difficulty":null,"name":"Wannenköpflelift","aerialway":"t-bar","osm":"way/33243651"},"geometry":{"type":"LineString","coordinates":[[10.24726,47.40178],[10.24948,47.3974]]}},{"type":"Feature","properties":{"kind":"lift","difficulty":null,"name":"Nebelhornbahn Sektion I","aerialway":"gondola","osm":"way/60453481"},"geometry":{"type":"LineString","coordinates":[[10.28576,47.40479],[10.31377,47.40894]]}},{"type":"Feature","properties":{"kind":"lift","difficulty":null,"name":"Schrattenwangbahn","aerialway":"chair_lift","osm":"way/144546166"},"geometry":{"type":"LineString","coordinates":[[10.2385,47.38327],[10.24117,47.37856]]}},{"type":"Feature","properties":{"kind":"lift","difficulty":null,"name":null,"aerialway":"drag_lift","osm":"way/229824049"},"geometry":{"type":"LineString","coordinates":[[10.24602,47.40256],[10.24582,47.40116]]}},{"type":"Feature","properties":{"kind":"lift","difficulty":null,"name":null,"aerialway":"drag_lift","osm":"way/229824051"},"geometry":{"type":"LineString","coordinates":[[10.24582,47.40116],[10.24562,47.39982],[10.24597,47.39977]]}},{"type":"Feature","properties":{"kind":"lift","difficulty":null,"name":null,"aerialway":"magic_carpet","osm":"way/327987425"},"geometry":{"type":"LineString","coordinates":[[10.2466,47.39996],[10.2463,47.39974]]}},{"type":"Feature","properties":{"kind":"lift","difficulty":null,"name":null,"aerialway":"drag_lift","osm":"way/516870578"},"geometry":{"type":"LineString","coordinates":[[10.24605,47.40274],[10.24602,47.40256]]}},{"type":"Feature","properties":{"kind":"lift","difficulty":null,"name":null,"aerialway":"magic_carpet","osm":"way/1020082934"},"geometry":{"type":"LineString","coordinates":[[10.2468,47.39982],[10.24616,47.39939]]}},{"type":"Feature","properties":{"kind":"lift","difficulty":null,"name":"Höllwieslift","aerialway":"t-bar","osm":"way/1456313734"},"geometry":{"type":"LineString","coordinates":[[10.2525,47.38607],[10.24097,47.38344]]}},{"type":"Feature","properties":{"kind":"lift","difficulty":null,"name":"Söllereckbahn I","aerialway":"gondola","osm":"way/1482124475"},"geometry":{"type":"LineString","coordinates":[[10.24251,47.40024],[10.24546,47.39914]]}},{"type":"Feature","properties":{"kind":"lift","difficulty":null,"name":"Fellhornbahn II Lower","aerialway":"gondola","osm":"way/1549246474"},"geometry":{"type":"LineString","coordinates":[[10.26282,47.35249],[10.24862,47.35132]]}}]}