{"type":"FeatureCollection","features":[{"type":"Feature","properties":{"kind":"lift","difficulty":null,"name":"Förderband Sunny III","aerialway":"magic_carpet","osm":"way/137308250"},"geometry":{"type":"LineString","coordinates":[[10.35794,47.0667],[10.35715,47.06605]]}},{"type":"Feature","properties":{"kind":"lift","difficulty":null,"name":"Förderband Sunny II","aerialway":"magic_carpet","osm":"way/137308252"},"geometry":{"type":"LineString","coordinates":[[10.35827,47.06596],[10.35818,47.06678]]}},{"type":"Feature","properties":{"kind":"lift","difficulty":null,"name":"Diasbahn","aerialway":"gondola","osm":"way/137308253"},"geometry":{"type":"LineString","coordinates":[[10.3742,47.06036],[10.35933,47.06711]]}},{"type":"Feature","properties":{"kind":"lift","difficulty":null,"name":"Förderband Sunny I","aerialway":"magic_carpet","osm":"way/137308254"},"geometry":{"type":"LineString","coordinates":[[10.35996,47.06569],[10.35832,47.06692]]}},{"type":"Feature","properties":{"kind":"lift","difficulty":null,"name":"Mardinalift","aerialway":"t-bar","osm":"way/137309353"},"geometry":{"type":"LineString","coordinates":[[10.36065,47.0672],[10.35336,47.07529]]}},{"type":"Feature","properties":{"kind":"lift","difficulty":null,"name":"Alblittbahn","aerialway":"chair_lift","osm":"way/137310223"},"geometry":{"type":"LineString","coordinates":[[10.35977,47.0676],[10.34868,47.07533]]}},{"type":"Feature","properties":{"kind":"lift","difficulty":null,"name":"Gongallbahn","aerialway":"chair_lift","osm":"way/137317970"},"geometry":{"type":"LineString","coordinates":[[10.36487,47.07069],[10.34799,47.07622]]}},{"type":"Feature","properties":{"kind":"lift","difficulty":null,"name":"Alblittkopfbahn","aerialway":"chair_lift","osm":"way/137320924"},"geometry":{"type":"LineString","coordinates":[[10.34495,47.07099],[10.33859,47.08463]]}},{"type":"Feature","properties":{"kind":"piste","difficulty":"intermediate","name":null,"aerialway":null,"osm":"way/137366356"},"geometry":{"type":"LineString","coordinates":[[10.36852,47.06892],[10.36987,47.06906],[10.37107,47.06952],[10.37103,47.06996],[10.3715,47.07056],[10.37236,47.07138],[10.37308,47.07165],[10.37324,47.07162],[10.37327,47.07115],[10.37347,47.07098],[10.37526,47.07037],[10.3763,47.06968]]}},{"type":"Feature","properties":{"kind":"piste","difficulty":"intermediate","name":null,"aerialway":null,"osm":"way/141771650"},"geometry":{"type":"LineString","coordinates":[[10.33853,47.08469],[10.33869,47.08465],[10.33885,47.08429]]}},{"type":"Feature","properties":{"kind":"piste","difficulty":"intermediate","name":null,"aerialway":null,"osm":"way/145618828"},"geometry":{"type":"LineString","coordinates":[[10.34498,47.07841],[10.34451,47.07829]]}},{"type":"Feature","properties":{"kind":"piste","difficulty":"intermediate","name":null,"aerialway":null,"osm":"way/146480377"},"geometry":{"type":"LineString","coordinates":[[10.3763,47.06968],[10.37687,47.07006],[10.37899,47.07034],[10.37946,47.07024],[10.37997,47.06983],[10.38157,47.06922],[10.38224,47.06928],[10.38327,47.06905],[10.38473,47.069],[10.38646,47.06941],[10.38681,47.06938]]}},{"type":"Feature","properties":{"kind":"piste","difficulty":"intermediate","name":null,"aerialway":null,"osm":"way/146848929"},"geometry":{"type":"LineString","coordinates":[[10.34428,47.07325],[10.34485,47.07283],[10.3451,47.07285]]}},{"type":"Feature","properties":{"kind":"lift","difficulty":null,"name":"Alblittlift","aerialway":"t-bar","osm":"way/204313348"},"geometry":{"type":"LineString","coordinates":[[10.34502,47.07286],[10.34497,47.07893]]}},{"type":"Feature","properties":{"kind":"piste","difficulty":"easy","name":null,"aerialway":null,"osm":"way/303923920"},"geometry":{"type":"LineString","coordinates":[[10.35904,47.06723],[10.35924,47.06737]]}},{"type":"Feature","properties":{"kind":"lift","difficulty":null,"name":"Förderband Sunny IV","aerialway":"magic_carpet","osm":"way/1125721394"},"geometry":{"type":"LineString","coordinates":[[10.35815,47.06571],[10.35785,47.06565]]}},{"type":"Feature","properties":{"kind":"lift","difficulty":null,"name":null,"aerialway":"magic_carpet","osm":"way/1125721395"},"geometry":{"type":"LineString","coordinates":[[10.35819,47.06701],[10.35809,47.06707]]}},{"type":"Feature","properties":{"kind":"lift","difficulty":null,"name":null,"aerialway":"magic_carpet","osm":"way/1125721396"},"geometry":{"type":"LineString","coordinates":[[10.35814,47.06699],[10.35805,47.06705]]}},{"type":"Feature","properties":{"kind":"piste","difficulty":"easy","name":null,"aerialway":null,"osm":"way/1129826451"},"geometry":{"type":"LineString","coordinates":[[10.35827,47.06596],[10.35901,47.06593],[10.35972,47.06569]]}},{"type":"Feature","properties":{"kind":"piste","difficulty":"easy","name":null,"aerialway":null,"osm":"way/1130573620"},"geometry":{"type":"LineString","coordinates":[[10.35832,47.06692],[10.35844,47.06699],[10.35895,47.0668]]}},{"type":"Feature","properties":{"kind":"piste","difficulty":"intermediate","name":null,"aerialway":null,"osm":"way/1454666655"},"geometry":{"type":"LineString","coordinates":[[10.37398,47.06028],[10.37308,47.06065],[10.37221,47.06043],[10.36983,47.06039],[10.36769,47.06073],[10.36783,47.061],[10.36747,47.0607],[10.37027,47.0602],[10.37234,47.0603],[10.3733,47.06047],[10.374,47.06013],[10.37414,47.06021],[10.37398,47.06028]]}},{"type":"Feature","properties":{"kind":"piste","difficulty":"intermediate","name":null,"aerialway":null,"osm":"way/1454666656"},"geometry":{"type":"LineString","coordinates":[[10.36752,47.06223],[10.36882,47.06264],[10.36897,47.06291],[10.36893,47.06313],[10.36881,47.06318],[10.36865,47.0627],[10.36752,47.06223]]}},{"type":"Feature","properties":{"kind":"piste","difficulty":"intermediate","name":null,"aerialway":null,"osm":"way/1454666657"},"geometry":{"type":"LineString","coordinates":[[10.37162,47.06541],[10.3719,47.06549],[10.37207,47.06585],[10.37048,47.06629],[10.37058,47.06673],[10.37016,47.0664],[10.3702,47.06622],[10.37182,47.06584],[10.37188,47.06576],[10.37153,47.06545],[10.37162,47.06541]]}},{"type":"Feature","properties":{"kind":"piste","difficulty":"intermediate","name":null,"aerialway":null,"osm":"way/1454666658"},"geometry":{"type":"LineString","coordinates":[[10.37072,47.0683],[10.37091,47.06832],[10.37115,47.06808],[10.37096,47.06778],[10.37144,47.06811],[10.37139,47.06835],[10.37114,47.0685],[10.37072,47.0683]]}},{"type":"Feature","properties":{"kind":"piste","difficulty":"intermediate","name":null,"aerialway":null,"osm":"way/1454666659"},"geometry":{"type":"LineString","coordinates":[[10.36981,47.06794],[10.36951,47.06787],[10.36927,47.06839],[10.36876,47.06877],[10.36834,47.06871],[10.36822,47.06848],[10.36784,47.06827],[10.36724,47.06818],[10.36682,47.06827],[10.36575,47.06938],[10.36481,47.06987],[10.36435,47.07043],[10.36464,47.07049],[10.36524,47.06989],[10.366,47.06937],[10.36684,47.06848],[10.3673,47.0683],[10.36776,47.06837],[10.36835,47.06894],[10.36874,47.06902],[10.36945,47.06857],[10.36958,47.06807],[10.36981,47.06794]]}},{"type":"Feature","properties":{"kind":"piste","difficulty":"intermediate","name":null,"aerialway":null,"osm":"way/1454666660"},"geometry":{"type":"LineString","coordinates":[[10.36435,47.07043],[10.36389,47.07008],[10.36319,47.06986],[10.36286,47.0691],[10.36254,47.06903],[10.36272,47.06917],[10.36297,47.06992],[10.36369,47.07009],[10.36417,47.07047],[10.36435,47.07043]]}},{"type":"Feature","properties":{"kind":"piste","difficulty":"easy","name":null,"aerialway":null,"osm":"way/1454666661"},"geometry":{"type":"LineString","coordinates":[[10.35836,47.06695],[10.36011,47.06566],[10.36029,47.06578],[10.35905,47.0671],[10.35836,47.06695]]}},{"type":"Feature","properties":{"kind":"piste","difficulty":"easy","name":null,"aerialway":null,"osm":"way/1454666662"},"geometry":{"type":"LineString","coordinates":[[10.35944,47.0668],[10.35994,47.06678],[10.36054,47.06712],[10.36082,47.0671],[10.36029,47.06587],[10.36017,47.06593],[10.36065,47.0669],[10.3596,47.06658],[10.35944,47.0668]]}},{"type":"Feature","properties":{"kind":"piste","difficulty":"intermediate","name":null,"aerialway":null,"osm":"way/1454666663"},"geometry":{"type":"LineString","coordinates":[[10.36029,47.06578],[10.36055,47.06546],[10.36091,47.06565],[10.3609,47.06548],[10.36059,47.06528],[10.36001,47.06534],[10.35951,47.06561],[10.36011,47.06544],[10.36021,47.06552],[10.36011,47.06566],[10.36029,47.06578]]}},{"type":"Feature","properties":{"kind":"piste","difficulty":"intermediate","name":null,"aerialway":null,"osm":"way/1454666664"},"geometry":{"type":"LineString","coordinates":[[10.36493,47.07382],[10.36646,47.0733],[10.36662,47.07303],[10.36645,47.07278],[10.36695,47.07298],[10.36705,47.07319],[10.36519,47.07395],[10.36474,47.07427],[10.36443,47.07412],[10.36493,47.07382]]}},{"type":"Feature","properties":{"kind":"piste","difficulty":"intermediate","name":null,"aerialway":null,"osm":"way/1454666665"},"geometry":{"type":"LineString","coordinates":[[10.35462,47.07994],[10.35407,47.08071],[10.35382,47.08139],[10.35354,47.08163],[10.3476,47.08514],[10.34592,47.08552],[10.34346,47.08585],[10.33958,47.088],[10.33915,47.08811],[10.3384,47.08784],[10.33825,47.08795],[10.33872,47.08852],[10.33973,47.08844],[10.34396,47.08623],[10.34674,47.08581],[10.34828,47.08519],[10.35418,47.08164],[10.35448,47.08133],[10.35509,47.08016],[10.35462,47.07994]]}},{"type":"Feature","properties":{"kind":"piste","difficulty":"intermediate","name":null,"aerialway":null,"osm":"way/1454666666"},"geometry":{"type":"LineString","coordinates":[[10.35462,47.07994],[10.35511,47.07959],[10.35686,47.07876],[10.35902,47.07837],[10.35921,47.07827],[10.3594,47.07767],[10.35993,47.07763],[10.35939,47.07812],[10.35944,47.07829],[10.35926,47.07853],[10.35769,47.07877],[10.35584,47.07959],[10.35525,47.07992],[10.35509,47.08016],[10.35462,47.07994]]}},{"type":"Feature","properties":{"kind":"piste","difficulty":"intermediate","name":null,"aerialway":null,"osm":"way/1454666667"},"geometry":{"type":"LineString","coordinates":[[10.3616,47.07645],[10.36086,47.07695],[10.35996,47.07735],[10.35941,47.07739],[10.3594,47.07767],[10.35993,47.07763],[10.36201,47.07669],[10.36237,47.07625],[10.36331,47.07581],[10.36289,47.07571],[10.3616,47.07645]]}},{"type":"Feature","properties":{"kind":"piste","difficulty":"intermediate","name":null,"aerialway":null,"osm":"way/1454666668"},"geometry":{"type":"LineString","coordinates":[[10.35727,47.07744],[10.35751,47.07728],[10.35943,47.07739],[10.3594,47.07767],[10.35827,47.07772],[10.35721,47.07768],[10.35727,47.07744]]}},{"type":"Feature","properties":{"kind":"piste","difficulty":"intermediate","name":null,"aerialway":null,"osm":"way/1454666669"},"geometry":{"type":"LineString","coordinates":[[10.36443,47.07412],[10.36445,47.07463],[10.36473,47.075],[10.36289,47.07571],[10.36331,47.07581],[10.3639,47.07545],[10.36463,47.0753],[10.36509,47.07504],[10.3647,47.07453],[10.36474,47.07427],[10.36443,47.07412]]}},{"type":"Feature","properties":{"kind":"piste","difficulty":"advanced","name":null,"aerialway":null,"osm":"way/1454666670"},"geometry":{"type":"LineString","coordinates":[[10.35865,47.07381],[10.35899,47.07393],[10.36259,47.07391],[10.36443,47.07412],[10.36437,47.07437],[10.36264,47.07414],[10.35921,47.07413],[10.35877,47.0741],[10.35853,47.07384],[10.35865,47.07381]]}},{"type":"Feature","properties":{"kind":"piste","difficulty":"intermediate","name":null,"aerialway":null,"osm":"way/1454666671"},"geometry":{"type":"LineString","coordinates":[[10.33989,47.084],[10.33885,47.08457],[10.33875,47.08451],[10.33892,47.08416],[10.3399,47.08376],[10.34138,47.08284],[10.34143,47.08321],[10.33989,47.084]]}},{"type":"Feature","properties":{"kind":"piste","difficulty":"advanced","name":null,"aerialway":null,"osm":"way/1454666672"},"geometry":{"type":"LineString","coordinates":[[10.33885,47.08033],[10.33887,47.08055],[10.34138,47.08284],[10.34103,47.08302],[10.34069,47.0826],[10.33851,47.08072],[10.33838,47.08046],[10.33851,47.08026],[10.33885,47.08033]]}},{"type":"Feature","properties":{"kind":"piste","difficulty":"advanced","name":null,"aerialway":null,"osm":"way/1454666673"},"geometry":{"type":"LineString","coordinates":[[10.33851,47.08026],[10.33998,47.07932],[10.34084,47.07849],[10.3421,47.07562],[10.34342,47.07458],[10.34346,47.0749],[10.34236,47.07569],[10.34185,47.07661],[10.34098,47.07878],[10.34022,47.07951],[10.33885,47.08033],[10.33851,47.08026]]}},{"type":"Feature","properties":{"kind":"piste","difficulty":"intermediate","name":null,"aerialway":null,"osm":"way/1454666674"},"geometry":{"type":"LineString","coordinates":[[10.34138,47.08284],[10.34299,47.08217],[10.34361,47.08121],[10.34408,47.08133],[10.34307,47.0823],[10.34143,47.08321],[10.34138,47.08284]]}},{"type":"Feature","properties":{"kind":"piste","difficulty":"intermediate","name":null,"aerialway":null,"osm":"way/1454666675"},"geometry":{"type":"LineString","coordinates":[[10.34344,47.07978],[10.34364,47.08064],[10.34361,47.08121],[10.34385,47.08127],[10.344,47.08059],[10.34384,47.07965],[10.34344,47.07978]]}},{"type":"Feature","properties":{"kind":"piste","difficulty":"advanced","name":null,"aerialway":null,"osm":"way/1454666676"},"geometry":{"type":"LineString","coordinates":[[10.34408,47.08133],[10.34508,47.08026],[10.34631,47.07782],[10.34553,47.07834],[10.34524,47.07938],[10.34385,47.08127],[10.34408,47.08133]]}},{"type":"Feature","properties":{"kind":"piste","difficulty":"intermediate","name":null,"aerialway":null,"osm":"way/1454666677"},"geometry":{"type":"LineString","coordinates":[[10.34425,47.07276],[10.34342,47.07458],[10.34377,47.07468],[10.34459,47.0732],[10.34498,47.07284],[10.34425,47.07276]]}},{"type":"Feature","properties":{"kind":"piste","difficulty":"intermediate","name":null,"aerialway":null,"osm":"way/1454666678"},"geometry":{"type":"LineString","coordinates":[[10.34453,47.07893],[10.34436,47.07668],[10.34353,47.07573],[10.34342,47.07458],[10.34377,47.07468],[10.34381,47.07551],[10.34471,47.07667],[10.34467,47.07792],[10.34483,47.07889],[10.34453,47.07893]]}},{"type":"Feature","properties":{"kind":"piste","difficulty":"intermediate","name":null,"aerialway":null,"osm":"way/1454666679"},"geometry":{"type":"LineString","coordinates":[[10.34522,47.07296],[10.34558,47.07302],[10.34565,47.07477],[10.3454,47.07814],[10.34509,47.0783],[10.34522,47.07296]]}},{"type":"Feature","properties":{"kind":"piste","difficulty":"easy","name":null,"aerialway":null,"osm":"way/1454666680"},"geometry":{"type":"LineString","coordinates":[[10.34756,47.07352],[10.34692,47.07542],[10.3454,47.07814],[10.34509,47.0783],[10.34512,47.07848],[10.34631,47.07782],[10.34811,47.07487],[10.34791,47.07449],[10.3482,47.07373],[10.34756,47.07352]]}},{"type":"Feature","properties":{"kind":"piste","difficulty":"intermediate","name":null,"aerialway":null,"osm":"way/1454666681"},"geometry":{"type":"LineString","coordinates":[[10.34581,47.07286],[10.34537,47.07212],[10.34502,47.07107],[10.34568,47.07118],[10.34609,47.07221],[10.34661,47.07302],[10.34581,47.07286]]}},{"type":"Feature","properties":{"kind":"piste","difficulty":"intermediate","name":null,"aerialway":null,"osm":"way/1454666682"},"geometry":{"type":"LineString","coordinates":[[10.34404,47.07241],[10.344,47.07198],[10.34432,47.07106],[10.34461,47.07096],[10.34431,47.07177],[10.34428,47.07222],[10.34404,47.07241]]}},{"type":"Feature","properties":{"kind":"piste","difficulty":"easy","name":null,"aerialway":null,"osm":"way/1454666683"},"geometry":{"type":"LineString","coordinates":[[10.34609,47.06913],[10.34874,47.06809],[10.35017,47.06793],[10.35137,47.06739],[10.35458,47.06762],[10.35558,47.06744],[10.3566,47.06761],[10.35663,47.06782],[10.35539,47.06762],[10.35435,47.06776],[10.35129,47.06749],[10.3505,47.06796],[10.34909,47.06821],[10.3481,47.06878],[10.34583,47.06964],[10.34567,47.06966],[10.34609,47.06913]]}},{"type":"Feature","properties":{"kind":"piste","difficulty":"advanced","name":null,"aerialway":null,"osm":"way/1454666684"},"geometry":{"type":"LineString","coordinates":[[10.3483,47.07351],[10.34944,47.07133],[10.35027,47.06922],[10.35138,47.06842],[10.35217,47.06838],[10.35332,47.06855],[10.35443,47.0683],[10.35464,47.06847],[10.3541,47.06872],[10.35349,47.06877],[10.35178,47.06855],[10.35067,47.06917],[10.34969,47.07158],[10.3494,47.07194],[10.3486,47.07363],[10.3483,47.07351]]}},{"type":"Feature","properties":{"kind":"piste","difficulty":"intermediate","name":null,"aerialway":null,"osm":"way/1454666685"},"geometry":{"type":"LineString","coordinates":[[10.34609,47.06913],[10.34292,47.07003],[10.34281,47.07016],[10.34286,47.07036],[10.34298,47.07058],[10.34432,47.07106],[10.34488,47.07087],[10.34505,47.07091],[10.34504,47.07108],[10.34568,47.07118],[10.3451,47.07086],[10.3448,47.07081],[10.34448,47.07093],[10.34413,47.0708],[10.34328,47.07045],[10.34307,47.0702],[10.34415,47.06979],[10.34597,47.06935],[10.34609,47.06913]]}},{"type":"Feature","properties":{"kind":"piste","difficulty":"advanced","name":null,"aerialway":null,"osm":"way/1454666687"},"geometry":{"type":"LineString","coordinates":[[10.35443,47.0683],[10.35523,47.06797],[10.35663,47.06782],[10.35731,47.06788],[10.35564,47.06807],[10.35464,47.06847],[10.35443,47.0683]]}},{"type":"Feature","properties":{"kind":"piste","difficulty":"easy","name":null,"aerialway":null,"osm":"way/1454666688"},"geometry":{"type":"LineString","coordinates":[[10.34871,47.0739],[10.34924,47.07414],[10.3493,47.07431],[10.34819,47.07481],[10.34784,47.07531],[10.34832,47.07538],[10.34848,47.07527],[10.34854,47.07491],[10.34881,47.07466],[10.34957,47.07433],[10.34952,47.07412],[10.34899,47.07381],[10.3486,47.07363],[10.3482,47.07373],[10.34871,47.0739]]}},{"type":"Feature","properties":{"kind":"piste","difficulty":"intermediate","name":null,"aerialway":null,"osm":"way/1454672472"},"geometry":{"type":"LineString","coordinates":[[10.35107,47.07659],[10.35161,47.07651],[10.3535,47.07474],[10.35297,47.07462],[10.35107,47.07659]]}},{"type":"Feature","properties":{"kind":"piste","difficulty":"intermediate","name":null,"aerialway":null,"osm":"way/1454672473"},"geometry":{"type":"LineString","coordinates":[[10.35297,47.07462],[10.35439,47.07287],[10.35501,47.07187],[10.35594,47.06934],[10.35667,47.06969],[10.3562,47.07101],[10.35507,47.0729],[10.35406,47.07405],[10.35375,47.07461],[10.3535,47.07474],[10.35297,47.07462]]}},{"type":"Feature","properties":{"kind":"piste","difficulty":"easy","name":null,"aerialway":null,"osm":"way/1454672474"},"geometry":{"type":"LineString","coordinates":[[10.35667,47.06969],[10.35756,47.07027],[10.35772,47.07054],[10.35612,47.0725],[10.35566,47.07378],[10.35648,47.07352],[10.35659,47.07283],[10.35777,47.07125],[10.35797,47.07077],[10.35793,47.07045],[10.35687,47.06942],[10.35667,47.06969]]}},{"type":"Feature","properties":{"kind":"piste","difficulty":"intermediate","name":null,"aerialway":null,"osm":"way/1454672475"},"geometry":{"type":"LineString","coordinates":[[10.35809,47.06787],[10.35731,47.06788],[10.35699,47.06807],[10.35594,47.06934],[10.35667,47.06969],[10.3576,47.06829],[10.35809,47.06787]]}},{"type":"Feature","properties":{"kind":"piste","difficulty":"easy","name":null,"aerialway":null,"osm":"way/1454672476"},"geometry":{"type":"LineString","coordinates":[[10.35689,47.06667],[10.35668,47.0668],[10.35656,47.06708],[10.3566,47.06761],[10.35629,47.06754],[10.35653,47.06677],[10.35709,47.06644],[10.35712,47.0666],[10.35689,47.06667]]}},{"type":"Feature","properties":{"kind":"piste","difficulty":"easy","name":null,"aerialway":null,"osm":"way/1454672477"},"geometry":{"type":"LineString","coordinates":[[10.35772,47.06758],[10.35841,47.0671],[10.35836,47.06695],[10.35886,47.06713],[10.35809,47.06787],[10.35731,47.06788],[10.35772,47.06758]]}},{"type":"Feature","properties":{"kind":"piste","difficulty":"easy","name":null,"aerialway":null,"osm":"way/1454672478"},"geometry":{"type":"LineString","coordinates":[[10.3583,47.06777],[10.35966,47.06746],[10.35987,47.06759],[10.35991,47.06743],[10.35952,47.06728],[10.35858,47.06738],[10.3583,47.06777]]}},{"type":"Feature","properties":{"kind":"piste","difficulty":"advanced","name":null,"aerialway":null,"osm":"way/1454672479"},"geometry":{"type":"LineString","coordinates":[[10.35648,47.07352],[10.35651,47.0737],[10.35845,47.07323],[10.35831,47.07305],[10.35648,47.07352]]}},{"type":"Feature","properties":{"kind":"piste","difficulty":"advanced","name":null,"aerialway":null,"osm":"way/1454672481"},"geometry":{"type":"LineString","coordinates":[[10.34877,47.07601],[10.34973,47.0761],[10.35107,47.07659],[10.35081,47.0767],[10.34981,47.07661],[10.34865,47.07611],[10.34877,47.07601]]}},{"type":"Feature","properties":{"kind":"piste","difficulty":"intermediate","name":null,"aerialway":null,"osm":"way/1454672482"},"geometry":{"type":"LineString","coordinates":[[10.35161,47.07651],[10.35139,47.07696],[10.35093,47.07709],[10.34981,47.07661],[10.35081,47.0767],[10.35161,47.07651]]}},{"type":"Feature","properties":{"kind":"piste","difficulty":"intermediate","name":null,"aerialway":null,"osm":"way/1459337618"},"geometry":{"type":"LineString","coordinates":[[10.36417,47.07047],[10.36441,47.07081],[10.36491,47.07058],[10.36417,47.07047]]}},{"type":"Feature","properties":{"kind":"piste","difficulty":"easy","name":null,"aerialway":null,"osm":"way/1459337619"},"geometry":{"type":"LineString","coordinates":[[10.35514,47.07479],[10.35554,47.07402],[10.35585,47.07405],[10.35519,47.07501],[10.35446,47.07541],[10.35421,47.07583],[10.35394,47.07601],[10.35372,47.07592],[10.35402,47.0758],[10.35424,47.07534],[10.35514,47.07479]]}},{"type":"Feature","properties":{"kind":"piste","difficulty":"unknown","name":null,"aerialway":null,"osm":"way/1459337620"},"geometry":{"type":"LineString","coordinates":[[10.35651,47.0737],[10.35585,47.07405],[10.35554,47.07402],[10.35648,47.07352],[10.35651,47.0737]]}},{"type":"Feature","properties":{"kind":"piste","difficulty":"advanced","name":null,"aerialway":null,"osm":"way/1459337621"},"geometry":{"type":"LineString","coordinates":[[10.35372,47.07592],[10.35161,47.07651],[10.35152,47.07668],[10.35394,47.07601],[10.35372,47.07592]]}},{"type":"Feature","properties":{"kind":"piste","difficulty":"easy","name":null,"aerialway":null,"osm":"way/1459337622"},"geometry":{"type":"LineString","coordinates":[[10.34848,47.07527],[10.34875,47.07546],[10.34842,47.07566],[10.3477,47.07564],[10.34784,47.07531],[10.34832,47.07538],[10.34848,47.07527]]}},{"type":"Feature","properties":{"kind":"piste","difficulty":"intermediate","name":null,"aerialway":null,"osm":"way/1459337623"},"geometry":{"type":"LineString","coordinates":[[10.35663,47.06782],[10.35731,47.06788],[10.35772,47.06758],[10.35712,47.0677],[10.3566,47.06761],[10.35663,47.06782]]}},{"type":"Feature","properties":{"kind":"piste","difficulty":"easy","name":null,"aerialway":null,"osm":"way/1459337624"},"geometry":{"type":"LineString","coordinates":[[10.35925,47.06734],[10.35905,47.0671],[10.3587,47.06723],[10.35881,47.06737],[10.35925,47.06734]]}},{"type":"Feature","properties":{"kind":"piste","difficulty":"easy","name":null,"aerialway":null,"osm":"way/1459337625"},"geometry":{"type":"LineString","coordinates":[[10.36011,47.06566],[10.35951,47.06561],[10.35884,47.06589],[10.35831,47.06587],[10.35813,47.06694],[10.35829,47.0672],[10.35841,47.0671],[10.35828,47.06684],[10.35993,47.06566],[10.36011,47.06566]]}},{"type":"Feature","properties":{"kind":"piste","difficulty":"easy","name":null,"aerialway":null,"osm":"way/1459371544"},"geometry":{"type":"LineString","coordinates":[[10.3486,47.07363],[10.34661,47.07302],[10.34472,47.07273],[10.34425,47.07276],[10.34518,47.07287],[10.3482,47.07373],[10.3486,47.07363]]}},{"type":"Feature","properties":{"kind":"piste","difficulty":"easy","name":null,"aerialway":null,"osm":"way/1459371545"},"geometry":{"type":"LineString","coordinates":[[10.34428,47.07222],[10.34437,47.07252],[10.34472,47.07273],[10.34425,47.07276],[10.34404,47.07241],[10.34428,47.07222]]}},{"type":"Feature","properties":{"kind":"piste","difficulty":"intermediate","name":null,"aerialway":null,"osm":"way/1459371546"},"geometry":{"type":"LineString","coordinates":[[10.34544,47.07514],[10.3457,47.07477],[10.34771,47.07433]]}},{"type":"Feature","properties":{"kind":"piste","difficulty":"easy","name":null,"aerialway":null,"osm":"way/1459898766"},"geometry":{"type":"LineString","coordinates":[[10.35614,47.06525],[10.3565,47.06517],[10.35699,47.06526],[10.35784,47.06581],[10.35769,47.06587],[10.35694,47.06532],[10.35614,47.06525]]}},{"type":"Feature","properties":{"kind":"piste","difficulty":"easy","name":null,"aerialway":null,"osm":"way/1459898767"},"geometry":{"type":"LineString","coordinates":[[10.35813,47.06694],[10.35788,47.06672],[10.358,47.06657],[10.35769,47.06587],[10.35784,47.06581],[10.35768,47.0657],[10.35776,47.06558],[10.3584,47.06588],[10.35821,47.06593],[10.35813,47.06694]]}},{"type":"Feature","properties":{"kind":"piste","difficulty":"easy","name":null,"aerialway":null,"osm":"way/1459898768"},"geometry":{"type":"LineString","coordinates":[[10.35591,47.06496],[10.3564,47.06493],[10.35736,47.06515],[10.35657,47.06478],[10.35591,47.06496]]}},{"type":"Feature","properties":{"kind":"piste","difficulty":"easy","name":null,"aerialway":null,"osm":"way/1459898769"},"geometry":{"type":"LineString","coordinates":[[10.34803,47.07565],[10.34808,47.07612],[10.34842,47.07566],[10.34803,47.07565]]}},{"type":"Feature","properties":{"kind":"piste","difficulty":"advanced","name":null,"aerialway":null,"osm":"way/1459898770"},"geometry":{"type":"LineString","coordinates":[[10.34865,47.07611],[10.3485,47.07594],[10.34821,47.07599],[10.34862,47.07555],[10.34877,47.07601],[10.34865,47.07611]]}},{"type":"Feature","properties":{"kind":"piste","difficulty":"easy","name":null,"aerialway":null,"osm":"way/1459898771"},"geometry":{"type":"LineString","coordinates":[[10.34512,47.07848],[10.34492,47.07858],[10.34483,47.07889],[10.34474,47.0784],[10.34509,47.0783],[10.34512,47.07848]]}},{"type":"Feature","properties":{"kind":"piste","difficulty":"intermediate","name":null,"aerialway":null,"osm":"way/1459898772"},"geometry":{"type":"LineString","coordinates":[[10.33892,47.08416],[10.33844,47.08438],[10.33814,47.08488],[10.33841,47.08496],[10.33885,47.08457],[10.33875,47.08451],[10.33862,47.08468],[10.33844,47.0846],[10.33892,47.08416]]}},{"type":"Feature","properties":{"kind":"piste","difficulty":"intermediate","name":"Talabfahrt","aerialway":null,"osm":"relation/15084091"},"geometry":{"type":"MultiLineString","coordinates":[[[10.35933,47.06711],[10.35904,47.06723]],[[10.35904,47.06723],[10.35885,47.06702],[10.35895,47.0668]],[[10.35895,47.0668],[10.36008,47.06592]],[[10.36008,47.06592],[10.36023,47.06585]],[[10.36023,47.06585],[10.36029,47.0653]],[[10.36029,47.0653],[10.36078,47.0654],[10.36092,47.06607],[10.36172,47.06674],[10.36206,47.06728]],[[10.36206,47.06728],[10.36189,47.06839],[10.36282,47.06918],[10.36298,47.06987],[10.36378,47.07007],[10.36425,47.0705],[10.36449,47.07054]],[[10.36449,47.07054],[10.36468,47.07016],[10.36578,47.0695],[10.36692,47.06837],[10.36775,47.06833],[10.36842,47.06889],[10.36864,47.06892],[10.36942,47.06849],[10.36951,47.068],[10.36962,47.06793]],[[10.36962,47.06793],[10.37095,47.06841]],[[10.37095,47.06841],[10.37124,47.06832],[10.37116,47.06795]],[[10.37116,47.06795],[10.37064,47.06742]],[[10.37064,47.06742],[10.37039,47.06649]],[[10.37039,47.06649],[10.3704,47.06627],[10.37193,47.06591],[10.37205,47.06581],[10.37195,47.0656]],[[10.37195,47.0656],[10.37164,47.06545],[10.37091,47.06538]],[[10.37091,47.06538],[10.37011,47.06537]],[[10.37011,47.06537],[10.37004,47.06532]],[[10.37004,47.06532],[10.36991,47.06445],[10.36894,47.06321],[10.36875,47.06259]],[[10.36875,47.06259],[10.36783,47.06238]],[[10.36783,47.06238],[10.36654,47.06184],[10.36537,47.06092],[10.36491,47.06021],[10.36736,47.06131],[10.36751,47.06127],[10.36723,47.06112],[10.36712,47.06089],[10.36741,47.06098]],[[10.36741,47.06098],[10.36773,47.06097]],[[10.36773,47.06097],[10.3676,47.06082],[10.36765,47.06065],[10.36827,47.06061]],[[10.36827,47.06061],[10.3698,47.06031],[10.37063,47.06029],[10.37233,47.06038],[10.37325,47.06056]],[[10.37325,47.06056],[10.37406,47.06022]],[[10.37406,47.06022],[10.3742,47.06036]],[[10.37304,47.06179],[10.37298,47.06163],[10.37234,47.06132],[10.37313,47.06096],[10.37325,47.06056]],[[10.35972,47.06569],[10.35986,47.06548],[10.36029,47.0653]],[[10.36525,47.06075],[10.36548,47.0606],[10.36604,47.0607]]]}},{"type":"Feature","properties":{"kind":"piste","difficulty":"easy","name":"Sunny Waveline","aerialway":null,"osm":"relation/15202132"},"geometry":{"type":"MultiLineString","coordinates":[[[10.35633,47.06765],[10.3565,47.06749],[10.35653,47.06689],[10.35716,47.06649]],[[10.35716,47.06649],[10.35709,47.066]],[[10.35709,47.066],[10.35677,47.06556],[10.35623,47.06534]],[[10.35972,47.06569],[10.35996,47.06569]],[[10.35623,47.06534],[10.35548,47.06513],[10.35599,47.0649]],[[10.35599,47.0649],[10.35672,47.06483],[10.35789,47.06542]],[[10.35789,47.06542],[10.35898,47.06571],[10.35931,47.06569]],[[10.35931,47.06569],[10.35972,47.06569]]]}},{"type":"Feature","properties":{"kind":"piste","difficulty":"intermediate","name":"Mardinaabfahrt","aerialway":null,"osm":"relation/15260577"},"geometry":{"type":"MultiLineString","coordinates":[[[10.34709,47.07582],[10.34754,47.07556],[10.34814,47.07551]],[[10.3483,47.07612],[10.34811,47.07605],[10.34814,47.07551]],[[10.34814,47.07551],[10.34818,47.07529]],[[10.34818,47.07529],[10.34859,47.07476],[10.3493,47.0744]],[[10.3493,47.0744],[10.3499,47.07446],[10.35011,47.07462],[10.34985,47.07554],[10.34994,47.07651],[10.35061,47.07679],[10.35124,47.07676]],[[10.35124,47.07676],[10.35272,47.07503],[10.35355,47.07437]],[[10.35355,47.07437],[10.35557,47.07178],[10.35639,47.06925]],[[10.35639,47.06925],[10.35776,47.06772]],[[10.35776,47.06772],[10.35946,47.06732],[10.35983,47.06745],[10.35977,47.0676]],[[10.35376,47.07484],[10.35357,47.07467],[10.35355,47.07437]]]}},{"type":"Feature","properties":{"kind":"piste","difficulty":"easy","name":"Mardinaabfahrt Ost","aerialway":null,"osm":"relation/15260600"},"geometry":{"type":"MultiLineString","coordinates":[[[10.35376,47.07484],[10.35384,47.07514],[10.35352,47.07569],[10.35392,47.07595]],[[10.35392,47.07595],[10.35435,47.07532],[10.35511,47.07491],[10.35567,47.07391]],[[10.35567,47.07391],[10.3563,47.07369]],[[10.3563,47.07369],[10.35673,47.07233],[10.35727,47.07135],[10.35786,47.07069],[10.35763,47.07027],[10.35639,47.06925]]]}},{"type":"Feature","properties":{"kind":"piste","difficulty":"easy","name":"Almabfahrt","aerialway":null,"osm":"relation/15260759"},"geometry":{"type":"MultiLineString","coordinates":[[[10.34868,47.07533],[10.34818,47.07529]],[[10.34818,47.07529],[10.34859,47.07476],[10.3493,47.0744]],[[10.3493,47.0744],[10.34946,47.07428],[10.34943,47.07414],[10.34821,47.07369]],[[10.34821,47.07369],[10.34766,47.07348]],[[10.34766,47.07348],[10.34646,47.07315]],[[10.34646,47.07315],[10.34517,47.07283]],[[10.34517,47.07283],[10.34447,47.07276]],[[10.34447,47.07276],[10.34421,47.0724],[10.34426,47.07211],[10.34531,47.07166],[10.34539,47.07134]],[[10.34539,47.07134],[10.34597,47.07119]],[[10.34597,47.07119],[10.34686,47.07136],[10.34753,47.07109],[10.34979,47.07091]],[[10.34979,47.07091],[10.35078,47.07082],[10.35193,47.07105]],[[10.35193,47.07105],[10.35099,47.07036],[10.35005,47.07019]],[[10.35005,47.07019],[10.34791,47.07023],[10.34686,47.06992]],[[10.34686,47.06992],[10.34572,47.06969]],[[10.34572,47.06969],[10.34658,47.06911]],[[10.34658,47.06911],[10.34812,47.06858],[10.34881,47.06816],[10.3502,47.068],[10.3515,47.0674],[10.35315,47.06764],[10.35552,47.06756],[10.35702,47.06782]],[[10.35702,47.06782],[10.35776,47.06772]],[[10.35776,47.06772],[10.35946,47.06732],[10.35983,47.06745],[10.35977,47.0676]],[[10.35776,47.06772],[10.35834,47.06741],[10.35895,47.0668]],[[10.35895,47.0668],[10.35953,47.06665],[10.35998,47.06668],[10.36052,47.067],[10.36062,47.06723]],[[10.35895,47.0668],[10.36008,47.06592]],[[10.36008,47.06592],[10.36007,47.06572],[10.35996,47.06569]]]}},{"type":"Feature","properties":{"kind":"piste","difficulty":"easy","name":"Alblittabfahrt","aerialway":null,"osm":"relation/15260823"},"geometry":{"type":"MultiLineString","coordinates":[[[10.34498,47.07841],[10.34538,47.07833],[10.34619,47.07754]],[[10.34619,47.07754],[10.34709,47.07582]],[[10.34709,47.07582],[10.34757,47.07481]],[[10.34757,47.07481],[10.34784,47.07392]],[[10.34784,47.07392],[10.34766,47.07348]],[[10.34766,47.07348],[10.34646,47.07315]],[[10.34646,47.07315],[10.34517,47.07283]],[[10.34517,47.07283],[10.34502,47.07291]],[[10.34818,47.07529],[10.34757,47.07481]]]}},{"type":"Feature","properties":{"kind":"piste","difficulty":"intermediate","name":"Alblitt Diasabfahrt","aerialway":null,"osm":"relation/15260844"},"geometry":{"type":"MultiLineString","coordinates":[[[10.34646,47.07315],[10.34612,47.07276],[10.34539,47.07134]],[[10.34539,47.07134],[10.34527,47.07104]],[[10.34448,47.07103],[10.34492,47.07085],[10.34527,47.07104]],[[10.34448,47.07103],[10.34307,47.07037],[10.34296,47.07023],[10.34308,47.07004],[10.34658,47.06911]]]}},{"type":"Feature","properties":{"kind":"piste","difficulty":"advanced","name":"Almstüberlabfahrt","aerialway":null,"osm":"relation/15260870"},"geometry":{"type":"MultiLineString","coordinates":[[[10.34784,47.07392],[10.34821,47.07369]],[[10.34821,47.07369],[10.34859,47.07341],[10.34979,47.07091]],[[10.34979,47.07091],[10.35005,47.07019]],[[10.35005,47.07019],[10.35052,47.06918],[10.35163,47.06847],[10.35379,47.06866],[10.35545,47.06803],[10.35702,47.06782]]]}},{"type":"Feature","properties":{"kind":"piste","difficulty":"advanced","name":"Bergwiesenabfahrt","aerialway":null,"osm":"relation/15260989"},"geometry":{"type":"MultiLineString","coordinates":[[[10.34814,47.07551],[10.3485,47.07587]],[[10.34868,47.07533],[10.34848,47.07558],[10.3485,47.07587]],[[10.3485,47.07587],[10.34905,47.07624],[10.3504,47.07646],[10.35124,47.07676]],[[10.35124,47.07676],[10.35392,47.07595]],[[10.35392,47.07595],[10.35435,47.07532],[10.35511,47.07491],[10.35567,47.07391]],[[10.35567,47.07391],[10.3563,47.07369]],[[10.3563,47.07369],[10.35832,47.07314],[10.3588,47.0739],[10.35946,47.07411],[10.36172,47.07402],[10.36463,47.07422]],[[10.35376,47.07484],[10.3541,47.07483],[10.35492,47.07423]],[[10.35492,47.07423],[10.35567,47.07391]],[[10.35355,47.07437],[10.35434,47.07411],[10.35492,47.07423]]]}},{"type":"Feature","properties":{"kind":"piste","difficulty":"intermediate","name":"Gongallabfahrt","aerialway":null,"osm":"relation/15261067"},"geometry":{"type":"MultiLineString","coordinates":[[[10.35376,47.07484],[10.35384,47.07514],[10.35352,47.07569],[10.35392,47.07595]],[[10.35392,47.07595],[10.3553,47.07658],[10.35603,47.0771]],[[10.35603,47.0771],[10.35655,47.07739]],[[10.35655,47.07739],[10.35705,47.07749]],[[10.35705,47.07749],[10.35978,47.07759]]]}},{"type":"Feature","properties":{"kind":"piste","difficulty":"intermediate","name":"Rennstrecke","aerialway":null,"osm":"relation/15261453"},"geometry":{"type":"MultiLineString","coordinates":[[[10.34457,47.07861],[10.34498,47.07841]],[[10.34498,47.07841],[10.34523,47.07825],[10.34532,47.0777],[10.34547,47.07473],[10.34541,47.07314],[10.34517,47.07283]],[[10.34517,47.07283],[10.34502,47.07291]]]}},{"type":"Feature","properties":{"kind":"piste","difficulty":"intermediate","name":"Alblittkopfabfahrt","aerialway":null,"osm":"relation/15261609"},"geometry":{"type":"MultiLineString","coordinates":[[[10.33859,47.08463],[10.33853,47.08469]],[[10.33853,47.08469],[10.33843,47.08463],[10.33853,47.08442],[10.33885,47.08429]],[[10.33885,47.08429],[10.34116,47.08315]],[[10.34116,47.08315],[10.34319,47.08208]],[[10.34319,47.08208],[10.34382,47.08133]],[[10.34382,47.08133],[10.34371,47.08115],[10.34366,47.07984],[10.34388,47.07968]],[[10.34388,47.07968],[10.34457,47.07954],[10.34307,47.07946],[10.34469,47.07895]],[[10.34469,47.07895],[10.34457,47.07861]],[[10.34457,47.07861],[10.34451,47.07829]],[[10.34451,47.07829],[10.34453,47.07705],[10.3444,47.07636],[10.34378,47.07566],[10.34356,47.07459]],[[10.34356,47.07459],[10.34428,47.07325]],[[10.34428,47.07325],[10.34447,47.07276]],[[10.34447,47.07276],[10.34425,47.07258],[10.34409,47.07212],[10.3443,47.07148]],[[10.3443,47.07148],[10.34448,47.07103]],[[10.34448,47.07103],[10.34492,47.07085],[10.34527,47.07104]],[[10.34527,47.07104],[10.34495,47.07099]]]}},{"type":"Feature","properties":{"kind":"piste","difficulty":"advanced","name":"Kanonenrohrabfahrt","aerialway":null,"osm":"relation/15261627"},"geometry":{"type":"MultiLineString","coordinates":[[[10.34116,47.08315],[10.34117,47.08283],[10.34008,47.08176]],[[10.34008,47.08176],[10.33876,47.08063]],[[10.33876,47.08063],[10.33862,47.08027],[10.33881,47.08009],[10.34031,47.07919],[10.34083,47.07869],[10.3421,47.07592]],[[10.3421,47.07592],[10.34356,47.07459]]]}},{"type":"Feature","properties":{"kind":"piste","difficulty":"intermediate","name":"Blanka","aerialway":null,"osm":"relation/15261667"},"geometry":{"type":"LineString","coordinates":[[10.33853,47.08469],[10.33797,47.08479],[10.33635,47.08363],[10.33492,47.08361],[10.33428,47.08333],[10.33392,47.08298],[10.33371,47.08248],[10.33412,47.08106],[10.33452,47.08059],[10.33564,47.08007],[10.33571,47.07906],[10.33618,47.07757],[10.33658,47.07704],[10.33852,47.07526],[10.33899,47.07464],[10.34053,47.07349],[10.34083,47.07311],[10.34253,47.07171],[10.34448,47.07103]]}},{"type":"Feature","properties":{"kind":"piste","difficulty":"advanced","name":"Panoramaabfahrt","aerialway":null,"osm":"relation/15261701"},"geometry":{"type":"MultiLineString","coordinates":[[[10.34382,47.08133],[10.34424,47.081],[10.3451,47.07991]],[[10.3451,47.07991],[10.34539,47.07949],[10.34619,47.07754]]]}},{"type":"Feature","properties":{"kind":"piste","difficulty":"intermediate","name":"Lattenabfahrt","aerialway":null,"osm":"relation/15261745"},"geometry":{"type":"MultiLineString","coordinates":[[[10.33859,47.08463],[10.33853,47.08469]],[[10.33853,47.08469],[10.33841,47.08488]],[[10.33841,47.08488],[10.33808,47.08537],[10.33768,47.08564],[10.33593,47.08594],[10.33588,47.08605],[10.336,47.08613],[10.33692,47.08635]],[[10.33692,47.08635],[10.33756,47.08699],[10.33765,47.08749],[10.33827,47.0879]],[[10.33827,47.0879],[10.33872,47.08826],[10.33941,47.08824],[10.34022,47.08793],[10.34369,47.08581],[10.34585,47.08559],[10.34774,47.08511],[10.35244,47.08239],[10.35397,47.08165],[10.35409,47.08153],[10.35414,47.08095],[10.35481,47.08008]],[[10.35481,47.08008],[10.35575,47.07945],[10.35712,47.07882],[10.35883,47.07828],[10.35916,47.07793],[10.35978,47.07759]],[[10.35978,47.07759],[10.36128,47.07696],[10.36335,47.07564]],[[10.36335,47.07564],[10.36487,47.0751],[10.36461,47.07469],[10.36463,47.07422]],[[10.36463,47.07422],[10.3652,47.07381],[10.36689,47.07321],[10.36684,47.07299]],[[10.36684,47.07299],[10.36567,47.0726],[10.36509,47.0714],[10.3646,47.07099]],[[10.3646,47.07099],[10.36439,47.07068],[10.36449,47.07054]],[[10.36449,47.07054],[10.365,47.07054],[10.36487,47.07069]]]}},{"type":"Feature","properties":{"kind":"piste","difficulty":"intermediate","name":"Gongallwiesenabfahrt","aerialway":null,"osm":"relation/15261759"},"geometry":{"type":"MultiLineString","coordinates":[[[10.35481,47.08008],[10.35463,47.07974],[10.35416,47.07953],[10.35417,47.07933]],[[10.35417,47.07933],[10.35578,47.07839],[10.35608,47.0777],[10.35655,47.07739]],[[10.35655,47.07739],[10.35705,47.07749]],[[10.35705,47.07749],[10.35855,47.07642],[10.35902,47.07626],[10.36088,47.07583],[10.36267,47.07583],[10.36335,47.07564]]]}},{"type":"Feature","properties":{"kind":"piste","difficulty":"easy","name":"Bergwiesen-Skiweg","aerialway":null,"osm":"relation/15261765"},"geometry":{"type":"MultiLineString","coordinates":[[[10.35417,47.07933],[10.35478,47.07837],[10.35485,47.07799],[10.35603,47.0771]],[[10.35603,47.0771],[10.35648,47.07659],[10.35606,47.07522]],[[10.35606,47.07522],[10.35609,47.07448],[10.3563,47.07369]]]}},{"type":"Feature","properties":{"kind":"piste","difficulty":"advanced","name":"Hartlas Extrem","aerialway":null,"osm":"relation/15268396"},"geometry":{"type":"LineString","coordinates":[[10.3451,47.07991],[10.35417,47.07933]]}},{"type":"Feature","properties":{"kind":"piste","difficulty":"intermediate","name":"Alblittkopf","aerialway":null,"osm":"relation/15268397"},"geometry":{"type":"LineString","coordinates":[[10.33885,47.08429],[10.33879,47.0838],[10.33908,47.083],[10.34008,47.08176]]}},{"type":"Feature","properties":{"kind":"piste","difficulty":"intermediate","name":"Gonda","aerialway":null,"osm":"relation/15314598"},"geometry":{"type":"LineString","coordinates":[[10.34319,47.08208],[10.34092,47.07926],[10.34194,47.07876],[10.3421,47.07592]]}},{"type":"Feature","properties":{"kind":"piste","difficulty":"easy","name":"Sunny Funline","aerialway":null,"osm":"relation/19987334"},"geometry":{"type":"MultiLineString","coordinates":[[[10.35818,47.06678],[10.35794,47.0667]],[[10.35775,47.06591],[10.35827,47.06596]],[[10.35623,47.06534],[10.35682,47.06524],[10.35775,47.06591]],[[10.35709,47.066],[10.35677,47.06556],[10.35623,47.06534]],[[10.35715,47.06605],[10.35709,47.066]]]}}]}