{"type":"FeatureCollection","features":[{"type":"Feature","properties":{"kind":"piste","difficulty":"easy","name":null,"aerialway":null,"osm":"way/30584477"},"geometry":{"type":"LineString","coordinates":[[9.69413,47.10932],[9.6939,47.10929],[9.69395,47.1092],[9.69431,47.1091],[9.69781,47.10841],[9.70019,47.10852],[9.70205,47.10809],[9.70375,47.1084],[9.70474,47.1084],[9.70514,47.10823],[9.70667,47.10695],[9.70881,47.10652],[9.71049,47.10463],[9.71074,47.1045],[9.71342,47.10503]]}},{"type":"Feature","properties":{"kind":"piste","difficulty":"easy","name":null,"aerialway":null,"osm":"way/30584615"},"geometry":{"type":"LineString","coordinates":[[9.7135,47.10599],[9.7151,47.10586],[9.71508,47.10558],[9.71711,47.10483],[9.71742,47.10466],[9.71751,47.10451],[9.71733,47.1045]]}},{"type":"Feature","properties":{"kind":"piste","difficulty":"easy","name":null,"aerialway":null,"osm":"way/30584693"},"geometry":{"type":"LineString","coordinates":[[9.7151,47.10586],[9.71711,47.10483]]}},{"type":"Feature","properties":{"kind":"piste","difficulty":"easy","name":null,"aerialway":null,"osm":"way/30584893"},"geometry":{"type":"LineString","coordinates":[[9.71751,47.10451],[9.71778,47.10415]]}},{"type":"Feature","properties":{"kind":"piste","difficulty":"easy","name":null,"aerialway":null,"osm":"way/30584937"},"geometry":{"type":"LineString","coordinates":[[9.71813,47.10466],[9.71742,47.10466]]}},{"type":"Feature","properties":{"kind":"piste","difficulty":"easy","name":null,"aerialway":null,"osm":"way/31693058"},"geometry":{"type":"LineString","coordinates":[[9.71478,47.10596],[9.71508,47.10558]]}},{"type":"Feature","properties":{"kind":"piste","difficulty":"easy","name":null,"aerialway":null,"osm":"way/31693102"},"geometry":{"type":"LineString","coordinates":[[9.71711,47.10865],[9.71686,47.10827],[9.71719,47.10832],[9.7178,47.1081],[9.71822,47.10774],[9.71828,47.10742],[9.71821,47.10702],[9.71762,47.10639],[9.71727,47.10566],[9.71722,47.10541],[9.71749,47.10482],[9.71742,47.10466]]}},{"type":"Feature","properties":{"kind":"piste","difficulty":"intermediate","name":null,"aerialway":null,"osm":"way/31693250"},"geometry":{"type":"LineString","coordinates":[[9.71826,47.11018],[9.72219,47.1108],[9.72696,47.11114],[9.72711,47.11121],[9.72682,47.11171],[9.72569,47.11233],[9.72579,47.1127],[9.72974,47.11507],[9.73014,47.11565],[9.7308,47.11624],[9.73131,47.11627],[9.73148,47.1159]]}},{"type":"Feature","properties":{"kind":"piste","difficulty":"intermediate","name":null,"aerialway":null,"osm":"way/31693513"},"geometry":{"type":"LineString","coordinates":[[9.6939,47.10929],[9.69393,47.10914],[9.69457,47.10887],[9.69754,47.10873],[9.6986,47.10933],[9.69859,47.10944],[9.69822,47.10951],[9.69749,47.10937],[9.69718,47.10948],[9.69691,47.11043],[9.6964,47.11063],[9.69625,47.11076],[9.69627,47.11095],[9.69818,47.1112],[9.69986,47.1112],[9.70235,47.1119],[9.70356,47.11206],[9.70424,47.11211],[9.7056,47.11184],[9.7066,47.11266],[9.7086,47.11325],[9.71041,47.11437],[9.71192,47.11431],[9.71228,47.11411],[9.71666,47.11399],[9.71725,47.1141],[9.71869,47.115],[9.721,47.11591],[9.72232,47.11597],[9.72328,47.11548],[9.72353,47.11547],[9.7244,47.11574],[9.72564,47.11586],[9.729,47.11568],[9.7308,47.11624]]}},{"type":"Feature","properties":{"kind":"piste","difficulty":"easy","name":null,"aerialway":null,"osm":"way/31693829"},"geometry":{"type":"LineString","coordinates":[[9.69716,47.10852],[9.70187,47.10747],[9.70296,47.10671],[9.70336,47.10656],[9.70483,47.10637],[9.70693,47.10563],[9.70742,47.1054],[9.70874,47.10438],[9.71031,47.10382],[9.71108,47.10372],[9.71187,47.10386],[9.71308,47.10453],[9.71342,47.10503]]}},{"type":"Feature","properties":{"kind":"piste","difficulty":"intermediate","name":null,"aerialway":null,"osm":"way/31694181"},"geometry":{"type":"LineString","coordinates":[[9.71778,47.10402],[9.71791,47.10384],[9.71884,47.10372],[9.7196,47.10326],[9.72024,47.10179],[9.72124,47.10085],[9.72131,47.10058],[9.72112,47.10024],[9.71882,47.09995],[9.71817,47.09976],[9.71796,47.09947],[9.71818,47.09909],[9.71783,47.09788],[9.71791,47.09724],[9.72027,47.09583],[9.72104,47.0956],[9.72184,47.0957],[9.72259,47.09601],[9.72412,47.09577],[9.72567,47.09627],[9.72755,47.09591],[9.72817,47.09593],[9.72933,47.0952],[9.72932,47.09495],[9.7323,47.09473],[9.73442,47.09504]]}},{"type":"Feature","properties":{"kind":"piste","difficulty":"easy","name":null,"aerialway":null,"osm":"way/47460751"},"geometry":{"type":"LineString","coordinates":[[9.7503,47.1399],[9.75026,47.1397],[9.75071,47.13913]]}},{"type":"Feature","properties":{"kind":"piste","difficulty":"intermediate","name":null,"aerialway":null,"osm":"way/47460752"},"geometry":{"type":"LineString","coordinates":[[9.75294,47.13877],[9.75389,47.13926],[9.75615,47.13949],[9.75699,47.14085],[9.75706,47.14168],[9.75748,47.1429],[9.75889,47.14363],[9.75969,47.14426],[9.76007,47.14471],[9.76035,47.14587]]}},{"type":"Feature","properties":{"kind":"piste","difficulty":"easy","name":null,"aerialway":null,"osm":"way/47460753"},"geometry":{"type":"LineString","coordinates":[[9.76122,47.14484],[9.76091,47.14477],[9.76035,47.14587]]}},{"type":"Feature","properties":{"kind":"piste","difficulty":"intermediate","name":null,"aerialway":null,"osm":"way/47460754"},"geometry":{"type":"LineString","coordinates":[[9.76035,47.14587],[9.76142,47.14561],[9.76256,47.14561],[9.76436,47.14505],[9.76546,47.14418],[9.76613,47.14321],[9.76671,47.14286],[9.76729,47.1432],[9.76801,47.143],[9.76926,47.14291],[9.7712,47.14335],[9.77345,47.14342],[9.77359,47.14353],[9.77355,47.14383],[9.77372,47.14395],[9.77469,47.14375]]}},{"type":"Feature","properties":{"kind":"piste","difficulty":"easy","name":null,"aerialway":null,"osm":"way/47460762"},"geometry":{"type":"LineString","coordinates":[[9.74313,47.13559],[9.74253,47.13556],[9.7413,47.13511],[9.74052,47.13475],[9.74036,47.13446],[9.74051,47.13377],[9.7408,47.13342],[9.74123,47.13316],[9.7425,47.13278],[9.74278,47.13208],[9.74249,47.13137],[9.74151,47.13052],[9.74161,47.13027],[9.74143,47.12986],[9.74134,47.12911],[9.74208,47.12873],[9.74234,47.12826]]}},{"type":"Feature","properties":{"kind":"piste","difficulty":"easy","name":null,"aerialway":null,"osm":"way/47460764"},"geometry":{"type":"LineString","coordinates":[[9.70474,47.1084],[9.70609,47.10844],[9.70746,47.10817],[9.70848,47.10867],[9.71019,47.10891],[9.71461,47.10807],[9.71627,47.10814],[9.7194,47.10884],[9.72008,47.10886],[9.72203,47.10985],[9.72273,47.11048],[9.7236,47.11092],[9.72666,47.11108],[9.72711,47.11121]]}},{"type":"Feature","properties":{"kind":"piste","difficulty":"easy","name":null,"aerialway":null,"osm":"way/47460766"},"geometry":{"type":"LineString","coordinates":[[9.72564,47.11586],[9.72705,47.11587],[9.72844,47.11617],[9.72998,47.11617],[9.73149,47.11657],[9.73276,47.1171],[9.73361,47.11724],[9.73471,47.11824],[9.73562,47.11816],[9.73607,47.11796],[9.73654,47.11732],[9.73583,47.11538],[9.73581,47.11453],[9.73568,47.11432]]}},{"type":"Feature","properties":{"kind":"piste","difficulty":"easy","name":"Tannlegerlift Berg - Tannlegerlift Tal","aerialway":null,"osm":"way/47628008"},"geometry":{"type":"LineString","coordinates":[[9.72411,47.11293],[9.72409,47.11348],[9.72426,47.11381]]}},{"type":"Feature","properties":{"kind":"piste","difficulty":"easy","name":null,"aerialway":null,"osm":"way/47628017"},"geometry":{"type":"LineString","coordinates":[[9.71342,47.10503],[9.71409,47.10521],[9.71478,47.10508],[9.71741,47.10432],[9.71778,47.10415],[9.71778,47.10402],[9.71752,47.10399]]}},{"type":"Feature","properties":{"kind":"piste","difficulty":"easy","name":"Tannlegerlift Berg - Tannlegerlift Tal","aerialway":null,"osm":"way/47628039"},"geometry":{"type":"LineString","coordinates":[[9.72411,47.11293],[9.72503,47.11329],[9.72677,47.11605],[9.72651,47.11634]]}},{"type":"Feature","properties":{"kind":"piste","difficulty":"easy","name":null,"aerialway":null,"osm":"way/47628053"},"geometry":{"type":"LineString","coordinates":[[9.70628,47.1072],[9.7066,47.10673],[9.70726,47.10624],[9.70796,47.10608],[9.70907,47.10526],[9.71049,47.10463]]}},{"type":"Feature","properties":{"kind":"piste","difficulty":"easy","name":null,"aerialway":null,"osm":"way/47628056"},"geometry":{"type":"LineString","coordinates":[[9.71074,47.1045],[9.71128,47.10441],[9.71224,47.10456],[9.71308,47.10453]]}},{"type":"Feature","properties":{"kind":"piste","difficulty":"easy","name":null,"aerialway":null,"osm":"way/47628066"},"geometry":{"type":"LineString","coordinates":[[9.71342,47.10503],[9.71423,47.10447],[9.71791,47.10384]]}},{"type":"Feature","properties":{"kind":"piste","difficulty":"intermediate","name":null,"aerialway":null,"osm":"way/48557078"},"geometry":{"type":"LineString","coordinates":[[9.73577,47.11481],[9.73775,47.11562],[9.73867,47.11584],[9.74017,47.11576],[9.74184,47.11525],[9.74299,47.11536],[9.74354,47.11526],[9.74378,47.11501],[9.74387,47.11423],[9.74305,47.1131],[9.74284,47.1123],[9.74306,47.11203],[9.74441,47.11141],[9.74421,47.11088],[9.74369,47.11101]]}},{"type":"Feature","properties":{"kind":"piste","difficulty":"intermediate","name":null,"aerialway":null,"osm":"way/48557079"},"geometry":{"type":"LineString","coordinates":[[9.72666,47.11108],[9.72808,47.1106]]}},{"type":"Feature","properties":{"kind":"piste","difficulty":"intermediate","name":null,"aerialway":null,"osm":"way/48868125"},"geometry":{"type":"LineString","coordinates":[[9.75066,47.13825],[9.75078,47.13849],[9.75229,47.13892],[9.75274,47.13929]]}},{"type":"Feature","properties":{"kind":"piste","difficulty":"easy","name":null,"aerialway":null,"osm":"way/48868127"},"geometry":{"type":"LineString","coordinates":[[9.74107,47.13326],[9.74064,47.13295]]}},{"type":"Feature","properties":{"kind":"piste","difficulty":"expert","name":null,"aerialway":null,"osm":"way/48868129"},"geometry":{"type":"LineString","coordinates":[[9.7488,47.13949],[9.754,47.14253],[9.7581,47.14459]]}},{"type":"Feature","properties":{"kind":"piste","difficulty":"intermediate","name":null,"aerialway":null,"osm":"way/48868131"},"geometry":{"type":"LineString","coordinates":[[9.7425,47.13278],[9.74385,47.13171],[9.74393,47.13098],[9.7443,47.1305],[9.74501,47.12988],[9.74542,47.1297],[9.74696,47.12952],[9.74914,47.12968],[9.75124,47.13045],[9.75167,47.13076],[9.75416,47.13368],[9.75407,47.13391],[9.75363,47.13414],[9.75379,47.13434],[9.75362,47.13596],[9.75368,47.13643],[9.75469,47.13762],[9.75513,47.13917],[9.75547,47.13935]]}},{"type":"Feature","properties":{"kind":"piste","difficulty":"intermediate","name":null,"aerialway":null,"osm":"way/48868624"},"geometry":{"type":"LineString","coordinates":[[9.75748,47.1429],[9.75788,47.14358],[9.7581,47.14459],[9.76035,47.14587],[9.76029,47.14607],[9.76003,47.14616]]}},{"type":"Feature","properties":{"kind":"piste","difficulty":"intermediate","name":null,"aerialway":null,"osm":"way/49861981"},"geometry":{"type":"LineString","coordinates":[[9.73941,47.13312],[9.73829,47.13422],[9.73777,47.13451],[9.73591,47.13404],[9.73463,47.13418],[9.7342,47.13447]]}},{"type":"Feature","properties":{"kind":"piste","difficulty":"easy","name":null,"aerialway":null,"osm":"way/49926656"},"geometry":{"type":"LineString","coordinates":[[9.73897,47.13384],[9.73836,47.13453],[9.73822,47.13498],[9.73805,47.13632],[9.7383,47.13664],[9.74086,47.13865],[9.7417,47.13917],[9.74231,47.13944],[9.74308,47.13958],[9.74373,47.1395],[9.74405,47.1393]]}},{"type":"Feature","properties":{"kind":"piste","difficulty":"easy","name":null,"aerialway":null,"osm":"way/49942240"},"geometry":{"type":"LineString","coordinates":[[9.74234,47.12826],[9.74247,47.12836],[9.74298,47.12808],[9.74503,47.12752],[9.74526,47.12751],[9.74562,47.12783],[9.74566,47.12805],[9.7463,47.12888],[9.74664,47.13],[9.74756,47.13103],[9.7485,47.13274],[9.75052,47.13676],[9.75067,47.13832],[9.75093,47.1383],[9.75144,47.1378],[9.75168,47.1378],[9.75294,47.13877],[9.75274,47.13929]]}},{"type":"Feature","properties":{"kind":"piste","difficulty":"easy","name":"Natursprünge-Weg","aerialway":null,"osm":"way/49942241"},"geometry":{"type":"LineString","coordinates":[[9.72595,47.12445],[9.72439,47.12401],[9.72426,47.12353],[9.72394,47.12321],[9.72348,47.12222],[9.72214,47.12068],[9.72154,47.11979],[9.7208,47.11921],[9.71966,47.11862],[9.71908,47.1181],[9.71855,47.11787],[9.71773,47.11646],[9.71725,47.11603],[9.71725,47.11572],[9.71745,47.11539],[9.71761,47.11534]]}},{"type":"Feature","properties":{"kind":"piste","difficulty":"intermediate","name":null,"aerialway":null,"osm":"way/93026281"},"geometry":{"type":"LineString","coordinates":[[9.72567,47.09627],[9.72804,47.0969],[9.72818,47.09744],[9.72839,47.09758],[9.72886,47.09723],[9.72993,47.09702],[9.73061,47.09727],[9.73231,47.09734],[9.73412,47.09798],[9.7347,47.09775]]}},{"type":"Feature","properties":{"kind":"piste","difficulty":"easy","name":null,"aerialway":null,"osm":"way/96586076"},"geometry":{"type":"LineString","coordinates":[[9.74242,47.13769],[9.74295,47.13789],[9.7436,47.13834],[9.74405,47.13879],[9.74447,47.13952]]}},{"type":"Feature","properties":{"kind":"piste","difficulty":"expert","name":null,"aerialway":null,"osm":"way/96586450"},"geometry":{"type":"LineString","coordinates":[[9.74313,47.13559],[9.74355,47.13621],[9.74428,47.13653],[9.74631,47.13821],[9.7488,47.13949]]}},{"type":"Feature","properties":{"kind":"piste","difficulty":"easy","name":null,"aerialway":null,"osm":"way/122579309"},"geometry":{"type":"LineString","coordinates":[[9.74236,47.1375],[9.74255,47.13806],[9.74307,47.13872],[9.74447,47.13952],[9.74519,47.14011],[9.74567,47.14019],[9.74795,47.13987],[9.74986,47.13915],[9.75155,47.13918],[9.7524,47.1394],[9.75274,47.13929]]}},{"type":"Feature","properties":{"kind":"piste","difficulty":"easy","name":null,"aerialway":null,"osm":"way/122579311"},"geometry":{"type":"LineString","coordinates":[[9.74064,47.13295],[9.73952,47.13305],[9.73905,47.13354],[9.73897,47.13389],[9.7391,47.13427],[9.7391,47.13498],[9.7402,47.1364],[9.74163,47.13725],[9.74236,47.1375]]}},{"type":"Feature","properties":{"kind":"piste","difficulty":"intermediate","name":null,"aerialway":null,"osm":"way/123383299"},"geometry":{"type":"LineString","coordinates":[[9.7342,47.13447],[9.73357,47.13488],[9.73263,47.1346],[9.73245,47.13465],[9.73275,47.13523],[9.7329,47.13519]]}},{"type":"Feature","properties":{"kind":"piste","difficulty":"easy","name":null,"aerialway":null,"osm":"way/142190194"},"geometry":{"type":"LineString","coordinates":[[9.71187,47.10386],[9.71259,47.10396],[9.71396,47.10391],[9.71505,47.10413],[9.71708,47.10377],[9.71751,47.10384]]}},{"type":"Feature","properties":{"kind":"piste","difficulty":"easy","name":"Schedlerhoflift Berg - Schedlerhoflift Tal","aerialway":null,"osm":"way/155436936"},"geometry":{"type":"LineString","coordinates":[[9.74559,47.10419],[9.74513,47.10423],[9.74488,47.10445],[9.74479,47.10476],[9.74528,47.10528],[9.7451,47.1057],[9.74546,47.10609],[9.74569,47.1069]]}},{"type":"Feature","properties":{"kind":"piste","difficulty":"easy","name":null,"aerialway":null,"osm":"way/263060812"},"geometry":{"type":"LineString","coordinates":[[9.75484,47.14313],[9.75477,47.14363],[9.75487,47.14388],[9.75669,47.14451],[9.7576,47.14505],[9.75811,47.14561],[9.75885,47.14605],[9.76003,47.14616]]}},{"type":"Feature","properties":{"kind":"piste","difficulty":"easy","name":null,"aerialway":null,"osm":"way/478297507"},"geometry":{"type":"LineString","coordinates":[[9.73167,47.11617],[9.73148,47.1159]]}},{"type":"Feature","properties":{"kind":"piste","difficulty":"easy","name":null,"aerialway":null,"osm":"way/478297508"},"geometry":{"type":"LineString","coordinates":[[9.73185,47.11611],[9.73167,47.11617],[9.73181,47.1163]]}},{"type":"Feature","properties":{"kind":"piste","difficulty":"easy","name":null,"aerialway":null,"osm":"way/478297509"},"geometry":{"type":"LineString","coordinates":[[9.73149,47.11657],[9.73165,47.11649]]}},{"type":"Feature","properties":{"kind":"piste","difficulty":"easy","name":null,"aerialway":null,"osm":"way/478297510"},"geometry":{"type":"LineString","coordinates":[[9.73131,47.11627],[9.73165,47.11649],[9.73181,47.1163]]}},{"type":"Feature","properties":{"kind":"piste","difficulty":"easy","name":null,"aerialway":null,"osm":"way/1038054340"},"geometry":{"type":"LineString","coordinates":[[9.7301,47.13085],[9.72943,47.13121],[9.72997,47.13236],[9.73108,47.13314],[9.73098,47.1337],[9.73108,47.13387],[9.73246,47.13475]]}},{"type":"Feature","properties":{"kind":"piste","difficulty":"easy","name":null,"aerialway":null,"osm":"way/1038054342"},"geometry":{"type":"LineString","coordinates":[[9.70205,47.10809],[9.70628,47.1072]]}},{"type":"Feature","properties":{"kind":"piste","difficulty":"easy","name":null,"aerialway":null,"osm":"way/1128075576"},"geometry":{"type":"LineString","coordinates":[[9.75799,47.14444],[9.75667,47.14591],[9.75692,47.14612],[9.75748,47.14579],[9.75827,47.14569]]}},{"type":"Feature","properties":{"kind":"piste","difficulty":"easy","name":null,"aerialway":null,"osm":"way/1128075577"},"geometry":{"type":"LineString","coordinates":[[9.74413,47.1307],[9.7454,47.13023],[9.74685,47.1303]]}},{"type":"Feature","properties":{"kind":"piste","difficulty":"intermediate","name":null,"aerialway":null,"osm":"way/1128075578"},"geometry":{"type":"LineString","coordinates":[[9.72931,47.11481],[9.73022,47.11463],[9.73083,47.11418],[9.73152,47.11404],[9.73409,47.11419],[9.73464,47.11428],[9.73545,47.11479],[9.73568,47.11481],[9.73579,47.11466]]}},{"type":"Feature","properties":{"kind":"piste","difficulty":"intermediate","name":null,"aerialway":null,"osm":"way/1128075579"},"geometry":{"type":"LineString","coordinates":[[9.72276,47.11086],[9.72398,47.11121],[9.72571,47.11253]]}},{"type":"Feature","properties":{"kind":"piste","difficulty":"intermediate","name":null,"aerialway":null,"osm":"way/1128075580"},"geometry":{"type":"LineString","coordinates":[[9.69393,47.10914],[9.69405,47.10761],[9.69428,47.10679],[9.69483,47.10591],[9.69619,47.10531],[9.69688,47.10511],[9.69702,47.10525],[9.69739,47.10526],[9.70127,47.10462],[9.70309,47.10456],[9.70566,47.10401],[9.7099,47.10394]]}},{"type":"Feature","properties":{"kind":"piste","difficulty":"intermediate","name":null,"aerialway":null,"osm":"way/1128075581"},"geometry":{"type":"LineString","coordinates":[[9.69466,47.10886],[9.69588,47.1082],[9.69734,47.10699],[9.69841,47.10641],[9.69956,47.10606],[9.70036,47.10554],[9.70251,47.10462]]}},{"type":"Feature","properties":{"kind":"piste","difficulty":"easy","name":null,"aerialway":null,"osm":"way/1170506106"},"geometry":{"type":"LineString","coordinates":[[9.71822,47.11036],[9.71822,47.11026]]}},{"type":"Feature","properties":{"kind":"piste","difficulty":"easy","name":null,"aerialway":null,"osm":"way/1170506107"},"geometry":{"type":"LineString","coordinates":[[9.71822,47.11026],[9.71912,47.11011],[9.7194,47.10996],[9.71951,47.10972],[9.71788,47.10923],[9.71711,47.10865]]}},{"type":"Feature","properties":{"kind":"piste","difficulty":"intermediate","name":null,"aerialway":null,"osm":"way/1233588230"},"geometry":{"type":"LineString","coordinates":[[9.71954,47.11549],[9.72054,47.11624],[9.72244,47.11657],[9.72392,47.11637],[9.72458,47.11644],[9.72502,47.11664],[9.72659,47.11656],[9.72781,47.11596]]}},{"type":"Feature","properties":{"kind":"piste","difficulty":"easy","name":null,"aerialway":null,"osm":"way/1301834485"},"geometry":{"type":"LineString","coordinates":[[9.71761,47.11534],[9.7201,47.11556]]}},{"type":"Feature","properties":{"kind":"piste","difficulty":"easy","name":null,"aerialway":null,"osm":"way/1301834486"},"geometry":{"type":"LineString","coordinates":[[9.7318,47.13191],[9.73144,47.1314]]}},{"type":"Feature","properties":{"kind":"piste","difficulty":"easy","name":null,"aerialway":null,"osm":"way/1301834487"},"geometry":{"type":"LineString","coordinates":[[9.73144,47.1314],[9.72998,47.13079]]}},{"type":"Feature","properties":{"kind":"piste","difficulty":"easy","name":"Natursprünge-Weg","aerialway":null,"osm":"way/1301834488"},"geometry":{"type":"LineString","coordinates":[[9.7299,47.13047],[9.72934,47.13016],[9.72813,47.12913],[9.72808,47.12876],[9.72768,47.12848],[9.72746,47.128],[9.72684,47.12768],[9.72705,47.12712],[9.72678,47.12642],[9.72677,47.12582],[9.72723,47.12507]]}},{"type":"Feature","properties":{"kind":"piste","difficulty":"easy","name":"Natursprünge-Weg","aerialway":null,"osm":"way/1301834489"},"geometry":{"type":"LineString","coordinates":[[9.72723,47.12507],[9.72707,47.12478],[9.72595,47.12445]]}},{"type":"Feature","properties":{"kind":"piste","difficulty":"easy","name":null,"aerialway":null,"osm":"way/1446368976"},"geometry":{"type":"LineString","coordinates":[[9.75725,47.14224],[9.75849,47.14266],[9.76063,47.14276],[9.76115,47.14309],[9.76174,47.14393],[9.76155,47.14424],[9.76091,47.14477]]}},{"type":"Feature","properties":{"kind":"piste","difficulty":"easy","name":null,"aerialway":null,"osm":"way/1446368977"},"geometry":{"type":"LineString","coordinates":[[9.75144,47.1378],[9.75177,47.13755],[9.75273,47.13727],[9.75364,47.13676],[9.75395,47.13674]]}},{"type":"Feature","properties":{"kind":"piste","difficulty":"easy","name":null,"aerialway":null,"osm":"way/1446368978"},"geometry":{"type":"LineString","coordinates":[[9.7519,47.13793],[9.75237,47.13793],[9.75314,47.13723],[9.75429,47.13715]]}},{"type":"Feature","properties":{"kind":"piste","difficulty":"easy","name":null,"aerialway":null,"osm":"way/1446368979"},"geometry":{"type":"LineString","coordinates":[[9.75219,47.13813],[9.75329,47.13805],[9.75361,47.13785],[9.75401,47.13724],[9.75429,47.13715]]}},{"type":"Feature","properties":{"kind":"piste","difficulty":"intermediate","name":null,"aerialway":null,"osm":"way/1446368980"},"geometry":{"type":"LineString","coordinates":[[9.75274,47.13929],[9.75341,47.13942],[9.75515,47.13934]]}},{"type":"Feature","properties":{"kind":"piste","difficulty":"expert","name":null,"aerialway":null,"osm":"way/1446368981"},"geometry":{"type":"LineString","coordinates":[[9.75484,47.14313],[9.75508,47.1431]]}},{"type":"Feature","properties":{"kind":"piste","difficulty":"intermediate","name":null,"aerialway":null,"osm":"way/1446368982"},"geometry":{"type":"LineString","coordinates":[[9.72561,47.11293],[9.72617,47.1134],[9.72668,47.11421],[9.72725,47.11465],[9.72888,47.11532],[9.73014,47.11565]]}},{"type":"Feature","properties":{"kind":"piste","difficulty":"intermediate","name":null,"aerialway":null,"osm":"way/1446368983"},"geometry":{"type":"LineString","coordinates":[[9.729,47.11568],[9.73006,47.11563]]}},{"type":"Feature","properties":{"kind":"piste","difficulty":"easy","name":null,"aerialway":null,"osm":"way/1446368984"},"geometry":{"type":"LineString","coordinates":[[9.73614,47.11621],[9.7362,47.11596],[9.7365,47.11579],[9.73775,47.11562]]}},{"type":"Feature","properties":{"kind":"piste","difficulty":"easy","name":null,"aerialway":null,"osm":"way/1446368987"},"geometry":{"type":"LineString","coordinates":[[9.71451,47.10407],[9.71487,47.10436]]}},{"type":"Feature","properties":{"kind":"piste","difficulty":"easy","name":null,"aerialway":null,"osm":"way/1446368988"},"geometry":{"type":"LineString","coordinates":[[9.70881,47.10652],[9.7097,47.10617],[9.71168,47.10584],[9.71409,47.10521]]}},{"type":"Feature","properties":{"kind":"lift","difficulty":null,"name":"Lünerseebahn","aerialway":"cable_car","osm":"way/26140834"},"geometry":{"type":"LineString","coordinates":[[9.75521,47.0667],[9.7543,47.05964]]}},{"type":"Feature","properties":{"kind":"lift","difficulty":null,"name":"Dorfbahn","aerialway":"gondola","osm":"way/30325994"},"geometry":{"type":"LineString","coordinates":[[9.74369,47.11101],[9.73185,47.11611]]}},{"type":"Feature","properties":{"kind":"lift","difficulty":null,"name":"Palüdbahn","aerialway":"gondola","osm":"way/30490160"},"geometry":{"type":"LineString","coordinates":[[9.73474,47.09514],[9.71813,47.10466]]}},{"type":"Feature","properties":{"kind":"lift","difficulty":null,"name":"Melkbodenlift","aerialway":"platter","osm":"way/30490186"},"geometry":{"type":"LineString","coordinates":[[9.71733,47.1045],[9.7135,47.10599]]}},{"type":"Feature","properties":{"kind":"lift","difficulty":null,"name":"Glattjochbahn","aerialway":"chair_lift","osm":"way/30490188"},"geometry":{"type":"LineString","coordinates":[[9.71752,47.10399],[9.69413,47.10932]]}},{"type":"Feature","properties":{"kind":"lift","difficulty":null,"name":"Gulmabahn","aerialway":"chair_lift","osm":"way/31692806"},"geometry":{"type":"LineString","coordinates":[[9.73148,47.1159],[9.71822,47.11036]]}},{"type":"Feature","properties":{"kind":"lift","difficulty":null,"name":"Panoramabahn Burtschasattel","aerialway":"cable_car","osm":"way/47460755"},"geometry":{"type":"LineString","coordinates":[[9.73181,47.1163],[9.74234,47.12826]]}},{"type":"Feature","properties":{"kind":"lift","difficulty":null,"name":"Einhornbahn I","aerialway":"chair_lift","osm":"way/47460757"},"geometry":{"type":"LineString","coordinates":[[9.77487,47.14355],[9.761,47.14486]]}},{"type":"Feature","properties":{"kind":"lift","difficulty":null,"name":"Tannlegerlift","aerialway":"platter","osm":"way/47628037"},"geometry":{"type":"LineString","coordinates":[[9.72651,47.11634],[9.72411,47.11293]]}},{"type":"Feature","properties":{"kind":"lift","difficulty":null,"name":"Faregglift","aerialway":"t-bar","osm":"way/49861983"},"geometry":{"type":"LineString","coordinates":[[9.73292,47.13524],[9.73158,47.13131]]}},{"type":"Feature","properties":{"kind":"lift","difficulty":null,"name":"Schedlerhoflift","aerialway":"drag_lift","osm":"way/155436935"},"geometry":{"type":"LineString","coordinates":[[9.74569,47.1069],[9.74559,47.10419]]}},{"type":"Feature","properties":{"kind":"lift","difficulty":null,"name":"Niggenkopfbahn II","aerialway":"chair_lift","osm":"way/184419647"},"geometry":{"type":"LineString","coordinates":[[9.73568,47.11432],[9.72856,47.1107]]}},{"type":"Feature","properties":{"kind":"lift","difficulty":null,"name":"Loischkopfbahn","aerialway":"gondola","osm":"way/1445126933"},"geometry":{"type":"LineString","coordinates":[[9.76003,47.14616],[9.74313,47.13559]]}}]}