{"type":"FeatureCollection","features":[{"type":"Feature","properties":{"kind":"piste","difficulty":"easy","name":null,"aerialway":null,"osm":"way/49852973"},"geometry":{"type":"LineString","coordinates":[[10.05652,47.10948],[10.05695,47.10948],[10.05763,47.10985],[10.05827,47.10913],[10.05863,47.10894],[10.05836,47.10919],[10.0585,47.10924]]}},{"type":"Feature","properties":{"kind":"piste","difficulty":"easy","name":"Abfahrt Riedboden","aerialway":null,"osm":"way/49852974"},"geometry":{"type":"LineString","coordinates":[[10.05652,47.10948],[10.05291,47.10852],[10.05078,47.10601],[10.05044,47.10598]]}},{"type":"Feature","properties":{"kind":"piste","difficulty":"intermediate","name":"Abfahrt Vermalen Obermoos","aerialway":null,"osm":"way/49852975"},"geometry":{"type":"LineString","coordinates":[[10.06797,47.10521],[10.06921,47.10572],[10.06968,47.10718],[10.07019,47.10811],[10.06982,47.10877],[10.07039,47.10963],[10.07027,47.10995],[10.07102,47.11004],[10.07128,47.11021],[10.07095,47.11037],[10.07021,47.11112],[10.06955,47.11135],[10.06908,47.11141],[10.06783,47.11127],[10.06637,47.1119],[10.06604,47.11264],[10.06647,47.11345],[10.0656,47.11395],[10.06529,47.11394],[10.06469,47.11295],[10.06434,47.11305],[10.06411,47.11334]]}},{"type":"Feature","properties":{"kind":"piste","difficulty":"easy","name":"Waldabfahrt","aerialway":null,"osm":"way/49852976"},"geometry":{"type":"LineString","coordinates":[[10.05609,47.10854],[10.05578,47.10903],[10.05513,47.10945],[10.05478,47.10987],[10.05462,47.11071]]}},{"type":"Feature","properties":{"kind":"piste","difficulty":"easy","name":"Abfahrt Riedkopf","aerialway":null,"osm":"way/49852978"},"geometry":{"type":"LineString","coordinates":[[10.04106,47.10758],[10.04097,47.10769],[10.04107,47.10783],[10.04507,47.10773],[10.04811,47.10898],[10.04962,47.10773]]}},{"type":"Feature","properties":{"kind":"piste","difficulty":"easy","name":"Muri Standardabfahrt","aerialway":null,"osm":"way/49852979"},"geometry":{"type":"LineString","coordinates":[[10.06391,47.10296],[10.06272,47.10347],[10.06234,47.1038]]}},{"type":"Feature","properties":{"kind":"piste","difficulty":"easy","name":"Muri Standardabfahrt","aerialway":null,"osm":"way/49852980"},"geometry":{"type":"LineString","coordinates":[[10.07362,47.10137],[10.07294,47.10116],[10.07056,47.10138],[10.06847,47.10137],[10.0671,47.10182],[10.06464,47.10237],[10.06407,47.10272],[10.06363,47.10339],[10.06205,47.10393]]}},{"type":"Feature","properties":{"kind":"piste","difficulty":"intermediate","name":"Hintere Muriabfahrt","aerialway":null,"osm":"way/49852982"},"geometry":{"type":"LineString","coordinates":[[10.07362,47.10137],[10.07301,47.1015],[10.07274,47.10251],[10.07195,47.10331],[10.0723,47.10466],[10.0721,47.10506]]}},{"type":"Feature","properties":{"kind":"piste","difficulty":"intermediate","name":"Riedkopf Direkte","aerialway":null,"osm":"way/49852986"},"geometry":{"type":"LineString","coordinates":[[10.04137,47.10783],[10.04378,47.10738],[10.04608,47.10732],[10.04689,47.10719],[10.04868,47.10671],[10.04964,47.10629],[10.05004,47.10598]]}},{"type":"Feature","properties":{"kind":"piste","difficulty":"intermediate","name":"Verbindung Glattingrat","aerialway":null,"osm":"way/49852987"},"geometry":{"type":"LineString","coordinates":[[10.07362,47.10137],[10.07386,47.1016],[10.07486,47.10208],[10.07703,47.10419]]}},{"type":"Feature","properties":{"kind":"piste","difficulty":"intermediate","name":"Abfahrt Glattingrat","aerialway":null,"osm":"way/49852988"},"geometry":{"type":"LineString","coordinates":[[10.07584,47.10703],[10.07507,47.10779],[10.07319,47.10833],[10.07213,47.10815],[10.07016,47.10807],[10.06927,47.1078],[10.0647,47.10699],[10.06347,47.10705],[10.0597,47.10784],[10.05873,47.10871]]}},{"type":"Feature","properties":{"kind":"piste","difficulty":"intermediate","name":null,"aerialway":null,"osm":"way/49852989"},"geometry":{"type":"LineString","coordinates":[[10.07558,47.10589],[10.07581,47.10574],[10.0763,47.10595]]}},{"type":"Feature","properties":{"kind":"piste","difficulty":"intermediate","name":"Verbindung zu Abfahrt 3","aerialway":null,"osm":"way/49852990"},"geometry":{"type":"LineString","coordinates":[[10.07635,47.10573],[10.07511,47.10575],[10.07409,47.1053],[10.07258,47.10541],[10.0721,47.10506]]}},{"type":"Feature","properties":{"kind":"piste","difficulty":"intermediate","name":"Abfahrt Glattingrat","aerialway":null,"osm":"way/49852993"},"geometry":{"type":"LineString","coordinates":[[10.07749,47.10117],[10.07731,47.1017],[10.07752,47.10253],[10.07743,47.10325],[10.07703,47.10419],[10.07691,47.10503],[10.07631,47.1058],[10.07638,47.1066],[10.07584,47.10703],[10.07618,47.10712],[10.07628,47.10696]]}},{"type":"Feature","properties":{"kind":"piste","difficulty":"easy","name":"Talabfahrt","aerialway":null,"osm":"way/49852995"},"geometry":{"type":"LineString","coordinates":[[10.05628,47.11796],[10.055,47.11839],[10.05414,47.11854],[10.05398,47.11863],[10.05407,47.11878],[10.05532,47.11919],[10.05695,47.1195],[10.05878,47.11948],[10.05864,47.11983],[10.05784,47.12035],[10.05761,47.12063],[10.05952,47.12049],[10.05967,47.1205],[10.05968,47.12062],[10.05823,47.12141],[10.05633,47.12197],[10.05592,47.12251],[10.05508,47.12278],[10.05301,47.12308],[10.05101,47.12312],[10.05081,47.12324],[10.05097,47.12356],[10.05228,47.12374],[10.05326,47.12396],[10.05368,47.12419],[10.05558,47.12443],[10.05606,47.12461],[10.05442,47.12482],[10.05132,47.12464],[10.0484,47.12532]]}},{"type":"Feature","properties":{"kind":"piste","difficulty":"easy","name":null,"aerialway":null,"osm":"way/49852999"},"geometry":{"type":"LineString","coordinates":[[10.05647,47.1104],[10.05679,47.11046],[10.05763,47.10985]]}},{"type":"Feature","properties":{"kind":"piste","difficulty":"easy","name":null,"aerialway":null,"osm":"way/49853001"},"geometry":{"type":"LineString","coordinates":[[10.0556,47.11132],[10.05534,47.11086],[10.05533,47.11055]]}},{"type":"Feature","properties":{"kind":"piste","difficulty":"easy","name":"Waldabfahrt","aerialway":null,"osm":"way/49853002"},"geometry":{"type":"LineString","coordinates":[[10.0556,47.11132],[10.05525,47.11091],[10.05492,47.11075],[10.05416,47.1108],[10.05323,47.11222],[10.0533,47.11245],[10.05401,47.11314],[10.05444,47.11384],[10.05497,47.11428],[10.05563,47.11443],[10.05811,47.11426],[10.05835,47.11446],[10.05824,47.1147],[10.05719,47.1152],[10.05731,47.11538],[10.05813,47.11584],[10.05805,47.11666],[10.05688,47.11739],[10.0561,47.1181],[10.05606,47.11838],[10.05583,47.1184]]}},{"type":"Feature","properties":{"kind":"piste","difficulty":"intermediate","name":"Skiroute Klösterle Dorfmitte","aerialway":null,"osm":"way/49853005"},"geometry":{"type":"LineString","coordinates":[[10.07502,47.12744],[10.07566,47.12758],[10.07637,47.12795],[10.07768,47.12826],[10.07852,47.12866],[10.07961,47.12892],[10.08032,47.12891],[10.08104,47.12872],[10.08199,47.12814],[10.08306,47.12811],[10.08395,47.1285],[10.08485,47.12917],[10.08777,47.12963],[10.08855,47.12993],[10.08957,47.13003],[10.09001,47.13022]]}},{"type":"Feature","properties":{"kind":"piste","difficulty":"easy","name":null,"aerialway":null,"osm":"way/91269897"},"geometry":{"type":"LineString","coordinates":[[10.05056,47.10595],[10.04994,47.10597]]}},{"type":"Feature","properties":{"kind":"piste","difficulty":"easy","name":"Riedkopf Umfahrung","aerialway":null,"osm":"way/91269898"},"geometry":{"type":"LineString","coordinates":[[10.04811,47.10898],[10.04909,47.10999],[10.05206,47.11039],[10.05287,47.11065],[10.05327,47.11098],[10.05358,47.11164]]}},{"type":"Feature","properties":{"kind":"piste","difficulty":"easy","name":"Abfahrt Riedkopf","aerialway":null,"osm":"way/91269901"},"geometry":{"type":"LineString","coordinates":[[10.04962,47.10773],[10.05045,47.10743],[10.05122,47.10655]]}},{"type":"Feature","properties":{"kind":"piste","difficulty":"intermediate","name":"Slalomhang (WISBI Strecke)","aerialway":null,"osm":"way/91269902"},"geometry":{"type":"LineString","coordinates":[[10.06205,47.10393],[10.06098,47.10529],[10.06075,47.10584],[10.05969,47.10639],[10.05931,47.10678],[10.05851,47.10796],[10.05827,47.10863]]}},{"type":"Feature","properties":{"kind":"piste","difficulty":"easy","name":"Abfahrt Riedboden","aerialway":null,"osm":"way/91269903"},"geometry":{"type":"LineString","coordinates":[[10.05344,47.11026],[10.05326,47.10912],[10.05291,47.10852]]}},{"type":"Feature","properties":{"kind":"piste","difficulty":"intermediate","name":"Abfahrt Untermuri","aerialway":null,"osm":"way/148715728"},"geometry":{"type":"LineString","coordinates":[[10.05677,47.10644],[10.05616,47.10651],[10.0558,47.10674],[10.05492,47.10694],[10.05244,47.10704],[10.05206,47.1069],[10.05124,47.10623],[10.05056,47.10595]]}},{"type":"Feature","properties":{"kind":"piste","difficulty":"advanced","name":"Klostertaler Abfahrt (Bärenloch)","aerialway":null,"osm":"way/148715729"},"geometry":{"type":"LineString","coordinates":[[10.05917,47.10825],[10.06015,47.10936],[10.06209,47.1104],[10.06238,47.11079],[10.0628,47.11107],[10.06273,47.11159],[10.06285,47.11172],[10.06382,47.11217],[10.06445,47.1121],[10.06458,47.11271],[10.06449,47.11296]]}},{"type":"Feature","properties":{"kind":"piste","difficulty":"intermediate","name":null,"aerialway":null,"osm":"way/148715730"},"geometry":{"type":"LineString","coordinates":[[10.06411,47.11334],[10.06401,47.11359],[10.06428,47.11359]]}},{"type":"Feature","properties":{"kind":"piste","difficulty":"intermediate","name":"Mittlere Muriabfahrt","aerialway":null,"osm":"way/162890267"},"geometry":{"type":"LineString","coordinates":[[10.07301,47.1015],[10.0719,47.10205],[10.06933,47.10229],[10.06821,47.10312],[10.06714,47.10332],[10.0664,47.10402],[10.06621,47.10449],[10.06687,47.10491],[10.06797,47.10521]]}},{"type":"Feature","properties":{"kind":"piste","difficulty":"intermediate","name":"Skiroute Riedkopf","aerialway":null,"osm":"way/580671985"},"geometry":{"type":"LineString","coordinates":[[10.04098,47.10772],[10.04082,47.10752],[10.0409,47.10738],[10.04206,47.10689],[10.04417,47.10626],[10.04609,47.10604],[10.04742,47.10569],[10.04897,47.10604],[10.04956,47.10631]]}},{"type":"Feature","properties":{"kind":"piste","difficulty":"intermediate","name":"Hintere Muriabfahrt","aerialway":null,"osm":"way/580671988"},"geometry":{"type":"LineString","coordinates":[[10.0721,47.10506],[10.07056,47.10526],[10.06896,47.10507],[10.06763,47.10517],[10.06733,47.10567],[10.06714,47.10665],[10.0647,47.10699]]}},{"type":"Feature","properties":{"kind":"piste","difficulty":"easy","name":null,"aerialway":null,"osm":"way/580671998"},"geometry":{"type":"LineString","coordinates":[[10.05677,47.10907],[10.05664,47.10898],[10.05706,47.10876]]}},{"type":"Feature","properties":{"kind":"piste","difficulty":"intermediate","name":"Abfahrt Schlossboden","aerialway":null,"osm":"way/580672002"},"geometry":{"type":"LineString","coordinates":[[10.06644,47.10191],[10.06547,47.10275],[10.06489,47.10306],[10.06448,47.10376],[10.06371,47.1042],[10.06319,47.10469],[10.0632,47.10502],[10.06465,47.10628],[10.06476,47.1066],[10.0647,47.10699]]}},{"type":"Feature","properties":{"kind":"piste","difficulty":"intermediate","name":"Skiroute Schäferhütte","aerialway":null,"osm":"way/580672005"},"geometry":{"type":"LineString","coordinates":[[10.05573,47.10676],[10.05494,47.10669],[10.0533,47.10599],[10.05181,47.10588],[10.05078,47.10601]]}},{"type":"Feature","properties":{"kind":"piste","difficulty":"intermediate","name":"Skiroute Glattingrat","aerialway":null,"osm":"way/580672007"},"geometry":{"type":"LineString","coordinates":[[10.08061,47.10155],[10.08166,47.1029],[10.07805,47.10519]]}},{"type":"Feature","properties":{"kind":"piste","difficulty":"freeride","name":"Kuhtäli","aerialway":null,"osm":"way/582350943"},"geometry":{"type":"LineString","coordinates":[[10.08073,47.10126],[10.08192,47.10157],[10.08451,47.10197],[10.09585,47.10257],[10.09777,47.10318],[10.10011,47.10413],[10.10131,47.10446],[10.10267,47.1046],[10.10501,47.1044],[10.1066,47.10399],[10.1072,47.10349],[10.10759,47.10352],[10.10797,47.10333],[10.10878,47.10344],[10.10875,47.10397],[10.10916,47.10507],[10.10848,47.10526],[10.10859,47.10573],[10.10788,47.10576],[10.10827,47.10599],[10.10773,47.10616],[10.10777,47.10648],[10.10756,47.10716],[10.10717,47.10754],[10.1067,47.10758],[10.107,47.10836],[10.10695,47.10877],[10.10648,47.10921],[10.10645,47.10975],[10.10607,47.11048],[10.10607,47.11154],[10.10558,47.11258],[10.10558,47.11284],[10.10478,47.1138],[10.10498,47.11465],[10.10496,47.11588],[10.10586,47.11716],[10.10574,47.11758],[10.10601,47.1181],[10.10611,47.11883],[10.10645,47.11908],[10.10606,47.11973],[10.10608,47.12007],[10.10639,47.12033],[10.10599,47.12051],[10.10573,47.12089],[10.10575,47.12118],[10.10545,47.12209],[10.10507,47.12259],[10.10283,47.12472],[10.10227,47.12541],[10.10139,47.12589],[10.10091,47.1264],[10.10093,47.12661],[10.10117,47.12704],[10.10306,47.12769],[10.10423,47.12795],[10.10816,47.12832],[10.1087,47.12867],[10.11024,47.12922],[10.11251,47.12967],[10.114,47.13019],[10.11575,47.13023],[10.11595,47.13035]]}},{"type":"Feature","properties":{"kind":"piste","difficulty":"easy","name":"Abfahrt Riedboden","aerialway":null,"osm":"way/697184984"},"geometry":{"type":"LineString","coordinates":[[10.05462,47.11071],[10.05418,47.11016],[10.05374,47.10917],[10.05312,47.10883]]}},{"type":"Feature","properties":{"kind":"piste","difficulty":"easy","name":"Waldabfahrt","aerialway":null,"osm":"way/697203618"},"geometry":{"type":"LineString","coordinates":[[10.05344,47.11026],[10.05375,47.11011],[10.05418,47.11015]]}},{"type":"Feature","properties":{"kind":"piste","difficulty":"easy","name":null,"aerialway":null,"osm":"way/1078792411"},"geometry":{"type":"LineString","coordinates":[[10.05677,47.10907],[10.05642,47.10945]]}},{"type":"Feature","properties":{"kind":"piste","difficulty":"easy","name":null,"aerialway":null,"osm":"way/1102901478"},"geometry":{"type":"LineString","coordinates":[[10.07352,47.10143],[10.07362,47.10137]]}},{"type":"Feature","properties":{"kind":"piste","difficulty":"intermediate","name":"Talabfahrt Vermalen","aerialway":null,"osm":"way/1210274680"},"geometry":{"type":"LineString","coordinates":[[10.05862,47.12833],[10.05803,47.12824],[10.05747,47.12772],[10.05707,47.12777]]}},{"type":"Feature","properties":{"kind":"piste","difficulty":"intermediate","name":"Talabfahrt Vermalen","aerialway":null,"osm":"way/1210274681"},"geometry":{"type":"LineString","coordinates":[[10.05885,47.12836],[10.05862,47.12833]]}},{"type":"Feature","properties":{"kind":"piste","difficulty":"easy","name":null,"aerialway":null,"osm":"way/1350978427"},"geometry":{"type":"LineString","coordinates":[[10.0525,47.11052],[10.05305,47.11059],[10.05362,47.11089],[10.05416,47.1108]]}},{"type":"Feature","properties":{"kind":"piste","difficulty":"intermediate","name":null,"aerialway":null,"osm":"way/1350978428"},"geometry":{"type":"LineString","coordinates":[[10.06927,47.10587],[10.06904,47.10623],[10.06677,47.10734]]}},{"type":"Feature","properties":{"kind":"piste","difficulty":"intermediate","name":"Skiroute Glattingrat","aerialway":null,"osm":"way/1350978429"},"geometry":{"type":"LineString","coordinates":[[10.07805,47.10519],[10.07674,47.10706],[10.0765,47.10718],[10.07618,47.10712]]}},{"type":"Feature","properties":{"kind":"piste","difficulty":"intermediate","name":"Abfahrt Glattingrat","aerialway":null,"osm":"way/1350978430"},"geometry":{"type":"LineString","coordinates":[[10.08064,47.1014],[10.08075,47.10128],[10.08061,47.10155],[10.07898,47.10127],[10.07737,47.10117],[10.0768,47.10124],[10.07612,47.10159],[10.07794,47.10224],[10.07902,47.10286],[10.07932,47.10324],[10.07915,47.10369],[10.07805,47.10519]]}},{"type":"Feature","properties":{"kind":"piste","difficulty":"intermediate","name":"Abfahrt Vermalen Obermoos","aerialway":null,"osm":"way/1350978431"},"geometry":{"type":"LineString","coordinates":[[10.07021,47.11112],[10.0696,47.11178],[10.06857,47.11247],[10.06797,47.1124],[10.06743,47.11197],[10.06656,47.11179]]}},{"type":"Feature","properties":{"kind":"piste","difficulty":"easy","name":null,"aerialway":null,"osm":"way/1350998950"},"geometry":{"type":"LineString","coordinates":[[10.05679,47.11046],[10.05611,47.11078],[10.0558,47.11117],[10.05555,47.11121]]}},{"type":"Feature","properties":{"kind":"piste","difficulty":"easy","name":null,"aerialway":null,"osm":"way/1350998951"},"geometry":{"type":"LineString","coordinates":[[10.05665,47.10903],[10.05561,47.10918]]}},{"type":"Feature","properties":{"kind":"piste","difficulty":"easy","name":"Waldabfahrt","aerialway":null,"osm":"way/1424944305"},"geometry":{"type":"LineString","coordinates":[[10.05418,47.11015],[10.05463,47.11034],[10.05488,47.11061],[10.05533,47.11055]]}},{"type":"Feature","properties":{"kind":"piste","difficulty":"easy","name":"Abfahrt Riedkopf","aerialway":null,"osm":"way/1425114413"},"geometry":{"type":"LineString","coordinates":[[10.04962,47.10773],[10.05045,47.10675],[10.05017,47.10604],[10.05004,47.10598],[10.05056,47.10595]]}},{"type":"Feature","properties":{"kind":"piste","difficulty":"intermediate","name":"Abfahrt Vermalen Obermoos","aerialway":null,"osm":"way/1425241722"},"geometry":{"type":"LineString","coordinates":[[10.06952,47.1052],[10.06905,47.10536],[10.069,47.10557]]}},{"type":"Feature","properties":{"kind":"piste","difficulty":"easy","name":"Muri Standardabfahrt","aerialway":null,"osm":"way/1425241724"},"geometry":{"type":"LineString","coordinates":[[10.07301,47.1015],[10.07163,47.10125]]}},{"type":"Feature","properties":{"kind":"piste","difficulty":"easy","name":"Muri Standardabfahrt","aerialway":null,"osm":"way/1425241728"},"geometry":{"type":"LineString","coordinates":[[10.05873,47.10871],[10.05839,47.10893]]}},{"type":"Feature","properties":{"kind":"piste","difficulty":"intermediate","name":"Talabfahrt Vermalen","aerialway":null,"osm":"way/1425626470"},"geometry":{"type":"LineString","coordinates":[[10.06442,47.113],[10.06418,47.11355],[10.06454,47.11431],[10.0645,47.1146],[10.06359,47.1169],[10.06359,47.11729],[10.06318,47.11775],[10.06233,47.11984],[10.06461,47.12142],[10.06608,47.12177],[10.06614,47.12191],[10.06579,47.12189],[10.06634,47.12262],[10.06641,47.12298],[10.06768,47.1234],[10.06757,47.1235],[10.06668,47.12351],[10.06577,47.12316],[10.0652,47.12324],[10.06431,47.12297],[10.06435,47.12319],[10.06483,47.12358],[10.06522,47.12371],[10.06567,47.12414]]}},{"type":"Feature","properties":{"kind":"piste","difficulty":"intermediate","name":"Talabfahrt Vermalen","aerialway":null,"osm":"way/1425626471"},"geometry":{"type":"LineString","coordinates":[[10.06567,47.12414],[10.06695,47.12462],[10.06739,47.12493],[10.06715,47.12505],[10.06643,47.12479],[10.06443,47.12457],[10.06507,47.12533],[10.06585,47.12585],[10.06847,47.12638],[10.07153,47.12647],[10.07261,47.12691],[10.07503,47.12744],[10.07477,47.12774],[10.07142,47.12859],[10.07046,47.12857],[10.06747,47.12902],[10.06492,47.1287],[10.06424,47.12832],[10.06253,47.1278],[10.06159,47.12785],[10.05885,47.12836]]}},{"type":"Feature","properties":{"kind":"piste","difficulty":"advanced","name":null,"aerialway":null,"osm":"way/1425658258"},"geometry":{"type":"LineString","coordinates":[[10.05902,47.10845],[10.05927,47.10847],[10.0598,47.10918],[10.06029,47.1096],[10.062,47.11044],[10.0627,47.11111],[10.06275,47.1117],[10.06321,47.11182],[10.06378,47.11218],[10.06444,47.11213],[10.06452,47.11271],[10.0643,47.11298],[10.06471,47.11287],[10.06447,47.11208],[10.06422,47.11202],[10.06383,47.11216],[10.06292,47.11173],[10.06279,47.11163],[10.06291,47.11104],[10.06242,47.11075],[10.06205,47.11024],[10.06016,47.10923],[10.05932,47.10816],[10.05902,47.10845]]}},{"type":"Feature","properties":{"kind":"piste","difficulty":"easy","name":"Waldabfahrt","aerialway":null,"osm":"way/1455873795"},"geometry":{"type":"LineString","coordinates":[[10.05413,47.1134],[10.05493,47.11391],[10.05516,47.11433]]}},{"type":"Feature","properties":{"kind":"piste","difficulty":"easy","name":null,"aerialway":null,"osm":"way/1455873796"},"geometry":{"type":"LineString","coordinates":[[10.05431,47.11353],[10.05501,47.11396],[10.05512,47.11427],[10.05488,47.11392],[10.05431,47.11353]]}},{"type":"Feature","properties":{"kind":"piste","difficulty":"easy","name":"Talabfahrt","aerialway":null,"osm":"way/1460165159"},"geometry":{"type":"LineString","coordinates":[[10.0484,47.12532],[10.04751,47.12554],[10.04623,47.12563],[10.04573,47.12606],[10.04571,47.12621],[10.04591,47.12636],[10.04733,47.12655],[10.04872,47.12693],[10.05189,47.12733],[10.05322,47.1277],[10.05499,47.1275],[10.05614,47.12775],[10.05698,47.12771],[10.05702,47.12788],[10.05644,47.12811],[10.05635,47.12868],[10.05621,47.12868],[10.0562,47.12854]]}},{"type":"Feature","properties":{"kind":"piste","difficulty":"easy","name":"Muri Standardabfahrt","aerialway":null,"osm":"way/1460165160"},"geometry":{"type":"LineString","coordinates":[[10.06205,47.10393],[10.05771,47.10556],[10.05677,47.10644],[10.05652,47.10715],[10.05598,47.10801],[10.05609,47.10854]]}},{"type":"Feature","properties":{"kind":"piste","difficulty":"easy","name":"Muri Standardabfahrt","aerialway":null,"osm":"way/1460165161"},"geometry":{"type":"LineString","coordinates":[[10.05609,47.10854],[10.05698,47.10876],[10.05855,47.10865],[10.05873,47.10871],[10.05863,47.10894]]}},{"type":"Feature","properties":{"kind":"piste","difficulty":"intermediate","name":"Verbindung Glattingrat","aerialway":null,"osm":"way/1460165162"},"geometry":{"type":"LineString","coordinates":[[10.07703,47.10419],[10.07477,47.10445],[10.07404,47.1047],[10.0721,47.10506]]}},{"type":"Feature","properties":{"kind":"piste","difficulty":"easy","name":null,"aerialway":null,"osm":"relation/19526390"},"geometry":{"type":"MultiLineString","coordinates":[[[10.05856,47.10884],[10.05777,47.10971],[10.05706,47.10939],[10.05657,47.10943],[10.05683,47.10906],[10.05673,47.10901],[10.05696,47.10887],[10.05801,47.10875],[10.05845,47.10876],[10.05839,47.10893],[10.05856,47.10884]],[[10.05887,47.1087],[10.05892,47.10859],[10.05822,47.10849],[10.05676,47.10865],[10.05618,47.10837],[10.05632,47.10761],[10.0567,47.10711],[10.05695,47.10644],[10.0578,47.10557],[10.06143,47.10439],[10.06234,47.104],[10.06279,47.10367],[10.06365,47.10345],[10.06394,47.10322],[10.06427,47.10266],[10.06497,47.10232],[10.06749,47.10186],[10.06849,47.10146],[10.07075,47.10151],[10.07184,47.10137],[10.0727,47.10149],[10.0728,47.10143],[10.07237,47.10133],[10.07288,47.10124],[10.07355,47.10141],[10.07367,47.10134],[10.07306,47.10108],[10.06821,47.10132],[10.06433,47.10242],[10.06329,47.10324],[10.0577,47.1055],[10.05662,47.10634],[10.05634,47.10719],[10.05592,47.10771],[10.05581,47.10808],[10.05592,47.10859],[10.05546,47.10905],[10.05354,47.10861],[10.05294,47.10835],[10.05096,47.10595],[10.05065,47.1059],[10.04994,47.10597],[10.05009,47.10607],[10.05029,47.10673],[10.05017,47.10705],[10.0481,47.10865],[10.04731,47.10853],[10.04486,47.10759],[10.04114,47.10779],[10.04105,47.10754],[10.04074,47.10768],[10.04075,47.10781],[10.04119,47.10791],[10.04494,47.10779],[10.04835,47.10925],[10.0491,47.11003],[10.05026,47.1101],[10.05247,47.11054],[10.05303,47.11084],[10.05337,47.11131],[10.05342,47.11174],[10.05312,47.11213],[10.05311,47.11237],[10.05488,47.11434],[10.05573,47.11449],[10.05798,47.11429],[10.05822,47.11452],[10.05809,47.11473],[10.05698,47.1152],[10.05803,47.11592],[10.05794,47.11665],[10.05619,47.11793],[10.05499,47.11835],[10.05392,47.1185],[10.05388,47.11873],[10.05494,47.11915],[10.0566,47.11949],[10.05864,47.11959],[10.0586,47.11979],[10.0575,47.12053],[10.05753,47.12069],[10.05949,47.12052],[10.05963,47.12062],[10.05871,47.12116],[10.05731,47.12169],[10.05606,47.12192],[10.05584,47.1224],[10.05489,47.12279],[10.053,47.12307],[10.05035,47.12315],[10.05088,47.12359],[10.05225,47.12376],[10.05313,47.12395],[10.05366,47.12421],[10.05565,47.12446],[10.05598,47.12461],[10.05426,47.1248],[10.05136,47.12461],[10.04914,47.12515],[10.04824,47.12522],[10.04741,47.12545],[10.04632,47.1255],[10.04576,47.12584],[10.04557,47.12613],[10.04564,47.1263],[10.04731,47.12656],[10.04866,47.12693],[10.05178,47.12732],[10.05318,47.12771],[10.05495,47.12751],[10.05612,47.12776],[10.05698,47.12772],[10.05702,47.12785],[10.05645,47.12802],[10.05639,47.12819],[10.05712,47.12785],[10.05699,47.12768],[10.05614,47.12773],[10.05496,47.12748],[10.05321,47.12768],[10.0518,47.12729],[10.04878,47.12691],[10.04589,47.1263],[10.04584,47.12611],[10.04623,47.12575],[10.04781,47.12559],[10.05134,47.12466],[10.05423,47.12486],[10.0561,47.12466],[10.05617,47.12458],[10.05601,47.1245],[10.05376,47.12418],[10.05313,47.1239],[10.0511,47.12355],[10.05096,47.12345],[10.05097,47.12321],[10.05463,47.12295],[10.05601,47.12258],[10.05652,47.12196],[10.05725,47.12186],[10.05875,47.12127],[10.05973,47.12062],[10.0597,47.12045],[10.05777,47.12061],[10.05776,47.1205],[10.05895,47.1196],[10.05886,47.11937],[10.05714,47.11948],[10.05567,47.11922],[10.05413,47.11874],[10.05435,47.11855],[10.05622,47.1181],[10.05695,47.11741],[10.05807,47.11681],[10.05831,47.11588],[10.05744,47.11538],[10.05735,47.11521],[10.05838,47.1147],[10.05856,47.11433],[10.05836,47.11421],[10.05594,47.11441],[10.05511,47.11427],[10.05445,47.11373],[10.05413,47.11309],[10.05333,47.11232],[10.05426,47.11086],[10.05522,47.11101],[10.05551,47.11137],[10.05551,47.11125],[10.05585,47.11123],[10.05589,47.11102],[10.05618,47.11078],[10.05687,47.1105],[10.05787,47.10973],[10.05835,47.10911],[10.05858,47.10899],[10.05834,47.10916],[10.0584,47.10926],[10.05887,47.1087]],[[10.05661,47.10876],[10.05619,47.1087],[10.05591,47.10906],[10.05645,47.10895],[10.05676,47.1088],[10.05661,47.10876]],[[10.0633,47.10333],[10.06261,47.10362],[10.06348,47.10339],[10.06367,47.10323],[10.0633,47.10333]],[[10.05259,47.11049],[10.05006,47.11002],[10.04913,47.10997],[10.04836,47.10904],[10.04954,47.10793],[10.05062,47.10738],[10.05117,47.10671],[10.05314,47.10901],[10.05344,47.11027],[10.05394,47.11017],[10.05416,47.11026],[10.05406,47.11076],[10.05366,47.11086],[10.05312,47.11057],[10.05259,47.11049]],[[10.05356,47.11136],[10.05324,47.11083],[10.05284,47.11057],[10.05363,47.11092],[10.05401,47.11081],[10.05356,47.11136]],[[10.05061,47.10666],[10.05025,47.106],[10.05066,47.10609],[10.05107,47.1066],[10.05054,47.10727],[10.04997,47.10754],[10.05052,47.10696],[10.05061,47.10666]],[[10.05692,47.10957],[10.05569,47.10929],[10.05504,47.10963],[10.05476,47.11023],[10.05496,47.11049],[10.05533,47.11055],[10.05549,47.11105],[10.05577,47.11103],[10.05612,47.11073],[10.05672,47.11047],[10.05647,47.1104],[10.05699,47.1103],[10.05745,47.10992],[10.05692,47.10957]],[[10.0532,47.10871],[10.05382,47.10918],[10.05424,47.11008],[10.05454,47.11023],[10.05469,47.10984],[10.0552,47.10924],[10.0532,47.10871]],[[10.05667,47.10908],[10.05636,47.1093],[10.05592,47.10918],[10.05667,47.10908]],[[10.05406,47.10999],[10.05374,47.10924],[10.05329,47.10897],[10.0535,47.11003],[10.05406,47.10999]]]}},{"type":"Feature","properties":{"kind":"piste","difficulty":"intermediate","name":null,"aerialway":null,"osm":"relation/19529301"},"geometry":{"type":"MultiLineString","coordinates":[[[10.0512,47.10633],[10.0522,47.10708],[10.05336,47.10716],[10.05542,47.10695],[10.05618,47.10657],[10.05651,47.10655],[10.05662,47.10634],[10.05507,47.10684],[10.05305,47.10697],[10.05214,47.10685],[10.05096,47.10595],[10.0512,47.10633]],[[10.04132,47.10779],[10.04283,47.10739],[10.04711,47.107],[10.04965,47.10624],[10.04994,47.10597],[10.05009,47.10607],[10.04846,47.10695],[10.04654,47.10743],[10.04419,47.10744],[10.04132,47.10779]],[[10.065,47.1069],[10.06476,47.10603],[10.06368,47.1053],[10.06335,47.10475],[10.06359,47.10445],[10.06467,47.10373],[10.06493,47.10313],[10.06557,47.10281],[10.06652,47.10203],[10.06594,47.10213],[10.06465,47.10315],[10.0644,47.10368],[10.06367,47.10405],[10.06294,47.10472],[10.06286,47.10506],[10.06365,47.10551],[10.06444,47.10632],[10.0646,47.10661],[10.06444,47.10697],[10.06338,47.107],[10.06019,47.10766],[10.05945,47.10795],[10.05875,47.10856],[10.05892,47.10859],[10.05949,47.10801],[10.05997,47.10779],[10.06341,47.1071],[10.0646,47.10708],[10.06991,47.10801],[10.07001,47.10819],[10.06973,47.10878],[10.07031,47.10963],[10.07017,47.10997],[10.07034,47.11007],[10.07084,47.11003],[10.07116,47.11018],[10.07078,47.11036],[10.07014,47.111],[10.06949,47.11128],[10.06907,47.11134],[10.0678,47.11115],[10.06664,47.1116],[10.06618,47.11204],[10.06599,47.11258],[10.0664,47.11331],[10.0661,47.11335],[10.06545,47.11391],[10.06532,47.11389],[10.06471,47.11287],[10.06438,47.11292],[10.06412,47.11317],[10.06411,47.11334],[10.06422,47.11328],[10.06414,47.11371],[10.06446,47.11419],[10.06445,47.11457],[10.06355,47.11689],[10.06355,47.11724],[10.06302,47.11787],[10.06252,47.11929],[10.06218,47.11986],[10.06469,47.12148],[10.06607,47.12179],[10.06611,47.12187],[10.06575,47.12187],[10.06607,47.12224],[10.06639,47.123],[10.06765,47.12343],[10.06678,47.12351],[10.06575,47.12314],[10.06517,47.12321],[10.06426,47.12295],[10.06425,47.12309],[10.06459,47.12343],[10.06525,47.12376],[10.06574,47.12423],[10.06735,47.1249],[10.06716,47.12502],[10.06653,47.12479],[10.06528,47.1246],[10.06443,47.12453],[10.06436,47.12464],[10.0651,47.12538],[10.06584,47.12587],[10.06864,47.12642],[10.07143,47.12648],[10.07233,47.12674],[10.07261,47.12694],[10.07337,47.12702],[10.07499,47.12748],[10.07467,47.12775],[10.07147,47.12855],[10.07045,47.12854],[10.06735,47.12898],[10.06481,47.12862],[10.06298,47.12784],[10.06238,47.12777],[10.06122,47.12787],[10.05895,47.12838],[10.06136,47.12793]],[[10.06136,47.12793],[10.06249,47.12782],[10.06291,47.12789],[10.06425,47.12834],[10.06511,47.12881],[10.06566,47.12892],[10.0663,47.12885],[10.06753,47.12907],[10.07049,47.1286],[10.0714,47.12862],[10.07191,47.12841],[10.07308,47.12827],[10.0745,47.12788],[10.07515,47.12748],[10.0763,47.12795],[10.07959,47.12894],[10.08029,47.12895],[10.08128,47.12867],[10.08207,47.12815],[10.08309,47.12813],[10.08394,47.12851],[10.08479,47.12921],[10.08774,47.12964],[10.08865,47.12997],[10.08957,47.13005],[10.09001,47.13022],[10.08972,47.13004],[10.08858,47.12992],[10.08795,47.12965],[10.0849,47.12913],[10.08385,47.12842],[10.08304,47.12809],[10.08191,47.12812],[10.08172,47.12835],[10.08096,47.12873],[10.07955,47.12889],[10.07845,47.12862],[10.07763,47.12822],[10.07636,47.12793],[10.0756,47.12753],[10.07263,47.1269],[10.07163,47.12646],[10.06842,47.12636],[10.06592,47.12584],[10.06508,47.12531],[10.06449,47.12459],[10.0664,47.1248],[10.06715,47.12508],[10.06738,47.12502],[10.06742,47.12488],[10.06696,47.1246],[10.06576,47.12419],[10.06521,47.12367],[10.06469,47.12345],[10.06432,47.123],[10.0652,47.12325],[10.06577,47.12317],[10.06678,47.12354],[10.06766,47.12352],[10.06773,47.12339],[10.06644,47.12298],[10.0664,47.12262],[10.06582,47.12188],[10.06618,47.12195],[10.06611,47.12175],[10.06475,47.12147],[10.06245,47.11989],[10.06326,47.11781],[10.06346,47.11745],[10.06367,47.11735],[10.06365,47.11682],[10.06406,47.11601],[10.06431,47.11495],[10.06457,47.11455],[10.06452,47.11406],[10.06423,47.11355],[10.0645,47.11307],[10.06473,47.11304],[10.06527,47.11402],[10.06575,47.11401],[10.06667,47.11366],[10.0661,47.11268],[10.0662,47.11222],[10.06641,47.11194],[10.0671,47.11192],[10.06784,47.11243],[10.06849,47.11256],[10.06882,47.11247],[10.06981,47.11176],[10.07103,47.11043],[10.07148,47.11021],[10.07103,47.11001],[10.07038,47.10997],[10.07046,47.10957],[10.07022,47.10941],[10.0699,47.10882],[10.07024,47.10824],[10.07156,47.10819],[10.07329,47.10842],[10.07512,47.1079],[10.07575,47.10721],[10.07664,47.10725],[10.07757,47.10613],[10.0794,47.10344],[10.07941,47.10328],[10.07908,47.10284],[10.07767,47.10206],[10.07751,47.10162],[10.07761,47.10126],[10.08061,47.10157],[10.08077,47.10121],[10.08064,47.10153],[10.07911,47.10121],[10.07751,47.10112],[10.07674,47.1012],[10.07608,47.10155],[10.07728,47.10226],[10.0772,47.10314],[10.07688,47.10386],[10.07489,47.10206],[10.07387,47.10158],[10.07367,47.10134],[10.07359,47.10147],[10.07486,47.10212],[10.07549,47.10288],[10.07665,47.10387],[10.0767,47.10404],[10.07614,47.10426],[10.07477,47.10438],[10.07397,47.10465],[10.07235,47.10492],[10.07242,47.10466],[10.07207,47.10339],[10.07284,47.10266],[10.07312,47.10161],[10.07351,47.10136],[10.07309,47.1013],[10.07173,47.10195],[10.06933,47.10218],[10.06884,47.10242],[10.06814,47.10302],[10.06668,47.1031],[10.06654,47.10319],[10.06651,47.10356],[10.06599,47.10448],[10.06624,47.10472],[10.06728,47.10522],[10.06705,47.10583],[10.06703,47.10658],[10.065,47.1069]],[[10.06143,47.10439],[10.0608,47.10532],[10.06062,47.1058],[10.05933,47.10652],[10.0582,47.10823],[10.05777,47.10855],[10.05868,47.10854],[10.0586,47.10827],[10.05869,47.10798],[10.05953,47.10674],[10.05999,47.10633],[10.06089,47.10589],[10.06122,47.10516],[10.06216,47.10408],[10.06143,47.10439]],[[10.05862,47.12833],[10.058,47.12826],[10.05745,47.12774],[10.05713,47.12778],[10.05699,47.12768],[10.05751,47.12771],[10.05785,47.12811],[10.05862,47.12833]],[[10.06972,47.11137],[10.06928,47.11149],[10.06803,47.11137],[10.06699,47.1117],[10.0677,47.112],[10.06787,47.11226],[10.06839,47.11243],[10.06952,47.11171],[10.06987,47.11133],[10.06972,47.11137]],[[10.07004,47.10781],[10.07014,47.10797],[10.07037,47.10801],[10.07342,47.10822],[10.07501,47.10769],[10.07544,47.10734],[10.07566,47.10696],[10.07616,47.10674],[10.07625,47.10645],[10.07587,47.1059],[10.07558,47.10589],[10.07566,47.10577],[10.07514,47.1058],[10.07406,47.10532],[10.07259,47.10543],[10.07187,47.10515],[10.0704,47.10545],[10.0695,47.10529],[10.06905,47.1055],[10.06937,47.10575],[10.06947,47.10652],[10.07004,47.10781]],[[10.06991,47.10784],[10.0693,47.10632],[10.06861,47.10657],[10.06716,47.10743],[10.06994,47.10793],[10.06991,47.10784]],[[10.07617,47.10693],[10.07608,47.10706],[10.07628,47.10696],[10.07626,47.10708],[10.07662,47.10708],[10.07926,47.10328],[10.07882,47.10277],[10.07772,47.10222],[10.07774,47.10301],[10.07676,47.10572],[10.07664,47.10647],[10.07617,47.10693]],[[10.07655,47.10434],[10.07488,47.1045],[10.07216,47.10516],[10.0726,47.10539],[10.07414,47.10528],[10.07505,47.10569],[10.07554,47.10572],[10.07662,47.10522],[10.07678,47.10445],[10.07655,47.10434]],[[10.06814,47.10538],[10.06884,47.10559],[10.06912,47.10585],[10.06874,47.10618],[10.06708,47.10709],[10.06652,47.10724],[10.06494,47.107],[10.06722,47.10678],[10.06744,47.10637],[10.06768,47.10528],[10.06814,47.10538]],[[10.0683,47.10528],[10.06879,47.10511],[10.0692,47.10515],[10.06877,47.10539],[10.0683,47.10528]],[[10.06737,47.10497],[10.06667,47.10473],[10.06638,47.10436],[10.06646,47.10417],[10.06747,47.10336],[10.06831,47.10322],[10.06909,47.10253],[10.06953,47.10234],[10.07202,47.10216],[10.07289,47.10165],[10.07266,47.10233],[10.07176,47.10335],[10.07215,47.1045],[10.07206,47.10492],[10.06995,47.10514],[10.06892,47.10504],[10.06805,47.10514],[10.06776,47.10482],[10.06737,47.10497]],[[10.07726,47.10121],[10.07682,47.10128],[10.07618,47.10162],[10.07711,47.10187],[10.07726,47.10121]]]}},{"type":"Feature","properties":{"kind":"lift","difficulty":null,"name":"Obermoosbahn","aerialway":"chair_lift","osm":"way/49852972"},"geometry":{"type":"LineString","coordinates":[[10.06428,47.11359],[10.07558,47.10589]]}},{"type":"Feature","properties":{"kind":"lift","difficulty":null,"name":"Obermuribahn","aerialway":"chair_lift","osm":"way/49852981"},"geometry":{"type":"LineString","coordinates":[[10.0585,47.10924],[10.07352,47.10143]]}},{"type":"Feature","properties":{"kind":"lift","difficulty":null,"name":"Bettler-Älpele-Lift","aerialway":"t-bar","osm":"way/49852983"},"geometry":{"type":"LineString","coordinates":[[10.05839,47.10893],[10.05624,47.10912]]}},{"type":"Feature","properties":{"kind":"lift","difficulty":null,"name":"Riedkopfbahn","aerialway":"chair_lift","osm":"way/49852985"},"geometry":{"type":"LineString","coordinates":[[10.04994,47.10597],[10.04106,47.10758]]}},{"type":"Feature","properties":{"kind":"lift","difficulty":null,"name":"Glattingratbahn","aerialway":"chair_lift","osm":"way/49852992"},"geometry":{"type":"LineString","coordinates":[[10.07628,47.10696],[10.08064,47.1014]]}},{"type":"Feature","properties":{"kind":"lift","difficulty":null,"name":"Sonnenkopfbahn","aerialway":"gondola","osm":"way/49852997"},"geometry":{"type":"LineString","coordinates":[[10.0562,47.12854],[10.0556,47.11132]]}},{"type":"Feature","properties":{"kind":"lift","difficulty":null,"name":"Verbindungslift","aerialway":"rope_tow","osm":"way/49852998"},"geometry":{"type":"LineString","coordinates":[[10.05565,47.11117],[10.05647,47.1104]]}},{"type":"Feature","properties":{"kind":"lift","difficulty":null,"name":"Sattelkopflift","aerialway":"t-bar","osm":"way/49853000"},"geometry":{"type":"LineString","coordinates":[[10.05533,47.11055],[10.05684,47.10919]]}},{"type":"Feature","properties":{"kind":"lift","difficulty":null,"name":"Riedbodenlift","aerialway":"t-bar","osm":"way/91269895"},"geometry":{"type":"LineString","coordinates":[[10.05044,47.10598],[10.05364,47.11055]]}},{"type":"Feature","properties":{"kind":"lift","difficulty":null,"name":null,"aerialway":"magic_carpet","osm":"way/338559140"},"geometry":{"type":"LineString","coordinates":[[10.05622,47.11121],[10.05632,47.11083]]}},{"type":"Feature","properties":{"kind":"lift","difficulty":null,"name":null,"aerialway":"magic_carpet","osm":"way/338559141"},"geometry":{"type":"LineString","coordinates":[[10.05608,47.11138],[10.05613,47.11129]]}},{"type":"Feature","properties":{"kind":"lift","difficulty":null,"name":"Fuchslochlift","aerialway":"rope_tow","osm":"way/549661081"},"geometry":{"type":"LineString","coordinates":[[10.09082,47.13197],[10.09222,47.13282]]}}]}