{"type":"FeatureCollection","features":[{"type":"Feature","properties":{"kind":"lift","difficulty":null,"name":null,"aerialway":"rope_tow","osm":"way/233099941"},"geometry":{"type":"LineString","coordinates":[[15.76928,46.70438],[15.76946,46.70341]]}},{"type":"Feature","properties":{"kind":"piste","difficulty":"novice","name":"Skiberg Mureck","aerialway":null,"osm":"way/233099943"},"geometry":{"type":"LineString","coordinates":[[15.76954,46.70444],[15.76927,46.70442],[15.76946,46.70335],[15.76972,46.70337],[15.76954,46.70444]]}}]}