{"type":"FeatureCollection","features":[{"type":"Feature","properties":{"kind":"lift","difficulty":null,"name":"Seeblick","aerialway":"t-bar","osm":"way/30014820"},"geometry":{"type":"LineString","coordinates":[[9.81476,47.40981],[9.81126,47.40609]]}},{"type":"Feature","properties":{"kind":"lift","difficulty":null,"name":"Lanklift","aerialway":"chair_lift","osm":"way/30014821"},"geometry":{"type":"LineString","coordinates":[[9.81061,47.41549],[9.80688,47.40792]]}},{"type":"Feature","properties":{"kind":"lift","difficulty":null,"name":"Hochälpele","aerialway":"t-bar","osm":"way/30014822"},"geometry":{"type":"LineString","coordinates":[[9.81824,47.41777],[9.81319,47.40315]]}},{"type":"Feature","properties":{"kind":"lift","difficulty":null,"name":"Alpenblick","aerialway":"t-bar","osm":"way/30014824"},"geometry":{"type":"LineString","coordinates":[[9.82212,47.40111],[9.81973,47.40271],[9.81714,47.40285],[9.81281,47.40193]]}},{"type":"Feature","properties":{"kind":"piste","difficulty":"easy","name":"Bödele Rundfahrt","aerialway":null,"osm":"way/48064982"},"geometry":{"type":"LineString","coordinates":[[9.81064,47.41555],[9.81038,47.41614],[9.81043,47.41681]]}},{"type":"Feature","properties":{"kind":"piste","difficulty":"easy","name":"Hochälpele/Weißtanne","aerialway":null,"osm":"way/48064984"},"geometry":{"type":"LineString","coordinates":[[9.8133,47.4035],[9.81297,47.40432],[9.81289,47.4052],[9.81247,47.40555],[9.81245,47.40602],[9.81267,47.40645],[9.81445,47.40772],[9.81562,47.41162],[9.81704,47.41493],[9.81735,47.41659],[9.81691,47.41789],[9.81696,47.41804],[9.81751,47.41814]]}},{"type":"Feature","properties":{"kind":"piste","difficulty":"easy","name":"Bödele Rundfahrt","aerialway":null,"osm":"way/48064985"},"geometry":{"type":"LineString","coordinates":[[9.8133,47.4035],[9.81285,47.40374],[9.81234,47.40508],[9.81176,47.40559],[9.81177,47.40585]]}},{"type":"Feature","properties":{"kind":"piste","difficulty":"intermediate","name":"Lank Abfahrt","aerialway":null,"osm":"way/48064986"},"geometry":{"type":"LineString","coordinates":[[9.80688,47.40792],[9.80744,47.40812],[9.80715,47.40892],[9.80722,47.40927],[9.80756,47.40956],[9.80818,47.41075],[9.80868,47.41118],[9.80864,47.41173],[9.80895,47.41263],[9.81004,47.4144],[9.81031,47.41563],[9.81066,47.41564]]}},{"type":"Feature","properties":{"kind":"piste","difficulty":"easy","name":"Lank Waldabfahrt","aerialway":null,"osm":"way/48064987"},"geometry":{"type":"LineString","coordinates":[[9.80688,47.40792],[9.80744,47.40812],[9.80723,47.40867],[9.80753,47.40883],[9.80915,47.40907],[9.81052,47.40953],[9.81184,47.41111],[9.8121,47.41214],[9.81248,47.41301],[9.81193,47.41393],[9.81144,47.41536],[9.8112,47.41564],[9.81066,47.41564]]}},{"type":"Feature","properties":{"kind":"piste","difficulty":"easy","name":"Oberlose","aerialway":null,"osm":"way/48068781"},"geometry":{"type":"LineString","coordinates":[[9.81043,47.41681],[9.81048,47.41715],[9.81086,47.41756],[9.81026,47.41839]]}},{"type":"Feature","properties":{"kind":"piste","difficulty":"easy","name":"Bödele Rundfahrt","aerialway":null,"osm":"way/48068783"},"geometry":{"type":"LineString","coordinates":[[9.81026,47.41839],[9.81044,47.41883],[9.81095,47.4192],[9.81124,47.41965],[9.81335,47.4195],[9.81797,47.41791]]}},{"type":"Feature","properties":{"kind":"piste","difficulty":"easy","name":"Bödele Rundfahrt","aerialway":null,"osm":"way/92726100"},"geometry":{"type":"LineString","coordinates":[[9.80688,47.40792],[9.80673,47.40798],[9.80617,47.40958],[9.80494,47.41046],[9.80473,47.41074],[9.8046,47.4115],[9.80518,47.41194],[9.80735,47.41218],[9.80813,47.41301],[9.80969,47.4138]]}},{"type":"Feature","properties":{"kind":"lift","difficulty":null,"name":"Haldenlift","aerialway":"t-bar","osm":"way/315053133"},"geometry":{"type":"LineString","coordinates":[[9.84292,47.41453],[9.84097,47.41201],[9.83027,47.4099]]}},{"type":"Feature","properties":{"kind":"piste","difficulty":"intermediate","name":"2 Alpenblick Osthang","aerialway":null,"osm":"way/328028397"},"geometry":{"type":"LineString","coordinates":[[9.81366,47.40222],[9.8141,47.40259],[9.81595,47.40311],[9.81715,47.40329],[9.81939,47.40321],[9.82031,47.40277],[9.82074,47.40223],[9.82222,47.40126],[9.82212,47.40111]]}},{"type":"Feature","properties":{"kind":"lift","difficulty":null,"name":"Haglift","aerialway":"platter","osm":"way/328028399"},"geometry":{"type":"LineString","coordinates":[[9.83592,47.41336],[9.83548,47.41109]]}},{"type":"Feature","properties":{"kind":"piste","difficulty":"advanced","name":"Lank Steilhang","aerialway":null,"osm":"way/328227925"},"geometry":{"type":"LineString","coordinates":[[9.80617,47.40958],[9.80684,47.41093],[9.80686,47.41153],[9.80735,47.41218]]}},{"type":"Feature","properties":{"kind":"piste","difficulty":"novice","name":"Übungsgelände Weißtanne","aerialway":null,"osm":"way/328227926"},"geometry":{"type":"LineString","coordinates":[[9.81656,47.41889],[9.81702,47.41895],[9.81809,47.41974],[9.81835,47.42024],[9.81818,47.42067],[9.81808,47.42059]]}},{"type":"Feature","properties":{"kind":"piste","difficulty":"novice","name":"Übungsgelände Weißtanne","aerialway":null,"osm":"way/328227927"},"geometry":{"type":"LineString","coordinates":[[9.8165,47.41892],[9.81647,47.41942],[9.81668,47.41984],[9.81752,47.42054],[9.81806,47.42073],[9.81802,47.42061]]}},{"type":"Feature","properties":{"kind":"lift","difficulty":null,"name":"Oberlose 1","aerialway":"platter","osm":"way/328227934"},"geometry":{"type":"LineString","coordinates":[[9.80786,47.41897],[9.80837,47.41675]]}},{"type":"Feature","properties":{"kind":"lift","difficulty":null,"name":"Oberlose 2","aerialway":"platter","osm":"way/328227935"},"geometry":{"type":"LineString","coordinates":[[9.80794,47.41898],[9.80845,47.41676]]}},{"type":"Feature","properties":{"kind":"lift","difficulty":null,"name":"Weißtanne 1","aerialway":"platter","osm":"way/328227936"},"geometry":{"type":"LineString","coordinates":[[9.81802,47.42061],[9.8165,47.41892]]}},{"type":"Feature","properties":{"kind":"lift","difficulty":null,"name":"Weißtanne 2","aerialway":"platter","osm":"way/328227937"},"geometry":{"type":"LineString","coordinates":[[9.81808,47.42059],[9.81656,47.41889]]}},{"type":"Feature","properties":{"kind":"lift","difficulty":null,"name":"Meierei","aerialway":"rope_tow","osm":"way/329732484"},"geometry":{"type":"LineString","coordinates":[[9.80846,47.41661],[9.80916,47.41563]]}},{"type":"Feature","properties":{"kind":"piste","difficulty":"easy","name":null,"aerialway":null,"osm":"way/332893165"},"geometry":{"type":"LineString","coordinates":[[9.81184,47.41415],[9.81022,47.41512]]}},{"type":"Feature","properties":{"kind":"piste","difficulty":"intermediate","name":"Verbindung zu Seeblicklift/Hochälpelelift;Verbindung zum Lank-Lift/Oberloselift","aerialway":null,"osm":"way/332894875"},"geometry":{"type":"LineString","coordinates":[[9.81067,47.40965],[9.81146,47.40891],[9.81182,47.40874]]}},{"type":"Feature","properties":{"kind":"piste","difficulty":"intermediate","name":"Kreuzwald","aerialway":null,"osm":"way/332894876"},"geometry":{"type":"LineString","coordinates":[[9.811,47.40676],[9.81182,47.40874],[9.81379,47.40932],[9.81466,47.40993],[9.81514,47.41002]]}},{"type":"Feature","properties":{"kind":"piste","difficulty":"easy","name":null,"aerialway":null,"osm":"way/463428006"},"geometry":{"type":"LineString","coordinates":[[9.82219,47.40091],[9.82234,47.40098],[9.82212,47.40111]]}},{"type":"Feature","properties":{"kind":"lift","difficulty":null,"name":"Schanzenblick","aerialway":"platter","osm":"way/474034672"},"geometry":{"type":"LineString","coordinates":[[9.80903,47.41547],[9.80831,47.41324]]}},{"type":"Feature","properties":{"kind":"piste","difficulty":"easy","name":null,"aerialway":null,"osm":"way/474034674"},"geometry":{"type":"LineString","coordinates":[[9.81022,47.41512],[9.80903,47.41547]]}},{"type":"Feature","properties":{"kind":"piste","difficulty":"easy","name":null,"aerialway":null,"osm":"way/474034675"},"geometry":{"type":"LineString","coordinates":[[9.80916,47.41563],[9.81031,47.41563]]}},{"type":"Feature","properties":{"kind":"piste","difficulty":"easy","name":null,"aerialway":null,"osm":"way/474034676"},"geometry":{"type":"LineString","coordinates":[[9.80916,47.41563],[9.80918,47.41546]]}},{"type":"Feature","properties":{"kind":"piste","difficulty":"easy","name":null,"aerialway":null,"osm":"way/474034677"},"geometry":{"type":"LineString","coordinates":[[9.81155,47.4064],[9.81262,47.40639]]}},{"type":"Feature","properties":{"kind":"piste","difficulty":"easy","name":"5 Alpenblick Familienabfahrt","aerialway":null,"osm":"way/474035417"},"geometry":{"type":"LineString","coordinates":[[9.81369,47.40212],[9.81364,47.4017],[9.81397,47.40049],[9.8146,47.39966],[9.81473,47.39931],[9.81473,47.39894],[9.81418,47.39814],[9.81461,47.39811],[9.81539,47.39832],[9.81951,47.40101],[9.82219,47.40091]]}},{"type":"Feature","properties":{"kind":"piste","difficulty":"easy","name":"Land Waldabfahrt","aerialway":null,"osm":"way/480070301"},"geometry":{"type":"LineString","coordinates":[[9.8074,47.40822],[9.80801,47.40836],[9.80836,47.40898]]}},{"type":"Feature","properties":{"kind":"piste","difficulty":"easy","name":"Übungsgelände Oberlose","aerialway":null,"osm":"way/480070303"},"geometry":{"type":"LineString","coordinates":[[9.80885,47.41906],[9.80861,47.41896],[9.8079,47.41906],[9.80786,47.41897]]}},{"type":"Feature","properties":{"kind":"piste","difficulty":"easy","name":"Übungsgelände Oberlose","aerialway":null,"osm":"way/480070304"},"geometry":{"type":"LineString","coordinates":[[9.8079,47.41901],[9.80794,47.41898]]}},{"type":"Feature","properties":{"kind":"piste","difficulty":"easy","name":"Übungsgelände Oberlose","aerialway":null,"osm":"way/480070305"},"geometry":{"type":"LineString","coordinates":[[9.80837,47.41675],[9.8082,47.41677],[9.80799,47.41748],[9.80774,47.419],[9.8079,47.41901]]}},{"type":"Feature","properties":{"kind":"piste","difficulty":"easy","name":"Übungsgelände Oberlose","aerialway":null,"osm":"way/480070308"},"geometry":{"type":"LineString","coordinates":[[9.80845,47.41676],[9.80856,47.41677],[9.80818,47.41902]]}},{"type":"Feature","properties":{"kind":"piste","difficulty":"easy","name":"Verbindungsstück","aerialway":null,"osm":"way/480070309"},"geometry":{"type":"LineString","coordinates":[[9.80821,47.41876],[9.80884,47.41904]]}},{"type":"Feature","properties":{"kind":"piste","difficulty":"easy","name":"Bödele Rundfahrt","aerialway":null,"osm":"way/480070676"},"geometry":{"type":"LineString","coordinates":[[9.81177,47.40585],[9.81435,47.40854],[9.81494,47.4098],[9.81476,47.40981]]}},{"type":"Feature","properties":{"kind":"piste","difficulty":"intermediate","name":"Kreuzwald","aerialway":null,"osm":"way/480070678"},"geometry":{"type":"LineString","coordinates":[[9.81481,47.40996],[9.81494,47.40989],[9.81483,47.40981]]}},{"type":"Feature","properties":{"kind":"piste","difficulty":"easy","name":"Verbindungsstück","aerialway":null,"osm":"way/480070679"},"geometry":{"type":"LineString","coordinates":[[9.8142,47.40305],[9.81416,47.40348],[9.81358,47.40401]]}},{"type":"Feature","properties":{"kind":"piste","difficulty":"easy","name":"Verbindungsstück","aerialway":null,"osm":"way/480070680"},"geometry":{"type":"LineString","coordinates":[[9.8133,47.4035],[9.81372,47.40307]]}},{"type":"Feature","properties":{"kind":"piste","difficulty":"easy","name":null,"aerialway":null,"osm":"way/480070681"},"geometry":{"type":"LineString","coordinates":[[9.81365,47.4027],[9.81369,47.40212]]}},{"type":"Feature","properties":{"kind":"piste","difficulty":"easy","name":null,"aerialway":null,"osm":"way/505278478"},"geometry":{"type":"LineString","coordinates":[[9.80903,47.41347],[9.80942,47.41535]]}},{"type":"Feature","properties":{"kind":"piste","difficulty":"intermediate","name":"Weltcup-Abfahrt (Spielmoosabfahrt, Piste 3)","aerialway":null,"osm":"way/543387486"},"geometry":{"type":"LineString","coordinates":[[9.81372,47.40307],[9.81454,47.40312],[9.81481,47.40331],[9.81528,47.40442],[9.81662,47.40594],[9.81702,47.40659],[9.81773,47.40715],[9.81944,47.40777],[9.82212,47.40837],[9.82345,47.4089],[9.82414,47.40899],[9.8255,47.40882],[9.82951,47.40908],[9.83111,47.4097],[9.83411,47.41021],[9.83596,47.40962],[9.83997,47.40906],[9.841,47.40911],[9.84204,47.40939],[9.84305,47.40988],[9.84471,47.41151],[9.84606,47.41238],[9.8476,47.41286],[9.84888,47.41273],[9.84969,47.41278],[9.85142,47.41341],[9.8519,47.41389]]}},{"type":"Feature","properties":{"kind":"piste","difficulty":"easy","name":"Verbindungsstück","aerialway":null,"osm":"way/565775166"},"geometry":{"type":"LineString","coordinates":[[9.81358,47.40401],[9.81342,47.40409]]}},{"type":"Feature","properties":{"kind":"piste","difficulty":"easy","name":"Verbindungsstück","aerialway":null,"osm":"way/565775168"},"geometry":{"type":"LineString","coordinates":[[9.81342,47.40409],[9.81296,47.40439]]}},{"type":"Feature","properties":{"kind":"piste","difficulty":"easy","name":"Hochälpele/Weißtanne","aerialway":null,"osm":"way/565775170"},"geometry":{"type":"LineString","coordinates":[[9.81292,47.40482],[9.81344,47.40528],[9.81374,47.40616],[9.81371,47.40661],[9.81445,47.40772]]}},{"type":"Feature","properties":{"kind":"piste","difficulty":"easy","name":"Bödele Rundfahrt","aerialway":null,"osm":"way/565775173"},"geometry":{"type":"LineString","coordinates":[[9.81155,47.4064],[9.8111,47.40673],[9.80688,47.40792]]}},{"type":"Feature","properties":{"kind":"piste","difficulty":"easy","name":"Hochälpele/Weißtanne","aerialway":null,"osm":"way/565775176"},"geometry":{"type":"LineString","coordinates":[[9.81504,47.40976],[9.81494,47.4098]]}},{"type":"Feature","properties":{"kind":"piste","difficulty":"intermediate","name":"Piste 3","aerialway":null,"osm":"way/632421971"},"geometry":{"type":"LineString","coordinates":[[9.82951,47.40908],[9.83026,47.40865],[9.8303,47.40843],[9.83013,47.40811],[9.83038,47.40799],[9.8307,47.40814],[9.83129,47.40874],[9.8319,47.40899],[9.83227,47.40929],[9.83235,47.40941],[9.83181,47.4098]]}},{"type":"Feature","properties":{"kind":"piste","difficulty":"easy","name":"12c","aerialway":null,"osm":"way/814117288"},"geometry":{"type":"LineString","coordinates":[[9.83548,47.41109],[9.83487,47.41163],[9.83465,47.41211],[9.8357,47.41333],[9.83592,47.41336]]}},{"type":"Feature","properties":{"kind":"piste","difficulty":"intermediate","name":"11","aerialway":null,"osm":"way/814117289"},"geometry":{"type":"LineString","coordinates":[[9.83548,47.41109],[9.8364,47.41194],[9.83688,47.41265],[9.83658,47.41305],[9.83592,47.41336]]}},{"type":"Feature","properties":{"kind":"piste","difficulty":"intermediate","name":"11","aerialway":null,"osm":"way/814117290"},"geometry":{"type":"LineString","coordinates":[[9.83658,47.41305],[9.83776,47.41337],[9.83823,47.41325],[9.83886,47.41277],[9.83939,47.41257],[9.8399,47.41274],[9.8403,47.41306],[9.83971,47.41404],[9.84004,47.41443],[9.84074,47.4147],[9.84241,47.41469],[9.84292,47.41453]]}},{"type":"Feature","properties":{"kind":"piste","difficulty":"intermediate","name":"9","aerialway":null,"osm":"way/814117291"},"geometry":{"type":"LineString","coordinates":[[9.83119,47.41008],[9.83181,47.4098],[9.83609,47.41082],[9.83819,47.41099],[9.83861,47.41134],[9.83897,47.41191],[9.84163,47.41338],[9.84262,47.41445],[9.84292,47.41453]]}},{"type":"Feature","properties":{"kind":"piste","difficulty":"intermediate","name":"11","aerialway":null,"osm":"way/814117292"},"geometry":{"type":"LineString","coordinates":[[9.83527,47.41065],[9.83565,47.41106],[9.83567,47.41125]]}},{"type":"Feature","properties":{"kind":"piste","difficulty":"intermediate","name":"10","aerialway":null,"osm":"way/814117293"},"geometry":{"type":"LineString","coordinates":[[9.83724,47.41094],[9.83967,47.40958],[9.84027,47.40944],[9.8409,47.40952],[9.84121,47.40977],[9.84159,47.41052],[9.84141,47.41126],[9.84188,47.41227],[9.84165,47.41256],[9.84275,47.41391],[9.84292,47.41453]]}},{"type":"Feature","properties":{"kind":"piste","difficulty":"intermediate","name":"10","aerialway":null,"osm":"way/814117294"},"geometry":{"type":"LineString","coordinates":[[9.8409,47.40952],[9.84197,47.40938]]}},{"type":"Feature","properties":{"kind":"piste","difficulty":"intermediate","name":"10","aerialway":null,"osm":"way/814117295"},"geometry":{"type":"LineString","coordinates":[[9.83823,47.41039],[9.83938,47.41089],[9.84141,47.41126]]}},{"type":"Feature","properties":{"kind":"piste","difficulty":"advanced","name":"Skiroute 2","aerialway":null,"osm":"way/814117296"},"geometry":{"type":"LineString","coordinates":[[9.8137,47.40207],[9.81402,47.40178],[9.8186,47.4014],[9.81951,47.40101]]}},{"type":"Feature","properties":{"kind":"piste","difficulty":"intermediate","name":"Skiroute 1","aerialway":null,"osm":"way/814117297"},"geometry":{"type":"LineString","coordinates":[[9.81557,47.39842],[9.81648,47.39859],[9.81819,47.39915],[9.81884,47.39948],[9.81907,47.39988],[9.82012,47.40033],[9.82095,47.40097]]}},{"type":"Feature","properties":{"kind":"piste","difficulty":"advanced","name":"7","aerialway":null,"osm":"way/814117298"},"geometry":{"type":"LineString","coordinates":[[9.80634,47.40901],[9.8072,47.40984],[9.80787,47.41184],[9.80886,47.41338]]}},{"type":"Feature","properties":{"kind":"piste","difficulty":"novice","name":null,"aerialway":null,"osm":"way/814117299"},"geometry":{"type":"LineString","coordinates":[[9.81549,47.4188],[9.81637,47.41881],[9.8166,47.41857],[9.81741,47.41816]]}},{"type":"Feature","properties":{"kind":"piste","difficulty":"easy","name":"Verbindungsstück","aerialway":null,"osm":"way/1435087216"},"geometry":{"type":"LineString","coordinates":[[9.81372,47.40307],[9.81365,47.4027]]}}]}