{"type":"FeatureCollection","features":[{"type":"Feature","properties":{"kind":"lift","difficulty":null,"name":"4er Lift","aerialway":"t-bar","osm":"way/49435710"},"geometry":{"type":"LineString","coordinates":[[14.79388,47.79148],[14.79307,47.7866]]}},{"type":"Feature","properties":{"kind":"lift","difficulty":null,"name":"5er Lift","aerialway":"platter","osm":"way/49435711"},"geometry":{"type":"LineString","coordinates":[[14.79395,47.79148],[14.79379,47.78955]]}},{"type":"Feature","properties":{"kind":"lift","difficulty":null,"name":"1er Lift","aerialway":"t-bar","osm":"way/49435712"},"geometry":{"type":"LineString","coordinates":[[14.79691,47.79193],[14.80332,47.7858]]}},{"type":"Feature","properties":{"kind":"lift","difficulty":null,"name":"3er Lift","aerialway":"t-bar","osm":"way/49435713"},"geometry":{"type":"LineString","coordinates":[[14.79209,47.78582],[14.79364,47.7796]]}},{"type":"Feature","properties":{"kind":"lift","difficulty":null,"name":"2er Lift","aerialway":"t-bar","osm":"way/49435714"},"geometry":{"type":"LineString","coordinates":[[14.79997,47.78602],[14.80527,47.78202]]}},{"type":"Feature","properties":{"kind":"piste","difficulty":"easy","name":null,"aerialway":null,"osm":"way/183583002"},"geometry":{"type":"LineString","coordinates":[[14.79545,47.78267],[14.79628,47.78324],[14.79793,47.7838],[14.7989,47.78456]]}},{"type":"Feature","properties":{"kind":"piste","difficulty":"intermediate","name":null,"aerialway":null,"osm":"way/204433386"},"geometry":{"type":"LineString","coordinates":[[14.79353,47.77999],[14.79439,47.77991],[14.79516,47.78023],[14.79566,47.78112],[14.79555,47.78229],[14.79466,47.78518],[14.79366,47.78552],[14.7921,47.78576]]}},{"type":"Feature","properties":{"kind":"piste","difficulty":"easy","name":null,"aerialway":null,"osm":"way/204433391"},"geometry":{"type":"LineString","coordinates":[[14.7989,47.78456],[14.79936,47.78485],[14.80004,47.78598]]}},{"type":"Feature","properties":{"kind":"piste","difficulty":"intermediate","name":null,"aerialway":null,"osm":"way/204433396"},"geometry":{"type":"LineString","coordinates":[[14.80643,47.78261],[14.80287,47.7851],[14.80145,47.78567],[14.80004,47.78598]]}},{"type":"Feature","properties":{"kind":"piste","difficulty":"easy","name":null,"aerialway":null,"osm":"way/204433397"},"geometry":{"type":"LineString","coordinates":[[14.80315,47.78595],[14.80325,47.78647],[14.80183,47.78776],[14.80186,47.78893],[14.80064,47.78995],[14.79855,47.79122],[14.79721,47.79187],[14.79695,47.79189]]}},{"type":"Feature","properties":{"kind":"piste","difficulty":"intermediate","name":null,"aerialway":null,"osm":"way/204433398"},"geometry":{"type":"LineString","coordinates":[[14.80519,47.78208],[14.80613,47.78241],[14.80706,47.78308],[14.80642,47.78415],[14.80553,47.78519],[14.80499,47.78567],[14.80373,47.78607],[14.80325,47.78647]]}},{"type":"Feature","properties":{"kind":"piste","difficulty":"easy","name":null,"aerialway":null,"osm":"way/205080513"},"geometry":{"type":"LineString","coordinates":[[14.79313,47.78705],[14.79336,47.78699],[14.79347,47.78664],[14.79235,47.78615],[14.7921,47.78576]]}},{"type":"Feature","properties":{"kind":"piste","difficulty":"easy","name":null,"aerialway":null,"osm":"way/205080514"},"geometry":{"type":"LineString","coordinates":[[14.79558,47.78627],[14.79517,47.78637],[14.79455,47.78631],[14.79329,47.78655],[14.79211,47.78745]]}},{"type":"Feature","properties":{"kind":"piste","difficulty":"easy","name":null,"aerialway":null,"osm":"way/205080515"},"geometry":{"type":"LineString","coordinates":[[14.80194,47.78587],[14.80145,47.78567],[14.79936,47.78566],[14.79558,47.78627],[14.79386,47.78584],[14.7921,47.78576]]}},{"type":"Feature","properties":{"kind":"piste","difficulty":"easy","name":null,"aerialway":null,"osm":"way/205080517"},"geometry":{"type":"LineString","coordinates":[[14.79313,47.78705],[14.7917,47.78764],[14.79083,47.7883],[14.79045,47.78893],[14.79137,47.79017],[14.7922,47.79091],[14.79371,47.79167]]}},{"type":"Feature","properties":{"kind":"piste","difficulty":"easy","name":null,"aerialway":null,"osm":"way/205080519"},"geometry":{"type":"LineString","coordinates":[[14.79419,47.79164],[14.79395,47.79148]]}},{"type":"Feature","properties":{"kind":"piste","difficulty":"intermediate","name":null,"aerialway":null,"osm":"way/205080521"},"geometry":{"type":"LineString","coordinates":[[14.80364,47.78459],[14.80373,47.78607]]}},{"type":"Feature","properties":{"kind":"piste","difficulty":"easy","name":null,"aerialway":null,"osm":"way/205080522"},"geometry":{"type":"LineString","coordinates":[[14.79855,47.79122],[14.7945,47.79159]]}},{"type":"Feature","properties":{"kind":"piste","difficulty":"easy","name":null,"aerialway":null,"osm":"way/205080523"},"geometry":{"type":"LineString","coordinates":[[14.79452,47.78972],[14.79511,47.78987],[14.79721,47.79187]]}},{"type":"Feature","properties":{"kind":"piste","difficulty":"intermediate","name":null,"aerialway":null,"osm":"way/205080524"},"geometry":{"type":"LineString","coordinates":[[14.79283,47.78723],[14.79319,47.78985],[14.79371,47.79167]]}},{"type":"Feature","properties":{"kind":"piste","difficulty":"intermediate","name":null,"aerialway":null,"osm":"way/205080527"},"geometry":{"type":"LineString","coordinates":[[14.79313,47.78705],[14.79376,47.78725],[14.79452,47.78972]]}},{"type":"Feature","properties":{"kind":"piste","difficulty":"easy","name":null,"aerialway":null,"osm":"way/205080528"},"geometry":{"type":"LineString","coordinates":[[14.79379,47.78964],[14.79452,47.78972],[14.79497,47.79125],[14.7945,47.79159],[14.79371,47.79167],[14.79388,47.79148]]}}]}