{"type":"FeatureCollection","features":[{"type":"Feature","properties":{"kind":"lift","difficulty":null,"name":"Rossbach","aerialway":"gondola","osm":"way/4697517"},"geometry":{"type":"LineString","coordinates":[[12.84092,47.04048],[12.85114,47.04779]]}},{"type":"Feature","properties":{"kind":"lift","difficulty":null,"name":"Schareck","aerialway":"gondola","osm":"way/25675749"},"geometry":{"type":"LineString","coordinates":[[12.85137,47.04781],[12.85764,47.06524]]}},{"type":"Feature","properties":{"kind":"piste","difficulty":"easy","name":"Talabfahrt (10)","aerialway":null,"osm":"way/52302262"},"geometry":{"type":"LineString","coordinates":[[12.85203,47.04797],[12.85213,47.04775],[12.85204,47.04686],[12.85137,47.04622],[12.85115,47.04558],[12.85184,47.04474],[12.85243,47.04436]]}},{"type":"Feature","properties":{"kind":"piste","difficulty":"intermediate","name":"Talabfahrt (10)","aerialway":null,"osm":"way/52302331"},"geometry":{"type":"LineString","coordinates":[[12.85184,47.04474],[12.85123,47.04499],[12.85106,47.04493],[12.85109,47.04466],[12.85241,47.04349],[12.8525,47.04302],[12.85222,47.04278],[12.85027,47.04327],[12.84678,47.04377],[12.84666,47.04373],[12.84678,47.04344],[12.84661,47.04306],[12.84595,47.04239],[12.8452,47.04246],[12.84485,47.04195],[12.84334,47.04148],[12.84254,47.04146],[12.84136,47.0419],[12.84091,47.04178],[12.84068,47.0413],[12.84078,47.04054],[12.84092,47.04048]]}},{"type":"Feature","properties":{"kind":"lift","difficulty":null,"name":"Tunnelbahn Fleißalm","aerialway":"cable_car","osm":"way/52304764"},"geometry":{"type":"LineString","coordinates":[[12.8521,47.04831],[12.85305,47.04863],[12.8701,47.05043],[12.87108,47.0507],[12.87133,47.05096]]}},{"type":"Feature","properties":{"kind":"lift","difficulty":null,"name":"Fleißbahn","aerialway":"chair_lift","osm":"way/52305799"},"geometry":{"type":"LineString","coordinates":[[12.87072,47.05117],[12.89559,47.05752]]}},{"type":"Feature","properties":{"kind":"lift","difficulty":null,"name":"Ederfeld","aerialway":"platter","osm":"way/52312890"},"geometry":{"type":"LineString","coordinates":[[12.87121,47.0504],[12.87256,47.05081],[12.87531,47.05313]]}},{"type":"Feature","properties":{"kind":"piste","difficulty":"easy","name":"Wiesenabfahrt","aerialway":null,"osm":"way/52312891"},"geometry":{"type":"LineString","coordinates":[[12.8957,47.05752],[12.89588,47.05756],[12.8959,47.05746],[12.89554,47.05697],[12.89516,47.05662],[12.89489,47.05656],[12.8936,47.0566],[12.89308,47.05674],[12.89071,47.05809],[12.89032,47.05806],[12.88865,47.05748],[12.88762,47.05754],[12.88715,47.05744],[12.8843,47.05617],[12.8825,47.05578],[12.88194,47.05535],[12.88095,47.05493],[12.8792,47.05392],[12.87837,47.05394],[12.87745,47.05443],[12.87654,47.05434],[12.87639,47.05414],[12.87649,47.0538],[12.87627,47.05327],[12.87587,47.05314]]}},{"type":"Feature","properties":{"kind":"piste","difficulty":"intermediate","name":"Muldenabfahrt","aerialway":null,"osm":"way/52312892"},"geometry":{"type":"LineString","coordinates":[[12.8936,47.0566],[12.89309,47.05622],[12.89225,47.05595],[12.89204,47.05579],[12.89179,47.05529],[12.89156,47.05519],[12.8894,47.05483],[12.88865,47.05439],[12.88715,47.05402],[12.88623,47.05351],[12.88461,47.05351],[12.88411,47.05322],[12.88391,47.05287],[12.88284,47.05251],[12.88044,47.05134],[12.87933,47.0512],[12.87776,47.05176],[12.87701,47.05178],[12.87651,47.0521],[12.87587,47.05314],[12.87541,47.05336],[12.87471,47.05331]]}},{"type":"Feature","properties":{"kind":"piste","difficulty":"easy","name":"Schareck","aerialway":null,"osm":"way/52313316"},"geometry":{"type":"LineString","coordinates":[[12.85622,47.06549],[12.85582,47.06475],[12.85327,47.06172],[12.8516,47.06058],[12.85065,47.05972]]}},{"type":"Feature","properties":{"kind":"piste","difficulty":"intermediate","name":"Tauernabfahrt","aerialway":null,"osm":"way/52313317"},"geometry":{"type":"LineString","coordinates":[[12.85684,47.0636],[12.85611,47.062],[12.85611,47.06155],[12.85626,47.06124],[12.85717,47.06115],[12.85795,47.06166],[12.8585,47.06185],[12.85988,47.06149],[12.86154,47.0605]]}},{"type":"Feature","properties":{"kind":"lift","difficulty":null,"name":"Viehbühel","aerialway":"t-bar","osm":"way/52314931"},"geometry":{"type":"LineString","coordinates":[[12.84295,47.06956],[12.84233,47.07522]]}},{"type":"Feature","properties":{"kind":"piste","difficulty":"easy","name":"Viehbühel","aerialway":null,"osm":"way/52314932"},"geometry":{"type":"LineString","coordinates":[[12.84233,47.07522],[12.84219,47.07615],[12.83894,47.07346],[12.83869,47.07294],[12.83881,47.07219],[12.83873,47.07167],[12.83881,47.07133],[12.839,47.07114],[12.83951,47.07108],[12.84175,47.07162],[12.84205,47.07158],[12.8424,47.07131],[12.84253,47.07096],[12.84269,47.06955],[12.84295,47.06956]]}},{"type":"Feature","properties":{"kind":"piste","difficulty":"advanced","name":"Fallbichlabfahrt","aerialway":null,"osm":"way/52314933"},"geometry":{"type":"LineString","coordinates":[[12.85695,47.06622],[12.85526,47.06688],[12.85512,47.06751],[12.85525,47.06794]]}},{"type":"Feature","properties":{"kind":"lift","difficulty":null,"name":"Tauernberg","aerialway":"t-bar","osm":"way/52314934"},"geometry":{"type":"LineString","coordinates":[[12.85253,47.04444],[12.85928,47.05339]]}},{"type":"Feature","properties":{"kind":"piste","difficulty":"easy","name":"Seppenbaur","aerialway":null,"osm":"way/52314935"},"geometry":{"type":"LineString","coordinates":[[12.85869,47.05361],[12.85773,47.05315],[12.85694,47.05301],[12.85596,47.05232],[12.85586,47.0518],[12.85605,47.04996],[12.85622,47.04903],[12.85637,47.04901]]}},{"type":"Feature","properties":{"kind":"piste","difficulty":"intermediate","name":"Kärntnerabfahrt","aerialway":null,"osm":"way/52314936"},"geometry":{"type":"LineString","coordinates":[[12.85606,47.06517],[12.85177,47.06417],[12.85103,47.06344],[12.85029,47.06246],[12.84998,47.06225],[12.84998,47.06206],[12.85096,47.06123],[12.85171,47.06119],[12.85186,47.06105],[12.85189,47.06078]]}},{"type":"Feature","properties":{"kind":"lift","difficulty":null,"name":"Panoramabahn","aerialway":"gondola","osm":"way/52314938"},"geometry":{"type":"LineString","coordinates":[[12.84352,47.06886],[12.85749,47.06552]]}},{"type":"Feature","properties":{"kind":"piste","difficulty":"easy","name":"Tauernabfahrt","aerialway":null,"osm":"way/52316228"},"geometry":{"type":"LineString","coordinates":[[12.86081,47.05856],[12.86124,47.0575],[12.86174,47.05709],[12.86268,47.0567],[12.86289,47.05641],[12.86372,47.05455],[12.86455,47.05328],[12.86537,47.05093],[12.86538,47.05028],[12.86524,47.05003],[12.86465,47.0499],[12.86418,47.04961],[12.86444,47.04866],[12.86423,47.04846],[12.8612,47.0483],[12.85977,47.04875],[12.85768,47.04863],[12.85637,47.04901]]}},{"type":"Feature","properties":{"kind":"piste","difficulty":"intermediate","name":"2","aerialway":null,"osm":"way/53060066"},"geometry":{"type":"LineString","coordinates":[[12.85416,47.04611],[12.85367,47.0451],[12.85326,47.04465],[12.85273,47.04431],[12.85256,47.04433]]}},{"type":"Feature","properties":{"kind":"piste","difficulty":"intermediate","name":"Gratabfahrt","aerialway":null,"osm":"way/54609768"},"geometry":{"type":"LineString","coordinates":[[12.90879,47.06219],[12.90592,47.0627],[12.90496,47.06263],[12.90444,47.06292],[12.90286,47.06269],[12.90122,47.06292],[12.89293,47.06143],[12.89164,47.06099],[12.89101,47.05962],[12.89105,47.05848],[12.89071,47.05809]]}},{"type":"Feature","properties":{"kind":"piste","difficulty":"intermediate","name":"Skiroute Hochfleiß","aerialway":null,"osm":"way/54609769"},"geometry":{"type":"LineString","coordinates":[[12.90879,47.06219],[12.90712,47.06125],[12.90664,47.06077],[12.90445,47.05943],[12.90341,47.0591],[12.90295,47.0586],[12.90115,47.0583],[12.89875,47.05768],[12.89791,47.05771],[12.89755,47.05757],[12.89728,47.05727],[12.89652,47.05755],[12.89588,47.05756]]}},{"type":"Feature","properties":{"kind":"piste","difficulty":"easy","name":"Schulwiese","aerialway":null,"osm":"way/54609811"},"geometry":{"type":"LineString","coordinates":[[12.84286,47.03843],[12.84364,47.03776],[12.84332,47.03724],[12.84202,47.03724]]}},{"type":"Feature","properties":{"kind":"lift","difficulty":null,"name":"Schulwiese","aerialway":"platter","osm":"way/54609859"},"geometry":{"type":"LineString","coordinates":[[12.84202,47.03724],[12.84286,47.03843]]}},{"type":"Feature","properties":{"kind":"piste","difficulty":"intermediate","name":"Skiroute Schareck","aerialway":null,"osm":"way/54610113"},"geometry":{"type":"LineString","coordinates":[[12.85115,47.06013],[12.85101,47.05874],[12.85039,47.05826],[12.85031,47.05728],[12.85066,47.05676],[12.84919,47.05548],[12.84939,47.05499],[12.8492,47.05419],[12.84947,47.05365],[12.85093,47.05248],[12.85061,47.05156],[12.85089,47.05108],[12.85043,47.05078]]}},{"type":"Feature","properties":{"kind":"lift","difficulty":null,"name":"Hochfleiß","aerialway":"t-bar","osm":"way/96914786"},"geometry":{"type":"LineString","coordinates":[[12.89568,47.05778],[12.90932,47.06236]]}},{"type":"Feature","properties":{"kind":"lift","difficulty":null,"name":"Kidsworld","aerialway":"rope_tow","osm":"way/96915735"},"geometry":{"type":"LineString","coordinates":[[12.83698,47.039],[12.83742,47.03964]]}},{"type":"Feature","properties":{"kind":"piste","difficulty":"novice","name":null,"aerialway":null,"osm":"way/96915736"},"geometry":{"type":"LineString","coordinates":[[12.83742,47.03964],[12.83782,47.03944],[12.83766,47.03907],[12.8374,47.03892],[12.83698,47.039]]}},{"type":"Feature","properties":{"kind":"piste","difficulty":"intermediate","name":null,"aerialway":null,"osm":"way/227492336"},"geometry":{"type":"LineString","coordinates":[[12.85288,47.04605],[12.85246,47.04626],[12.8525,47.04707],[12.85229,47.04748],[12.85229,47.04781],[12.85203,47.04797]]}},{"type":"Feature","properties":{"kind":"piste","difficulty":"intermediate","name":null,"aerialway":null,"osm":"way/227495664"},"geometry":{"type":"LineString","coordinates":[[12.85622,47.06549],[12.85613,47.06569],[12.85727,47.06644],[12.85862,47.06782],[12.85891,47.06798],[12.85636,47.06714],[12.85629,47.06719],[12.857,47.0679]]}},{"type":"Feature","properties":{"kind":"piste","difficulty":"intermediate","name":null,"aerialway":null,"osm":"way/227495665"},"geometry":{"type":"LineString","coordinates":[[12.85608,47.06862],[12.85576,47.06814],[12.85525,47.06794]]}},{"type":"Feature","properties":{"kind":"piste","difficulty":"intermediate","name":"1","aerialway":null,"osm":"way/227495669"},"geometry":{"type":"LineString","coordinates":[[12.85525,47.06794],[12.85451,47.06824],[12.85253,47.06859],[12.85113,47.06956],[12.85078,47.06966],[12.84858,47.06971],[12.84512,47.06908],[12.84376,47.06897],[12.84319,47.06911],[12.84269,47.06955]]}},{"type":"Feature","properties":{"kind":"piste","difficulty":"easy","name":"10","aerialway":null,"osm":"way/240526880"},"geometry":{"type":"LineString","coordinates":[[12.85243,47.04436],[12.85256,47.04433]]}},{"type":"Feature","properties":{"kind":"piste","difficulty":"easy","name":"11","aerialway":null,"osm":"way/404139062"},"geometry":{"type":"LineString","coordinates":[[12.87501,47.05287],[12.87471,47.05331],[12.87415,47.05312],[12.87324,47.0524],[12.87293,47.05188],[12.87247,47.05143],[12.87078,47.05103],[12.87062,47.05112],[12.87072,47.05117]]}},{"type":"Feature","properties":{"kind":"piste","difficulty":"intermediate","name":"Seppenbaur","aerialway":null,"osm":"way/404141212"},"geometry":{"type":"LineString","coordinates":[[12.85869,47.05361],[12.85874,47.05312],[12.85901,47.0526],[12.85879,47.05201],[12.85637,47.04901],[12.85569,47.04763],[12.85416,47.04611],[12.85288,47.04605]]}},{"type":"Feature","properties":{"kind":"piste","difficulty":"intermediate","name":"Schareck","aerialway":null,"osm":"way/404141213"},"geometry":{"type":"LineString","coordinates":[[12.85043,47.05078],[12.85149,47.05048],[12.85193,47.05021],[12.85256,47.04954],[12.85283,47.04898],[12.85279,47.04851],[12.85203,47.04797]]}},{"type":"Feature","properties":{"kind":"piste","difficulty":"easy","name":"Schareck","aerialway":null,"osm":"way/404141214"},"geometry":{"type":"LineString","coordinates":[[12.85065,47.05972],[12.84973,47.05972],[12.8485,47.06009],[12.84776,47.06],[12.84742,47.05974],[12.8471,47.05903],[12.84709,47.05817],[12.8463,47.05665],[12.8462,47.05603],[12.84428,47.0537],[12.84427,47.05337],[12.84462,47.05289],[12.84499,47.05272],[12.8466,47.05252],[12.85043,47.05078],[12.85041,47.05045],[12.85003,47.04966],[12.85007,47.04949],[12.85035,47.04929],[12.85076,47.0493],[12.85168,47.0497],[12.85228,47.0498]]}},{"type":"Feature","properties":{"kind":"piste","difficulty":"intermediate","name":"Schareck","aerialway":null,"osm":"way/404141215"},"geometry":{"type":"LineString","coordinates":[[12.85749,47.06552],[12.8574,47.06485],[12.85795,47.0642],[12.85788,47.06403],[12.85747,47.06382],[12.85548,47.06321],[12.85228,47.06304],[12.85036,47.06254]]}},{"type":"Feature","properties":{"kind":"piste","difficulty":"intermediate","name":"Seppenalmabfahrt","aerialway":null,"osm":"way/404141216"},"geometry":{"type":"LineString","coordinates":[[12.86154,47.0605],[12.86165,47.06022],[12.86097,47.05918],[12.86024,47.05721],[12.85848,47.0542],[12.8584,47.05399],[12.85869,47.05361]]}},{"type":"Feature","properties":{"kind":"piste","difficulty":"unknown","name":null,"aerialway":null,"osm":"way/404142988"},"geometry":{"type":"LineString","coordinates":[[12.85256,47.04433],[12.8526,47.04452]]}},{"type":"Feature","properties":{"kind":"piste","difficulty":"unknown","name":null,"aerialway":null,"osm":"way/404142989"},"geometry":{"type":"LineString","coordinates":[[12.89588,47.05756],[12.89593,47.05776]]}},{"type":"Feature","properties":{"kind":"piste","difficulty":"intermediate","name":"Skiroute Kasereck","aerialway":null,"osm":"way/446074392"},"geometry":{"type":"LineString","coordinates":[[12.84352,47.06886],[12.84386,47.06865],[12.84405,47.06806],[12.8429,47.06696],[12.84247,47.06634],[12.84228,47.06585],[12.84246,47.06523],[12.84155,47.06452],[12.83881,47.06307],[12.8359,47.06033],[12.83567,47.05971],[12.83369,47.05745],[12.83313,47.05615],[12.83302,47.05565],[12.83317,47.05518],[12.83331,47.0548],[12.83387,47.05405],[12.83582,47.05309],[12.83766,47.05179],[12.83891,47.05072],[12.84038,47.04999],[12.84141,47.04972],[12.84255,47.04997],[12.84505,47.04938],[12.84613,47.04939],[12.84732,47.0487],[12.84846,47.04831],[12.84944,47.04775],[12.85033,47.04768],[12.85086,47.04781]]}},{"type":"Feature","properties":{"kind":"piste","difficulty":"advanced","name":"Skiroute Fleißtal","aerialway":null,"osm":"way/736541580"},"geometry":{"type":"LineString","coordinates":[[12.85764,47.06466],[12.85802,47.06393],[12.85805,47.0636],[12.85936,47.06368],[12.86069,47.06521],[12.86089,47.06521],[12.86132,47.06492],[12.86126,47.06448],[12.86092,47.0642],[12.86081,47.06387],[12.86149,47.06406],[12.86218,47.06349],[12.86207,47.06298],[12.86281,47.062],[12.86332,47.06193],[12.86361,47.06175],[12.86411,47.06116],[12.86561,47.06032],[12.866,47.05991],[12.86652,47.05963],[12.86682,47.05965],[12.86708,47.05944],[12.86733,47.05951],[12.8673,47.05915],[12.86672,47.0583],[12.86669,47.0578],[12.86684,47.05752],[12.8688,47.05624],[12.8687,47.05592],[12.86962,47.05535],[12.8702,47.05462],[12.87036,47.05399],[12.87019,47.05344],[12.87025,47.05307],[12.87057,47.05312],[12.87062,47.05182],[12.87136,47.05119]]}},{"type":"Feature","properties":{"kind":"piste","difficulty":"intermediate","name":null,"aerialway":null,"osm":"way/1055653779"},"geometry":{"type":"LineString","coordinates":[[12.85741,47.06527],[12.85622,47.06549]]}},{"type":"Feature","properties":{"kind":"piste","difficulty":"intermediate","name":null,"aerialway":null,"osm":"way/1055653780"},"geometry":{"type":"LineString","coordinates":[[12.84512,47.06908],[12.84421,47.06872],[12.84389,47.06868],[12.84352,47.06886]]}},{"type":"Feature","properties":{"kind":"piste","difficulty":"intermediate","name":null,"aerialway":null,"osm":"way/1055653781"},"geometry":{"type":"LineString","coordinates":[[12.84269,47.06955],[12.8431,47.06929],[12.84318,47.06888],[12.84352,47.06886]]}},{"type":"Feature","properties":{"kind":"piste","difficulty":"intermediate","name":null,"aerialway":null,"osm":"way/1065847777"},"geometry":{"type":"LineString","coordinates":[[12.85241,47.04729],[12.85241,47.04756]]}},{"type":"Feature","properties":{"kind":"piste","difficulty":"intermediate","name":"2 Seppenbaur","aerialway":null,"osm":"way/1125998401"},"geometry":{"type":"LineString","coordinates":[[12.85598,47.04835],[12.85536,47.04779],[12.85512,47.04707]]}},{"type":"Feature","properties":{"kind":"piste","difficulty":"easy","name":"Schareck","aerialway":null,"osm":"way/1126070759"},"geometry":{"type":"LineString","coordinates":[[12.85065,47.05972],[12.85028,47.05939],[12.84992,47.05948],[12.84973,47.05972]]}},{"type":"Feature","properties":{"kind":"piste","difficulty":"intermediate","name":"Skiroute Hochtor","aerialway":null,"osm":"way/1126074860"},"geometry":{"type":"LineString","coordinates":[[12.84219,47.07615],[12.84325,47.07656],[12.84455,47.07669],[12.84521,47.07645],[12.84675,47.07505],[12.84496,47.07197],[12.84422,47.07113],[12.84338,47.07052],[12.84292,47.06929]]}},{"type":"Feature","properties":{"kind":"piste","difficulty":"intermediate","name":"1","aerialway":null,"osm":"way/1126074861"},"geometry":{"type":"LineString","coordinates":[[12.857,47.0679],[12.85651,47.06882],[12.85617,47.06883],[12.85608,47.06862]]}},{"type":"Feature","properties":{"kind":"piste","difficulty":"intermediate","name":"1","aerialway":null,"osm":"way/1126074863"},"geometry":{"type":"LineString","coordinates":[[12.85421,47.06831],[12.85304,47.06813],[12.85192,47.06814],[12.85079,47.06837],[12.85051,47.06862],[12.85018,47.06943],[12.8498,47.0697]]}},{"type":"Feature","properties":{"kind":"piste","difficulty":"freeride","name":"Sector C Viehbühel","aerialway":null,"osm":"way/1126117097"},"geometry":{"type":"LineString","coordinates":[[12.84177,47.07625],[12.83718,47.07255],[12.83961,47.069],[12.84167,47.06834],[12.84428,47.06933],[12.84546,47.07122],[12.84746,47.07383],[12.84684,47.07559],[12.84534,47.07684],[12.84392,47.07687],[12.84235,47.07658],[12.84177,47.07625]]}},{"type":"Feature","properties":{"kind":"piste","difficulty":"freeride","name":"Sector B Fallbichl","aerialway":null,"osm":"way/1126347045"},"geometry":{"type":"LineString","coordinates":[[12.85757,47.06577],[12.85997,47.06781],[12.85958,47.0693],[12.84568,47.07078],[12.84473,47.06919],[12.84926,47.06787],[12.85757,47.06577]]}},{"type":"Feature","properties":{"kind":"piste","difficulty":"freeride","name":"Sector D Fleißalm","aerialway":null,"osm":"way/1126347046"},"geometry":{"type":"LineString","coordinates":[[12.89426,47.06243],[12.89928,47.06331],[12.90808,47.06308],[12.90958,47.062],[12.90764,47.06083],[12.90588,47.05917],[12.9021,47.05706],[12.89945,47.05715],[12.89734,47.05622],[12.89635,47.05561],[12.8962,47.05339],[12.89539,47.05257],[12.89133,47.05123],[12.88162,47.05013],[12.87615,47.05062],[12.87302,47.05135],[12.87233,47.05308],[12.89426,47.06243]]}},{"type":"Feature","properties":{"kind":"piste","difficulty":"freeride","name":"Sector F Tal-Runs","aerialway":null,"osm":"way/1126553291"},"geometry":{"type":"LineString","coordinates":[[12.85845,47.04825],[12.86061,47.04806],[12.85686,47.04289],[12.85548,47.04046],[12.85231,47.03974],[12.85087,47.03957],[12.84763,47.04074],[12.84579,47.04227],[12.84628,47.04236],[12.8486,47.04096],[12.85136,47.04058],[12.85418,47.04144],[12.85613,47.04379],[12.85533,47.04575],[12.85845,47.04825]]}},{"type":"Feature","properties":{"kind":"piste","difficulty":"freeride","name":"Sector F Tal-Runs","aerialway":null,"osm":"way/1126553292"},"geometry":{"type":"LineString","coordinates":[[12.82978,47.06134],[12.83293,47.05917],[12.82733,47.05091],[12.82536,47.04882],[12.82493,47.04526],[12.82431,47.04336],[12.82278,47.04488],[12.82098,47.04524],[12.82042,47.04732],[12.82227,47.04932],[12.8233,47.05245],[12.82675,47.05599],[12.82978,47.06134]]}},{"type":"Feature","properties":{"kind":"piste","difficulty":"freeride","name":"Sector E Tauerntal","aerialway":null,"osm":"way/1126553293"},"geometry":{"type":"LineString","coordinates":[[12.83156,47.06996],[12.83883,47.06778],[12.84574,47.06685],[12.84458,47.06448],[12.84102,47.06039],[12.83656,47.05741],[12.83431,47.05574],[12.83394,47.05467],[12.8375,47.05236],[12.83926,47.05097],[12.84072,47.05018],[12.84289,47.05021],[12.84589,47.04957],[12.84862,47.04852],[12.84827,47.04803],[12.84516,47.04913],[12.84192,47.04948],[12.83965,47.05001],[12.83622,47.05238],[12.83252,47.05472],[12.83182,47.05608],[12.83321,47.05928],[12.83038,47.06167],[12.83156,47.06996]]}},{"type":"Feature","properties":{"kind":"piste","difficulty":"intermediate","name":"Schareck","aerialway":null,"osm":"way/1223222888"},"geometry":{"type":"LineString","coordinates":[[12.85481,47.0632],[12.85642,47.06352],[12.85731,47.06389],[12.8578,47.06417],[12.8575,47.06469],[12.85769,47.06474],[12.85806,47.06419],[12.85794,47.06395],[12.85718,47.06358],[12.85504,47.06308],[12.85458,47.06304],[12.85481,47.0632]]}},{"type":"Feature","properties":{"kind":"piste","difficulty":"intermediate","name":"Schareck","aerialway":null,"osm":"way/1223222889"},"geometry":{"type":"LineString","coordinates":[[12.85434,47.06325],[12.85198,47.06307],[12.85059,47.06281],[12.8505,47.06251],[12.85217,47.06297],[12.85415,47.06301],[12.85434,47.06325]]}},{"type":"Feature","properties":{"kind":"piste","difficulty":"intermediate","name":"Kärntnerabfahrt","aerialway":null,"osm":"way/1223222890"},"geometry":{"type":"LineString","coordinates":[[12.85533,47.06508],[12.85591,47.06528],[12.85569,47.06496],[12.85191,47.06414],[12.85059,47.06281],[12.8505,47.06251],[12.85007,47.0622],[12.85007,47.06206],[12.85086,47.06136],[12.85194,47.06112],[12.85164,47.06104],[12.85081,47.0612],[12.84992,47.06194],[12.84987,47.06224],[12.85034,47.06269],[12.85045,47.06301],[12.85189,47.06431],[12.85533,47.06508]]}},{"type":"Feature","properties":{"kind":"piste","difficulty":"easy","name":"Schareck","aerialway":null,"osm":"way/1223222891"},"geometry":{"type":"LineString","coordinates":[[12.85104,47.05965],[12.85175,47.06045],[12.85368,47.06186],[12.85647,47.06535],[12.85602,47.06544],[12.85412,47.06296],[12.85315,47.06193],[12.85212,47.06116],[12.85155,47.06102],[12.8511,47.06064],[12.85064,47.05985],[12.85104,47.05965]]}},{"type":"Feature","properties":{"kind":"piste","difficulty":"easy","name":"Schareck","aerialway":null,"osm":"way/1223222892"},"geometry":{"type":"LineString","coordinates":[[12.85064,47.05985],[12.85008,47.05977],[12.84844,47.0603],[12.8479,47.06026],[12.84715,47.05976],[12.84682,47.05905],[12.84686,47.05811],[12.84618,47.057],[12.84587,47.05579],[12.84427,47.05402],[12.84409,47.05345],[12.84443,47.05288],[12.8448,47.05267],[12.84662,47.05237],[12.84839,47.05163],[12.84933,47.05108],[12.85172,47.05017],[12.85243,47.0494],[12.85253,47.04869],[12.85245,47.0484],[12.85206,47.04806],[12.85241,47.04795],[12.85295,47.04839],[12.85313,47.04873],[12.85313,47.04904],[12.85202,47.05035],[12.85138,47.05071],[12.84923,47.05137],[12.8487,47.05173],[12.84652,47.05271],[12.84486,47.05295],[12.8445,47.05359],[12.84456,47.05382],[12.84616,47.05562],[12.84653,47.05679],[12.84726,47.0581],[12.84727,47.05897],[12.8476,47.05965],[12.84819,47.05995],[12.84858,47.05993],[12.84959,47.05967],[12.85011,47.05928],[12.85038,47.05928],[12.85104,47.05965],[12.85064,47.05985]]}},{"type":"Feature","properties":{"kind":"piste","difficulty":"advanced","name":"Fallbichlabfahrt","aerialway":null,"osm":"way/1223222893"},"geometry":{"type":"LineString","coordinates":[[12.85669,47.06615],[12.85741,47.06668],[12.85667,47.06704],[12.85621,47.06711],[12.85525,47.06794],[12.85421,47.06831],[12.85422,47.06752],[12.85499,47.0664],[12.85595,47.06639],[12.85669,47.06615]]}},{"type":"Feature","properties":{"kind":"piste","difficulty":"intermediate","name":"2","aerialway":null,"osm":"way/1223222894"},"geometry":{"type":"LineString","coordinates":[[12.85373,47.0456],[12.85403,47.04619],[12.85438,47.04607],[12.85373,47.04492],[12.85291,47.04422],[12.85269,47.04436],[12.85352,47.0452],[12.85373,47.0456]]}},{"type":"Feature","properties":{"kind":"piste","difficulty":"intermediate","name":"Seppenbaur","aerialway":null,"osm":"way/1223222895"},"geometry":{"type":"LineString","coordinates":[[12.85863,47.05335],[12.85853,47.05357],[12.85875,47.05366],[12.85887,47.05291],[12.85916,47.05261],[12.85854,47.05134],[12.85678,47.04908],[12.85598,47.04766],[12.85438,47.04607],[12.85403,47.04619],[12.85504,47.04736],[12.85604,47.04889],[12.85852,47.052],[12.85888,47.05271],[12.85863,47.05335]]}},{"type":"Feature","properties":{"kind":"piste","difficulty":"easy","name":"Tauernabfahrt","aerialway":null,"osm":"way/1223222896"},"geometry":{"type":"LineString","coordinates":[[12.86104,47.05767],[12.86078,47.05805],[12.86099,47.05848],[12.8613,47.05754],[12.86187,47.05712],[12.86289,47.05664],[12.86396,47.05433],[12.86458,47.05354],[12.86551,47.05124],[12.86545,47.0501],[12.86516,47.04983],[12.86439,47.04964],[12.86433,47.04947],[12.86455,47.04852],[12.86433,47.04836],[12.86102,47.04819],[12.85965,47.04863],[12.85767,47.0485],[12.85659,47.0488],[12.85678,47.04908],[12.85794,47.04873],[12.85971,47.0489],[12.86108,47.04837],[12.86189,47.04851],[12.86381,47.04854],[12.86426,47.04871],[12.86406,47.04925],[12.86413,47.04974],[12.86518,47.05013],[12.86524,47.05098],[12.86433,47.05347],[12.86355,47.05461],[12.86283,47.0564],[12.86261,47.05667],[12.86147,47.05719],[12.86104,47.05767]]}},{"type":"Feature","properties":{"kind":"piste","difficulty":"intermediate","name":"Seppenalmabfahrt","aerialway":null,"osm":"way/1223222897"},"geometry":{"type":"LineString","coordinates":[[12.86147,47.06034],[12.86166,47.06056],[12.86177,47.06044],[12.86184,47.0603],[12.86171,47.05999],[12.86122,47.05916],[12.86036,47.05708],[12.85857,47.05401],[12.85875,47.05366],[12.85853,47.05357],[12.85826,47.05414],[12.86,47.05719],[12.86058,47.0584],[12.86061,47.05881],[12.86147,47.06034]]}},{"type":"Feature","properties":{"kind":"piste","difficulty":"advanced","name":"Skiroute Fleißtal","aerialway":null,"osm":"way/1223222898"},"geometry":{"type":"LineString","coordinates":[[12.86077,47.06518],[12.8608,47.06538],[12.86117,47.06559],[12.8615,47.06531],[12.86149,47.06478],[12.86117,47.06431],[12.86205,47.06388],[12.86235,47.0634],[12.86238,47.06287],[12.86273,47.06252],[12.86285,47.06213],[12.86303,47.06208],[12.86356,47.06228],[12.86515,47.06201],[12.86592,47.06095],[12.86607,47.06026],[12.86739,47.05958],[12.86742,47.05892],[12.86692,47.05806],[12.86692,47.05781],[12.86873,47.05652],[12.86914,47.05611],[12.8691,47.05588],[12.87011,47.05508],[12.87052,47.05456],[12.8705,47.05381],[12.87031,47.05334],[12.87013,47.05328],[12.87008,47.05351],[12.87023,47.0543],[12.86987,47.0548],[12.86935,47.05534],[12.86824,47.05604],[12.86805,47.05657],[12.86702,47.05717],[12.86624,47.05787],[12.86628,47.05835],[12.86704,47.05903],[12.86726,47.05943],[12.86629,47.05956],[12.86486,47.06038],[12.86237,47.06209],[12.86224,47.06254],[12.86196,47.06288],[12.86203,47.06325],[12.86152,47.06375],[12.86067,47.06373],[12.86065,47.06394],[12.86122,47.06468],[12.86123,47.06487],[12.86077,47.06518]]}},{"type":"Feature","properties":{"kind":"piste","difficulty":"easy","name":"Wiesenabfahrt","aerialway":null,"osm":"way/1223222905"},"geometry":{"type":"LineString","coordinates":[[12.89578,47.05746],[12.89602,47.05753],[12.89604,47.05743],[12.89572,47.05688],[12.89492,47.05646],[12.89308,47.05661],[12.89083,47.05792],[12.89056,47.05795],[12.88903,47.05742],[12.88717,47.05735],[12.88446,47.05612],[12.88291,47.05578],[12.87919,47.05375],[12.87857,47.05372],[12.87743,47.05426],[12.87702,47.05431],[12.87656,47.0542],[12.87665,47.05357],[12.87652,47.05329],[12.87613,47.05301],[12.87558,47.05349],[12.8762,47.05349],[12.87634,47.05384],[12.87623,47.05421],[12.87645,47.05447],[12.87732,47.05461],[12.87783,47.05447],[12.87848,47.05406],[12.87926,47.05409],[12.88084,47.05509],[12.88187,47.05549],[12.88259,47.05602],[12.8844,47.05639],[12.8869,47.05756],[12.88781,47.05778],[12.88897,47.0577],[12.89024,47.05829],[12.89117,47.05804],[12.89366,47.05673],[12.89501,47.05674],[12.89522,47.05682],[12.89578,47.05746]]}},{"type":"Feature","properties":{"kind":"piste","difficulty":"intermediate","name":"Skiroute Hochfleiß","aerialway":null,"osm":"way/1223222906"},"geometry":{"type":"LineString","coordinates":[[12.90862,47.06198],[12.90629,47.06037],[12.90612,47.05993],[12.90544,47.05946],[12.90508,47.05898],[12.90448,47.05886],[12.90341,47.05839],[12.90235,47.05744],[12.90175,47.05739],[12.90117,47.05787],[12.90063,47.05798],[12.89909,47.05759],[12.89824,47.05757],[12.89779,47.05745],[12.89758,47.05724],[12.89716,47.0572],[12.8968,47.05734],[12.8965,47.05722],[12.89614,47.05673],[12.89565,47.05652],[12.89577,47.05703],[12.89604,47.05743],[12.896,47.05768],[12.89727,47.05763],[12.89788,47.05787],[12.89902,47.05796],[12.90285,47.05918],[12.90351,47.05997],[12.90439,47.05993],[12.90821,47.06192],[12.90862,47.06198]]}},{"type":"Feature","properties":{"kind":"piste","difficulty":"easy","name":"11","aerialway":null,"osm":"way/1223222907"},"geometry":{"type":"LineString","coordinates":[[12.87247,47.05143],[12.87203,47.05098],[12.8712,47.05056],[12.87066,47.05108]]}},{"type":"Feature","properties":{"kind":"piste","difficulty":"intermediate","name":"Muldenabfahrt","aerialway":null,"osm":"way/1223222908"},"geometry":{"type":"LineString","coordinates":[[12.88161,47.05188],[12.88126,47.05127],[12.88076,47.05096],[12.87986,47.05093],[12.87933,47.0512]]}},{"type":"Feature","properties":{"kind":"piste","difficulty":"intermediate","name":"Muldenabfahrt","aerialway":null,"osm":"way/1223222909"},"geometry":{"type":"LineString","coordinates":[[12.89534,47.05675],[12.89524,47.05649],[12.89481,47.0562],[12.89309,47.05622],[12.89287,47.05596],[12.89187,47.05541]]}},{"type":"Feature","properties":{"kind":"piste","difficulty":"intermediate","name":"Gratabfahrt","aerialway":null,"osm":"way/1223222910"},"geometry":{"type":"LineString","coordinates":[[12.90867,47.0622],[12.90608,47.06278],[12.90498,47.0627],[12.9046,47.063],[12.90287,47.06279],[12.9012,47.06303],[12.89788,47.06236],[12.89526,47.06207],[12.8916,47.06114],[12.89092,47.05995],[12.89084,47.0592],[12.89093,47.0587],[12.89065,47.05821],[12.89097,47.05811],[12.89123,47.05859],[12.89111,47.05934],[12.8912,47.05982],[12.89175,47.06092],[12.89529,47.06185],[12.89613,47.06184],[12.90108,47.06276],[12.90253,47.06257],[12.90448,47.06282],[12.90492,47.06257],[12.90619,47.06261],[12.90777,47.06224],[12.90867,47.0622]]}},{"type":"Feature","properties":{"kind":"lift","difficulty":null,"name":"Tunnelbahn Fleißalm","aerialway":"cable_car","osm":"way/1287390141"},"geometry":{"type":"LineString","coordinates":[[12.85167,47.04783],[12.8521,47.04831]]}},{"type":"Feature","properties":{"kind":"lift","difficulty":null,"name":"Tunnelbahn Fleißalm","aerialway":"cable_car","osm":"way/1287390142"},"geometry":{"type":"LineString","coordinates":[[12.85146,47.0476],[12.85167,47.04783]]}},{"type":"Feature","properties":{"kind":"piste","difficulty":"freeride","name":"Sector A Schareck","aerialway":null,"osm":"relation/15079493"},"geometry":{"type":"MultiLineString","coordinates":[[[12.85454,47.06097],[12.85338,47.05809],[12.8528,47.05548],[12.8545,47.05539],[12.85729,47.05969],[12.85737,47.06074],[12.85454,47.06097]],[[12.85542,47.06556],[12.85055,47.06442],[12.84293,47.05398],[12.84566,47.05137],[12.85048,47.04843],[12.8522,47.04632],[12.85315,47.04567],[12.85523,47.04612],[12.8581,47.04846],[12.8643,47.04808],[12.86568,47.0489],[12.86587,47.05048],[12.86261,47.05768],[12.86211,47.06027],[12.85971,47.06198],[12.85746,47.06198],[12.85832,47.06426],[12.85656,47.06563],[12.85542,47.06556]]]}},{"type":"Feature","properties":{"kind":"piste","difficulty":"easy","name":"11","aerialway":null,"osm":"relation/16693053"},"geometry":{"type":"MultiLineString","coordinates":[[[12.87094,47.05085],[12.87116,47.05064],[12.87199,47.05116],[12.8713,47.05106],[12.87094,47.05085]],[[12.87375,47.05315],[12.87461,47.05349],[12.87487,47.05319],[12.87358,47.05238],[12.87284,47.05153],[12.87211,47.05093],[12.87117,47.05044],[12.87079,47.05078],[12.87066,47.05104],[12.87234,47.05155],[12.87313,47.05268],[12.87375,47.05315]]]}},{"type":"Feature","properties":{"kind":"piste","difficulty":"intermediate","name":"Muldenabfahrt","aerialway":null,"osm":"relation/16693054"},"geometry":{"type":"MultiLineString","coordinates":[[[12.8798,47.05104],[12.8806,47.051],[12.88104,47.05119],[12.88126,47.05146],[12.8798,47.05104]],[[12.89281,47.05607],[12.89228,47.05588],[12.89213,47.05567],[12.89281,47.05607]],[[12.89287,47.05626],[12.89312,47.05643],[12.89308,47.05661],[12.8936,47.05649],[12.89346,47.05629],[12.89463,47.05626],[12.89572,47.05688],[12.89565,47.05652],[12.89501,47.05609],[12.89463,47.05597],[12.89359,47.05612],[12.89314,47.05605],[12.89167,47.05506],[12.89046,47.05494],[12.88958,47.05471],[12.88886,47.05428],[12.88687,47.05373],[12.88622,47.05325],[12.88526,47.05344],[12.88466,47.05342],[12.88387,47.05263],[12.88275,47.05228],[12.88197,47.05188],[12.88109,47.05098],[12.88027,47.05074],[12.87941,47.05093],[12.87819,47.05144],[12.87708,47.05161],[12.87652,47.05182],[12.87588,47.05294],[12.87531,47.05325],[12.87487,47.05319],[12.87461,47.05349],[12.87558,47.05349],[12.87613,47.05301],[12.87678,47.05199],[12.87791,47.05188],[12.87932,47.05132],[12.87987,47.05139],[12.88081,47.05162],[12.8827,47.05268],[12.88374,47.053],[12.88399,47.05346],[12.88429,47.05364],[12.88489,47.05374],[12.88613,47.05364],[12.88664,47.054],[12.88852,47.05449],[12.88957,47.05506],[12.89146,47.05533],[12.89213,47.056],[12.89287,47.05626]]]}}]}