{"type":"FeatureCollection","features":[{"type":"Feature","properties":{"kind":"piste","difficulty":"intermediate","name":"Uga","aerialway":null,"osm":"way/49286949"},"geometry":{"type":"LineString","coordinates":[[9.89122,47.29982],[9.89135,47.29996],[9.89111,47.29995],[9.89091,47.29952],[9.8909,47.29855],[9.8906,47.29791],[9.88968,47.297],[9.88887,47.29651],[9.88812,47.29541],[9.88686,47.29423],[9.8864,47.29346],[9.88603,47.29309],[9.88462,47.29309],[9.88257,47.29205],[9.88202,47.29189],[9.88001,47.29209],[9.87941,47.29229],[9.87907,47.29258]]}},{"type":"Feature","properties":{"kind":"piste","difficulty":"intermediate","name":null,"aerialway":null,"osm":"way/49286958"},"geometry":{"type":"LineString","coordinates":[[9.88547,47.29572],[9.88595,47.295]]}},{"type":"Feature","properties":{"kind":"piste","difficulty":"intermediate","name":null,"aerialway":null,"osm":"way/49286962"},"geometry":{"type":"LineString","coordinates":[[9.88527,47.2958],[9.88547,47.29572],[9.88333,47.29443],[9.8824,47.29373],[9.88115,47.29349],[9.87948,47.29258],[9.87907,47.29258],[9.87919,47.29277]]}},{"type":"Feature","properties":{"kind":"piste","difficulty":"advanced","name":null,"aerialway":null,"osm":"way/49289158"},"geometry":{"type":"LineString","coordinates":[[9.87777,47.30965],[9.87776,47.30888],[9.87817,47.30839],[9.87844,47.30765],[9.87909,47.3068],[9.87927,47.30629],[9.87928,47.30565],[9.87916,47.30548],[9.8781,47.30507],[9.87774,47.30301],[9.87632,47.30285],[9.87519,47.30112],[9.87483,47.30011],[9.87468,47.29917],[9.8747,47.2983],[9.87448,47.2975],[9.87478,47.2971],[9.87557,47.29659],[9.87604,47.29573],[9.87623,47.29484],[9.87706,47.29413],[9.87751,47.29357],[9.87807,47.29328],[9.87834,47.29261]]}},{"type":"Feature","properties":{"kind":"piste","difficulty":"easy","name":null,"aerialway":null,"osm":"way/49293727"},"geometry":{"type":"LineString","coordinates":[[9.86449,47.28994],[9.86447,47.29009],[9.86463,47.29021],[9.86546,47.29035],[9.86736,47.29],[9.87085,47.28699],[9.87092,47.28685],[9.87056,47.28606],[9.86979,47.28493],[9.86871,47.28368],[9.86866,47.28324],[9.86967,47.28155],[9.87017,47.28105],[9.87121,47.28044],[9.87196,47.28044]]}},{"type":"Feature","properties":{"kind":"piste","difficulty":"intermediate","name":null,"aerialway":null,"osm":"way/49293733"},"geometry":{"type":"LineString","coordinates":[[9.86727,47.29003],[9.86784,47.28985],[9.86831,47.28948],[9.87316,47.28759],[9.87551,47.28645],[9.87741,47.28604],[9.87804,47.2861],[9.87922,47.28574],[9.883,47.28398],[9.88458,47.28278],[9.88668,47.28161],[9.88862,47.28093],[9.88966,47.28073],[9.89093,47.28085],[9.88976,47.28135],[9.88965,47.28151]]}},{"type":"Feature","properties":{"kind":"piste","difficulty":"intermediate","name":null,"aerialway":null,"osm":"way/49293741"},"geometry":{"type":"LineString","coordinates":[[9.87266,47.28641],[9.87362,47.28621],[9.87494,47.28668]]}},{"type":"Feature","properties":{"kind":"piste","difficulty":"easy","name":null,"aerialway":null,"osm":"way/49293748"},"geometry":{"type":"LineString","coordinates":[[9.87208,47.28671],[9.8719,47.28679],[9.87184,47.28668],[9.87209,47.28622],[9.87191,47.28503],[9.87089,47.28356],[9.87045,47.2818],[9.8704,47.28094]]}},{"type":"Feature","properties":{"kind":"piste","difficulty":"easy","name":null,"aerialway":null,"osm":"way/49293757"},"geometry":{"type":"LineString","coordinates":[[9.87289,47.28547],[9.87323,47.28564],[9.87367,47.28554],[9.87456,47.28498],[9.877,47.28447],[9.87847,47.28399],[9.87958,47.28342],[9.88374,47.28255],[9.88526,47.28196],[9.88678,47.28118],[9.88821,47.28098],[9.88841,47.28089],[9.88824,47.28075]]}},{"type":"Feature","properties":{"kind":"piste","difficulty":"easy","name":null,"aerialway":null,"osm":"way/49293764"},"geometry":{"type":"LineString","coordinates":[[9.87164,47.28656],[9.87283,47.28629],[9.87327,47.28597],[9.87639,47.2854],[9.87977,47.28442],[9.88363,47.28258],[9.88527,47.28196],[9.88665,47.28123],[9.88776,47.28112],[9.88841,47.28089]]}},{"type":"Feature","properties":{"kind":"piste","difficulty":"intermediate","name":null,"aerialway":null,"osm":"way/49293774"},"geometry":{"type":"LineString","coordinates":[[9.87637,47.28625],[9.8772,47.28549],[9.87744,47.2856],[9.87754,47.28598],[9.87778,47.28608]]}},{"type":"Feature","properties":{"kind":"piste","difficulty":"expert","name":"Skiroute Sunnegg Steilhang","aerialway":null,"osm":"way/49293788"},"geometry":{"type":"LineString","coordinates":[[9.86697,47.29009],[9.86801,47.29014],[9.86976,47.29066],[9.87113,47.29081],[9.87252,47.29122],[9.87592,47.29186],[9.87751,47.29229]]}},{"type":"Feature","properties":{"kind":"piste","difficulty":"advanced","name":"Skiroute Sünserjoch","aerialway":null,"osm":"way/75650694"},"geometry":{"type":"LineString","coordinates":[[9.85516,47.305],[9.85516,47.30489],[9.85443,47.30454],[9.85197,47.30368],[9.85079,47.30267],[9.84913,47.3017],[9.84748,47.30041],[9.84693,47.29973],[9.84686,47.29871],[9.847,47.29775],[9.84764,47.29689],[9.84947,47.2952],[9.85304,47.29428],[9.8551,47.29408],[9.85685,47.29418],[9.85822,47.29477],[9.85954,47.29478],[9.86243,47.29396],[9.86487,47.29365],[9.86644,47.29324],[9.86763,47.29322],[9.86935,47.29295],[9.87154,47.29241],[9.87171,47.2925],[9.87171,47.29327],[9.87304,47.29346],[9.87362,47.29335],[9.87428,47.29287],[9.87542,47.29326],[9.8764,47.29327],[9.87761,47.29231],[9.87817,47.29246],[9.87823,47.2926]]}},{"type":"Feature","properties":{"kind":"piste","difficulty":"intermediate","name":null,"aerialway":null,"osm":"way/75651077"},"geometry":{"type":"LineString","coordinates":[[9.87292,47.28552],[9.8731,47.28539],[9.87309,47.28471],[9.87252,47.28244],[9.87261,47.28101],[9.87234,47.28059],[9.87184,47.28044]]}},{"type":"Feature","properties":{"kind":"piste","difficulty":"intermediate","name":null,"aerialway":null,"osm":"way/75651223"},"geometry":{"type":"LineString","coordinates":[[9.8719,47.28679],[9.872,47.28697],[9.87173,47.2878],[9.87189,47.2886],[9.87164,47.28904],[9.87107,47.28957],[9.87098,47.29005],[9.87116,47.29052],[9.8717,47.29073],[9.8745,47.29032],[9.87531,47.28995],[9.87664,47.28905],[9.87668,47.28925],[9.87503,47.29138]]}},{"type":"Feature","properties":{"kind":"piste","difficulty":"intermediate","name":null,"aerialway":null,"osm":"way/75652545"},"geometry":{"type":"LineString","coordinates":[[9.88516,47.29574],[9.88531,47.29582],[9.88517,47.2959],[9.88471,47.29578],[9.88404,47.29528],[9.88218,47.29428],[9.87913,47.2929],[9.87907,47.29268]]}},{"type":"Feature","properties":{"kind":"piste","difficulty":"intermediate","name":null,"aerialway":null,"osm":"way/75652624"},"geometry":{"type":"LineString","coordinates":[[9.8761,47.31076],[9.87567,47.31093],[9.87401,47.31043],[9.87334,47.30987],[9.87189,47.30828],[9.87169,47.30779],[9.87195,47.30694],[9.87188,47.30599],[9.87198,47.30581],[9.87265,47.30556],[9.87466,47.30521],[9.87704,47.30406],[9.87702,47.30339],[9.87676,47.30316],[9.87613,47.30293],[9.87601,47.30252],[9.87499,47.30118],[9.8745,47.29931],[9.87451,47.29831],[9.87434,47.29761],[9.87468,47.29711],[9.87553,47.29656],[9.87596,47.29581],[9.87618,47.29484],[9.87748,47.29354],[9.87797,47.29321],[9.87823,47.2926],[9.87794,47.29284]]}},{"type":"Feature","properties":{"kind":"piste","difficulty":"easy","name":null,"aerialway":null,"osm":"way/75653094"},"geometry":{"type":"LineString","coordinates":[[9.88613,47.29618],[9.88582,47.29578],[9.88589,47.29516],[9.88638,47.29417],[9.88612,47.29329],[9.88692,47.29231],[9.88689,47.29184],[9.88659,47.29093],[9.88655,47.28859],[9.88683,47.28812],[9.88704,47.28802],[9.88795,47.2879],[9.88871,47.28796],[9.88823,47.28713],[9.88812,47.28658],[9.88792,47.28659]]}},{"type":"Feature","properties":{"kind":"piste","difficulty":"intermediate","name":null,"aerialway":null,"osm":"way/182491334"},"geometry":{"type":"LineString","coordinates":[[9.88728,47.28592],[9.88738,47.28601]]}},{"type":"Feature","properties":{"kind":"piste","difficulty":"easy","name":null,"aerialway":null,"osm":"way/470580200"},"geometry":{"type":"LineString","coordinates":[[9.88211,47.29162],[9.88153,47.2912],[9.88045,47.29086],[9.87983,47.29131],[9.87953,47.29175]]}},{"type":"Feature","properties":{"kind":"piste","difficulty":"intermediate","name":null,"aerialway":null,"osm":"way/470580205"},"geometry":{"type":"LineString","coordinates":[[9.8821,47.29168],[9.88181,47.29188]]}},{"type":"Feature","properties":{"kind":"piste","difficulty":"intermediate","name":"Abfahrt Grüsch","aerialway":null,"osm":"way/470590029"},"geometry":{"type":"LineString","coordinates":[[9.88893,47.28242],[9.8879,47.28375],[9.88726,47.28548]]}},{"type":"Feature","properties":{"kind":"piste","difficulty":"intermediate","name":"Abfahrt Grüsch","aerialway":null,"osm":"way/470590030"},"geometry":{"type":"LineString","coordinates":[[9.88726,47.28548],[9.88724,47.2858]]}},{"type":"Feature","properties":{"kind":"piste","difficulty":"intermediate","name":"Wäldeletunnel","aerialway":null,"osm":"way/501240723"},"geometry":{"type":"LineString","coordinates":[[9.87503,47.29138],[9.87461,47.29184]]}},{"type":"Feature","properties":{"kind":"piste","difficulty":"easy","name":null,"aerialway":null,"osm":"way/688495021"},"geometry":{"type":"LineString","coordinates":[[9.8729,47.28551],[9.87259,47.2855],[9.87171,47.28467]]}},{"type":"Feature","properties":{"kind":"piste","difficulty":"advanced","name":"Skiroute Hohe Kante","aerialway":null,"osm":"way/724002964"},"geometry":{"type":"LineString","coordinates":[[9.87629,47.28984],[9.8775,47.2905],[9.87782,47.29102]]}},{"type":"Feature","properties":{"kind":"piste","difficulty":"unknown","name":"Mainpark","aerialway":null,"osm":"way/1149373231"},"geometry":{"type":"LineString","coordinates":[[9.8838,47.29418],[9.8828,47.29345],[9.88249,47.29289],[9.88155,47.29266],[9.8815,47.29234],[9.88109,47.29211]]}},{"type":"Feature","properties":{"kind":"piste","difficulty":"intermediate","name":"Mainpark","aerialway":null,"osm":"way/1149373232"},"geometry":{"type":"LineString","coordinates":[[9.88469,47.29311],[9.88452,47.29317],[9.88373,47.29296]]}},{"type":"Feature","properties":{"kind":"piste","difficulty":"intermediate","name":null,"aerialway":null,"osm":"way/1222073468"},"geometry":{"type":"LineString","coordinates":[[9.87461,47.29184],[9.87396,47.29263],[9.87359,47.29324],[9.87367,47.29332],[9.87455,47.2927],[9.875,47.29261],[9.87553,47.29212],[9.87709,47.29125],[9.87716,47.29108],[9.87798,47.29056],[9.87814,47.29061],[9.87782,47.29102]]}},{"type":"Feature","properties":{"kind":"piste","difficulty":"easy","name":null,"aerialway":null,"osm":"way/1222081071"},"geometry":{"type":"LineString","coordinates":[[9.88209,47.29159],[9.88086,47.29158],[9.8809,47.29112],[9.88071,47.29088]]}},{"type":"Feature","properties":{"kind":"piste","difficulty":"intermediate","name":"Parallelslalom","aerialway":null,"osm":"way/1222289028"},"geometry":{"type":"LineString","coordinates":[[9.87165,47.28458],[9.8703,47.28405],[9.86997,47.28374],[9.87004,47.28332],[9.86993,47.28297],[9.87003,47.28282],[9.86985,47.28244],[9.86996,47.2823],[9.86988,47.28188],[9.8704,47.2814]]}},{"type":"Feature","properties":{"kind":"piste","difficulty":"intermediate","name":null,"aerialway":null,"osm":"way/1222569783"},"geometry":{"type":"LineString","coordinates":[[9.87136,47.28453],[9.87037,47.28413],[9.86989,47.28379],[9.86992,47.28291],[9.86977,47.28245],[9.86976,47.28178],[9.87012,47.28145],[9.87031,47.2839],[9.87136,47.28453]]}},{"type":"Feature","properties":{"kind":"piste","difficulty":"intermediate","name":null,"aerialway":null,"osm":"way/1228714055"},"geometry":{"type":"LineString","coordinates":[[9.87437,47.29212],[9.87476,47.29227],[9.87596,47.29236],[9.87743,47.29228],[9.87817,47.29246],[9.87823,47.2926]]}},{"type":"Feature","properties":{"kind":"piste","difficulty":"intermediate","name":"Abfahrt Grüsch","aerialway":null,"osm":"way/1349102243"},"geometry":{"type":"LineString","coordinates":[[9.88724,47.2858],[9.88728,47.28592]]}},{"type":"Feature","properties":{"kind":"piste","difficulty":"easy","name":null,"aerialway":null,"osm":"way/1377833713"},"geometry":{"type":"LineString","coordinates":[[9.86953,47.28813],[9.8705,47.28787],[9.8716,47.28721]]}},{"type":"Feature","properties":{"kind":"piste","difficulty":"novice","name":null,"aerialway":null,"osm":"way/1378677735"},"geometry":{"type":"LineString","coordinates":[[9.88374,47.28976],[9.88303,47.28956],[9.8824,47.28999],[9.88092,47.29037]]}},{"type":"Feature","properties":{"kind":"piste","difficulty":"easy","name":null,"aerialway":null,"osm":"way/1378677736"},"geometry":{"type":"LineString","coordinates":[[9.88153,47.2912],[9.88155,47.29102],[9.88186,47.29071],[9.88179,47.2906],[9.88045,47.29086]]}},{"type":"Feature","properties":{"kind":"piste","difficulty":"easy","name":null,"aerialway":null,"osm":"way/1378677737"},"geometry":{"type":"LineString","coordinates":[[9.881,47.29077],[9.88091,47.29058]]}},{"type":"Feature","properties":{"kind":"piste","difficulty":"easy","name":null,"aerialway":null,"osm":"way/1378677739"},"geometry":{"type":"LineString","coordinates":[[9.88207,47.29151],[9.88226,47.29101],[9.88309,47.29072],[9.88319,47.29043],[9.88158,47.29061]]}},{"type":"Feature","properties":{"kind":"piste","difficulty":"expert","name":"Skiroute Sunnegg Nord","aerialway":null,"osm":"way/1378688825"},"geometry":{"type":"LineString","coordinates":[[9.86475,47.29088],[9.865,47.2912],[9.86834,47.2931]]}},{"type":"Feature","properties":{"kind":"piste","difficulty":"unknown","name":"Mainpark","aerialway":null,"osm":"way/1378748406"},"geometry":{"type":"LineString","coordinates":[[9.88337,47.29383],[9.88348,47.29333],[9.88305,47.29304],[9.88249,47.29289],[9.88255,47.29238]]}},{"type":"Feature","properties":{"kind":"piste","difficulty":"unknown","name":"Mainpark","aerialway":null,"osm":"way/1378748407"},"geometry":{"type":"LineString","coordinates":[[9.88348,47.29333],[9.88365,47.29327]]}},{"type":"Feature","properties":{"kind":"piste","difficulty":"novice","name":null,"aerialway":null,"osm":"way/1378748408"},"geometry":{"type":"LineString","coordinates":[[9.88388,47.28919],[9.88303,47.28956]]}},{"type":"Feature","properties":{"kind":"piste","difficulty":"easy","name":null,"aerialway":null,"osm":"way/1378748413"},"geometry":{"type":"LineString","coordinates":[[9.87656,47.28459],[9.87719,47.28518],[9.87733,47.28516],[9.87777,47.28455],[9.87847,47.28399]]}},{"type":"Feature","properties":{"kind":"piste","difficulty":"freeride","name":"Ragazer Blanken","aerialway":null,"osm":"way/1378748418"},"geometry":{"type":"LineString","coordinates":[[9.85515,47.30484],[9.85574,47.30411],[9.85632,47.30374],[9.85721,47.30247],[9.85842,47.30199],[9.859,47.30159],[9.85968,47.30071],[9.86098,47.30018],[9.86173,47.29923],[9.86277,47.29872],[9.8648,47.29739],[9.86564,47.29663],[9.86684,47.29621],[9.8682,47.29528],[9.86941,47.29493],[9.86997,47.2951],[9.8704,47.29593],[9.8709,47.29615],[9.87154,47.2977],[9.87192,47.29794],[9.87232,47.2978],[9.87296,47.29701],[9.87409,47.29641],[9.87398,47.296],[9.87427,47.29581],[9.87452,47.29528],[9.87449,47.29502],[9.87548,47.29481],[9.87593,47.29453],[9.87637,47.2946]]}},{"type":"Feature","properties":{"kind":"piste","difficulty":"easy","name":null,"aerialway":null,"osm":"way/1378911259"},"geometry":{"type":"LineString","coordinates":[[9.87105,47.28676],[9.87164,47.28656]]}},{"type":"Feature","properties":{"kind":"piste","difficulty":"novice","name":"Bunny Line","aerialway":null,"osm":"way/1416372512"},"geometry":{"type":"LineString","coordinates":[[9.88719,47.29753],[9.88745,47.29644],[9.8881,47.29571],[9.88794,47.29554],[9.88762,47.29551],[9.88664,47.29604],[9.88623,47.2961],[9.88617,47.2959],[9.88642,47.29504],[9.8863,47.29467],[9.88653,47.29425],[9.88798,47.29337],[9.88707,47.29305],[9.88642,47.29265],[9.88591,47.29253],[9.88513,47.29266],[9.88469,47.29311],[9.88334,47.29253],[9.88208,47.29177],[9.88233,47.29129],[9.88315,47.29074],[9.8836,47.29027],[9.88374,47.28997],[9.88375,47.28942],[9.88412,47.28891],[9.8847,47.28852],[9.88567,47.28815],[9.88704,47.28802]]}},{"type":"Feature","properties":{"kind":"piste","difficulty":"easy","name":null,"aerialway":null,"osm":"way/1416372513"},"geometry":{"type":"LineString","coordinates":[[9.883,47.29038],[9.8837,47.2901]]}},{"type":"Feature","properties":{"kind":"piste","difficulty":"easy","name":null,"aerialway":null,"osm":"way/1430365041"},"geometry":{"type":"LineString","coordinates":[[9.88792,47.28659],[9.88793,47.28669]]}},{"type":"Feature","properties":{"kind":"piste","difficulty":"easy","name":null,"aerialway":null,"osm":"way/1430573005"},"geometry":{"type":"LineString","coordinates":[[9.88088,47.29061],[9.88099,47.29066],[9.88088,47.29061]]}},{"type":"Feature","properties":{"kind":"piste","difficulty":"novice","name":null,"aerialway":null,"osm":"way/1430573008"},"geometry":{"type":"LineString","coordinates":[[9.88372,47.2897],[9.88318,47.28953],[9.88388,47.28913],[9.88209,47.29003],[9.88246,47.28999],[9.88299,47.28959],[9.88372,47.2897]]}},{"type":"Feature","properties":{"kind":"piste","difficulty":"advanced","name":"Skiroute Hohe Kante","aerialway":null,"osm":"way/1432279967"},"geometry":{"type":"LineString","coordinates":[[9.87782,47.29102],[9.87758,47.29171],[9.87784,47.29191],[9.87772,47.29234]]}},{"type":"Feature","properties":{"kind":"piste","difficulty":"intermediate","name":null,"aerialway":null,"osm":"way/1434614375"},"geometry":{"type":"LineString","coordinates":[[9.87279,47.2863],[9.87266,47.28641]]}},{"type":"Feature","properties":{"kind":"piste","difficulty":"easy","name":null,"aerialway":null,"osm":"way/1436740746"},"geometry":{"type":"LineString","coordinates":[[9.87842,47.28398],[9.87866,47.28401],[9.87842,47.28398]]}},{"type":"Feature","properties":{"kind":"piste","difficulty":"easy","name":null,"aerialway":null,"osm":"way/1442022285"},"geometry":{"type":"LineString","coordinates":[[9.8866,47.28908],[9.88703,47.28898],[9.88725,47.2885],[9.88832,47.28856]]}},{"type":"Feature","properties":{"kind":"piste","difficulty":"easy","name":null,"aerialway":null,"osm":"way/1442208079"},"geometry":{"type":"LineString","coordinates":[[9.87296,47.28554],[9.87295,47.28604],[9.87279,47.2863]]}},{"type":"Feature","properties":{"kind":"piste","difficulty":"intermediate","name":null,"aerialway":null,"osm":"way/1442208080"},"geometry":{"type":"LineString","coordinates":[[9.8716,47.28721],[9.87266,47.28641]]}},{"type":"Feature","properties":{"kind":"piste","difficulty":"intermediate","name":"Zilla","aerialway":null,"osm":"way/1442828931"},"geometry":{"type":"LineString","coordinates":[[9.88336,47.30449],[9.88375,47.30375],[9.88388,47.303],[9.88493,47.30176],[9.88477,47.30056],[9.88388,47.29949],[9.88356,47.29851],[9.88299,47.29824],[9.88154,47.298],[9.88066,47.29737],[9.87943,47.29538],[9.87837,47.29261]]}},{"type":"Feature","properties":{"kind":"piste","difficulty":"novice","name":null,"aerialway":null,"osm":"way/1442853599"},"geometry":{"type":"LineString","coordinates":[[9.88212,47.29166],[9.88211,47.29162]]}},{"type":"Feature","properties":{"kind":"piste","difficulty":"intermediate","name":"Mainpark","aerialway":null,"osm":"way/1443786934"},"geometry":{"type":"LineString","coordinates":[[9.88167,47.29271],[9.88227,47.29217]]}},{"type":"Feature","properties":{"kind":"piste","difficulty":"easy","name":null,"aerialway":null,"osm":"way/1443786935"},"geometry":{"type":"LineString","coordinates":[[9.88596,47.29599],[9.88547,47.29572]]}},{"type":"Feature","properties":{"kind":"piste","difficulty":"intermediate","name":null,"aerialway":null,"osm":"way/1444025086"},"geometry":{"type":"LineString","coordinates":[[9.87629,47.28984],[9.87626,47.28983]]}},{"type":"Feature","properties":{"kind":"piste","difficulty":"intermediate","name":null,"aerialway":null,"osm":"way/1445849068"},"geometry":{"type":"LineString","coordinates":[[9.87728,47.28549],[9.87729,47.28517]]}},{"type":"Feature","properties":{"kind":"piste","difficulty":"easy","name":null,"aerialway":null,"osm":"way/1445849069"},"geometry":{"type":"LineString","coordinates":[[9.87016,47.28397],[9.87018,47.28545]]}},{"type":"Feature","properties":{"kind":"piste","difficulty":"unknown","name":"Mainpark","aerialway":null,"osm":"way/1446893645"},"geometry":{"type":"LineString","coordinates":[[9.88432,47.29503],[9.88423,47.2945]]}},{"type":"Feature","properties":{"kind":"piste","difficulty":"intermediate","name":null,"aerialway":null,"osm":"way/1446893650"},"geometry":{"type":"LineString","coordinates":[[9.87801,47.29257],[9.87907,47.29258]]}},{"type":"Feature","properties":{"kind":"piste","difficulty":"intermediate","name":null,"aerialway":null,"osm":"way/1446893651"},"geometry":{"type":"LineString","coordinates":[[9.87834,47.29261],[9.87947,47.29178]]}},{"type":"Feature","properties":{"kind":"piste","difficulty":"novice","name":null,"aerialway":null,"osm":"way/1447459951"},"geometry":{"type":"LineString","coordinates":[[9.88191,47.29029],[9.88036,47.29046]]}},{"type":"Feature","properties":{"kind":"piste","difficulty":"novice","name":null,"aerialway":null,"osm":"way/1447459952"},"geometry":{"type":"LineString","coordinates":[[9.8809,47.29033],[9.88091,47.29042]]}},{"type":"Feature","properties":{"kind":"piste","difficulty":"novice","name":null,"aerialway":null,"osm":"way/1447459955"},"geometry":{"type":"LineString","coordinates":[[9.88091,47.29058],[9.88091,47.29042]]}},{"type":"Feature","properties":{"kind":"piste","difficulty":"intermediate","name":"Uga","aerialway":null,"osm":"way/1447735722"},"geometry":{"type":"LineString","coordinates":[[9.88088,47.29197],[9.88018,47.29194],[9.87953,47.29175]]}},{"type":"Feature","properties":{"kind":"piste","difficulty":"easy","name":null,"aerialway":null,"osm":"way/1447735725"},"geometry":{"type":"LineString","coordinates":[[9.87372,47.28588],[9.87406,47.28562],[9.87412,47.28532]]}},{"type":"Feature","properties":{"kind":"piste","difficulty":"intermediate","name":null,"aerialway":null,"osm":"way/1448724038"},"geometry":{"type":"LineString","coordinates":[[9.87136,47.29066],[9.87187,47.29103]]}},{"type":"Feature","properties":{"kind":"piste","difficulty":"novice","name":null,"aerialway":null,"osm":"way/1453188184"},"geometry":{"type":"LineString","coordinates":[[9.88966,47.28638],[9.88874,47.287],[9.88852,47.28705],[9.88825,47.28692],[9.88838,47.28711],[9.88876,47.28703],[9.88932,47.28673],[9.88966,47.28638]]}},{"type":"Feature","properties":{"kind":"piste","difficulty":"novice","name":null,"aerialway":null,"osm":"way/1453188185"},"geometry":{"type":"LineString","coordinates":[[9.88968,47.2864],[9.88858,47.28707],[9.88813,47.28685]]}},{"type":"Feature","properties":{"kind":"piste","difficulty":"intermediate","name":null,"aerialway":null,"osm":"way/1453592611"},"geometry":{"type":"LineString","coordinates":[[9.87913,47.2929],[9.87846,47.29262]]}},{"type":"Feature","properties":{"kind":"piste","difficulty":"intermediate","name":"Skiweg","aerialway":null,"osm":"way/1454772745"},"geometry":{"type":"LineString","coordinates":[[9.87901,47.29438],[9.87926,47.29418],[9.88013,47.29437],[9.88078,47.29407],[9.87987,47.29321]]}},{"type":"Feature","properties":{"kind":"piste","difficulty":"novice","name":null,"aerialway":null,"osm":"way/1456276230"},"geometry":{"type":"LineString","coordinates":[[9.88964,47.29272],[9.88929,47.29291],[9.88901,47.2933],[9.88799,47.2934]]}},{"type":"Feature","properties":{"kind":"piste","difficulty":"unknown","name":null,"aerialway":null,"osm":"way/1456917009"},"geometry":{"type":"LineString","coordinates":[[9.88289,47.29353],[9.88233,47.29337],[9.88176,47.29361]]}},{"type":"Feature","properties":{"kind":"piste","difficulty":"novice","name":null,"aerialway":null,"osm":"way/1456917010"},"geometry":{"type":"LineString","coordinates":[[9.88226,47.29194],[9.88225,47.29193]]}},{"type":"Feature","properties":{"kind":"piste","difficulty":"easy","name":null,"aerialway":null,"osm":"way/1457141309"},"geometry":{"type":"LineString","coordinates":[[9.87184,47.28668],[9.87164,47.28656]]}},{"type":"Feature","properties":{"kind":"piste","difficulty":"easy","name":null,"aerialway":null,"osm":"way/1457141310"},"geometry":{"type":"LineString","coordinates":[[9.87092,47.28685],[9.87105,47.28676]]}},{"type":"Feature","properties":{"kind":"piste","difficulty":"easy","name":null,"aerialway":null,"osm":"way/1457141311"},"geometry":{"type":"LineString","coordinates":[[9.87105,47.28676],[9.87086,47.28669]]}},{"type":"Feature","properties":{"kind":"piste","difficulty":"intermediate","name":null,"aerialway":null,"osm":"way/1457141312"},"geometry":{"type":"LineString","coordinates":[[9.87784,47.29238],[9.8787,47.29234]]}},{"type":"Feature","properties":{"kind":"piste","difficulty":"easy","name":null,"aerialway":null,"osm":"way/1458266871"},"geometry":{"type":"LineString","coordinates":[[9.87066,47.28249],[9.87084,47.28223]]}},{"type":"Feature","properties":{"kind":"piste","difficulty":"intermediate","name":"Parallelslalom","aerialway":null,"osm":"way/1458266872"},"geometry":{"type":"LineString","coordinates":[[9.87016,47.28397],[9.8701,47.28298],[9.87019,47.28281],[9.87001,47.28239],[9.87013,47.28228],[9.87002,47.2821],[9.87017,47.28156]]}},{"type":"Feature","properties":{"kind":"piste","difficulty":"advanced","name":null,"aerialway":null,"osm":"way/1458813303"},"geometry":{"type":"LineString","coordinates":[[9.87645,47.2896],[9.87688,47.28981],[9.87715,47.2902],[9.87791,47.29052],[9.87785,47.29062],[9.87741,47.29092],[9.87736,47.29051],[9.87619,47.28999],[9.87645,47.2896]]}},{"type":"Feature","properties":{"kind":"piste","difficulty":"advanced","name":null,"aerialway":null,"osm":"way/1458813304"},"geometry":{"type":"LineString","coordinates":[[9.87744,47.29096],[9.87807,47.29057],[9.87778,47.29106],[9.87744,47.29096]]}},{"type":"Feature","properties":{"kind":"piste","difficulty":"intermediate","name":null,"aerialway":null,"osm":"way/1458813305"},"geometry":{"type":"LineString","coordinates":[[9.87785,47.29092],[9.87804,47.29057],[9.87724,47.29105],[9.87714,47.29125],[9.87617,47.29172],[9.87708,47.29123],[9.87716,47.29105],[9.87795,47.2905],[9.87814,47.29048],[9.87817,47.29064],[9.87786,47.29104],[9.87785,47.29092]]}},{"type":"Feature","properties":{"kind":"piste","difficulty":"intermediate","name":null,"aerialway":null,"osm":"way/1459674497"},"geometry":{"type":"LineString","coordinates":[[9.87276,47.28338],[9.87112,47.28249],[9.87083,47.28221],[9.87104,47.28195],[9.87232,47.28122],[9.87256,47.28088]]}},{"type":"Feature","properties":{"kind":"piste","difficulty":"advanced","name":"Skiroute Hohe Kante","aerialway":null,"osm":"way/1459674498"},"geometry":{"type":"LineString","coordinates":[[9.87186,47.28872],[9.87332,47.28926],[9.87574,47.28968]]}},{"type":"Feature","properties":{"kind":"piste","difficulty":"intermediate","name":null,"aerialway":null,"osm":"way/1459674499"},"geometry":{"type":"LineString","coordinates":[[9.86801,47.29014],[9.87075,47.28999],[9.87214,47.29016],[9.87307,47.29047]]}},{"type":"Feature","properties":{"kind":"piste","difficulty":"intermediate","name":null,"aerialway":null,"osm":"way/1459814681"},"geometry":{"type":"LineString","coordinates":[[9.88848,47.29588],[9.88808,47.29566]]}},{"type":"Feature","properties":{"kind":"piste","difficulty":"novice","name":null,"aerialway":null,"osm":"way/1459814682"},"geometry":{"type":"LineString","coordinates":[[9.88788,47.29552],[9.8878,47.29538],[9.88794,47.29524]]}},{"type":"Feature","properties":{"kind":"piste","difficulty":"novice","name":null,"aerialway":null,"osm":"way/1459935643"},"geometry":{"type":"LineString","coordinates":[[9.89234,47.29588],[9.8923,47.29477],[9.8925,47.2941],[9.89194,47.29475],[9.8913,47.29505],[9.89197,47.29468],[9.89235,47.2941],[9.89252,47.29405],[9.89239,47.29473],[9.89244,47.29577],[9.89239,47.29602],[9.89234,47.29588]]}},{"type":"Feature","properties":{"kind":"piste","difficulty":"novice","name":null,"aerialway":null,"osm":"way/1459935645"},"geometry":{"type":"LineString","coordinates":[[9.88961,47.29276],[9.88933,47.29284],[9.8889,47.29333],[9.88803,47.29346],[9.88896,47.29336],[9.88926,47.29297],[9.88961,47.29276]]}},{"type":"Feature","properties":{"kind":"piste","difficulty":"advanced","name":null,"aerialway":null,"osm":"way/1460607045"},"geometry":{"type":"LineString","coordinates":[[9.87786,47.29104],[9.87754,47.29175],[9.8778,47.29186],[9.87771,47.29226],[9.87787,47.29188],[9.87761,47.29169],[9.87786,47.29104]]}},{"type":"Feature","properties":{"kind":"piste","difficulty":"freeride","name":"Holdatobele","aerialway":null,"osm":"way/1471479638"},"geometry":{"type":"LineString","coordinates":[[9.87678,47.29669],[9.87708,47.29636],[9.87704,47.29613],[9.87749,47.29598],[9.87748,47.29587]]}},{"type":"Feature","properties":{"kind":"piste","difficulty":"freeride","name":"Holdatobele","aerialway":null,"osm":"way/1471479639"},"geometry":{"type":"LineString","coordinates":[[9.87748,47.29587],[9.8762,47.29547]]}},{"type":"Feature","properties":{"kind":"piste","difficulty":"expert","name":"Skiroute Sunnegg Nord","aerialway":null,"osm":"way/1492228443"},"geometry":{"type":"LineString","coordinates":[[9.86546,47.29035],[9.86561,47.2906],[9.8654,47.29078],[9.86196,47.29132],[9.86106,47.29186],[9.86092,47.29213],[9.86096,47.29243],[9.86232,47.29282],[9.86399,47.29354],[9.86487,47.29365],[9.86644,47.29324],[9.86763,47.29322],[9.86935,47.29295],[9.87218,47.29228],[9.87311,47.29245],[9.87509,47.29317],[9.87585,47.29332],[9.87667,47.29314],[9.8775,47.29233],[9.87817,47.29246],[9.87823,47.2926]]}},{"type":"Feature","properties":{"kind":"piste","difficulty":"intermediate","name":null,"aerialway":null,"osm":"way/1526733327"},"geometry":{"type":"LineString","coordinates":[[9.87674,47.28619],[9.87716,47.28552]]}},{"type":"Feature","properties":{"kind":"piste","difficulty":"unknown","name":"Uga-park - Middle-Park - Main-Park","aerialway":null,"osm":"way/1558604371"},"geometry":{"type":"LineString","coordinates":[[9.89103,47.29964],[9.89057,47.29994],[9.88935,47.30037],[9.88837,47.30037],[9.88803,47.30026],[9.8879,47.30003],[9.88811,47.29858],[9.88762,47.29854],[9.88722,47.29873],[9.88687,47.29842],[9.88699,47.29773],[9.88727,47.29733],[9.88739,47.29657],[9.8879,47.29596],[9.88756,47.29587],[9.88612,47.29617],[9.88547,47.29572],[9.88548,47.29551],[9.8838,47.29418],[9.88415,47.29373],[9.88365,47.29327],[9.88378,47.29307],[9.88367,47.2929],[9.88273,47.29253],[9.88242,47.29222],[9.88177,47.29208],[9.88109,47.29211],[9.88088,47.29197]]}},{"type":"Feature","properties":{"kind":"piste","difficulty":"easy","name":null,"aerialway":null,"osm":"way/1561133479"},"geometry":{"type":"LineString","coordinates":[[9.87145,47.28731],[9.87173,47.28732],[9.8718,47.2875]]}},{"type":"Feature","properties":{"kind":"piste","difficulty":"easy","name":null,"aerialway":null,"osm":"way/1561133480"},"geometry":{"type":"LineString","coordinates":[[9.8716,47.28721],[9.87132,47.2872],[9.87092,47.28685]]}},{"type":"Feature","properties":{"kind":"piste","difficulty":"easy","name":null,"aerialway":null,"osm":"relation/19806413"},"geometry":{"type":"MultiLineString","coordinates":[[[9.87282,47.28568],[9.87291,47.28604],[9.87261,47.28627],[9.87214,47.28634],[9.87207,47.28523],[9.87282,47.28568]],[[9.87006,47.28394],[9.87015,47.28515],[9.86898,47.28376],[9.86885,47.28323],[9.8692,47.28249],[9.86985,47.28159],[9.87012,47.28145],[9.87019,47.28181],[9.87024,47.28157],[9.87057,47.28366],[9.87182,47.28513],[9.87195,47.28575],[9.87189,47.28643],[9.87102,47.2867],[9.87022,47.28525],[9.87022,47.28421],[9.87006,47.28394]],[[9.87762,47.28472],[9.87852,47.28406],[9.87834,47.28392],[9.87843,47.28386],[9.87866,47.28401],[9.88091,47.28328],[9.88172,47.2833],[9.87968,47.28429],[9.87762,47.28472]],[[9.87716,47.28503],[9.8781,47.28422],[9.87669,47.28466],[9.87716,47.28503]],[[9.87701,47.28507],[9.87709,47.28516],[9.87517,47.28552],[9.87434,47.28553],[9.8745,47.2852],[9.8754,47.28486],[9.87643,47.2847],[9.87701,47.28507]],[[9.87299,47.286],[9.87294,47.28573],[9.87363,47.2858],[9.87299,47.286]],[[9.87124,47.28735],[9.87065,47.28776],[9.86987,47.288],[9.87098,47.28701],[9.87124,47.28735]],[[9.87057,47.28709],[9.86858,47.28859],[9.86736,47.28989],[9.86557,47.29025],[9.86503,47.29023],[9.86437,47.28993],[9.86434,47.29007],[9.86461,47.29029],[9.86504,47.29044],[9.86739,47.29016],[9.86985,47.28811],[9.87036,47.28799],[9.87155,47.2874],[9.87177,47.28718],[9.87142,47.28713],[9.87109,47.28687],[9.8712,47.2868],[9.87173,47.28661],[9.87175,47.28686],[9.87188,47.28683],[9.87193,47.28664],[9.8737,47.28593],[9.87721,47.28534],[9.87983,47.28455],[9.88217,47.28336],[9.88338,47.28317],[9.88364,47.28293],[9.88644,47.28152],[9.88813,47.28106],[9.88856,47.28087],[9.88857,47.28074],[9.88838,47.2806],[9.88798,47.28065],[9.88667,47.28033],[9.8879,47.28068],[9.88835,47.28064],[9.88846,47.2808],[9.88767,47.28105],[9.88719,47.28099],[9.88675,47.2811],[9.88505,47.28198],[9.88326,47.28254],[9.87932,47.28332],[9.87644,47.28436],[9.87543,47.28449],[9.87446,47.28481],[9.87387,47.2853],[9.87348,47.28546],[9.87286,47.28549],[9.87251,47.28496],[9.87181,47.28449],[9.87097,47.28305],[9.87075,47.28223],[9.87084,47.28197],[9.87073,47.28094],[9.87145,47.2805],[9.87172,47.28056],[9.87196,47.28045],[9.871,47.28033],[9.87059,47.28056],[9.86961,47.28146],[9.86852,47.28325],[9.86865,47.2838],[9.87006,47.28545],[9.8706,47.2867],[9.87057,47.28709]]]}},{"type":"Feature","properties":{"kind":"piste","difficulty":"intermediate","name":null,"aerialway":null,"osm":"relation/19807737"},"geometry":{"type":"MultiLineString","coordinates":[[[9.87218,47.28294],[9.87123,47.28245],[9.87104,47.28222],[9.87141,47.28188],[9.87225,47.28143],[9.87218,47.28294]],[[9.8733,47.28545],[9.8726,47.28209],[9.87278,47.28085],[9.87219,47.28045],[9.87175,47.28037],[9.87233,47.28065],[9.87222,47.2811],[9.87084,47.28197],[9.87077,47.28235],[9.8714,47.28282],[9.87222,47.28315],[9.8729,47.28448],[9.87302,47.28545],[9.8733,47.28545]]]}},{"type":"Feature","properties":{"kind":"piste","difficulty":"easy","name":null,"aerialway":null,"osm":"relation/19807812"},"geometry":{"type":"MultiLineString","coordinates":[[[9.88199,47.29154],[9.88098,47.29108],[9.88088,47.29143],[9.88093,47.29159],[9.8811,47.29162],[9.88199,47.29154]],[[9.88151,47.2911],[9.88093,47.29086],[9.8813,47.29068],[9.88182,47.29063],[9.88151,47.2911]],[[9.88303,47.29071],[9.88237,47.29091],[9.88198,47.29122],[9.88155,47.29111],[9.88189,47.29069],[9.88177,47.29059],[9.88309,47.29041],[9.88317,47.29056],[9.88303,47.29071]],[[9.88074,47.29078],[9.88029,47.29087],[9.87976,47.29128],[9.87935,47.29181],[9.88048,47.29093],[9.88083,47.29116],[9.88087,47.29166],[9.88202,47.29161],[9.88208,47.29173],[9.88244,47.29102],[9.88311,47.29074],[9.88323,47.29059],[9.88309,47.29037],[9.88368,47.29009],[9.88273,47.29042],[9.88074,47.29078]]]}},{"type":"Feature","properties":{"kind":"piste","difficulty":"intermediate","name":null,"aerialway":null,"osm":"relation/19807813"},"geometry":{"type":"MultiLineString","coordinates":[[[9.88974,47.28132],[9.88915,47.28084],[9.8909,47.28086],[9.88974,47.28132]],[[9.87182,47.28798],[9.87201,47.28715],[9.87335,47.28632],[9.87376,47.28632],[9.87459,47.28673],[9.87317,47.28751],[9.87182,47.28798]],[[9.87693,47.28582],[9.87668,47.28609]],[[9.87668,47.28609],[9.87656,47.28617],[9.87674,47.28614]],[[9.87674,47.28614],[9.87693,47.28582]],[[9.87696,47.28608],[9.87739,47.28595],[9.87729,47.28557]],[[9.87696,47.28608],[9.87729,47.28557]],[[9.87224,47.29049],[9.87136,47.29052],[9.87111,47.29025],[9.87177,47.29023],[9.87247,47.29044],[9.87224,47.29049]],[[9.89084,47.28077],[9.89097,47.28082],[9.89087,47.28094],[9.88983,47.28133],[9.8894,47.28171],[9.88894,47.2825],[9.88795,47.28372],[9.88734,47.28508],[9.88728,47.28575],[9.88738,47.28601],[9.88722,47.28589],[9.88726,47.28523],[9.88789,47.28369],[9.88891,47.2824],[9.88927,47.28175],[9.88961,47.28149],[9.88882,47.28091],[9.88742,47.28142],[9.88531,47.28242],[9.88435,47.28302],[9.88292,47.28422],[9.8807,47.28528],[9.8789,47.28601],[9.87716,47.28615],[9.87603,47.28639],[9.87197,47.28816],[9.87187,47.28883],[9.87121,47.28947],[9.87116,47.28979],[9.87282,47.29017],[9.8737,47.29026],[9.87477,47.29015],[9.8765,47.28906],[9.87676,47.28906],[9.87511,47.29141],[9.87498,47.29137],[9.87661,47.28915],[9.87554,47.28996],[9.87433,47.29051],[9.87185,47.29087],[9.87119,47.29067],[9.87091,47.29025],[9.87066,47.29011],[9.86895,47.29025],[9.86824,47.28999],[9.86959,47.28996],[9.87012,47.28975],[9.87099,47.28979],[9.87106,47.28948],[9.87178,47.28877],[9.87185,47.28856],[9.87174,47.28834],[9.86841,47.28953],[9.86761,47.29003],[9.86825,47.28935],[9.87165,47.28808],[9.87155,47.2874],[9.87177,47.28718],[9.8716,47.2871],[9.87175,47.28686],[9.87231,47.28671],[9.87243,47.28647],[9.87326,47.28611],[9.87409,47.28619],[9.87492,47.2866],[9.87652,47.2861],[9.87721,47.28534],[9.87748,47.28521],[9.87741,47.28534],[9.87756,47.28594],[9.87812,47.28604],[9.8829,47.2839],[9.88353,47.28352],[9.88366,47.28322],[9.88338,47.28317],[9.88364,47.28293],[9.88644,47.28152],[9.88813,47.28106],[9.88859,47.2808],[9.88983,47.2807],[9.89084,47.28077]]]}},{"type":"Feature","properties":{"kind":"piste","difficulty":"novice","name":"Bunny Line","aerialway":null,"osm":"relation/19818019"},"geometry":{"type":"MultiLineString","coordinates":[[[9.88655,47.29266],[9.88564,47.29248],[9.88492,47.29269],[9.88464,47.29303],[9.88548,47.29259],[9.88604,47.29258],[9.88648,47.29276],[9.88655,47.29266]],[[9.88688,47.29403],[9.88806,47.29338],[9.88667,47.29276],[9.88657,47.29282],[9.88704,47.29306],[9.88792,47.29336],[9.88685,47.29394],[9.88688,47.29403]],[[9.88371,47.29],[9.88381,47.28995],[9.8838,47.28942],[9.88444,47.28873],[9.88562,47.2882],[9.88682,47.28802],[9.88561,47.28814],[9.8843,47.28875],[9.88377,47.28931],[9.88371,47.29]],[[9.8832,47.29074],[9.88363,47.29035],[9.88381,47.29003],[9.88369,47.29006],[9.88327,47.29062],[9.8823,47.29127],[9.88208,47.29173],[9.88233,47.29134],[9.8832,47.29074]]]}},{"type":"Feature","properties":{"kind":"piste","difficulty":"intermediate","name":null,"aerialway":null,"osm":"relation/19818023"},"geometry":{"type":"MultiLineString","coordinates":[[[9.8799,47.29311],[9.87908,47.29273],[9.87928,47.2927],[9.8799,47.29311]],[[9.88536,47.29573],[9.88521,47.29585],[9.88489,47.29573],[9.88504,47.29559],[9.88536,47.29573]],[[9.88338,47.30406],[9.88361,47.30374],[9.88295,47.30403],[9.88338,47.30406]],[[9.89193,47.30017],[9.8924,47.30047],[9.89247,47.30064],[9.89144,47.30012],[9.89156,47.29995],[9.89193,47.30017]],[[9.87378,47.29291],[9.87344,47.29323],[9.87354,47.29334],[9.87409,47.29303],[9.87362,47.29328],[9.87378,47.29291]],[[9.87593,47.30457],[9.87459,47.30521],[9.87403,47.30534],[9.87276,47.30522],[9.8713,47.30584],[9.86822,47.30599],[9.867,47.30586],[9.86463,47.30616],[9.86142,47.30568],[9.85665,47.30597],[9.85663,47.30581],[9.85818,47.305],[9.85785,47.30497],[9.8579,47.30509],[9.85628,47.30598],[9.85573,47.30565],[9.85528,47.30508],[9.85507,47.30508],[9.8558,47.30608],[9.8564,47.30626],[9.8577,47.30638],[9.86104,47.30644],[9.8633,47.30613],[9.86437,47.30622],[9.86926,47.30597],[9.87047,47.30603],[9.87174,47.30572],[9.87176,47.30685],[9.87144,47.30774],[9.87152,47.30807],[9.87263,47.30934],[9.87387,47.31043],[9.87549,47.31096],[9.87589,47.31094],[9.87616,47.31079],[9.87602,47.31073],[9.87577,47.3109],[9.87472,47.31059],[9.87485,47.31038],[9.87558,47.31004],[9.87695,47.3101],[9.87544,47.31],[9.87457,47.3105],[9.87409,47.31026],[9.87312,47.30935],[9.87343,47.30916],[9.87423,47.30898],[9.8752,47.30905],[9.87635,47.30936],[9.87717,47.30898],[9.87737,47.30903],[9.87767,47.30948],[9.87743,47.30897],[9.87685,47.30897],[9.87638,47.30929],[9.87526,47.30889],[9.87404,47.3089],[9.87308,47.3092],[9.87212,47.30832],[9.87189,47.30783],[9.87221,47.30675],[9.87195,47.30612],[9.87205,47.30588],[9.87302,47.30553],[9.87453,47.3053],[9.8766,47.30438],[9.87722,47.30436],[9.87764,47.30403],[9.87744,47.30406],[9.87719,47.30432],[9.87687,47.30433],[9.87714,47.30403],[9.87714,47.30348],[9.8769,47.30317],[9.87622,47.30291],[9.87602,47.30242],[9.87512,47.30119],[9.87459,47.29929],[9.87462,47.29846],[9.87442,47.29751],[9.87479,47.29706],[9.87553,47.2966],[9.87602,47.29572],[9.87615,47.29499],[9.87633,47.29469],[9.8783,47.29294],[9.87912,47.29531],[9.88033,47.29737],[9.88169,47.29819],[9.88288,47.2983],[9.88326,47.29846],[9.88351,47.29885],[9.88379,47.29973],[9.88409,47.29988],[9.88433,47.30025],[9.88459,47.30107],[9.88467,47.30182],[9.88364,47.30307],[9.88353,47.30372],[9.88248,47.30406],[9.88127,47.30348],[9.88068,47.30341],[9.87994,47.30352],[9.87938,47.30376],[9.87867,47.30366],[9.87829,47.3039],[9.87869,47.30372],[9.87942,47.30381],[9.88007,47.30353],[9.88093,47.30347],[9.88142,47.3036],[9.8822,47.30404],[9.88331,47.30408],[9.88301,47.30453],[9.8832,47.30447],[9.8838,47.304],[9.8839,47.30331],[9.88517,47.30161],[9.88489,47.30053],[9.88536,47.30021],[9.88471,47.30015],[9.88396,47.29907],[9.88377,47.29846],[9.88342,47.29817],[9.88268,47.298],[9.88179,47.29804],[9.8808,47.29734],[9.87959,47.29529],[9.87875,47.29293],[9.87923,47.29304],[9.88216,47.29437],[9.88313,47.2951],[9.88408,47.29558],[9.88475,47.29586],[9.88531,47.29593],[9.88561,47.29577],[9.88555,47.2955],[9.88527,47.29552],[9.88288,47.29367],[9.88147,47.2933],[9.87952,47.2925],[9.8811,47.29204],[9.88183,47.29196],[9.88454,47.29314],[9.88574,47.2932],[9.88613,47.29335],[9.8866,47.29427],[9.88809,47.29562],[9.88861,47.29656],[9.88942,47.29695],[9.89031,47.29783],[9.89078,47.2987],[9.89078,47.29966],[9.89103,47.2997],[9.89097,47.29997],[9.89108,47.30025],[9.89241,47.30135],[9.89293,47.30198],[9.8944,47.30205],[9.89528,47.30237],[9.89585,47.30241],[9.89629,47.3034],[9.89643,47.30412],[9.8969,47.30442],[9.89755,47.30459],[9.89792,47.3068],[9.89788,47.30712],[9.89891,47.30673],[9.89862,47.30567],[9.89856,47.30424],[9.89812,47.30458],[9.89774,47.30446],[9.89792,47.30418],[9.89736,47.30441],[9.89699,47.30425],[9.89678,47.30363],[9.89668,47.30246],[9.89652,47.30228],[9.89553,47.30161],[9.89391,47.3011],[9.89319,47.30049],[9.89166,47.29991],[9.89113,47.29983],[9.89098,47.29915],[9.89111,47.29865],[9.89106,47.29813],[9.88953,47.29674],[9.89166,47.29791],[9.89271,47.29793],[9.89296,47.29816],[9.89298,47.29844],[9.89313,47.29824],[9.89293,47.29786],[9.89264,47.29775],[9.89187,47.29778],[9.8903,47.2968],[9.889,47.29644],[9.88861,47.29583],[9.88852,47.29539],[9.88706,47.29424],[9.88611,47.29299],[9.88574,47.2929],[9.88479,47.29308],[9.88208,47.29173],[9.88074,47.29189],[9.87947,47.29178],[9.87919,47.29192],[9.87896,47.29182],[9.87895,47.29199],[9.87855,47.29235],[9.87741,47.29221],[9.87546,47.29221],[9.87567,47.29204],[9.87539,47.2922],[9.87496,47.29218],[9.87455,47.29198],[9.87467,47.29187],[9.87455,47.29182],[9.87394,47.29257],[9.87435,47.29228],[9.87512,47.29241],[9.87499,47.29259],[9.87456,47.29274],[9.87499,47.29266],[9.87522,47.29242],[9.87627,47.29252],[9.8775,47.29236],[9.87822,47.29252],[9.87796,47.29313],[9.87627,47.29467],[9.87596,47.29541],[9.87595,47.29578],[9.87548,47.29658],[9.87457,47.29716],[9.87425,47.29763],[9.87442,47.29836],[9.8744,47.29928],[9.87485,47.30112],[9.87597,47.30258],[9.87594,47.30301],[9.87618,47.30315]],[[9.86259,47.30613],[9.86045,47.30626],[9.85932,47.30602],[9.86108,47.30589],[9.86259,47.30613]],[[9.87618,47.30315],[9.87669,47.30324],[9.87688,47.30346],[9.877,47.30391],[9.87677,47.3042],[9.87593,47.30457]]]}},{"type":"Feature","properties":{"kind":"piste","difficulty":"advanced","name":null,"aerialway":null,"osm":"relation/19824129"},"geometry":{"type":"LineString","coordinates":[[9.8551,47.30492],[9.85521,47.30486],[9.85439,47.30448],[9.85196,47.30364],[9.85109,47.30281],[9.84895,47.30146],[9.8474,47.30018],[9.84715,47.29971],[9.84707,47.29871],[9.84737,47.29778],[9.84777,47.29717],[9.84906,47.29576],[9.84972,47.29523],[9.85226,47.29462],[9.85445,47.29422],[9.85607,47.2942],[9.85694,47.29432],[9.85812,47.29493],[9.85904,47.29496],[9.86052,47.29468],[9.86211,47.29408],[9.86305,47.29406],[9.86456,47.29377],[9.86345,47.29359],[9.86013,47.29451],[9.85889,47.2947],[9.85821,47.2947],[9.85739,47.29428],[9.8568,47.29413],[9.85446,47.29404],[9.85249,47.29433],[9.84941,47.29503],[9.84866,47.29559],[9.84712,47.29719],[9.84666,47.29808],[9.84669,47.2992],[9.84681,47.29984],[9.84722,47.30031],[9.84921,47.30181],[9.85072,47.30273],[9.85207,47.30381],[9.85434,47.30454],[9.8551,47.30492]]}},{"type":"Feature","properties":{"kind":"piste","difficulty":"expert","name":null,"aerialway":null,"osm":"relation/19824130"},"geometry":{"type":"LineString","coordinates":[[9.86526,47.29044],[9.86556,47.29051],[9.86542,47.29076],[9.86255,47.29114],[9.8617,47.29136],[9.86101,47.2918],[9.86079,47.29219],[9.86072,47.29236],[9.86082,47.29253],[9.86174,47.29272],[9.86308,47.29344],[9.86388,47.29371],[9.86456,47.29377],[9.8664,47.29332],[9.8673,47.29333],[9.86866,47.29314],[9.87147,47.29246],[9.87161,47.29266],[9.87143,47.29331],[9.87339,47.29346],[9.87375,47.29329],[9.87354,47.29334],[9.87344,47.29323],[9.87312,47.29339],[9.87203,47.29323],[9.8718,47.29273],[9.87205,47.29244],[9.87292,47.29262],[9.87477,47.29327],[9.876,47.29345],[9.87655,47.29328],[9.87727,47.29275],[9.87756,47.29237],[9.87732,47.29236],[9.87671,47.29303],[9.87627,47.29322],[9.87231,47.2922],[9.86907,47.29298],[9.86755,47.29319],[9.86638,47.2932],[9.86508,47.29354],[9.86449,47.2935],[9.86364,47.29331],[9.86149,47.2923],[9.8613,47.29215],[9.86123,47.29186],[9.86176,47.29147],[9.86223,47.2913],[9.86549,47.2908],[9.86565,47.29045],[9.86583,47.2904],[9.86526,47.29044]]}},{"type":"Feature","properties":{"kind":"piste","difficulty":"advanced","name":null,"aerialway":null,"osm":"relation/19824131"},"geometry":{"type":"LineString","coordinates":[[9.87215,47.28899],[9.87415,47.28965],[9.87498,47.29005],[9.8759,47.28951],[9.87463,47.28919],[9.87337,47.28916],[9.87196,47.28859],[9.87183,47.2889],[9.87215,47.28899]]}},{"type":"Feature","properties":{"kind":"piste","difficulty":"expert","name":null,"aerialway":null,"osm":"relation/19824132"},"geometry":{"type":"LineString","coordinates":[[9.86779,47.28996],[9.87185,47.29087],[9.87245,47.29073],[9.87335,47.29111],[9.8751,47.29143],[9.87757,47.29223],[9.87661,47.29222],[9.8698,47.29083],[9.86727,47.29019],[9.86779,47.28996]]}},{"type":"Feature","properties":{"kind":"piste","difficulty":"intermediate","name":null,"aerialway":null,"osm":"relation/20815480"},"geometry":{"type":"MultiLineString","coordinates":[[[9.88072,47.29402],[9.88011,47.29435],[9.87923,47.29417],[9.88009,47.29441],[9.88072,47.29415],[9.88081,47.29397]],[[9.88081,47.29397],[9.88046,47.29382],[9.88,47.29337],[9.88033,47.29382],[9.88072,47.29402]]]}},{"type":"Feature","properties":{"kind":"piste","difficulty":"expert","name":null,"aerialway":null,"osm":"relation/20824249"},"geometry":{"type":"LineString","coordinates":[[9.86503,47.29087],[9.86514,47.29111],[9.86607,47.29155],[9.86643,47.29195],[9.86755,47.29235],[9.86834,47.29307],[9.86796,47.29311],[9.86751,47.2927],[9.86629,47.29216],[9.86596,47.29177],[9.86464,47.29102],[9.8646,47.29093],[9.86503,47.29087]]}},{"type":"Feature","properties":{"kind":"lift","difficulty":null,"name":"Walisgaden","aerialway":"chair_lift","osm":"way/29312234"},"geometry":{"type":"LineString","coordinates":[[9.87919,47.29277],[9.88516,47.29574]]}},{"type":"Feature","properties":{"kind":"lift","difficulty":null,"name":"Furka","aerialway":"chair_lift","osm":"way/29312256"},"geometry":{"type":"LineString","coordinates":[[9.87202,47.28052],[9.87289,47.28547]]}},{"type":"Feature","properties":{"kind":"lift","difficulty":null,"name":"Oberdamüls","aerialway":"chair_lift","osm":"way/29312265"},"geometry":{"type":"LineString","coordinates":[[9.88824,47.28075],[9.87208,47.28671]]}},{"type":"Feature","properties":{"kind":"lift","difficulty":null,"name":"Sunnegg","aerialway":"chair_lift","osm":"way/328442897"},"geometry":{"type":"LineString","coordinates":[[9.87801,47.29257],[9.86454,47.28991]]}},{"type":"Feature","properties":{"kind":"lift","difficulty":null,"name":"Übungslift Sunnegg","aerialway":"platter","osm":"way/332889030"},"geometry":{"type":"LineString","coordinates":[[9.87953,47.29175],[9.8825,47.29167]]}},{"type":"Feature","properties":{"kind":"lift","difficulty":null,"name":"Indianer 1","aerialway":"magic_carpet","osm":"way/338418450"},"geometry":{"type":"LineString","coordinates":[[9.88036,47.29046],[9.8809,47.29033]]}},{"type":"Feature","properties":{"kind":"lift","difficulty":null,"name":"Indianer 2","aerialway":"magic_carpet","osm":"way/470203908"},"geometry":{"type":"LineString","coordinates":[[9.88141,47.29018],[9.88191,47.29029]]}},{"type":"Feature","properties":{"kind":"lift","difficulty":null,"name":null,"aerialway":"magic_carpet","osm":"way/470203910"},"geometry":{"type":"LineString","coordinates":[[9.88985,47.28616],[9.88996,47.28615]]}},{"type":"Feature","properties":{"kind":"lift","difficulty":null,"name":null,"aerialway":"magic_carpet","osm":"way/470203911"},"geometry":{"type":"LineString","coordinates":[[9.88993,47.2863],[9.8903,47.28625]]}},{"type":"Feature","properties":{"kind":"lift","difficulty":null,"name":"Indianer 3","aerialway":"magic_carpet","osm":"way/1457901615"},"geometry":{"type":"LineString","coordinates":[[9.88104,47.29028],[9.88154,47.29037]]}}]}