{"type":"FeatureCollection","features":[{"type":"Feature","properties":{"kind":"lift","difficulty":null,"name":"Oberwaldlift","aerialway":"t-bar","osm":"way/178781891"},"geometry":{"type":"LineString","coordinates":[[13.2482,47.79209],[13.2446,47.79154]]}},{"type":"Feature","properties":{"kind":"lift","difficulty":null,"name":"Schmiedhornlift","aerialway":"t-bar","osm":"way/178781893"},"geometry":{"type":"LineString","coordinates":[[13.24939,47.78836],[13.25354,47.78814]]}},{"type":"Feature","properties":{"kind":"lift","difficulty":null,"name":null,"aerialway":"rope_tow","osm":"way/575012414"},"geometry":{"type":"LineString","coordinates":[[13.24798,47.79369],[13.24846,47.79244]]}},{"type":"Feature","properties":{"kind":"piste","difficulty":"unknown","name":null,"aerialway":null,"osm":"way/1005071297"},"geometry":{"type":"LineString","coordinates":[[13.2532,47.78816],[13.25368,47.78878],[13.25373,47.78903],[13.25342,47.78924],[13.2524,47.78942],[13.24998,47.78888],[13.24939,47.78836]]}},{"type":"Feature","properties":{"kind":"piste","difficulty":"unknown","name":null,"aerialway":null,"osm":"way/1005071298"},"geometry":{"type":"LineString","coordinates":[[13.25327,47.78833],[13.25165,47.78852],[13.24951,47.78853]]}},{"type":"Feature","properties":{"kind":"piste","difficulty":"unknown","name":null,"aerialway":null,"osm":"way/1007127579"},"geometry":{"type":"LineString","coordinates":[[13.2529,47.79353],[13.25274,47.79293],[13.24924,47.79311],[13.24881,47.79343]]}},{"type":"Feature","properties":{"kind":"piste","difficulty":"unknown","name":null,"aerialway":null,"osm":"way/1007127595"},"geometry":{"type":"LineString","coordinates":[[13.2529,47.79353],[13.25026,47.79445],[13.24974,47.7942],[13.24981,47.79376],[13.24969,47.7936],[13.24881,47.79343]]}},{"type":"Feature","properties":{"kind":"piste","difficulty":"intermediate","name":null,"aerialway":null,"osm":"way/1155258534"},"geometry":{"type":"LineString","coordinates":[[13.2448,47.79157],[13.24496,47.79172],[13.24555,47.79186],[13.2475,47.79214],[13.2482,47.79209]]}},{"type":"Feature","properties":{"kind":"piste","difficulty":"easy","name":null,"aerialway":null,"osm":"way/1155258535"},"geometry":{"type":"LineString","coordinates":[[13.2448,47.79157],[13.24542,47.79204],[13.24717,47.79243],[13.2482,47.79209]]}},{"type":"Feature","properties":{"kind":"piste","difficulty":"easy","name":null,"aerialway":null,"osm":"way/1155258536"},"geometry":{"type":"LineString","coordinates":[[13.24846,47.79244],[13.24822,47.79261],[13.24788,47.79335],[13.24798,47.79369]]}}]}