{"type":"FeatureCollection","features":[{"type":"Feature","properties":{"kind":"piste","difficulty":"easy","name":null,"aerialway":null,"osm":"way/513339174"},"geometry":{"type":"LineString","coordinates":[[9.8157,47.47941],[9.81589,47.4795],[9.81577,47.47996],[9.81558,47.48032],[9.81513,47.48074],[9.8154,47.4808]]}},{"type":"Feature","properties":{"kind":"lift","difficulty":null,"name":"Heimenlift","aerialway":"platter","osm":"way/513339175"},"geometry":{"type":"LineString","coordinates":[[9.8154,47.4808],[9.81574,47.47891]]}},{"type":"Feature","properties":{"kind":"lift","difficulty":null,"name":"Schneiderkopflift","aerialway":"t-bar","osm":"way/513339176"},"geometry":{"type":"LineString","coordinates":[[9.81387,47.48111],[9.81467,47.4783],[9.81252,47.47517],[9.81387,47.48111]]}},{"type":"Feature","properties":{"kind":"piste","difficulty":"intermediate","name":null,"aerialway":null,"osm":"way/1070770859"},"geometry":{"type":"LineString","coordinates":[[9.81276,47.47552],[9.81249,47.47571],[9.81243,47.47597],[9.81319,47.4764],[9.81413,47.47814],[9.81412,47.47885],[9.81352,47.4807],[9.81356,47.48095],[9.81387,47.48111]]}},{"type":"Feature","properties":{"kind":"piste","difficulty":"easy","name":null,"aerialway":null,"osm":"way/1070770860"},"geometry":{"type":"LineString","coordinates":[[9.81414,47.47862],[9.81489,47.47917],[9.81515,47.47964],[9.81416,47.48114]]}},{"type":"Feature","properties":{"kind":"piste","difficulty":"easy","name":null,"aerialway":null,"osm":"way/1070770861"},"geometry":{"type":"LineString","coordinates":[[9.81513,47.48074],[9.81458,47.48114],[9.81387,47.48111]]}},{"type":"Feature","properties":{"kind":"piste","difficulty":"intermediate","name":null,"aerialway":null,"osm":"way/1215698241"},"geometry":{"type":"LineString","coordinates":[[9.813,47.47623],[9.81388,47.47602],[9.8143,47.47633],[9.81401,47.47779]]}},{"type":"Feature","properties":{"kind":"piste","difficulty":"easy","name":null,"aerialway":null,"osm":"way/1474181643"},"geometry":{"type":"LineString","coordinates":[[9.81482,47.4801],[9.81483,47.4805],[9.81513,47.48074]]}},{"type":"Feature","properties":{"kind":"piste","difficulty":"easy","name":null,"aerialway":null,"osm":"way/1474185251"},"geometry":{"type":"LineString","coordinates":[[9.8157,47.47941],[9.81515,47.47964]]}},{"type":"Feature","properties":{"kind":"piste","difficulty":"easy","name":null,"aerialway":null,"osm":"way/1474185252"},"geometry":{"type":"LineString","coordinates":[[9.81489,47.47917],[9.8157,47.47941]]}},{"type":"Feature","properties":{"kind":"piste","difficulty":"intermediate","name":null,"aerialway":null,"osm":"way/1474847905"},"geometry":{"type":"LineString","coordinates":[[9.81278,47.47556],[9.8124,47.47581],[9.81251,47.47628],[9.81264,47.47638],[9.81309,47.47634],[9.81314,47.47688],[9.81394,47.47819],[9.81384,47.47933],[9.8132,47.48073],[9.8133,47.48095],[9.81374,47.48114],[9.81449,47.47862],[9.81426,47.47788],[9.81319,47.47621],[9.81252,47.47591],[9.81256,47.47572],[9.81278,47.47556]]}},{"type":"Feature","properties":{"kind":"piste","difficulty":"intermediate","name":null,"aerialway":null,"osm":"way/1474847906"},"geometry":{"type":"LineString","coordinates":[[9.81268,47.47555],[9.81263,47.47575],[9.813,47.47623]]}},{"type":"Feature","properties":{"kind":"piste","difficulty":"easy","name":null,"aerialway":null,"osm":"way/1474847907"},"geometry":{"type":"LineString","coordinates":[[9.81267,47.47561],[9.81303,47.47616],[9.81266,47.47592],[9.81257,47.47571],[9.81267,47.47561]]}},{"type":"Feature","properties":{"kind":"piste","difficulty":"intermediate","name":null,"aerialway":null,"osm":"way/1474847908"},"geometry":{"type":"LineString","coordinates":[[9.81308,47.4762],[9.81389,47.476],[9.81432,47.47629],[9.81439,47.47653],[9.81421,47.47681],[9.81409,47.47759],[9.81426,47.47653],[9.81414,47.4762],[9.81394,47.47607],[9.81308,47.4762]]}},{"type":"Feature","properties":{"kind":"piste","difficulty":"easy","name":null,"aerialway":null,"osm":"way/1474847909"},"geometry":{"type":"LineString","coordinates":[[9.81444,47.4788],[9.81519,47.47944],[9.81564,47.47938],[9.81542,47.48044],[9.81475,47.48073],[9.81434,47.48116],[9.8141,47.48116],[9.81407,47.48082],[9.81457,47.479],[9.81444,47.4788]]}},{"type":"Feature","properties":{"kind":"piste","difficulty":"easy","name":null,"aerialway":null,"osm":"way/1474847910"},"geometry":{"type":"LineString","coordinates":[[9.81558,47.48032],[9.81561,47.48072]]}},{"type":"Feature","properties":{"kind":"piste","difficulty":"easy","name":null,"aerialway":null,"osm":"way/1474847911"},"geometry":{"type":"LineString","coordinates":[[9.81542,47.48044],[9.81537,47.48078],[9.81513,47.48076],[9.81476,47.48113],[9.81434,47.48116],[9.81493,47.4808],[9.81502,47.48072],[9.81492,47.48065],[9.81542,47.48044]]}},{"type":"Feature","properties":{"kind":"piste","difficulty":"easy","name":null,"aerialway":null,"osm":"way/1474847912"},"geometry":{"type":"LineString","coordinates":[[9.81494,47.47915],[9.81564,47.47938],[9.81522,47.47933],[9.81494,47.47915]]}},{"type":"Feature","properties":{"kind":"piste","difficulty":"easy","name":null,"aerialway":null,"osm":"way/1474847913"},"geometry":{"type":"LineString","coordinates":[[9.81563,47.47942],[9.81573,47.47954],[9.81547,47.48087],[9.81571,47.48064],[9.81567,47.48038],[9.81594,47.47961],[9.81589,47.47943],[9.81563,47.47942]]}},{"type":"Feature","properties":{"kind":"lift","difficulty":null,"name":null,"aerialway":"magic_carpet","osm":"way/1474847914"},"geometry":{"type":"LineString","coordinates":[[9.8164,47.48108],[9.81649,47.48098]]}}]}