{"type":"FeatureCollection","features":[{"type":"Feature","properties":{"kind":"lift","difficulty":null,"name":"Guggwiesenlift","aerialway":"platter","osm":"way/134895244"},"geometry":{"type":"LineString","coordinates":[[12.09167,47.44747],[12.09275,47.44369]]}},{"type":"Feature","properties":{"kind":"piste","difficulty":"easy","name":"Hagerjoch Abfahrten","aerialway":null,"osm":"way/143209264"},"geometry":{"type":"LineString","coordinates":[[12.10253,47.39444],[12.10412,47.39537],[12.10557,47.39673],[12.1058,47.39738],[12.10833,47.39969],[12.10871,47.40055],[12.11097,47.4024],[12.11174,47.40331],[12.11232,47.40269],[12.11271,47.40205],[12.11316,47.39935],[12.11371,47.39857],[12.11441,47.39799]]}},{"type":"Feature","properties":{"kind":"lift","difficulty":null,"name":"Lanerköpflbahn","aerialway":"chair_lift","osm":"way/145567581"},"geometry":{"type":"LineString","coordinates":[[12.08762,47.44679],[12.08239,47.43175]]}},{"type":"Feature","properties":{"kind":"lift","difficulty":null,"name":"Ungnadenlift","aerialway":"platter","osm":"way/146390540"},"geometry":{"type":"LineString","coordinates":[[12.0851,47.44825],[12.08547,47.44435]]}},{"type":"Feature","properties":{"kind":"lift","difficulty":null,"name":"Stenzerlift","aerialway":"platter","osm":"way/146390541"},"geometry":{"type":"LineString","coordinates":[[12.09036,47.44806],[12.09148,47.44493]]}},{"type":"Feature","properties":{"kind":"lift","difficulty":null,"name":"Mittermoosjochlift","aerialway":"t-bar","osm":"way/156517354"},"geometry":{"type":"LineString","coordinates":[[12.11267,47.43816],[12.10653,47.43109]]}},{"type":"Feature","properties":{"kind":"lift","difficulty":null,"name":"Kropfraderjochlift","aerialway":"t-bar","osm":"way/156517377"},"geometry":{"type":"LineString","coordinates":[[12.10557,47.43132],[12.10119,47.42989]]}},{"type":"Feature","properties":{"kind":"lift","difficulty":null,"name":"Markbachjochbahn","aerialway":"gondola","osm":"way/156517384"},"geometry":{"type":"LineString","coordinates":[[12.09242,47.44751],[12.09673,47.43164]]}},{"type":"Feature","properties":{"kind":"lift","difficulty":null,"name":"Arenalift","aerialway":"t-bar","osm":"way/156517424"},"geometry":{"type":"LineString","coordinates":[[12.10164,47.44744],[12.10538,47.44124]]}},{"type":"Feature","properties":{"kind":"piste","difficulty":"easy","name":"Hagerjoch Abfahrten","aerialway":null,"osm":"way/325804402"},"geometry":{"type":"LineString","coordinates":[[12.1095,47.40122],[12.11023,47.40101],[12.11082,47.40058],[12.11138,47.39929],[12.11265,47.39846],[12.11441,47.39799]]}},{"type":"Feature","properties":{"kind":"lift","difficulty":null,"name":"Verbindungslift","aerialway":"rope_tow","osm":"way/338709256"},"geometry":{"type":"LineString","coordinates":[[12.09525,47.43115],[12.09348,47.43146]]}},{"type":"Feature","properties":{"kind":"lift","difficulty":null,"name":"Übungslift Tennladen","aerialway":"platter","osm":"way/338710543"},"geometry":{"type":"LineString","coordinates":[[12.09853,47.44786],[12.09946,47.44378]]}},{"type":"Feature","properties":{"kind":"piste","difficulty":"advanced","name":null,"aerialway":null,"osm":"way/419790678"},"geometry":{"type":"LineString","coordinates":[[12.10495,47.44131],[12.10488,47.44178],[12.10246,47.44563],[12.10163,47.44722],[12.10164,47.44744]]}},{"type":"Feature","properties":{"kind":"piste","difficulty":"intermediate","name":null,"aerialway":null,"osm":"way/419790679"},"geometry":{"type":"LineString","coordinates":[[12.10704,47.43174],[12.10722,47.43238],[12.10777,47.43307],[12.10845,47.43364],[12.11004,47.43598],[12.11209,47.438],[12.11242,47.43823],[12.11256,47.43804]]}},{"type":"Feature","properties":{"kind":"piste","difficulty":"intermediate","name":"24","aerialway":null,"osm":"way/419790680"},"geometry":{"type":"LineString","coordinates":[[12.11209,47.438],[12.11184,47.4385],[12.11132,47.43885],[12.11084,47.43886],[12.10946,47.43852],[12.10863,47.43856],[12.10801,47.43886],[12.10721,47.43985],[12.10479,47.44135],[12.10412,47.44212],[12.10305,47.44275],[12.10202,47.44294],[12.10192,47.44351],[12.10126,47.4443],[12.10033,47.44492],[12.09999,47.44605],[12.10024,47.44683],[12.10157,47.44732],[12.10164,47.44744]]}},{"type":"Feature","properties":{"kind":"piste","difficulty":"easy","name":null,"aerialway":null,"osm":"way/419790681"},"geometry":{"type":"LineString","coordinates":[[12.09939,47.4441],[12.09965,47.44416],[12.09915,47.44609],[12.09918,47.44743],[12.09853,47.44786]]}},{"type":"Feature","properties":{"kind":"piste","difficulty":"advanced","name":"24b","aerialway":null,"osm":"way/419790682"},"geometry":{"type":"LineString","coordinates":[[12.10996,47.43584],[12.10962,47.43634],[12.10894,47.43691],[12.10876,47.43739],[12.1088,47.43806],[12.10863,47.43856]]}},{"type":"Feature","properties":{"kind":"piste","difficulty":"easy","name":"21","aerialway":null,"osm":"way/419790683"},"geometry":{"type":"LineString","coordinates":[[12.10177,47.43012],[12.10172,47.43059],[12.10243,47.43104],[12.1031,47.43128],[12.10442,47.43161],[12.10586,47.43144]]}},{"type":"Feature","properties":{"kind":"piste","difficulty":"easy","name":null,"aerialway":null,"osm":"way/419790684"},"geometry":{"type":"LineString","coordinates":[[12.09739,47.43152],[12.09906,47.43178],[12.1013,47.43171],[12.10178,47.43157],[12.10316,47.43187],[12.10442,47.43161],[12.10474,47.43182],[12.10481,47.43203],[12.10471,47.4323],[12.10589,47.43291],[12.10777,47.43307]]}},{"type":"Feature","properties":{"kind":"piste","difficulty":"intermediate","name":"19","aerialway":null,"osm":"way/419790685"},"geometry":{"type":"LineString","coordinates":[[12.09673,47.43164],[12.09664,47.43153],[12.09654,47.43161],[12.09644,47.43233],[12.09605,47.43348],[12.09637,47.4346],[12.09707,47.43617],[12.09763,47.43697],[12.09819,47.43744],[12.09972,47.4378],[12.10049,47.4372],[12.10122,47.43728],[12.10205,47.4378],[12.10318,47.43829],[12.10369,47.43863],[12.10427,47.43955],[12.10479,47.44135]]}},{"type":"Feature","properties":{"kind":"piste","difficulty":"intermediate","name":"19","aerialway":null,"osm":"way/419790686"},"geometry":{"type":"LineString","coordinates":[[12.10202,47.44294],[12.09999,47.4434],[12.09906,47.44348],[12.09414,47.44647],[12.09244,47.44689],[12.09221,47.44764],[12.09232,47.44778],[12.09242,47.44751]]}},{"type":"Feature","properties":{"kind":"piste","difficulty":"freeride","name":"26","aerialway":null,"osm":"way/419790687"},"geometry":{"type":"LineString","coordinates":[[12.09941,47.43774],[12.09954,47.43873],[12.1007,47.43939],[12.10089,47.43995],[12.10083,47.44014],[12.09993,47.44042],[12.09952,47.44074],[12.09931,47.44159],[12.09897,47.44225],[12.09798,47.44305],[12.09791,47.44388],[12.09775,47.44427]]}},{"type":"Feature","properties":{"kind":"piste","difficulty":"intermediate","name":null,"aerialway":null,"osm":"way/419790688"},"geometry":{"type":"LineString","coordinates":[[12.09631,47.43421],[12.09619,47.43464],[12.09546,47.43528],[12.09611,47.43568],[12.0969,47.43579]]}},{"type":"Feature","properties":{"kind":"piste","difficulty":"freeride","name":"25","aerialway":null,"osm":"way/419790689"},"geometry":{"type":"LineString","coordinates":[[12.09546,47.43528],[12.09507,47.43638],[12.09466,47.43858],[12.09397,47.44011],[12.09427,47.44138],[12.09411,47.44228],[12.09319,47.44429],[12.09313,47.44557],[12.09261,47.44626],[12.09244,47.44689]]}},{"type":"Feature","properties":{"kind":"piste","difficulty":"easy","name":null,"aerialway":null,"osm":"way/419790690"},"geometry":{"type":"LineString","coordinates":[[12.09257,47.44431],[12.0928,47.44446],[12.0925,47.44592],[12.09208,47.44736],[12.09182,47.44749],[12.09169,47.44741]]}},{"type":"Feature","properties":{"kind":"piste","difficulty":"easy","name":null,"aerialway":null,"osm":"way/419790691"},"geometry":{"type":"LineString","coordinates":[[12.09134,47.44532],[12.09172,47.44587],[12.09131,47.44666],[12.09102,47.44759],[12.09046,47.44805]]}},{"type":"Feature","properties":{"kind":"piste","difficulty":"easy","name":null,"aerialway":null,"osm":"way/419790692"},"geometry":{"type":"LineString","coordinates":[[12.09134,47.44532],[12.09098,47.44533],[12.09017,47.44583],[12.08922,47.44685]]}},{"type":"Feature","properties":{"kind":"piste","difficulty":"easy","name":null,"aerialway":null,"osm":"way/419790693"},"geometry":{"type":"LineString","coordinates":[[12.08922,47.44685],[12.09061,47.44779],[12.0906,47.44794],[12.09036,47.44806]]}},{"type":"Feature","properties":{"kind":"piste","difficulty":"easy","name":null,"aerialway":null,"osm":"way/419790694"},"geometry":{"type":"LineString","coordinates":[[12.08543,47.44472],[12.08517,47.44486],[12.08522,47.44585],[12.08489,47.44807],[12.08489,47.44825],[12.0851,47.44825]]}},{"type":"Feature","properties":{"kind":"piste","difficulty":"easy","name":null,"aerialway":null,"osm":"way/419790695"},"geometry":{"type":"LineString","coordinates":[[12.08543,47.44472],[12.08564,47.44469],[12.08593,47.44511],[12.08663,47.44572],[12.08672,47.44616],[12.08705,47.44668],[12.08739,47.44685]]}},{"type":"Feature","properties":{"kind":"piste","difficulty":"intermediate","name":"17","aerialway":null,"osm":"way/419790696"},"geometry":{"type":"LineString","coordinates":[[12.08239,47.43175],[12.08241,47.43162],[12.08454,47.43132],[12.09278,47.43171],[12.09352,47.43184],[12.0939,47.43206],[12.09507,47.43212],[12.09508,47.4324],[12.09605,47.43348]]}},{"type":"Feature","properties":{"kind":"piste","difficulty":"advanced","name":"18","aerialway":null,"osm":"way/419790697"},"geometry":{"type":"LineString","coordinates":[[12.09213,47.43167],[12.09166,47.43184],[12.09064,47.43191],[12.0898,47.4322],[12.08735,47.43238],[12.0867,47.43222],[12.08608,47.43228],[12.08579,47.43242],[12.08539,47.4329],[12.08486,47.4339],[12.08329,47.43514],[12.0807,47.43562],[12.08044,47.43589],[12.07942,47.43646],[12.07699,47.43613],[12.07612,47.43658],[12.07511,47.43746]]}},{"type":"Feature","properties":{"kind":"piste","difficulty":"advanced","name":"15","aerialway":null,"osm":"way/419790698"},"geometry":{"type":"LineString","coordinates":[[12.08239,47.43175],[12.08215,47.43165],[12.08142,47.43335],[12.0789,47.43515],[12.07699,47.43613],[12.07636,47.43591],[12.07568,47.43592],[12.07533,47.43614],[12.07509,47.43663],[12.07511,47.43746],[12.07472,47.43857],[12.07477,47.43937],[12.07493,47.4397],[12.07625,47.43969],[12.07627,47.44017],[12.07541,47.44094],[12.07529,47.44195],[12.07548,47.44241],[12.0761,47.44306],[12.07618,47.44342],[12.076,47.44404],[12.07682,47.4447],[12.07882,47.44473],[12.07952,47.44499],[12.08038,47.44567],[12.08325,47.44577],[12.0852,47.44604],[12.08666,47.44629],[12.08705,47.44668]]}},{"type":"Feature","properties":{"kind":"piste","difficulty":"easy","name":null,"aerialway":null,"osm":"way/477758262"},"geometry":{"type":"LineString","coordinates":[[12.1009,47.43113],[12.10225,47.43119]]}},{"type":"Feature","properties":{"kind":"piste","difficulty":"intermediate","name":null,"aerialway":null,"osm":"way/791526907"},"geometry":{"type":"LineString","coordinates":[[12.09536,47.43226],[12.09549,47.43249],[12.09588,47.43273]]}},{"type":"Feature","properties":{"kind":"piste","difficulty":"easy","name":null,"aerialway":null,"osm":"way/1141814091"},"geometry":{"type":"LineString","coordinates":[[12.08731,47.4468],[12.0851,47.44825]]}},{"type":"Feature","properties":{"kind":"piste","difficulty":"intermediate","name":null,"aerialway":null,"osm":"way/1141814092"},"geometry":{"type":"LineString","coordinates":[[12.10708,47.43173],[12.10601,47.43156],[12.10545,47.43128]]}},{"type":"Feature","properties":{"kind":"piste","difficulty":"easy","name":null,"aerialway":null,"osm":"way/1424457417"},"geometry":{"type":"LineString","coordinates":[[12.09233,47.44728],[12.09208,47.44736],[12.09212,47.44752],[12.09102,47.44759]]}},{"type":"Feature","properties":{"kind":"piste","difficulty":"easy","name":null,"aerialway":null,"osm":"way/1424457418"},"geometry":{"type":"LineString","coordinates":[[12.09114,47.4472],[12.09221,47.44766]]}},{"type":"Feature","properties":{"kind":"piste","difficulty":"easy","name":null,"aerialway":null,"osm":"way/1424457419"},"geometry":{"type":"LineString","coordinates":[[12.08688,47.44633],[12.08755,47.44634],[12.08836,47.44671]]}},{"type":"Feature","properties":{"kind":"piste","difficulty":"advanced","name":null,"aerialway":null,"osm":"way/1424457420"},"geometry":{"type":"LineString","coordinates":[[12.08666,47.44629],[12.08688,47.44633]]}},{"type":"Feature","properties":{"kind":"piste","difficulty":"easy","name":null,"aerialway":null,"osm":"way/1424457961"},"geometry":{"type":"LineString","coordinates":[[12.09354,47.43161],[12.09213,47.43167]]}},{"type":"Feature","properties":{"kind":"piste","difficulty":"advanced","name":null,"aerialway":null,"osm":"way/1460336160"},"geometry":{"type":"LineString","coordinates":[[12.10156,47.44739],[12.10144,47.44734],[12.1015,47.44714],[12.10227,47.44569],[12.10253,47.44578],[12.10156,47.44739]]}},{"type":"Feature","properties":{"kind":"piste","difficulty":"advanced","name":null,"aerialway":null,"osm":"way/1460336161"},"geometry":{"type":"LineString","coordinates":[[12.10227,47.44569],[12.10419,47.44244],[12.1047,47.4423],[12.10253,47.44578],[12.10227,47.44569]]}},{"type":"Feature","properties":{"kind":"piste","difficulty":"intermediate","name":null,"aerialway":null,"osm":"way/1460336162"},"geometry":{"type":"LineString","coordinates":[[12.10419,47.44244],[12.10392,47.44249],[12.10363,47.44228],[12.10429,47.44166],[12.10507,47.44175],[12.1047,47.4423],[12.10419,47.44244]]}},{"type":"Feature","properties":{"kind":"piste","difficulty":"intermediate","name":null,"aerialway":null,"osm":"way/1460336163"},"geometry":{"type":"LineString","coordinates":[[12.105,47.44174],[12.10429,47.44166],[12.10467,47.44109],[12.10539,47.44084],[12.10558,47.44114],[12.10521,47.4413],[12.105,47.44174]]}},{"type":"Feature","properties":{"kind":"piste","difficulty":"intermediate","name":null,"aerialway":null,"osm":"way/1460336164"},"geometry":{"type":"LineString","coordinates":[[12.10558,47.44114],[12.10539,47.44084],[12.10651,47.44038],[12.10698,47.44005],[12.10741,47.43965],[12.10824,47.4385],[12.10898,47.43837],[12.10907,47.43864],[12.10841,47.43879],[12.10745,47.44018],[12.10624,47.44099],[12.10558,47.44114]]}},{"type":"Feature","properties":{"kind":"piste","difficulty":"advanced","name":null,"aerialway":null,"osm":"way/1460336165"},"geometry":{"type":"LineString","coordinates":[[12.10846,47.43841],[12.10898,47.43837],[12.1091,47.43786],[12.10905,47.43729],[12.10927,47.43669],[12.11,47.43641],[12.1095,47.43625],[12.10929,47.43649],[12.10864,47.43682],[12.1084,47.43756],[12.10853,47.43804],[12.10846,47.43841]]}},{"type":"Feature","properties":{"kind":"piste","difficulty":"intermediate","name":null,"aerialway":null,"osm":"way/1460336166"},"geometry":{"type":"LineString","coordinates":[[12.10907,47.43864],[12.10898,47.43837],[12.10937,47.43838],[12.11041,47.43873],[12.11097,47.43877],[12.11124,47.4387],[12.11169,47.43826],[12.1117,47.43801],[12.11257,47.43827],[12.11158,47.43895],[12.11058,47.43889],[12.10937,47.43859],[12.10907,47.43864]]}},{"type":"Feature","properties":{"kind":"piste","difficulty":"easy","name":null,"aerialway":null,"osm":"way/1460336167"},"geometry":{"type":"LineString","coordinates":[[12.09999,47.4434],[12.09965,47.44416]]}},{"type":"Feature","properties":{"kind":"piste","difficulty":"intermediate","name":null,"aerialway":null,"osm":"way/1460336168"},"geometry":{"type":"LineString","coordinates":[[12.10392,47.44249],[12.10363,47.44228],[12.10304,47.44258],[12.1,47.44333],[12.09997,47.44348],[12.10287,47.44293],[12.10392,47.44249]]}},{"type":"Feature","properties":{"kind":"piste","difficulty":"intermediate","name":null,"aerialway":null,"osm":"way/1460336169"},"geometry":{"type":"LineString","coordinates":[[12.1,47.44333],[12.09956,47.44332],[12.09949,47.44344],[12.09997,47.44348],[12.1,47.44333]]}},{"type":"Feature","properties":{"kind":"piste","difficulty":"intermediate","name":null,"aerialway":null,"osm":"way/1460336170"},"geometry":{"type":"LineString","coordinates":[[12.09949,47.44344],[12.09956,47.44332],[12.09905,47.44343],[12.09642,47.44495],[12.09452,47.44623],[12.09327,47.44671],[12.09253,47.44682],[12.09246,47.44701],[12.09404,47.44658],[12.09905,47.44358],[12.09949,47.44344]]}},{"type":"Feature","properties":{"kind":"piste","difficulty":"easy","name":null,"aerialway":null,"osm":"way/1460336171"},"geometry":{"type":"LineString","coordinates":[[12.09253,47.44682],[12.09228,47.44771],[12.0917,47.44745],[12.09191,47.44677],[12.09253,47.44682]]}},{"type":"Feature","properties":{"kind":"piste","difficulty":"easy","name":null,"aerialway":null,"osm":"way/1460336173"},"geometry":{"type":"LineString","coordinates":[[12.08893,47.44683],[12.08882,47.44682]]}},{"type":"Feature","properties":{"kind":"lift","difficulty":null,"name":null,"aerialway":"magic_carpet","osm":"way/1462500225"},"geometry":{"type":"LineString","coordinates":[[12.0951,47.4317],[12.09655,47.43153]]}},{"type":"Feature","properties":{"kind":"piste","difficulty":"intermediate","name":null,"aerialway":null,"osm":"way/1462500226"},"geometry":{"type":"LineString","coordinates":[[12.09518,47.43152],[12.09496,47.4317],[12.09507,47.43212]]}},{"type":"Feature","properties":{"kind":"piste","difficulty":"easy","name":null,"aerialway":null,"osm":"way/1462500227"},"geometry":{"type":"LineString","coordinates":[[12.09673,47.43164],[12.09676,47.43142],[12.09518,47.43152]]}},{"type":"Feature","properties":{"kind":"piste","difficulty":"easy","name":null,"aerialway":null,"osm":"way/1462500228"},"geometry":{"type":"LineString","coordinates":[[12.09518,47.43152],[12.09354,47.43161]]}},{"type":"Feature","properties":{"kind":"piste","difficulty":"easy","name":null,"aerialway":null,"osm":"way/1462500229"},"geometry":{"type":"LineString","coordinates":[[12.1018,47.43009],[12.10101,47.43015],[12.10075,47.43056],[12.10086,47.43081],[12.1007,47.43103],[12.09739,47.43152]]}},{"type":"Feature","properties":{"kind":"piste","difficulty":"easy","name":null,"aerialway":null,"osm":"way/1462500230"},"geometry":{"type":"LineString","coordinates":[[12.09739,47.43152],[12.09673,47.43164]]}},{"type":"Feature","properties":{"kind":"piste","difficulty":"intermediate","name":null,"aerialway":null,"osm":"way/1462500231"},"geometry":{"type":"LineString","coordinates":[[12.11257,47.43827],[12.1117,47.43801],[12.11122,47.43735],[12.11,47.43641],[12.11068,47.43597],[12.11257,47.43827]]}},{"type":"Feature","properties":{"kind":"piste","difficulty":"intermediate","name":null,"aerialway":null,"osm":"way/1462500232"},"geometry":{"type":"LineString","coordinates":[[12.1095,47.43625],[12.11,47.43641],[12.11068,47.43597],[12.11028,47.43552],[12.10933,47.43557],[12.10952,47.43589],[12.1095,47.43625]]}},{"type":"Feature","properties":{"kind":"piste","difficulty":"intermediate","name":null,"aerialway":null,"osm":"way/1462500233"},"geometry":{"type":"LineString","coordinates":[[12.11028,47.43552],[12.10933,47.43557],[12.10868,47.43436],[12.10734,47.43308],[12.10737,47.43293],[12.10794,47.4328],[12.11028,47.43552]]}},{"type":"Feature","properties":{"kind":"piste","difficulty":"easy","name":null,"aerialway":null,"osm":"way/1462500234"},"geometry":{"type":"LineString","coordinates":[[12.10734,47.43308],[12.10737,47.43293],[12.1059,47.43287],[12.10479,47.43222],[12.10471,47.43236],[12.10587,47.43296],[12.10734,47.43308]]}},{"type":"Feature","properties":{"kind":"piste","difficulty":"easy","name":null,"aerialway":null,"osm":"way/1462500235"},"geometry":{"type":"LineString","coordinates":[[12.10344,47.4318],[12.10386,47.43187],[12.10471,47.4323]]}},{"type":"Feature","properties":{"kind":"piste","difficulty":"easy","name":null,"aerialway":null,"osm":"way/1462500236"},"geometry":{"type":"LineString","coordinates":[[12.0968,47.43163],[12.09718,47.43182],[12.0983,47.43177],[12.09823,47.43156],[12.09835,47.43137],[12.09755,47.43147],[12.09678,47.43134],[12.0968,47.43163]]}},{"type":"Feature","properties":{"kind":"piste","difficulty":"easy","name":null,"aerialway":null,"osm":"way/1462500237"},"geometry":{"type":"LineString","coordinates":[[12.09823,47.43156],[12.09835,47.43137],[12.10072,47.43096],[12.10079,47.43083],[12.10066,47.43052],[12.10086,47.43019],[12.10127,47.43009],[12.10095,47.43028],[12.10083,47.43054],[12.10094,47.43081],[12.10084,47.43103],[12.10048,47.4312],[12.09823,47.43156]]}},{"type":"Feature","properties":{"kind":"piste","difficulty":"easy","name":null,"aerialway":null,"osm":"way/1462500238"},"geometry":{"type":"LineString","coordinates":[[12.10177,47.43012],[12.10133,47.43024],[12.10139,47.43052],[12.10172,47.43059]]}},{"type":"Feature","properties":{"kind":"piste","difficulty":"easy","name":null,"aerialway":null,"osm":"way/1462500239"},"geometry":{"type":"LineString","coordinates":[[12.10131,47.43044],[12.10105,47.43086],[12.1007,47.43103]]}},{"type":"Feature","properties":{"kind":"piste","difficulty":"easy","name":null,"aerialway":null,"osm":"way/1462500240"},"geometry":{"type":"LineString","coordinates":[[12.10092,47.43098],[12.1009,47.43113]]}},{"type":"Feature","properties":{"kind":"piste","difficulty":"easy","name":null,"aerialway":null,"osm":"way/1462500241"},"geometry":{"type":"LineString","coordinates":[[12.10225,47.43119],[12.10266,47.43112]]}},{"type":"Feature","properties":{"kind":"piste","difficulty":"intermediate","name":null,"aerialway":null,"osm":"way/1462500242"},"geometry":{"type":"LineString","coordinates":[[12.10794,47.4328],[12.10741,47.4329],[12.10711,47.43267],[12.10697,47.43236],[12.10704,47.4317],[12.10794,47.4328]]}},{"type":"Feature","properties":{"kind":"piste","difficulty":"easy","name":null,"aerialway":null,"osm":"way/1462500243"},"geometry":{"type":"LineString","coordinates":[[12.10704,47.4317],[12.10574,47.43142],[12.10605,47.43162],[12.10704,47.4317]]}},{"type":"Feature","properties":{"kind":"piste","difficulty":"easy","name":null,"aerialway":null,"osm":"way/1462500244"},"geometry":{"type":"LineString","coordinates":[[12.10607,47.43159],[12.1057,47.43163],[12.10496,47.43203],[12.10565,47.43158],[12.10607,47.43159]]}},{"type":"Feature","properties":{"kind":"piste","difficulty":"easy","name":null,"aerialway":null,"osm":"way/1462500245"},"geometry":{"type":"LineString","coordinates":[[12.1058,47.43152],[12.1053,47.43144],[12.1045,47.43157],[12.1058,47.43152]]}},{"type":"Feature","properties":{"kind":"piste","difficulty":"easy","name":null,"aerialway":null,"osm":"way/1462500246"},"geometry":{"type":"LineString","coordinates":[[12.10458,47.43164],[12.10349,47.43174],[12.10341,47.43186],[12.10458,47.43164]]}},{"type":"Feature","properties":{"kind":"piste","difficulty":"easy","name":null,"aerialway":null,"osm":"way/1462500247"},"geometry":{"type":"LineString","coordinates":[[12.10437,47.43168],[12.10458,47.43164],[12.10492,47.43181],[12.10496,47.43203],[12.10471,47.43236],[12.10456,47.43174],[12.10437,47.43168]]}},{"type":"Feature","properties":{"kind":"piste","difficulty":"easy","name":null,"aerialway":null,"osm":"way/1462500248"},"geometry":{"type":"LineString","coordinates":[[12.10361,47.43187],[12.10361,47.43178],[12.10384,47.43181],[12.10447,47.43208],[12.10466,47.43233],[12.10361,47.43187]]}},{"type":"Feature","properties":{"kind":"piste","difficulty":"easy","name":null,"aerialway":null,"osm":"way/1462500249"},"geometry":{"type":"LineString","coordinates":[[12.10232,47.43119],[12.10241,47.43077],[12.10297,47.43099],[12.10424,47.43121],[12.1045,47.43157],[12.10376,47.43154],[12.10349,47.43174],[12.10341,47.43158],[12.10274,47.43126],[12.10232,47.43119]]}},{"type":"Feature","properties":{"kind":"piste","difficulty":"easy","name":null,"aerialway":null,"osm":"way/1462500250"},"geometry":{"type":"LineString","coordinates":[[12.10231,47.43102],[12.10241,47.43077],[12.10178,47.43057],[12.10176,47.43021],[12.10166,47.43019],[12.10146,47.43047],[12.10164,47.43043],[12.10165,47.43069],[12.10231,47.43102]]}},{"type":"Feature","properties":{"kind":"piste","difficulty":"easy","name":null,"aerialway":null,"osm":"way/1462500251"},"geometry":{"type":"LineString","coordinates":[[12.10162,47.43059],[12.10166,47.43051],[12.10146,47.43047],[12.10162,47.43059]]}},{"type":"Feature","properties":{"kind":"piste","difficulty":"easy","name":null,"aerialway":null,"osm":"way/1462500252"},"geometry":{"type":"LineString","coordinates":[[12.10084,47.43103],[12.10095,47.43106],[12.10146,47.43047],[12.10122,47.43043],[12.10084,47.43103]]}},{"type":"Feature","properties":{"kind":"piste","difficulty":"easy","name":null,"aerialway":null,"osm":"way/1462500253"},"geometry":{"type":"LineString","coordinates":[[12.10122,47.43043],[12.10128,47.43019],[12.10176,47.43009],[12.10141,47.43023],[12.10142,47.43046],[12.10122,47.43043]]}},{"type":"Feature","properties":{"kind":"piste","difficulty":"easy","name":null,"aerialway":null,"osm":"way/1462500254"},"geometry":{"type":"LineString","coordinates":[[12.10123,47.43004],[12.10155,47.43006],[12.10123,47.43004]]}},{"type":"Feature","properties":{"kind":"piste","difficulty":"easy","name":null,"aerialway":null,"osm":"way/1462500255"},"geometry":{"type":"LineString","coordinates":[[12.10095,47.43106],[12.10084,47.43103],[12.10089,47.43114],[12.10153,47.43125],[12.10232,47.43119],[12.10141,47.4312],[12.10095,47.43106]]}},{"type":"Feature","properties":{"kind":"piste","difficulty":"novice","name":null,"aerialway":null,"osm":"way/1462500256"},"geometry":{"type":"LineString","coordinates":[[12.09257,47.44431],[12.09224,47.44454],[12.09153,47.44549]]}},{"type":"Feature","properties":{"kind":"piste","difficulty":"easy","name":null,"aerialway":null,"osm":"way/1462500257"},"geometry":{"type":"LineString","coordinates":[[12.08739,47.44685],[12.08762,47.44679]]}},{"type":"Feature","properties":{"kind":"piste","difficulty":"easy","name":null,"aerialway":null,"osm":"way/1462500258"},"geometry":{"type":"LineString","coordinates":[[12.08882,47.44682],[12.08836,47.44671]]}},{"type":"Feature","properties":{"kind":"piste","difficulty":"easy","name":null,"aerialway":null,"osm":"way/1462500259"},"geometry":{"type":"LineString","coordinates":[[12.08922,47.44685],[12.08893,47.44683]]}},{"type":"Feature","properties":{"kind":"piste","difficulty":"easy","name":null,"aerialway":null,"osm":"way/1462500260"},"geometry":{"type":"LineString","coordinates":[[12.08922,47.44685],[12.08987,47.44676],[12.09244,47.44689]]}},{"type":"Feature","properties":{"kind":"piste","difficulty":"easy","name":null,"aerialway":null,"osm":"way/1462524333"},"geometry":{"type":"LineString","coordinates":[[12.0851,47.44827],[12.08493,47.44819],[12.08526,47.44611],[12.08508,47.44607],[12.08478,47.44799],[12.08481,47.44828],[12.0851,47.44827]]}},{"type":"Feature","properties":{"kind":"piste","difficulty":"easy","name":null,"aerialway":null,"osm":"way/1462524334"},"geometry":{"type":"LineString","coordinates":[[12.08508,47.44607],[12.08509,47.44596],[12.08539,47.44599],[12.08536,47.44613],[12.08508,47.44607]]}},{"type":"Feature","properties":{"kind":"piste","difficulty":"easy","name":null,"aerialway":null,"osm":"way/1462524335"},"geometry":{"type":"LineString","coordinates":[[12.08509,47.44596],[12.08499,47.44553],[12.08506,47.445],[12.08514,47.44474],[12.08542,47.44465],[12.08528,47.44498],[12.0853,47.44591],[12.08539,47.44599],[12.08509,47.44596]]}},{"type":"Feature","properties":{"kind":"piste","difficulty":"easy","name":null,"aerialway":null,"osm":"way/1462524336"},"geometry":{"type":"LineString","coordinates":[[12.08536,47.44613],[12.08539,47.44599],[12.08675,47.44625],[12.08667,47.44638],[12.08536,47.44613]]}},{"type":"Feature","properties":{"kind":"piste","difficulty":"easy","name":null,"aerialway":null,"osm":"way/1462524337"},"geometry":{"type":"LineString","coordinates":[[12.08667,47.44638],[12.08672,47.44629],[12.08754,47.44691],[12.0872,47.44691],[12.08667,47.44638]]}},{"type":"Feature","properties":{"kind":"piste","difficulty":"easy","name":null,"aerialway":null,"osm":"way/1462524338"},"geometry":{"type":"LineString","coordinates":[[12.08678,47.44634],[12.08675,47.44625],[12.08747,47.44631],[12.08811,47.4466],[12.08762,47.4464],[12.08678,47.44634]]}},{"type":"Feature","properties":{"kind":"piste","difficulty":"advanced","name":null,"aerialway":null,"osm":"way/1462524339"},"geometry":{"type":"LineString","coordinates":[[12.08508,47.44607],[12.08509,47.44596],[12.08457,47.44587],[12.08115,47.44572],[12.0805,47.44563],[12.0801,47.4454],[12.08001,47.4455],[12.08079,47.44587],[12.0834,47.44586],[12.08508,47.44607]]}},{"type":"Feature","properties":{"kind":"piste","difficulty":"advanced","name":null,"aerialway":null,"osm":"way/1462524340"},"geometry":{"type":"LineString","coordinates":[[12.0801,47.4454],[12.08001,47.4455],[12.07948,47.44505],[12.07888,47.44481],[12.07776,47.4447],[12.07703,47.44485],[12.07666,47.44475],[12.07589,47.44404],[12.07608,47.44343],[12.07555,47.44263],[12.07571,47.44254],[12.07621,47.44311],[12.07628,47.44354],[12.07607,47.44401],[12.07677,47.44462],[12.07729,47.44467],[12.07794,47.44449],[12.07847,47.44457],[12.07943,47.44484],[12.0801,47.4454]]}},{"type":"Feature","properties":{"kind":"piste","difficulty":"advanced","name":null,"aerialway":null,"osm":"way/1462524341"},"geometry":{"type":"LineString","coordinates":[[12.07555,47.44263],[12.07571,47.44254],[12.07539,47.44206],[12.07545,47.44114],[12.07641,47.44023],[12.07647,47.43978],[12.07615,47.43948],[12.075,47.43963],[12.0749,47.43855],[12.07533,47.43745],[12.07499,47.4374],[12.07461,47.43859],[12.07468,47.4397],[12.07492,47.43981],[12.07595,47.43971],[12.07616,47.43997],[12.07611,47.44022],[12.0752,47.44099],[12.07516,47.44203],[12.07555,47.44263]]}},{"type":"Feature","properties":{"kind":"piste","difficulty":"advanced","name":null,"aerialway":null,"osm":"way/1462524342"},"geometry":{"type":"LineString","coordinates":[[12.07499,47.4374],[12.07516,47.43741],[12.07514,47.43681],[12.07535,47.43632],[12.07625,47.43595],[12.07666,47.43609],[12.07654,47.43587],[12.07568,47.43573],[12.07548,47.43586],[12.07512,47.43629],[12.07494,47.43674],[12.07499,47.4374]]}},{"type":"Feature","properties":{"kind":"piste","difficulty":"advanced","name":null,"aerialway":null,"osm":"way/1462524343"},"geometry":{"type":"LineString","coordinates":[[12.07533,47.43745],[12.07516,47.43741],[12.07525,47.43726],[12.07624,47.43641],[12.07691,47.43622],[12.07618,47.43658],[12.07533,47.43745]]}},{"type":"Feature","properties":{"kind":"piste","difficulty":"advanced","name":null,"aerialway":null,"osm":"way/1462524344"},"geometry":{"type":"LineString","coordinates":[[12.07666,47.43609],[12.077,47.43621],[12.07764,47.43589],[12.07757,47.4358],[12.07654,47.43587],[12.07666,47.43609]]}},{"type":"Feature","properties":{"kind":"piste","difficulty":"advanced","name":null,"aerialway":null,"osm":"way/1462524345"},"geometry":{"type":"LineString","coordinates":[[12.077,47.43621],[12.07792,47.43623],[12.07744,47.4363],[12.077,47.43621]]}},{"type":"Feature","properties":{"kind":"piste","difficulty":"advanced","name":null,"aerialway":null,"osm":"way/1462524346"},"geometry":{"type":"LineString","coordinates":[[12.07792,47.43623],[12.07743,47.43598],[12.07758,47.43595],[12.07813,47.43624],[12.07792,47.43623]]}},{"type":"Feature","properties":{"kind":"piste","difficulty":"advanced","name":null,"aerialway":null,"osm":"way/1462524347"},"geometry":{"type":"LineString","coordinates":[[12.07791,47.43629],[12.07958,47.43647],[12.07893,47.43649],[12.07791,47.43629]]}},{"type":"Feature","properties":{"kind":"piste","difficulty":"advanced","name":null,"aerialway":null,"osm":"way/1462524348"},"geometry":{"type":"LineString","coordinates":[[12.07951,47.43642],[12.07992,47.4363],[12.08072,47.43568],[12.07951,47.43642]]}},{"type":"Feature","properties":{"kind":"piste","difficulty":"advanced","name":null,"aerialway":null,"osm":"way/1462524349"},"geometry":{"type":"LineString","coordinates":[[12.07764,47.43589],[12.07757,47.4358],[12.0809,47.43353],[12.08134,47.43282],[12.08174,47.43293],[12.08162,47.43317],[12.08173,47.43347],[12.07893,47.43527],[12.07764,47.43589]]}},{"type":"Feature","properties":{"kind":"piste","difficulty":"advanced","name":null,"aerialway":null,"osm":"way/1462524350"},"geometry":{"type":"LineString","coordinates":[[12.08072,47.43568],[12.08057,47.43568],[12.0808,47.43555],[12.08158,47.43543],[12.08072,47.43568]]}},{"type":"Feature","properties":{"kind":"piste","difficulty":"advanced","name":null,"aerialway":null,"osm":"way/1462524351"},"geometry":{"type":"LineString","coordinates":[[12.08153,47.43549],[12.08184,47.43539],[12.08153,47.43549]]}},{"type":"Feature","properties":{"kind":"piste","difficulty":"advanced","name":null,"aerialway":null,"osm":"way/1462524352"},"geometry":{"type":"LineString","coordinates":[[12.08183,47.43545],[12.08343,47.43504],[12.08488,47.43392],[12.08343,47.43511],[12.08183,47.43545]]}},{"type":"Feature","properties":{"kind":"piste","difficulty":"advanced","name":null,"aerialway":null,"osm":"way/1462524353"},"geometry":{"type":"LineString","coordinates":[[12.08488,47.43392],[12.08493,47.43327],[12.08584,47.43233],[12.08592,47.43239],[12.08504,47.43328],[12.08488,47.43392]]}},{"type":"Feature","properties":{"kind":"piste","difficulty":"advanced","name":null,"aerialway":null,"osm":"way/1462524354"},"geometry":{"type":"LineString","coordinates":[[12.08134,47.43282],[12.08174,47.43293],[12.08186,47.43244],[12.08227,47.4317],[12.08207,47.43167],[12.08134,47.43282]]}},{"type":"Feature","properties":{"kind":"piste","difficulty":"intermediate","name":null,"aerialway":null,"osm":"way/1462524355"},"geometry":{"type":"LineString","coordinates":[[12.08227,47.4317],[12.08207,47.43167],[12.08216,47.43152],[12.0825,47.43147],[12.08263,47.43169],[12.08227,47.4317]]}},{"type":"Feature","properties":{"kind":"piste","difficulty":"intermediate","name":null,"aerialway":null,"osm":"way/1462524356"},"geometry":{"type":"LineString","coordinates":[[12.08263,47.43169],[12.08259,47.43156],[12.08463,47.43122],[12.08458,47.4314],[12.08263,47.43169]]}},{"type":"Feature","properties":{"kind":"piste","difficulty":"intermediate","name":null,"aerialway":null,"osm":"way/1462524357"},"geometry":{"type":"LineString","coordinates":[[12.08458,47.4314],[12.08463,47.43122],[12.0848,47.43122],[12.0888,47.43149],[12.08878,47.4316],[12.08458,47.4314]]}},{"type":"Feature","properties":{"kind":"piste","difficulty":"intermediate","name":null,"aerialway":null,"osm":"way/1462524358"},"geometry":{"type":"LineString","coordinates":[[12.08878,47.4316],[12.0888,47.43149],[12.09041,47.43158],[12.09039,47.4317],[12.08878,47.4316]]}},{"type":"Feature","properties":{"kind":"piste","difficulty":"advanced","name":null,"aerialway":null,"osm":"way/1462524359"},"geometry":{"type":"LineString","coordinates":[[12.08592,47.43239],[12.08584,47.43233],[12.08614,47.43221],[12.08737,47.43235],[12.08922,47.43216],[12.08741,47.43239],[12.08642,47.43225],[12.08592,47.43239]]}},{"type":"Feature","properties":{"kind":"piste","difficulty":"advanced","name":null,"aerialway":null,"osm":"way/1462524360"},"geometry":{"type":"LineString","coordinates":[[12.08921,47.43224],[12.08995,47.43215],[12.09072,47.43188],[12.09194,47.43179],[12.09073,47.43192],[12.08986,47.43222],[12.08921,47.43224]]}},{"type":"Feature","properties":{"kind":"piste","difficulty":"intermediate","name":null,"aerialway":null,"osm":"way/1462524361"},"geometry":{"type":"LineString","coordinates":[[12.09039,47.4317],[12.09041,47.43158],[12.09191,47.43163],[12.0919,47.43172],[12.09039,47.4317]]}},{"type":"Feature","properties":{"kind":"piste","difficulty":"intermediate","name":null,"aerialway":null,"osm":"way/1462524362"},"geometry":{"type":"LineString","coordinates":[[12.09194,47.43179],[12.09191,47.43163],[12.09263,47.43157],[12.0926,47.43171],[12.09194,47.43179]]}},{"type":"Feature","properties":{"kind":"piste","difficulty":"intermediate","name":null,"aerialway":null,"osm":"way/1462524363"},"geometry":{"type":"LineString","coordinates":[[12.09263,47.43157],[12.0926,47.43168],[12.09299,47.43157],[12.09263,47.43157]]}},{"type":"Feature","properties":{"kind":"piste","difficulty":"intermediate","name":null,"aerialway":null,"osm":"way/1462524364"},"geometry":{"type":"LineString","coordinates":[[12.0926,47.43171],[12.0937,47.4319],[12.0926,47.43171]]}},{"type":"Feature","properties":{"kind":"piste","difficulty":"intermediate","name":null,"aerialway":null,"osm":"way/1462524365"},"geometry":{"type":"LineString","coordinates":[[12.09296,47.43165],[12.09289,47.43171],[12.09296,47.43165]]}},{"type":"Feature","properties":{"kind":"piste","difficulty":"intermediate","name":null,"aerialway":null,"osm":"way/1462524366"},"geometry":{"type":"LineString","coordinates":[[12.09302,47.43165],[12.09299,47.43157],[12.09524,47.43117],[12.09473,47.43187],[12.09436,47.43162],[12.09302,47.43165]]}},{"type":"Feature","properties":{"kind":"piste","difficulty":"intermediate","name":null,"aerialway":null,"osm":"way/1462524367"},"geometry":{"type":"LineString","coordinates":[[12.09473,47.43187],[12.09524,47.43117],[12.09612,47.43099],[12.09648,47.43107],[12.09678,47.43134],[12.09679,47.43158],[12.09528,47.43161],[12.09509,47.43168],[12.09516,47.43184],[12.09473,47.43187]]}},{"type":"Feature","properties":{"kind":"piste","difficulty":"intermediate","name":null,"aerialway":null,"osm":"way/1462524368"},"geometry":{"type":"LineString","coordinates":[[12.09516,47.43184],[12.09483,47.43192],[12.09488,47.43201],[12.09361,47.43194],[12.09395,47.43216],[12.09538,47.43225],[12.09516,47.43184]]}},{"type":"Feature","properties":{"kind":"piste","difficulty":"intermediate","name":null,"aerialway":null,"osm":"way/1462524369"},"geometry":{"type":"LineString","coordinates":[[12.09588,47.43273],[12.09614,47.43307]]}},{"type":"Feature","properties":{"kind":"piste","difficulty":"easy","name":null,"aerialway":null,"osm":"way/1462524370"},"geometry":{"type":"LineString","coordinates":[[12.10341,47.43186],[12.1034,47.43176],[12.1028,47.43182],[12.10175,47.43155],[12.09884,47.43176],[12.09825,47.43162],[12.0983,47.43177],[12.09884,47.43182],[12.10181,47.43164],[12.10282,47.43189],[12.10341,47.43186]]}},{"type":"Feature","properties":{"kind":"piste","difficulty":"intermediate","name":null,"aerialway":null,"osm":"way/1462529925"},"geometry":{"type":"LineString","coordinates":[[12.09488,47.43225],[12.0952,47.43226],[12.09519,47.43242],[12.09595,47.43333],[12.09585,47.43336],[12.09573,47.43314],[12.09514,47.43271],[12.09488,47.43225]]}},{"type":"Feature","properties":{"kind":"piste","difficulty":"intermediate","name":null,"aerialway":null,"osm":"way/1462529926"},"geometry":{"type":"LineString","coordinates":[[12.09538,47.43225],[12.09545,47.43249],[12.09615,47.43299],[12.09613,47.43287],[12.09554,47.43252],[12.09538,47.43225]]}},{"type":"Feature","properties":{"kind":"piste","difficulty":"intermediate","name":null,"aerialway":null,"osm":"way/1462529927"},"geometry":{"type":"LineString","coordinates":[[12.09615,47.43299],[12.09607,47.43335],[12.09617,47.43335],[12.09615,47.43299]]}},{"type":"Feature","properties":{"kind":"piste","difficulty":"intermediate","name":null,"aerialway":null,"osm":"way/1462529928"},"geometry":{"type":"LineString","coordinates":[[12.09607,47.43335],[12.09585,47.43336],[12.09586,47.43348],[12.09619,47.43349],[12.09607,47.43335]]}},{"type":"Feature","properties":{"kind":"piste","difficulty":"intermediate","name":null,"aerialway":null,"osm":"way/1462529929"},"geometry":{"type":"LineString","coordinates":[[12.09586,47.43348],[12.09606,47.43384],[12.09598,47.43429],[12.09617,47.4349],[12.09673,47.43478],[12.09619,47.43349],[12.09586,47.43348]]}},{"type":"Feature","properties":{"kind":"piste","difficulty":"intermediate","name":null,"aerialway":null,"osm":"way/1462529930"},"geometry":{"type":"LineString","coordinates":[[12.09673,47.43478],[12.09617,47.4349],[12.09625,47.43515],[12.09742,47.43685],[12.09823,47.4375],[12.09906,47.43788],[12.09923,47.43762],[12.09787,47.43686],[12.09673,47.43478]]}},{"type":"Feature","properties":{"kind":"piste","difficulty":"intermediate","name":null,"aerialway":null,"osm":"way/1462529931"},"geometry":{"type":"LineString","coordinates":[[12.09906,47.43788],[12.09923,47.43762],[12.09971,47.43771],[12.09994,47.43759],[12.10023,47.43717],[12.10044,47.43712],[12.10055,47.43731],[12.0999,47.43784],[12.09906,47.43788]]}},{"type":"Feature","properties":{"kind":"piste","difficulty":"intermediate","name":null,"aerialway":null,"osm":"way/1462529932"},"geometry":{"type":"LineString","coordinates":[[12.10055,47.43731],[12.10044,47.43712],[12.10164,47.43733],[12.10231,47.43781],[12.10347,47.4383],[12.10318,47.43839],[12.10216,47.4381],[12.10133,47.43741],[12.10055,47.43731]]}},{"type":"Feature","properties":{"kind":"piste","difficulty":"intermediate","name":null,"aerialway":null,"osm":"way/1462529933"},"geometry":{"type":"LineString","coordinates":[[12.10347,47.4383],[12.10318,47.43839],[12.10352,47.43857],[12.1039,47.43915],[12.10467,47.44109],[12.10479,47.44102],[12.10427,47.43928],[12.10347,47.4383]]}},{"type":"Feature","properties":{"kind":"piste","difficulty":"easy","name":null,"aerialway":null,"osm":"way/1462529934"},"geometry":{"type":"LineString","coordinates":[[12.09253,47.44682],[12.09191,47.44677],[12.09258,47.4443],[12.09304,47.44463],[12.0925,47.44643],[12.09253,47.44682]]}},{"type":"Feature","properties":{"kind":"piste","difficulty":"easy","name":null,"aerialway":null,"osm":"way/1462529935"},"geometry":{"type":"LineString","coordinates":[[12.09258,47.4443],[12.09227,47.44454],[12.09217,47.44479],[12.09199,47.44473],[12.09258,47.4443]]}},{"type":"Feature","properties":{"kind":"piste","difficulty":"easy","name":null,"aerialway":null,"osm":"way/1462529936"},"geometry":{"type":"LineString","coordinates":[[12.09217,47.44479],[12.09199,47.44473],[12.09134,47.44537],[12.09158,47.44549],[12.09217,47.44479]]}},{"type":"Feature","properties":{"kind":"piste","difficulty":"easy","name":null,"aerialway":null,"osm":"way/1462529937"},"geometry":{"type":"LineString","coordinates":[[12.09158,47.44549],[12.09134,47.44537],[12.09147,47.44557],[12.09111,47.44617],[12.09037,47.44813],[12.0905,47.44835],[12.09107,47.44831],[12.0916,47.44744],[12.09164,47.44691],[12.09186,47.44692],[12.09191,47.44677],[12.0917,47.44669],[12.09169,47.4464],[12.09185,47.44594],[12.09158,47.44549]]}},{"type":"Feature","properties":{"kind":"piste","difficulty":"easy","name":null,"aerialway":null,"osm":"way/1462529938"},"geometry":{"type":"LineString","coordinates":[[12.09048,47.44821],[12.09037,47.44813],[12.09021,47.44862],[12.0905,47.44835],[12.09048,47.44821]]}},{"type":"Feature","properties":{"kind":"piste","difficulty":"easy","name":null,"aerialway":null,"osm":"way/1462529939"},"geometry":{"type":"LineString","coordinates":[[12.08811,47.4466],[12.08825,47.4466],[12.08811,47.4466]]}},{"type":"Feature","properties":{"kind":"piste","difficulty":"easy","name":null,"aerialway":null,"osm":"way/1462529940"},"geometry":{"type":"LineString","coordinates":[[12.08822,47.44666],[12.08917,47.4468],[12.08921,47.44697],[12.08822,47.44666]]}},{"type":"Feature","properties":{"kind":"piste","difficulty":"easy","name":null,"aerialway":null,"osm":"way/1462529941"},"geometry":{"type":"LineString","coordinates":[[12.08921,47.44697],[12.08918,47.44687],[12.08937,47.44689],[12.09012,47.44737],[12.09007,47.44748],[12.08921,47.44697]]}},{"type":"Feature","properties":{"kind":"piste","difficulty":"easy","name":null,"aerialway":null,"osm":"way/1462529942"},"geometry":{"type":"LineString","coordinates":[[12.09016,47.44677],[12.09003,47.44741]]}},{"type":"Feature","properties":{"kind":"piste","difficulty":"easy","name":null,"aerialway":null,"osm":"way/1462529943"},"geometry":{"type":"LineString","coordinates":[[12.08917,47.4468],[12.08937,47.44689],[12.09011,47.44674],[12.08917,47.4468]]}},{"type":"Feature","properties":{"kind":"piste","difficulty":"easy","name":null,"aerialway":null,"osm":"way/1462529944"},"geometry":{"type":"LineString","coordinates":[[12.09009,47.4468],[12.08995,47.44729],[12.09012,47.44737],[12.0902,47.4468],[12.09009,47.4468]]}},{"type":"Feature","properties":{"kind":"piste","difficulty":"easy","name":null,"aerialway":null,"osm":"way/1462529945"},"geometry":{"type":"LineString","coordinates":[[12.09011,47.44674],[12.09022,47.44674],[12.09011,47.44674]]}},{"type":"Feature","properties":{"kind":"piste","difficulty":"easy","name":null,"aerialway":null,"osm":"way/1462529946"},"geometry":{"type":"LineString","coordinates":[[12.0902,47.4468],[12.09094,47.44675],[12.0909,47.44684],[12.0902,47.4468]]}},{"type":"Feature","properties":{"kind":"piste","difficulty":"intermediate","name":null,"aerialway":null,"osm":"way/1552539409"},"geometry":{"type":"LineString","coordinates":[[12.09939,47.4441],[12.09818,47.444]]}}]}