{"type":"FeatureCollection","features":[{"type":"Feature","properties":{"kind":"lift","difficulty":null,"name":"8er Kabinenbahn Hirschenkogel","aerialway":"gondola","osm":"way/28087925"},"geometry":{"type":"LineString","coordinates":[[15.83043,47.63152],[15.83397,47.62274]]}},{"type":"Feature","properties":{"kind":"lift","difficulty":null,"name":"4-er Sportbahn Blauer Blitz","aerialway":"chair_lift","osm":"way/31022249"},"geometry":{"type":"LineString","coordinates":[[15.82565,47.6298],[15.83308,47.62267]]}},{"type":"Feature","properties":{"kind":"piste","difficulty":"intermediate","name":"Südhang (5)","aerialway":null,"osm":"way/31022334"},"geometry":{"type":"LineString","coordinates":[[15.83308,47.62267],[15.83327,47.62288],[15.83176,47.62342],[15.82894,47.62386],[15.82819,47.62422],[15.82651,47.6258],[15.82637,47.628],[15.82661,47.62868],[15.82652,47.62934],[15.82642,47.62959],[15.82601,47.62986],[15.82565,47.6298]]}},{"type":"Feature","properties":{"kind":"piste","difficulty":"intermediate","name":"Kogelabfahrt (2)","aerialway":null,"osm":"way/31022417"},"geometry":{"type":"LineString","coordinates":[[15.83327,47.62288],[15.83392,47.62328],[15.83399,47.62344],[15.83394,47.62395],[15.83415,47.62556],[15.83571,47.62599],[15.83611,47.62628],[15.83596,47.62701],[15.83613,47.62728],[15.83652,47.62754],[15.83703,47.62764],[15.83752,47.62799]]}},{"type":"Feature","properties":{"kind":"piste","difficulty":"intermediate","name":"FIS Weltcup Panorama Piste (3)","aerialway":null,"osm":"way/31022463"},"geometry":{"type":"LineString","coordinates":[[15.83175,47.62596],[15.83115,47.6272],[15.8304,47.62826],[15.83055,47.62969],[15.83047,47.63044],[15.83009,47.63136]]}},{"type":"Feature","properties":{"kind":"piste","difficulty":"advanced","name":"Osthang (Skiroute) (6)","aerialway":null,"osm":"way/84156382"},"geometry":{"type":"LineString","coordinates":[[15.83415,47.62556],[15.83394,47.62651],[15.8327,47.6284],[15.83212,47.62973],[15.83041,47.63063]]}},{"type":"Feature","properties":{"kind":"piste","difficulty":"intermediate","name":"Neue Panorama (3a)","aerialway":null,"osm":"way/84300548"},"geometry":{"type":"LineString","coordinates":[[15.83361,47.62388],[15.83269,47.62415],[15.83271,47.62464],[15.83175,47.62596]]}},{"type":"Feature","properties":{"kind":"piste","difficulty":"easy","name":"Skiroute (7)","aerialway":null,"osm":"way/84300550"},"geometry":{"type":"LineString","coordinates":[[15.83596,47.62701],[15.83436,47.62777],[15.83295,47.62798]]}},{"type":"Feature","properties":{"kind":"piste","difficulty":"easy","name":"Familienabfahrt Family (1)","aerialway":null,"osm":"way/165633904"},"geometry":{"type":"LineString","coordinates":[[15.83397,47.62274],[15.83327,47.62288],[15.83365,47.62309],[15.83423,47.62313],[15.8365,47.62149],[15.83698,47.62064],[15.83738,47.62052],[15.83795,47.62082],[15.83827,47.62139],[15.83819,47.62212],[15.83767,47.62311],[15.83765,47.6246],[15.83731,47.62619],[15.83744,47.62686],[15.83791,47.62741],[15.83747,47.62807]]}},{"type":"Feature","properties":{"kind":"piste","difficulty":"easy","name":"Alte Family (1c)","aerialway":null,"osm":"way/165633905"},"geometry":{"type":"LineString","coordinates":[[15.83747,47.62807],[15.83753,47.62862],[15.83726,47.62903],[15.83635,47.62945],[15.83537,47.62975],[15.83459,47.62982],[15.83407,47.63007],[15.83368,47.63009],[15.83303,47.62989],[15.83147,47.63031]]}},{"type":"Feature","properties":{"kind":"piste","difficulty":"intermediate","name":"Westhang (4)","aerialway":null,"osm":"way/165633955"},"geometry":{"type":"LineString","coordinates":[[15.83265,47.62315],[15.83269,47.62415],[15.83158,47.62452],[15.82667,47.62947],[15.82642,47.62959],[15.82663,47.6298],[15.82665,47.63002],[15.8265,47.63015],[15.82624,47.63013],[15.82558,47.62986],[15.82565,47.6298]]}},{"type":"Feature","properties":{"kind":"piste","difficulty":"easy","name":"Family Variante (1a)","aerialway":null,"osm":"way/1465697780"},"geometry":{"type":"LineString","coordinates":[[15.83751,47.627],[15.83737,47.62748],[15.83753,47.6279]]}},{"type":"Feature","properties":{"kind":"piste","difficulty":"easy","name":"Neue Family (1b)","aerialway":null,"osm":"way/1465697781"},"geometry":{"type":"LineString","coordinates":[[15.83747,47.62807],[15.83719,47.62848],[15.83662,47.62892],[15.83555,47.62938],[15.83412,47.62974],[15.83302,47.62964],[15.83147,47.63031]]}},{"type":"Feature","properties":{"kind":"piste","difficulty":"intermediate","name":"FIS Weltcup Panorama Piste (3)","aerialway":null,"osm":"way/1465697782"},"geometry":{"type":"LineString","coordinates":[[15.83327,47.62288],[15.83392,47.62342],[15.83361,47.62388]]}},{"type":"Feature","properties":{"kind":"piste","difficulty":"intermediate","name":"Alte Panorama (3b)","aerialway":null,"osm":"way/1465697783"},"geometry":{"type":"LineString","coordinates":[[15.83361,47.62388],[15.8337,47.62455],[15.83357,47.62521],[15.83303,47.62563],[15.83175,47.62596]]}}]}