{"type":"FeatureCollection","features":[{"type":"Feature","properties":{"kind":"lift","difficulty":null,"name":"Spieljochbahn I","aerialway":"gondola","osm":"way/89701444"},"geometry":{"type":"LineString","coordinates":[[11.84311,47.33894],[11.81596,47.3342]]}},{"type":"Feature","properties":{"kind":"lift","difficulty":null,"name":"Spieljochbahn II","aerialway":"gondola","osm":"way/89701446"},"geometry":{"type":"LineString","coordinates":[[11.81596,47.3342],[11.7952,47.332]]}},{"type":"Feature","properties":{"kind":"lift","difficulty":null,"name":"Onkeljochlift","aerialway":"t-bar","osm":"way/89864096"},"geometry":{"type":"LineString","coordinates":[[11.79705,47.33104],[11.79412,47.32568]]}},{"type":"Feature","properties":{"kind":"lift","difficulty":null,"name":"Mösllift","aerialway":"platter","osm":"way/89864110"},"geometry":{"type":"LineString","coordinates":[[11.79493,47.33181],[11.79417,47.33003],[11.79157,47.32703]]}},{"type":"Feature","properties":{"kind":"lift","difficulty":null,"name":"Arzjochsesselbahn","aerialway":"chair_lift","osm":"way/89864112"},"geometry":{"type":"LineString","coordinates":[[11.79841,47.33877],[11.79442,47.33239]]}},{"type":"Feature","properties":{"kind":"lift","difficulty":null,"name":"Onkeljochsesselbahn","aerialway":"chair_lift","osm":"way/89864113"},"geometry":{"type":"LineString","coordinates":[[11.80392,47.33836],[11.79267,47.32556]]}},{"type":"Feature","properties":{"kind":"piste","difficulty":"intermediate","name":"2","aerialway":null,"osm":"way/376163737"},"geometry":{"type":"LineString","coordinates":[[11.79442,47.33239],[11.79498,47.33238],[11.79611,47.33299],[11.7969,47.33365],[11.79843,47.33614],[11.79941,47.33722],[11.79926,47.33822],[11.79841,47.33877]]}},{"type":"Feature","properties":{"kind":"piste","difficulty":"intermediate","name":"4","aerialway":null,"osm":"way/376163738"},"geometry":{"type":"LineString","coordinates":[[11.79493,47.33181],[11.79584,47.33126],[11.79761,47.33252],[11.79787,47.33368],[11.79918,47.33444],[11.80164,47.33493],[11.80295,47.33565],[11.80351,47.3363],[11.80376,47.3369],[11.80391,47.33775],[11.80457,47.33886],[11.80492,47.33915],[11.80531,47.33921],[11.80557,47.33922],[11.80634,47.33843],[11.80799,47.33732],[11.80874,47.337],[11.81151,47.33679],[11.8126,47.3364],[11.81344,47.33599],[11.81389,47.33545],[11.81451,47.33497],[11.81574,47.3345],[11.81589,47.33432]]}},{"type":"Feature","properties":{"kind":"piste","difficulty":"intermediate","name":"5","aerialway":null,"osm":"way/376163739"},"geometry":{"type":"LineString","coordinates":[[11.80391,47.33775],[11.80543,47.33817],[11.80706,47.33807],[11.80912,47.33833],[11.80992,47.33815],[11.81052,47.3382],[11.81282,47.33915],[11.81426,47.33994],[11.81751,47.34013],[11.81852,47.34],[11.81962,47.33935],[11.82094,47.33944],[11.82186,47.33912],[11.82198,47.33896],[11.8218,47.33806],[11.82213,47.33743],[11.82283,47.33683],[11.82343,47.33667],[11.82577,47.33654],[11.82697,47.33674],[11.82818,47.33667],[11.82908,47.33631],[11.83016,47.33615],[11.83119,47.33635],[11.83255,47.3373],[11.83399,47.33767],[11.83528,47.33772],[11.8362,47.33791],[11.83731,47.33787],[11.83881,47.3383],[11.83978,47.33839],[11.84111,47.33874],[11.84227,47.33874]]}},{"type":"Feature","properties":{"kind":"piste","difficulty":"easy","name":"1a","aerialway":null,"osm":"way/376163740"},"geometry":{"type":"LineString","coordinates":[[11.79157,47.32703],[11.79281,47.32775],[11.79375,47.32885],[11.79407,47.32955],[11.7947,47.33023],[11.79501,47.33077],[11.79512,47.33113],[11.79493,47.33181]]}},{"type":"Feature","properties":{"kind":"piste","difficulty":"intermediate","name":"1","aerialway":null,"osm":"way/376163741"},"geometry":{"type":"LineString","coordinates":[[11.79303,47.32651],[11.79383,47.3275],[11.79637,47.3301],[11.79695,47.33106],[11.79718,47.3322]]}},{"type":"Feature","properties":{"kind":"piste","difficulty":"intermediate","name":"1b","aerialway":null,"osm":"way/376163742"},"geometry":{"type":"LineString","coordinates":[[11.79443,47.32625],[11.79449,47.32612],[11.79476,47.32608],[11.79516,47.32623],[11.79609,47.32729],[11.79672,47.32842],[11.79714,47.32933],[11.79715,47.33111],[11.797,47.33112],[11.79705,47.33104]]}},{"type":"Feature","properties":{"kind":"lift","difficulty":null,"name":"Panoramabahn Geols","aerialway":"gondola","osm":"way/376163743"},"geometry":{"type":"LineString","coordinates":[[11.8065,47.31163],[11.79077,47.32435]]}},{"type":"Feature","properties":{"kind":"piste","difficulty":"advanced","name":"3","aerialway":null,"osm":"way/376163744"},"geometry":{"type":"LineString","coordinates":[[11.7931,47.32548],[11.79369,47.32466],[11.794,47.32442],[11.79506,47.32401],[11.7955,47.32361],[11.79561,47.32318],[11.7955,47.32228],[11.79587,47.32101],[11.79553,47.31944],[11.79557,47.31903],[11.79625,47.31748],[11.79618,47.31719],[11.79541,47.31623],[11.79537,47.31579],[11.79643,47.31433],[11.79831,47.31333],[11.7988,47.31287],[11.799,47.31242],[11.79931,47.31223],[11.8001,47.31217],[11.80149,47.31245],[11.80269,47.31237],[11.80451,47.31193],[11.80553,47.31125],[11.80614,47.31134],[11.8065,47.31163]]}},{"type":"Feature","properties":{"kind":"lift","difficulty":null,"name":"Skischullift","aerialway":"magic_carpet","osm":"way/386749178"},"geometry":{"type":"LineString","coordinates":[[11.84569,47.33954],[11.84458,47.33912]]}},{"type":"Feature","properties":{"kind":"lift","difficulty":null,"name":"Skischullift","aerialway":"magic_carpet","osm":"way/386749287"},"geometry":{"type":"LineString","coordinates":[[11.84686,47.3398],[11.84642,47.33964]]}},{"type":"Feature","properties":{"kind":"lift","difficulty":null,"name":"Skischullift","aerialway":"rope_tow","osm":"way/386749303"},"geometry":{"type":"LineString","coordinates":[[11.84593,47.34004],[11.84477,47.33961]]}},{"type":"Feature","properties":{"kind":"piste","difficulty":"easy","name":null,"aerialway":null,"osm":"way/482244500"},"geometry":{"type":"LineString","coordinates":[[11.79077,47.32435],[11.79044,47.32431]]}},{"type":"Feature","properties":{"kind":"piste","difficulty":"intermediate","name":null,"aerialway":null,"osm":"way/482244501"},"geometry":{"type":"LineString","coordinates":[[11.80418,47.33822],[11.80392,47.33836]]}},{"type":"Feature","properties":{"kind":"piste","difficulty":"intermediate","name":null,"aerialway":null,"osm":"way/591672956"},"geometry":{"type":"LineString","coordinates":[[11.84227,47.33874],[11.8425,47.33868]]}},{"type":"Feature","properties":{"kind":"piste","difficulty":"intermediate","name":"Weg von Skipiste zu Talstation","aerialway":null,"osm":"way/591672957"},"geometry":{"type":"LineString","coordinates":[[11.8425,47.33868],[11.84296,47.33876]]}},{"type":"Feature","properties":{"kind":"lift","difficulty":null,"name":null,"aerialway":"magic_carpet","osm":"way/653817639"},"geometry":{"type":"LineString","coordinates":[[11.7955,47.33108],[11.79541,47.33076]]}},{"type":"Feature","properties":{"kind":"piste","difficulty":"advanced","name":null,"aerialway":null,"osm":"way/751843135"},"geometry":{"type":"LineString","coordinates":[[11.79063,47.32402],[11.78991,47.3225],[11.79128,47.31951],[11.79249,47.31833],[11.79408,47.31642],[11.79537,47.31579]]}},{"type":"Feature","properties":{"kind":"piste","difficulty":"easy","name":null,"aerialway":null,"osm":"way/1070936376"},"geometry":{"type":"LineString","coordinates":[[11.7952,47.332],[11.79495,47.33195],[11.79493,47.33181]]}},{"type":"Feature","properties":{"kind":"piste","difficulty":"easy","name":null,"aerialway":null,"osm":"way/1261921235"},"geometry":{"type":"LineString","coordinates":[[11.79254,47.32511],[11.79352,47.3259],[11.79303,47.32651]]}},{"type":"Feature","properties":{"kind":"piste","difficulty":"easy","name":null,"aerialway":null,"osm":"way/1261921236"},"geometry":{"type":"LineString","coordinates":[[11.79044,47.32431],[11.79063,47.32402],[11.79097,47.32411],[11.79254,47.32511]]}},{"type":"Feature","properties":{"kind":"piste","difficulty":"intermediate","name":null,"aerialway":null,"osm":"way/1387348455"},"geometry":{"type":"LineString","coordinates":[[11.80376,47.3369],[11.80508,47.33707],[11.80563,47.33705],[11.80627,47.33685],[11.80771,47.33751]]}},{"type":"Feature","properties":{"kind":"piste","difficulty":"easy","name":"1a","aerialway":null,"osm":"way/1387348456"},"geometry":{"type":"LineString","coordinates":[[11.79495,47.33195],[11.79481,47.33214],[11.79498,47.33238],[11.79645,47.33242],[11.79802,47.33272],[11.799,47.33369],[11.79958,47.33402],[11.80058,47.33338],[11.80086,47.33284],[11.80154,47.33242],[11.80208,47.33161],[11.80306,47.33109],[11.80358,47.33061],[11.80409,47.32987],[11.80425,47.32989],[11.80411,47.33091],[11.80337,47.33191],[11.80345,47.33235],[11.80312,47.33308],[11.80315,47.33387],[11.80303,47.33439],[11.80353,47.33504],[11.80369,47.33571],[11.80376,47.3369],[11.80411,47.3379],[11.80392,47.33836]]}},{"type":"Feature","properties":{"kind":"piste","difficulty":"easy","name":null,"aerialway":null,"osm":"way/1387348457"},"geometry":{"type":"LineString","coordinates":[[11.79303,47.32651],[11.7925,47.32691],[11.79237,47.32743]]}},{"type":"Feature","properties":{"kind":"piste","difficulty":"intermediate","name":null,"aerialway":null,"osm":"way/1387350403"},"geometry":{"type":"LineString","coordinates":[[11.79267,47.32556],[11.79254,47.32511]]}},{"type":"Feature","properties":{"kind":"piste","difficulty":"intermediate","name":null,"aerialway":null,"osm":"way/1387350404"},"geometry":{"type":"LineString","coordinates":[[11.79253,47.32516],[11.79309,47.32561],[11.79318,47.32592],[11.79295,47.32622],[11.79303,47.32651]]}},{"type":"Feature","properties":{"kind":"piste","difficulty":"intermediate","name":null,"aerialway":null,"osm":"way/1387350405"},"geometry":{"type":"LineString","coordinates":[[11.79787,47.33368],[11.79745,47.33442]]}},{"type":"Feature","properties":{"kind":"piste","difficulty":"intermediate","name":"4a","aerialway":null,"osm":"way/1387350406"},"geometry":{"type":"LineString","coordinates":[[11.79086,47.32408],[11.79162,47.32379],[11.79237,47.32387],[11.79276,47.32409],[11.79328,47.32404],[11.79323,47.32362],[11.79228,47.32252],[11.79238,47.32211],[11.79339,47.32195],[11.79401,47.32208],[11.79467,47.32254],[11.79763,47.32274],[11.79993,47.32249],[11.80286,47.32308],[11.80367,47.3235],[11.80391,47.32375],[11.80563,47.32428],[11.80617,47.32482],[11.80604,47.3256],[11.80563,47.32681],[11.80527,47.32714],[11.80444,47.32885],[11.80421,47.32989]]}}]}