{"type":"FeatureCollection","features":[{"type":"Feature","properties":{"kind":"lift","difficulty":null,"name":"Lärchenhof","aerialway":"platter","osm":"way/474195800"},"geometry":{"type":"LineString","coordinates":[[12.50202,47.58096],[12.50596,47.57652]]}},{"type":"Feature","properties":{"kind":"piste","difficulty":"easy","name":"Lärchenhof","aerialway":null,"osm":"way/474195802"},"geometry":{"type":"LineString","coordinates":[[12.50596,47.57652],[12.50525,47.5778],[12.50419,47.57932],[12.50263,47.58076],[12.50202,47.58096]]}},{"type":"Feature","properties":{"kind":"lift","difficulty":null,"name":"Sun Kid","aerialway":"magic_carpet","osm":"way/736704270"},"geometry":{"type":"LineString","coordinates":[[12.50176,47.58087],[12.5018,47.58061]]}}]}