{"type":"FeatureCollection","features":[{"type":"Feature","properties":{"kind":"piste","difficulty":"intermediate","name":"Abfahrt Grüsch","aerialway":null,"osm":"way/49293791"},"geometry":{"type":"LineString","coordinates":[[9.88899,47.28083],[9.88965,47.28151]]}},{"type":"Feature","properties":{"kind":"piste","difficulty":"intermediate","name":"Abfahrt Grüsch","aerialway":null,"osm":"way/81933916"},"geometry":{"type":"LineString","coordinates":[[9.88965,47.28151],[9.88932,47.28173],[9.88893,47.28242]]}},{"type":"Feature","properties":{"kind":"piste","difficulty":"novice","name":null,"aerialway":null,"osm":"way/1172785313"},"geometry":{"type":"LineString","coordinates":[[9.90671,47.27252],[9.90695,47.27255],[9.90703,47.27194],[9.90675,47.27175],[9.90651,47.27175],[9.90668,47.27206],[9.90671,47.27252]]}},{"type":"Feature","properties":{"kind":"piste","difficulty":"easy","name":"Ischgavelsa","aerialway":null,"osm":"way/1348500454"},"geometry":{"type":"LineString","coordinates":[[9.90401,47.27096],[9.9058,47.27097],[9.90619,47.27161],[9.90659,47.27195],[9.90658,47.27244],[9.90684,47.27272],[9.90668,47.27283]]}},{"type":"Feature","properties":{"kind":"piste","difficulty":"freeride","name":"Richtung Säge","aerialway":null,"osm":"way/1378911262"},"geometry":{"type":"LineString","coordinates":[[9.90447,47.26773],[9.90441,47.26764],[9.90605,47.26735],[9.90673,47.26755],[9.90773,47.26613],[9.90876,47.2661],[9.90952,47.2654],[9.90949,47.26496],[9.90984,47.26476],[9.90984,47.26362],[9.90969,47.26307],[9.91021,47.26265],[9.91007,47.26192],[9.91059,47.26161],[9.91106,47.26067],[9.91216,47.25924],[9.91232,47.25863],[9.91295,47.25766],[9.91361,47.25718],[9.91409,47.25663],[9.91367,47.25645],[9.91414,47.25512]]}},{"type":"Feature","properties":{"kind":"piste","difficulty":"freeride","name":"Schluchtasattel","aerialway":null,"osm":"way/1408431409"},"geometry":{"type":"LineString","coordinates":[[9.87885,47.26882],[9.87847,47.26838],[9.87845,47.268],[9.8796,47.26713],[9.88228,47.26623],[9.88335,47.26542],[9.88417,47.26516]]}},{"type":"Feature","properties":{"kind":"piste","difficulty":"freeride","name":null,"aerialway":null,"osm":"way/1408431410"},"geometry":{"type":"LineString","coordinates":[[9.90091,47.27255],[9.90131,47.27252],[9.90141,47.27215],[9.90189,47.27238],[9.9023,47.27202],[9.90347,47.27169],[9.90381,47.27119]]}},{"type":"Feature","properties":{"kind":"piste","difficulty":"expert","name":"Skiroute Hahnenkopf Ost","aerialway":null,"osm":"way/1430710648"},"geometry":{"type":"LineString","coordinates":[[9.89897,47.27201],[9.90003,47.27241],[9.90133,47.27327],[9.90421,47.27324],[9.90542,47.27299],[9.90589,47.27272],[9.90634,47.27264]]}},{"type":"Feature","properties":{"kind":"piste","difficulty":"expert","name":"Skiroute Hahnenkopf Ost","aerialway":null,"osm":"way/1430710649"},"geometry":{"type":"LineString","coordinates":[[9.90133,47.27327],[9.90246,47.27376],[9.90321,47.27437],[9.90366,47.27441]]}},{"type":"Feature","properties":{"kind":"piste","difficulty":"expert","name":"Skiroute Hahnenkopf Nord","aerialway":null,"osm":"way/1430710650"},"geometry":{"type":"LineString","coordinates":[[9.89848,47.27193],[9.89826,47.27226],[9.8982,47.27337],[9.89774,47.27396],[9.89773,47.27438],[9.89879,47.27418],[9.90208,47.27414]]}},{"type":"Feature","properties":{"kind":"piste","difficulty":"expert","name":"Skiroute Hahnenkopf Ost","aerialway":null,"osm":"way/1430710651"},"geometry":{"type":"LineString","coordinates":[[9.8993,47.27213],[9.89969,47.27204],[9.9003,47.27151],[9.90051,47.27151],[9.90086,47.27211],[9.90087,47.2727],[9.90072,47.27294]]}},{"type":"Feature","properties":{"kind":"piste","difficulty":"advanced","name":null,"aerialway":null,"osm":"way/1430710652"},"geometry":{"type":"LineString","coordinates":[[9.89828,47.27177],[9.89853,47.27195],[9.89897,47.27201]]}},{"type":"Feature","properties":{"kind":"piste","difficulty":"freeride","name":"Verbindungsstück","aerialway":null,"osm":"way/1430710663"},"geometry":{"type":"LineString","coordinates":[[9.89831,47.27174],[9.89926,47.27178],[9.89971,47.27196]]}},{"type":"Feature","properties":{"kind":"piste","difficulty":"easy","name":"Glatthorn Familienabfahrt","aerialway":null,"osm":"way/1431383697"},"geometry":{"type":"LineString","coordinates":[[9.87904,47.26893],[9.87879,47.26834],[9.87915,47.26804],[9.8817,47.26798],[9.88596,47.26702],[9.8876,47.26687],[9.88854,47.26686],[9.88875,47.26743],[9.88913,47.26777],[9.89212,47.26812],[9.89234,47.2683]]}},{"type":"Feature","properties":{"kind":"piste","difficulty":"expert","name":"Skiroute","aerialway":null,"osm":"way/1431383699"},"geometry":{"type":"LineString","coordinates":[[9.87952,47.26868],[9.88092,47.26803]]}},{"type":"Feature","properties":{"kind":"piste","difficulty":"easy","name":"Glatthorn Familienabfahrt","aerialway":null,"osm":"way/1431383700"},"geometry":{"type":"LineString","coordinates":[[9.88092,47.26803],[9.88274,47.26816],[9.88521,47.26717]]}},{"type":"Feature","properties":{"kind":"piste","difficulty":"easy","name":"Glatthorn 1","aerialway":null,"osm":"way/1431383701"},"geometry":{"type":"LineString","coordinates":[[9.88187,47.26903],[9.88211,47.26889],[9.88225,47.26832],[9.88248,47.26819],[9.88547,47.26844]]}},{"type":"Feature","properties":{"kind":"piste","difficulty":"easy","name":"Glatthorn 1","aerialway":null,"osm":"way/1431383703"},"geometry":{"type":"LineString","coordinates":[[9.89038,47.26832],[9.89146,47.26809]]}},{"type":"Feature","properties":{"kind":"piste","difficulty":"easy","name":"Glatthorn 1","aerialway":null,"osm":"way/1431383704"},"geometry":{"type":"LineString","coordinates":[[9.87921,47.2691],[9.87905,47.26899],[9.87911,47.26861],[9.88033,47.26906],[9.88259,47.26908],[9.88532,47.26845],[9.88804,47.26854],[9.89074,47.2683],[9.8915,47.26835],[9.89233,47.26819]]}},{"type":"Feature","properties":{"kind":"piste","difficulty":"easy","name":"Glatthorn 1","aerialway":null,"osm":"way/1431383705"},"geometry":{"type":"LineString","coordinates":[[9.88712,47.26854],[9.88804,47.26891],[9.88847,47.26894],[9.88967,47.26846]]}},{"type":"Feature","properties":{"kind":"piste","difficulty":"intermediate","name":"Glatthorn 2","aerialway":null,"osm":"way/1431383706"},"geometry":{"type":"LineString","coordinates":[[9.88419,47.27006],[9.88362,47.26973],[9.88397,47.26947],[9.88644,47.26907],[9.8883,47.26922],[9.88962,47.26912],[9.89145,47.26835]]}},{"type":"Feature","properties":{"kind":"piste","difficulty":"intermediate","name":"Glatthorn 2","aerialway":null,"osm":"way/1431383710"},"geometry":{"type":"LineString","coordinates":[[9.88363,47.26975],[9.88365,47.26941],[9.88392,47.26882],[9.88408,47.26873]]}},{"type":"Feature","properties":{"kind":"piste","difficulty":"easy","name":"Skiweg","aerialway":null,"osm":"way/1431383711"},"geometry":{"type":"LineString","coordinates":[[9.88069,47.26907],[9.88296,47.26959],[9.88378,47.26996],[9.88378,47.26985]]}},{"type":"Feature","properties":{"kind":"piste","difficulty":"easy","name":null,"aerialway":null,"osm":"way/1431383712"},"geometry":{"type":"LineString","coordinates":[[9.89055,47.26869],[9.8924,47.26855],[9.8939,47.26875]]}},{"type":"Feature","properties":{"kind":"piste","difficulty":"easy","name":null,"aerialway":null,"osm":"way/1431383714"},"geometry":{"type":"LineString","coordinates":[[9.89233,47.26819],[9.89296,47.2681],[9.89354,47.26767]]}},{"type":"Feature","properties":{"kind":"piste","difficulty":"easy","name":null,"aerialway":null,"osm":"way/1431383716"},"geometry":{"type":"LineString","coordinates":[[9.89196,47.2681],[9.89377,47.2676],[9.89429,47.26757],[9.89381,47.26793],[9.89368,47.26842],[9.8939,47.26875],[9.89447,47.26878],[9.89551,47.26865],[9.89758,47.26815],[9.89862,47.26775],[9.8997,47.26761],[9.903,47.2679],[9.90415,47.26774],[9.90474,47.26778],[9.90555,47.2676],[9.90599,47.26792]]}},{"type":"Feature","properties":{"kind":"piste","difficulty":"advanced","name":null,"aerialway":null,"osm":"way/1431383717"},"geometry":{"type":"LineString","coordinates":[[9.89795,47.268],[9.89962,47.26772],[9.90009,47.26777],[9.90072,47.26821],[9.9015,47.26837],[9.90479,47.26811],[9.90543,47.26838]]}},{"type":"Feature","properties":{"kind":"piste","difficulty":"advanced","name":"Skiroute Stafelalpe - Weg","aerialway":null,"osm":"way/1431383718"},"geometry":{"type":"LineString","coordinates":[[9.9036,47.26786],[9.90428,47.26801]]}},{"type":"Feature","properties":{"kind":"piste","difficulty":"advanced","name":"Skiroute Stafelalpe - Weg","aerialway":null,"osm":"way/1431383719"},"geometry":{"type":"LineString","coordinates":[[9.90434,47.26797],[9.90559,47.26761]]}},{"type":"Feature","properties":{"kind":"piste","difficulty":"advanced","name":"Skiroute Guggernülli","aerialway":null,"osm":"way/1431383720"},"geometry":{"type":"LineString","coordinates":[[9.9037,47.27096],[9.90358,47.27012],[9.9039,47.26936],[9.90548,47.26835],[9.90578,47.26796],[9.90611,47.26801]]}},{"type":"Feature","properties":{"kind":"piste","difficulty":"advanced","name":"Skiroute Guggernülli","aerialway":null,"osm":"way/1431383721"},"geometry":{"type":"LineString","coordinates":[[9.90362,47.27081],[9.90374,47.27034],[9.90425,47.2699],[9.90528,47.26848]]}},{"type":"Feature","properties":{"kind":"piste","difficulty":"easy","name":"Guggernülli","aerialway":null,"osm":"way/1431383722"},"geometry":{"type":"LineString","coordinates":[[9.9037,47.27096],[9.9041,47.27092],[9.90426,47.27066],[9.90489,47.27033],[9.90551,47.2692],[9.90559,47.26868],[9.90612,47.26817],[9.90614,47.26803],[9.90601,47.26796]]}},{"type":"Feature","properties":{"kind":"piste","difficulty":"easy","name":null,"aerialway":null,"osm":"way/1431383726"},"geometry":{"type":"LineString","coordinates":[[9.90622,47.27164],[9.90675,47.27169],[9.90708,47.2719],[9.90694,47.27257],[9.90705,47.27271]]}},{"type":"Feature","properties":{"kind":"piste","difficulty":"easy","name":"Faschinajoch","aerialway":null,"osm":"way/1431383727"},"geometry":{"type":"LineString","coordinates":[[9.90814,47.27266],[9.90787,47.2728],[9.90748,47.2734],[9.90709,47.27371],[9.90698,47.2741],[9.90712,47.27422]]}},{"type":"Feature","properties":{"kind":"piste","difficulty":"easy","name":null,"aerialway":null,"osm":"way/1431383728"},"geometry":{"type":"LineString","coordinates":[[9.90733,47.27315],[9.907,47.27337],[9.9066,47.27394],[9.90708,47.27419]]}},{"type":"Feature","properties":{"kind":"piste","difficulty":"advanced","name":"Skiroute Hahnenkopf Süd","aerialway":null,"osm":"way/1431383730"},"geometry":{"type":"LineString","coordinates":[[9.89848,47.2718],[9.89601,47.27161],[9.89669,47.27137],[9.89539,47.27122],[9.89384,47.27078],[9.8929,47.27025],[9.89203,47.26954],[9.89031,47.2688]]}},{"type":"Feature","properties":{"kind":"piste","difficulty":"easy","name":"Ischgavelsa","aerialway":null,"osm":"way/1431383732"},"geometry":{"type":"LineString","coordinates":[[9.905,47.27018],[9.90556,47.27008],[9.90596,47.27113]]}},{"type":"Feature","properties":{"kind":"piste","difficulty":"easy","name":null,"aerialway":null,"osm":"way/1435933066"},"geometry":{"type":"LineString","coordinates":[[9.90694,47.27257],[9.90682,47.27268]]}},{"type":"Feature","properties":{"kind":"piste","difficulty":"easy","name":null,"aerialway":null,"osm":"way/1435933068"},"geometry":{"type":"LineString","coordinates":[[9.90707,47.27302],[9.90733,47.27315]]}},{"type":"Feature","properties":{"kind":"piste","difficulty":"easy","name":null,"aerialway":null,"osm":"way/1435933070"},"geometry":{"type":"LineString","coordinates":[[9.90762,47.27319],[9.90733,47.27315]]}},{"type":"Feature","properties":{"kind":"piste","difficulty":"freeride","name":null,"aerialway":null,"osm":"way/1442022274"},"geometry":{"type":"LineString","coordinates":[[9.89439,47.26756],[9.89511,47.26753],[9.89556,47.26785],[9.89722,47.26757],[9.89836,47.26776]]}},{"type":"Feature","properties":{"kind":"piste","difficulty":"easy","name":"Glatthorn Familienabfahrt","aerialway":null,"osm":"way/1444329357"},"geometry":{"type":"LineString","coordinates":[[9.88656,47.26696],[9.88824,47.26704],[9.88864,47.26723]]}},{"type":"Feature","properties":{"kind":"piste","difficulty":"easy","name":null,"aerialway":null,"osm":"way/1446893654"},"geometry":{"type":"LineString","coordinates":[[9.88841,47.28089],[9.88854,47.28079],[9.88848,47.28067],[9.88795,47.28066],[9.88668,47.28032]]}},{"type":"Feature","properties":{"kind":"piste","difficulty":"expert","name":null,"aerialway":null,"osm":"way/1447174703"},"geometry":{"type":"LineString","coordinates":[[9.89782,47.27209],[9.89671,47.27224],[9.89748,47.27201],[9.89784,47.27199],[9.89782,47.27209]]}},{"type":"Feature","properties":{"kind":"piste","difficulty":"intermediate","name":null,"aerialway":null,"osm":"way/1447735724"},"geometry":{"type":"LineString","coordinates":[[9.88831,47.28104],[9.88841,47.28089]]}},{"type":"Feature","properties":{"kind":"piste","difficulty":"freeride","name":"3 Wannen","aerialway":null,"osm":"way/1459930000"},"geometry":{"type":"LineString","coordinates":[[9.87843,47.26825],[9.87633,47.26789],[9.8759,47.2682],[9.87514,47.26832],[9.87501,47.26841],[9.87505,47.26853],[9.87591,47.26892],[9.87618,47.26913],[9.87626,47.26936],[9.87515,47.27022],[9.8731,47.27101],[9.87203,47.2723],[9.87144,47.27266],[9.87079,47.27286],[9.8689,47.27265],[9.86853,47.27277],[9.86845,47.27414],[9.86812,47.2756],[9.86816,47.27589],[9.86877,47.27638],[9.86929,47.27654],[9.87166,47.27692],[9.87183,47.27709],[9.87191,47.27769],[9.87254,47.2782]]}},{"type":"Feature","properties":{"kind":"piste","difficulty":"easy","name":null,"aerialway":null,"osm":"way/1460607048"},"geometry":{"type":"LineString","coordinates":[[9.88811,47.26892],[9.88877,47.2692]]}},{"type":"Feature","properties":{"kind":"piste","difficulty":"easy","name":null,"aerialway":null,"osm":"way/1460607049"},"geometry":{"type":"LineString","coordinates":[[9.8926,47.26844],[9.89265,47.26836]]}},{"type":"Feature","properties":{"kind":"piste","difficulty":"easy","name":null,"aerialway":null,"osm":"way/1460607050"},"geometry":{"type":"LineString","coordinates":[[9.89244,47.26819],[9.89265,47.26836]]}},{"type":"Feature","properties":{"kind":"piste","difficulty":"easy","name":null,"aerialway":null,"osm":"way/1460607051"},"geometry":{"type":"LineString","coordinates":[[9.89265,47.26836],[9.89288,47.26813]]}},{"type":"Feature","properties":{"kind":"piste","difficulty":"easy","name":null,"aerialway":null,"osm":"way/1460607052"},"geometry":{"type":"LineString","coordinates":[[9.8926,47.26844],[9.89267,47.26857]]}},{"type":"Feature","properties":{"kind":"piste","difficulty":"easy","name":null,"aerialway":null,"osm":"way/1460607053"},"geometry":{"type":"LineString","coordinates":[[9.89233,47.26855],[9.8926,47.26844]]}},{"type":"Feature","properties":{"kind":"piste","difficulty":"easy","name":"Glatthorn 1","aerialway":null,"osm":"way/1462377612"},"geometry":{"type":"LineString","coordinates":[[9.89145,47.26835],[9.89206,47.26857]]}},{"type":"Feature","properties":{"kind":"piste","difficulty":"easy","name":"Glatthorn 1","aerialway":null,"osm":"way/1471812622"},"geometry":{"type":"LineString","coordinates":[[9.88967,47.26846],[9.89031,47.2688]]}},{"type":"Feature","properties":{"kind":"piste","difficulty":"easy","name":"Glatthorn 1","aerialway":null,"osm":"way/1471812623"},"geometry":{"type":"LineString","coordinates":[[9.89234,47.2683],[9.8922,47.26842]]}},{"type":"Feature","properties":{"kind":"piste","difficulty":"intermediate","name":"Glatthorn 2","aerialway":null,"osm":"way/1476513727"},"geometry":{"type":"LineString","coordinates":[[9.88443,47.2694],[9.88478,47.26917],[9.88695,47.26852]]}},{"type":"Feature","properties":{"kind":"piste","difficulty":"freeride","name":null,"aerialway":null,"osm":"way/1486882195"},"geometry":{"type":"LineString","coordinates":[[9.88272,47.26485],[9.88294,47.26445],[9.88346,47.26412],[9.8832,47.26327],[9.8832,47.26281],[9.88349,47.26192],[9.88387,47.26155],[9.88506,47.26059],[9.88663,47.25967],[9.89129,47.25722],[9.89179,47.25719],[9.89184,47.25756],[9.89208,47.25773],[9.89299,47.25777],[9.89386,47.25713],[9.89532,47.2572],[9.89724,47.25694],[9.89791,47.25675],[9.89823,47.25644],[9.89856,47.25634],[9.90051,47.25661],[9.90331,47.25614],[9.90682,47.25493],[9.90712,47.25501],[9.9076,47.25547],[9.9073,47.25435],[9.9083,47.2551],[9.90868,47.25586],[9.9089,47.25498],[9.90827,47.25387],[9.90833,47.25377],[9.90997,47.255],[9.91016,47.25527],[9.91016,47.25556],[9.9103,47.25557],[9.91042,47.25504],[9.91017,47.25456],[9.91021,47.25413],[9.90893,47.25291],[9.91072,47.25348],[9.91003,47.25305],[9.90962,47.25249],[9.90946,47.25164],[9.90979,47.25106],[9.90946,47.25055],[9.90947,47.25035],[9.91058,47.25006],[9.91088,47.25011],[9.91122,47.24995],[9.91181,47.2501],[9.91215,47.25005],[9.9125,47.24992],[9.91255,47.24979],[9.91234,47.24871],[9.9119,47.24848],[9.91012,47.24802],[9.91005,47.24777],[9.91033,47.24772]]}},{"type":"Feature","properties":{"kind":"piste","difficulty":"unknown","name":null,"aerialway":null,"osm":"way/1486882196"},"geometry":{"type":"LineString","coordinates":[[9.88417,47.26516],[9.88378,47.26499],[9.88272,47.26485]]}},{"type":"Feature","properties":{"kind":"piste","difficulty":"freeride","name":"Schluchtasattel","aerialway":null,"osm":"way/1486882197"},"geometry":{"type":"LineString","coordinates":[[9.88194,47.26636],[9.8827,47.26744],[9.8835,47.26743]]}},{"type":"Feature","properties":{"kind":"piste","difficulty":"easy","name":null,"aerialway":null,"osm":"way/1493458060"},"geometry":{"type":"LineString","coordinates":[[9.90574,47.27085],[9.90554,47.27021],[9.9058,47.26991],[9.90586,47.27045],[9.90613,47.27083],[9.90622,47.27123],[9.90574,47.27085]]}},{"type":"Feature","properties":{"kind":"piste","difficulty":"advanced","name":null,"aerialway":null,"osm":"way/1493458061"},"geometry":{"type":"LineString","coordinates":[[9.90026,47.26783],[9.89938,47.26776],[9.89814,47.26801],[9.89932,47.26771],[9.90026,47.26783]]}},{"type":"Feature","properties":{"kind":"piste","difficulty":"advanced","name":null,"aerialway":null,"osm":"way/1494370130"},"geometry":{"type":"LineString","coordinates":[[9.90543,47.26838],[9.90575,47.2685]]}},{"type":"Feature","properties":{"kind":"piste","difficulty":"freeride","name":null,"aerialway":null,"osm":"way/1494412474"},"geometry":{"type":"LineString","coordinates":[[9.89412,47.27085],[9.89477,47.26894]]}},{"type":"Feature","properties":{"kind":"piste","difficulty":"advanced","name":"Skiroute Stafelalpe - Weg","aerialway":null,"osm":"way/1508373690"},"geometry":{"type":"LineString","coordinates":[[9.90488,47.26812],[9.90491,47.26803],[9.90434,47.26806]]}},{"type":"Feature","properties":{"kind":"piste","difficulty":"advanced","name":"Skiroute Stafelalpe - Weg","aerialway":null,"osm":"way/1508373691"},"geometry":{"type":"LineString","coordinates":[[9.90434,47.26806],[9.90434,47.26797]]}},{"type":"Feature","properties":{"kind":"piste","difficulty":"expert","name":"Skiroute Hahnenkopf Nord","aerialway":null,"osm":"way/1525502298"},"geometry":{"type":"LineString","coordinates":[[9.90208,47.27414],[9.9027,47.27423],[9.90321,47.27448],[9.90366,47.27441],[9.90379,47.27385],[9.90447,47.27325],[9.90504,47.27244],[9.90542,47.27241],[9.90682,47.27268]]}},{"type":"Feature","properties":{"kind":"piste","difficulty":"easy","name":null,"aerialway":null,"osm":"way/1525503348"},"geometry":{"type":"LineString","coordinates":[[9.89848,47.26793],[9.89862,47.26808],[9.89917,47.26821],[9.89917,47.26831],[9.8974,47.26828],[9.89922,47.26834],[9.8993,47.26826],[9.89921,47.26819],[9.89848,47.26793]]}},{"type":"Feature","properties":{"kind":"piste","difficulty":"intermediate","name":null,"aerialway":null,"osm":"relation/19804621"},"geometry":{"type":"LineString","coordinates":[[9.89108,47.26879],[9.89135,47.26843],[9.89085,47.26845],[9.88978,47.26872],[9.88998,47.26892],[9.8897,47.26897],[9.88774,47.26912],[9.88612,47.26906],[9.88679,47.26866],[9.88623,47.26852],[9.88554,47.26885],[9.88396,47.26927],[9.88403,47.26901],[9.88352,47.26916],[9.88352,47.26928],[9.88361,47.26976],[9.88428,47.27007],[9.88371,47.26973],[9.8851,47.26948],[9.88605,47.26915],[9.88853,47.26932],[9.89016,47.26909],[9.89068,47.26922],[9.89108,47.26879]]}},{"type":"Feature","properties":{"kind":"piste","difficulty":"easy","name":null,"aerialway":null,"osm":"relation/19804622"},"geometry":{"type":"MultiLineString","coordinates":[[[9.90731,47.27321],[9.90689,47.27353],[9.90664,47.27398],[9.90679,47.27406],[9.90692,47.27367],[9.90731,47.27321]],[[9.90765,47.27339],[9.90816,47.27261],[9.90771,47.27278],[9.90768,47.27301],[9.90734,47.27311],[9.90707,47.27302]],[[9.90707,47.27302],[9.9071,47.27316],[9.90656,47.27397],[9.90669,47.27411],[9.90712,47.27422],[9.90765,47.27339]]]}},{"type":"Feature","properties":{"kind":"piste","difficulty":"easy","name":null,"aerialway":null,"osm":"relation/19804623"},"geometry":{"type":"MultiLineString","coordinates":[[[9.88198,47.26832],[9.88195,47.2689],[9.88175,47.26894],[9.88031,47.26893],[9.87888,47.26849],[9.87893,47.26824],[9.87936,47.26808],[9.8802,47.26807],[9.88198,47.26832]],[[9.88241,47.26803],[9.88214,47.268],[9.88407,47.26751],[9.88309,47.26792],[9.88241,47.26803]],[[9.8849,47.26832],[9.88299,47.26818],[9.885,47.26743],[9.88758,47.26707],[9.8884,47.26716],[9.88909,47.26782],[9.89034,47.26796],[9.88865,47.26841],[9.88707,47.26842],[9.88588,47.26821],[9.8849,47.26832]],[[9.88843,47.26695],[9.88765,47.26695],[9.88843,47.26695]],[[9.89177,47.26821],[9.89134,47.26818],[9.89177,47.26821]],[[9.88247,47.26836],[9.88437,47.26852],[9.88235,47.26898],[9.88228,47.26844],[9.88247,47.26836]],[[9.88912,47.26858],[9.8885,47.26876],[9.88816,47.26867],[9.88912,47.26858]],[[9.89303,47.2679],[9.89275,47.2681],[9.8924,47.26809],[9.89303,47.2679]],[[9.89165,47.26837],[9.89227,47.26829],[9.89242,47.26834],[9.89226,47.2685],[9.89274,47.26851],[9.89344,47.26777],[9.89425,47.26759],[9.89378,47.26796],[9.89364,47.26845],[9.89387,47.26865],[9.89373,47.26845],[9.89384,47.26797],[9.89437,47.26754],[9.89374,47.26758],[9.89201,47.268],[9.89098,47.26797],[9.88991,47.2677],[9.88922,47.26773],[9.88903,47.26766],[9.88877,47.2671],[9.8888,47.26676],[9.88639,47.26685],[9.88371,47.26737],[9.88186,47.26787],[9.88118,47.2679],[9.8808,47.26778],[9.88066,47.26791],[9.87902,47.26792],[9.87862,47.26822],[9.87899,47.26912],[9.8792,47.26912],[9.87942,47.2687],[9.88015,47.26899],[9.88045,47.26927],[9.88118,47.26926],[9.8828,47.26957],[9.88419,47.27006],[9.88306,47.26958],[9.88137,47.26925],[9.88374,47.26914],[9.88502,47.26863],[9.88599,47.2685],[9.8871,47.26863],[9.88789,47.26905],[9.8883,47.26908],[9.88883,47.26903],[9.89039,47.26848],[9.89147,47.26841]],[[9.89165,47.26837],[9.89197,47.2685],[9.89147,47.26841]]]}},{"type":"Feature","properties":{"kind":"piste","difficulty":"advanced","name":null,"aerialway":null,"osm":"relation/19804624"},"geometry":{"type":"MultiLineString","coordinates":[[[9.90503,47.26875],[9.90376,47.27019],[9.90385,47.26969],[9.90406,47.26937],[9.90503,47.26875]],[[9.90026,47.26783],[9.90069,47.26822],[9.90161,47.2684],[9.90492,47.26813],[9.90512,47.26842],[9.90395,47.26919],[9.90357,47.26968],[9.90345,47.27022],[9.90351,47.27106],[9.90365,47.27113],[9.9038,47.27094],[9.90371,47.27085],[9.90378,47.27068],[9.90418,47.27011],[9.906,47.26794],[9.9058,47.26789],[9.90532,47.26821],[9.905,47.268],[9.90434,47.26803],[9.90556,47.26761],[9.9045,47.26795],[9.90371,47.26785],[9.90427,47.26808],[9.90486,47.2681],[9.90161,47.26836],[9.90085,47.26824],[9.90026,47.26783]]]}},{"type":"Feature","properties":{"kind":"piste","difficulty":"expert","name":null,"aerialway":null,"osm":"relation/19804625"},"geometry":{"type":"MultiLineString","coordinates":[[[9.90435,47.27335],[9.90379,47.27382],[9.90362,47.27437],[9.90317,47.27426],[9.90207,47.2734],[9.90435,47.27335]],[[9.89834,47.27338],[9.89846,47.27298],[9.89844,47.27219],[9.89857,47.27203],[9.8988,47.27202],[9.90003,47.27258],[9.9008,47.2732],[9.90201,47.27367],[9.90262,47.27414],[9.90207,47.27407]],[[9.90207,47.27407],[9.8989,47.27415],[9.89798,47.27433],[9.898,47.27391],[9.89834,47.27338]],[[9.89979,47.27223],[9.89963,47.27215],[9.90033,47.27156],[9.90053,47.27155],[9.90084,47.27209],[9.90084,47.27269],[9.90072,47.27282],[9.90041,47.27252],[9.89979,47.27223]],[[9.90582,47.27258],[9.90532,47.27287],[9.90464,47.27304],[9.90499,47.27248],[9.90582,47.27258]],[[9.90215,47.2732],[9.90147,47.27317],[9.90076,47.2729],[9.90093,47.27268],[9.9009,47.27209],[9.90057,47.27151],[9.90012,47.2715],[9.89974,47.27194],[9.89938,47.27208],[9.89818,47.2718],[9.89838,47.27195],[9.89782,47.27203],[9.89797,47.27332],[9.89751,47.27395],[9.89746,47.27435],[9.89791,47.27441],[9.89962,47.27419],[9.90228,47.27422],[9.90275,47.27432],[9.90318,47.27459]],[[9.90318,47.27459],[9.90369,47.27441],[9.90383,47.27384],[9.9045,47.27327],[9.90556,47.27306],[9.90601,47.27271],[9.90665,47.27269],[9.90655,47.27238],[9.90529,47.27225],[9.90492,47.27248],[9.90457,47.27305],[9.90361,47.27319],[9.90215,47.2732]]]}},{"type":"Feature","properties":{"kind":"piste","difficulty":"advanced","name":null,"aerialway":null,"osm":"relation/19824206"},"geometry":{"type":"LineString","coordinates":[[9.89826,47.2718],[9.89578,47.27158],[9.89666,47.27137],[9.89554,47.27127],[9.89396,47.27086],[9.89288,47.27025],[9.89201,47.26955],[9.89076,47.26905],[9.89088,47.26892],[9.89206,47.26951],[9.89296,47.27024],[9.89389,47.27078],[9.89549,47.27122],[9.89625,47.27122],[9.89689,47.27139],[9.89602,47.27158],[9.89826,47.2718]]}},{"type":"Feature","properties":{"kind":"piste","difficulty":"expert","name":null,"aerialway":null,"osm":"relation/19824574"},"geometry":{"type":"LineString","coordinates":[[9.87934,47.26859],[9.8799,47.26848],[9.88046,47.2681],[9.88084,47.26817],[9.87966,47.26872],[9.87934,47.26859]]}},{"type":"Feature","properties":{"kind":"piste","difficulty":"easy","name":null,"aerialway":null,"osm":"relation/20381473"},"geometry":{"type":"MultiLineString","coordinates":[[[9.90431,47.27042],[9.90449,47.27029],[9.90442,47.27048],[9.90428,47.27054],[9.90431,47.27042]],[[9.90651,47.27175],[9.90675,47.27175],[9.90703,47.27194],[9.90695,47.27255],[9.90671,47.27252],[9.90668,47.27206],[9.90651,47.27175]],[[9.89376,47.26864],[9.89127,47.2685],[9.89108,47.26879],[9.89311,47.26878],[9.89491,47.26893],[9.89932,47.26771],[9.90331,47.26793],[9.90474,47.26781],[9.90556,47.26761],[9.9058,47.26789],[9.90609,47.26799],[9.90565,47.2684],[9.90533,47.26883],[9.90531,47.26906],[9.90365,47.27113],[9.90415,47.27122],[9.90526,47.27112],[9.90573,47.27124],[9.90646,47.27186],[9.90665,47.27269],[9.90692,47.27272],[9.90712,47.27264],[9.90717,47.27196],[9.90676,47.27166],[9.90635,47.27168],[9.90607,47.27104],[9.90563,47.27083],[9.90442,47.27082],[9.9054,47.27034],[9.9058,47.26991],[9.90599,47.26885],[9.9059,47.26857],[9.90633,47.26812],[9.90565,47.26759],[9.90301,47.26788],[9.9004,47.26755],[9.89914,47.26761],[9.89851,47.26771],[9.8971,47.26821],[9.89477,47.26863],[9.89387,47.26865]],[[9.89376,47.26864],[9.89387,47.26865]]]}},{"type":"Feature","properties":{"kind":"lift","difficulty":null,"name":"Flying Fox","aerialway":"zip_line","osm":"way/125776423"},"geometry":{"type":"LineString","coordinates":[[9.88898,47.27846],[9.8878,47.27778],[9.88791,47.27818]]}},{"type":"Feature","properties":{"kind":"lift","difficulty":null,"name":"Stafelalpe","aerialway":"chair_lift","osm":"way/144830665"},"geometry":{"type":"LineString","coordinates":[[9.90668,47.27283],[9.88419,47.27006]]}},{"type":"Feature","properties":{"kind":"lift","difficulty":null,"name":"Glatthorn","aerialway":"chair_lift","osm":"way/144830931"},"geometry":{"type":"LineString","coordinates":[[9.8922,47.26842],[9.8792,47.26912]]}},{"type":"Feature","properties":{"kind":"lift","difficulty":null,"name":"Guggernülli","aerialway":"t-bar","osm":"way/319150098"},"geometry":{"type":"LineString","coordinates":[[9.90599,47.26795],[9.90322,47.2716]]}},{"type":"Feature","properties":{"kind":"lift","difficulty":null,"name":"Übungslift Faschina","aerialway":"platter","osm":"way/319150099"},"geometry":{"type":"LineString","coordinates":[[9.90717,47.27423],[9.90832,47.27235]]}},{"type":"Feature","properties":{"kind":"lift","difficulty":null,"name":null,"aerialway":"magic_carpet","osm":"way/1430710655"},"geometry":{"type":"LineString","coordinates":[[9.90686,47.27202],[9.90656,47.2718]]}},{"type":"Feature","properties":{"kind":"lift","difficulty":null,"name":null,"aerialway":"magic_carpet","osm":"way/1430710656"},"geometry":{"type":"LineString","coordinates":[[9.90689,47.27249],[9.90673,47.27247]]}}]}