{"type":"FeatureCollection","features":[{"type":"Feature","properties":{"kind":"lift","difficulty":null,"name":"Bürgeralpe Express","aerialway":"gondola","osm":"way/27752654"},"geometry":{"type":"LineString","coordinates":[[15.3168,47.77529],[15.32852,47.78526]]}},{"type":"Feature","properties":{"kind":"lift","difficulty":null,"name":"4er Sesselbahn St. Sebastian","aerialway":"chair_lift","osm":"way/27752798"},"geometry":{"type":"LineString","coordinates":[[15.31051,47.78472],[15.32794,47.78545]]}},{"type":"Feature","properties":{"kind":"lift","difficulty":null,"name":"Hofstattlift","aerialway":"chair_lift","osm":"way/162136085"},"geometry":{"type":"LineString","coordinates":[[15.32451,47.77669],[15.32902,47.78557]]}},{"type":"Feature","properties":{"kind":"lift","difficulty":null,"name":"Jubiläumslift","aerialway":"t-bar","osm":"way/162136087"},"geometry":{"type":"LineString","coordinates":[[15.33292,47.78547],[15.32875,47.78606]]}},{"type":"Feature","properties":{"kind":"lift","difficulty":null,"name":"Übungslift Zuckerwiese","aerialway":"platter","osm":"way/162136093"},"geometry":{"type":"LineString","coordinates":[[15.31038,47.78462],[15.31522,47.78458]]}},{"type":"Feature","properties":{"kind":"piste","difficulty":"intermediate","name":"Rennpiste","aerialway":null,"osm":"way/162136094"},"geometry":{"type":"LineString","coordinates":[[15.32438,47.78242],[15.32409,47.78157],[15.32274,47.78013],[15.32325,47.77913],[15.32352,47.77892],[15.32442,47.7787],[15.32479,47.77822],[15.32465,47.77724],[15.3243,47.77673],[15.32439,47.77655],[15.32451,47.77669]]}},{"type":"Feature","properties":{"kind":"piste","difficulty":"intermediate","name":"Familienabfahrt","aerialway":null,"osm":"way/162136095"},"geometry":{"type":"LineString","coordinates":[[15.32581,47.78452],[15.32438,47.78242],[15.32244,47.78188],[15.31969,47.78256],[15.31693,47.78276],[15.31462,47.78444]]}},{"type":"Feature","properties":{"kind":"piste","difficulty":"easy","name":null,"aerialway":null,"osm":"way/162136096"},"geometry":{"type":"LineString","coordinates":[[15.32902,47.78557],[15.32939,47.78566],[15.33053,47.78488],[15.33111,47.78425],[15.33151,47.78348],[15.33166,47.78281],[15.33174,47.78221],[15.33163,47.78192],[15.33139,47.78164],[15.33055,47.78145],[15.32854,47.78017],[15.32809,47.77978],[15.3271,47.77841],[15.32526,47.77738],[15.32451,47.77669]]}},{"type":"Feature","properties":{"kind":"piste","difficulty":"advanced","name":"Nord-West-Abfahrt","aerialway":null,"osm":"way/162136097"},"geometry":{"type":"LineString","coordinates":[[15.32581,47.78452],[15.32539,47.78449],[15.32492,47.78465],[15.32255,47.78574],[15.32112,47.78548],[15.32009,47.78564],[15.318,47.78566],[15.317,47.78599],[15.3156,47.78553]]}},{"type":"Feature","properties":{"kind":"piste","difficulty":"intermediate","name":null,"aerialway":null,"osm":"way/162136099"},"geometry":{"type":"LineString","coordinates":[[15.32794,47.78545],[15.32818,47.78544],[15.32814,47.78532],[15.32581,47.78452]]}},{"type":"Feature","properties":{"kind":"piste","difficulty":"easy","name":"Seilbahnzufahrt","aerialway":null,"osm":"way/1074610508"},"geometry":{"type":"LineString","coordinates":[[15.32434,47.7769],[15.3236,47.7767],[15.32325,47.77632],[15.32133,47.77591],[15.31966,47.7763],[15.31882,47.77682],[15.31906,47.7761],[15.31875,47.77599],[15.31677,47.77617],[15.31618,47.77644],[15.3169,47.7756],[15.3168,47.77529]]}},{"type":"Feature","properties":{"kind":"lift","difficulty":null,"name":null,"aerialway":"drag_lift","osm":"way/1075406137"},"geometry":{"type":"LineString","coordinates":[[15.33083,47.78702],[15.3314,47.78812]]}},{"type":"Feature","properties":{"kind":"piste","difficulty":"unknown","name":null,"aerialway":null,"osm":"way/1427537568"},"geometry":{"type":"LineString","coordinates":[[15.3289,47.78726],[15.32908,47.78728],[15.32873,47.78659],[15.32868,47.78572],[15.32761,47.78507],[15.32673,47.78486]]}},{"type":"Feature","properties":{"kind":"piste","difficulty":"novice","name":"Zuckerwiese","aerialway":null,"osm":"way/1427537580"},"geometry":{"type":"LineString","coordinates":[[15.31486,47.78458],[15.31462,47.78444],[15.31044,47.78444],[15.31034,47.78464],[15.31051,47.78472]]}},{"type":"Feature","properties":{"kind":"piste","difficulty":"easy","name":null,"aerialway":null,"osm":"way/1427537582"},"geometry":{"type":"LineString","coordinates":[[15.32933,47.78598],[15.32939,47.78566],[15.3327,47.78536],[15.33292,47.78547]]}},{"type":"Feature","properties":{"kind":"piste","difficulty":"easy","name":"Hofstattzufahrt","aerialway":null,"osm":"way/1464809581"},"geometry":{"type":"LineString","coordinates":[[15.33064,47.77824],[15.32909,47.77764],[15.32876,47.77769],[15.32866,47.77785],[15.32853,47.77978],[15.32844,47.77995],[15.32829,47.77996]]}},{"type":"Feature","properties":{"kind":"piste","difficulty":"unknown","name":null,"aerialway":null,"osm":"relation/19572243"},"geometry":{"type":"MultiLineString","coordinates":[[[15.32687,47.78488],[15.32673,47.78486]],[[15.32673,47.78486],[15.32661,47.78507],[15.32713,47.78565],[15.32722,47.78594],[15.32704,47.78672],[15.32726,47.7881],[15.32714,47.78841],[15.32606,47.789],[15.32543,47.78896],[15.32499,47.78929],[15.3249,47.78964],[15.32476,47.78965],[15.32487,47.78871],[15.3255,47.78839],[15.32585,47.78805],[15.32497,47.78701],[15.32482,47.78662],[15.32381,47.78647],[15.32196,47.78668],[15.32334,47.78708],[15.32351,47.78738],[15.3227,47.788],[15.32234,47.78849],[15.32067,47.78894],[15.32109,47.79005],[15.32093,47.79038],[15.32082,47.79],[15.31958,47.78878],[15.31953,47.78861],[15.31986,47.78832],[15.31982,47.78813],[15.31893,47.78754],[15.31682,47.78649],[15.31626,47.78605]],[[15.31578,47.78573],[15.31626,47.78605]],[[15.31578,47.78573],[15.3156,47.78553]],[[15.3156,47.78553],[15.31403,47.7849],[15.31374,47.78442]]]}},{"type":"Feature","properties":{"kind":"piste","difficulty":"unknown","name":null,"aerialway":null,"osm":"relation/19572244"},"geometry":{"type":"MultiLineString","coordinates":[[[15.33174,47.78221],[15.33197,47.78178],[15.33191,47.78056],[15.33164,47.77893],[15.32973,47.77757],[15.32809,47.7761],[15.32724,47.77507],[15.32696,47.77487],[15.32584,47.77511],[15.32443,47.77595],[15.32424,47.77617],[15.32439,47.77655]],[[15.33191,47.78189],[15.33191,47.78056],[15.33171,47.77906],[15.33096,47.77836]],[[15.33064,47.77824],[15.33096,47.77836]],[[15.32755,47.77537],[15.32809,47.7761],[15.33064,47.77824]],[[15.32755,47.77537],[15.32696,47.77487]],[[15.32696,47.77487],[15.3265,47.77429],[15.32561,47.77364],[15.32466,47.77241],[15.32397,47.77183],[15.32346,47.77154],[15.32285,47.77149]]]}},{"type":"Feature","properties":{"kind":"piste","difficulty":"unknown","name":null,"aerialway":null,"osm":"relation/19572245"},"geometry":{"type":"MultiLineString","coordinates":[[[15.3242,47.77614],[15.32428,47.77646]],[[15.32696,47.77487],[15.32584,47.77511],[15.3242,47.77614]]]}}]}