{"type":"FeatureCollection","features":[{"type":"Feature","properties":{"kind":"piste","difficulty":"unknown","name":"Thomaseck Abfahrt","aerialway":null,"osm":"relation/58762"},"geometry":{"type":"MultiLineString","coordinates":[[[13.09916,47.08169],[13.09975,47.0821],[13.10013,47.0822]],[[13.10013,47.0822],[13.10134,47.08245],[13.10241,47.08309],[13.10418,47.08333],[13.10429,47.08324],[13.10291,47.08281],[13.10114,47.08142],[13.10025,47.08102],[13.10012,47.08085],[13.10024,47.08081]],[[13.10024,47.08081],[13.10059,47.08095]],[[13.10059,47.08095],[13.10122,47.08094],[13.10198,47.08132],[13.10285,47.08155],[13.10235,47.08108],[13.10207,47.08026],[13.10177,47.08003],[13.10182,47.07989],[13.10247,47.08014],[13.10269,47.08057],[13.10432,47.08125],[13.10519,47.08143],[13.1067,47.08149],[13.10671,47.08139],[13.10563,47.08106],[13.10446,47.07998],[13.10454,47.07989],[13.10505,47.08005],[13.10575,47.08045],[13.10536,47.07997],[13.10536,47.07947],[13.10525,47.07936],[13.1039,47.07882],[13.1057,47.07899]],[[13.1057,47.07899],[13.10729,47.0791],[13.10813,47.07943],[13.10936,47.08021],[13.11021,47.08038],[13.1108,47.08018],[13.11324,47.08009],[13.11452,47.0799],[13.11463,47.07985],[13.11456,47.07974],[13.11529,47.07958]],[[13.11529,47.07958],[13.11536,47.07946],[13.11507,47.07842],[13.11536,47.07807]],[[13.11536,47.07807],[13.11511,47.07783],[13.11484,47.0778]],[[13.11484,47.0778],[13.11464,47.07773],[13.11422,47.07678],[13.11447,47.07625],[13.11436,47.0758],[13.11448,47.07545],[13.11475,47.07502],[13.11509,47.07483],[13.11489,47.07447],[13.11496,47.07419],[13.11469,47.07403],[13.11448,47.07345],[13.11519,47.07167],[13.11444,47.0709],[13.11483,47.07083]],[[13.11483,47.07083],[13.11395,47.0708],[13.11301,47.07046],[13.11346,47.06999],[13.11318,47.06963],[13.11324,47.0689],[13.11338,47.06852],[13.11407,47.0681],[13.11445,47.06734],[13.11477,47.06718],[13.11533,47.06636],[13.11524,47.06582],[13.11537,47.06546],[13.11585,47.06525],[13.11651,47.06517],[13.11732,47.06532],[13.11723,47.06407],[13.11734,47.06368]]]}},{"type":"Feature","properties":{"kind":"lift","difficulty":null,"name":"Goldbergbahn I","aerialway":"gondola","osm":"way/10308802"},"geometry":{"type":"LineString","coordinates":[[13.05872,47.06215],[13.06815,47.05982]]}},{"type":"Feature","properties":{"kind":"lift","difficulty":null,"name":"Goldbergbahn II","aerialway":"gondola","osm":"way/88124323"},"geometry":{"type":"LineString","coordinates":[[13.06815,47.05982],[13.09812,47.05502]]}},{"type":"Feature","properties":{"kind":"lift","difficulty":null,"name":"Kreuzkogellift","aerialway":"t-bar","osm":"way/88124364"},"geometry":{"type":"LineString","coordinates":[[13.07586,47.05982],[13.09374,47.05586]]}},{"type":"Feature","properties":{"kind":"piste","difficulty":"intermediate","name":null,"aerialway":null,"osm":"way/143205610"},"geometry":{"type":"LineString","coordinates":[[13.094,47.05774],[13.09403,47.0566],[13.09385,47.05582],[13.0933,47.05552],[13.09116,47.05562],[13.08973,47.05651],[13.08921,47.0564],[13.08721,47.05643],[13.08625,47.05672],[13.0854,47.05679],[13.08322,47.05671],[13.07896,47.05705],[13.07827,47.05747],[13.07654,47.05941],[13.07579,47.0597],[13.07577,47.05991],[13.07634,47.0603]]}},{"type":"Feature","properties":{"kind":"piste","difficulty":"easy","name":null,"aerialway":null,"osm":"way/143205615"},"geometry":{"type":"LineString","coordinates":[[13.09812,47.05502],[13.0982,47.05517],[13.09794,47.05543],[13.09749,47.05629],[13.09725,47.0563],[13.09719,47.05591],[13.09707,47.05591],[13.09671,47.05677],[13.09567,47.05783],[13.09533,47.05792],[13.09425,47.05782],[13.09292,47.05728],[13.09196,47.05738],[13.08946,47.05862],[13.08851,47.05894],[13.08584,47.05944],[13.08466,47.05933],[13.08348,47.05955],[13.08251,47.06],[13.08079,47.06127],[13.07897,47.06194],[13.07842,47.06195],[13.07784,47.06179],[13.07766,47.06162],[13.07768,47.06095],[13.07747,47.06057],[13.07696,47.06032],[13.07634,47.0603],[13.07549,47.06126],[13.07532,47.06208],[13.07454,47.06369],[13.07414,47.06398],[13.07282,47.06385],[13.0718,47.06351],[13.07023,47.06229],[13.06908,47.06093],[13.06867,47.06017]]}},{"type":"Feature","properties":{"kind":"piste","difficulty":"intermediate","name":null,"aerialway":null,"osm":"way/143205619"},"geometry":{"type":"LineString","coordinates":[[13.06225,47.058],[13.06183,47.05764],[13.06181,47.05807],[13.06161,47.05858],[13.0615,47.05861],[13.06085,47.0575],[13.06052,47.05722],[13.06046,47.05752],[13.05989,47.05844],[13.05948,47.05992],[13.05918,47.06031]]}},{"type":"Feature","properties":{"kind":"piste","difficulty":"easy","name":null,"aerialway":null,"osm":"way/177542812"},"geometry":{"type":"LineString","coordinates":[[13.07634,47.0603],[13.07606,47.05978]]}},{"type":"Feature","properties":{"kind":"piste","difficulty":"intermediate","name":null,"aerialway":null,"osm":"way/177542813"},"geometry":{"type":"LineString","coordinates":[[13.07897,47.06194],[13.0783,47.0623],[13.07607,47.06302],[13.07454,47.06369]]}},{"type":"Feature","properties":{"kind":"piste","difficulty":"intermediate","name":null,"aerialway":null,"osm":"way/177542816"},"geometry":{"type":"LineString","coordinates":[[13.07549,47.06126],[13.07343,47.06256],[13.07296,47.06312],[13.0718,47.06351]]}},{"type":"Feature","properties":{"kind":"piste","difficulty":"intermediate","name":null,"aerialway":null,"osm":"way/177542819"},"geometry":{"type":"LineString","coordinates":[[13.09116,47.05562],[13.08927,47.05558],[13.08671,47.0559],[13.08216,47.05599],[13.08118,47.05619],[13.07994,47.05608],[13.07826,47.05641],[13.07779,47.05685],[13.07696,47.05714],[13.07539,47.05695],[13.07465,47.05645],[13.07248,47.05585],[13.07187,47.05527],[13.0701,47.05605],[13.06991,47.0563],[13.06972,47.05722],[13.06879,47.05799],[13.06888,47.05837],[13.0687,47.05928]]}},{"type":"Feature","properties":{"kind":"piste","difficulty":"intermediate","name":null,"aerialway":null,"osm":"way/177542824"},"geometry":{"type":"LineString","coordinates":[[13.08048,47.05339],[13.07999,47.05392],[13.07861,47.05631],[13.07827,47.05747]]}},{"type":"Feature","properties":{"kind":"piste","difficulty":"advanced","name":null,"aerialway":null,"osm":"way/177542832"},"geometry":{"type":"LineString","coordinates":[[13.06826,47.06041],[13.06632,47.06198],[13.06611,47.06247],[13.06529,47.06311],[13.06477,47.06323],[13.06153,47.06332],[13.06073,47.06318],[13.05998,47.06289],[13.05964,47.0626]]}},{"type":"Feature","properties":{"kind":"piste","difficulty":"intermediate","name":null,"aerialway":null,"osm":"way/177542837"},"geometry":{"type":"LineString","coordinates":[[13.07187,47.05527],[13.07152,47.05515],[13.07109,47.05525],[13.07059,47.05557],[13.06995,47.05568],[13.06945,47.05628],[13.06898,47.05654],[13.06875,47.05706],[13.06879,47.05735],[13.06939,47.05736],[13.06943,47.05747]]}},{"type":"Feature","properties":{"kind":"piste","difficulty":"advanced","name":null,"aerialway":null,"osm":"way/448861775"},"geometry":{"type":"LineString","coordinates":[[13.06433,47.0584],[13.06411,47.05808],[13.06312,47.05745],[13.06254,47.05724],[13.06107,47.057],[13.06062,47.05705],[13.06052,47.05722]]}},{"type":"Feature","properties":{"kind":"piste","difficulty":"easy","name":null,"aerialway":null,"osm":"way/448861776"},"geometry":{"type":"LineString","coordinates":[[13.09312,47.05599],[13.093,47.0562],[13.09172,47.05667]]}},{"type":"Feature","properties":{"kind":"piste","difficulty":"easy","name":null,"aerialway":null,"osm":"way/448861777"},"geometry":{"type":"LineString","coordinates":[[13.09292,47.05728],[13.09258,47.05695],[13.09172,47.05667],[13.09038,47.05719],[13.08889,47.05806],[13.08552,47.05877],[13.08348,47.05955]]}},{"type":"Feature","properties":{"kind":"piste","difficulty":"intermediate","name":null,"aerialway":null,"osm":"way/448861778"},"geometry":{"type":"LineString","coordinates":[[13.06369,47.05782],[13.06354,47.05807],[13.06339,47.05809],[13.0632,47.05766],[13.063,47.05779],[13.06285,47.05749],[13.06262,47.05767],[13.06251,47.05741],[13.06238,47.0575],[13.06225,47.058]]}},{"type":"Feature","properties":{"kind":"piste","difficulty":"intermediate","name":null,"aerialway":null,"osm":"way/453768893"},"geometry":{"type":"LineString","coordinates":[[13.06879,47.05799],[13.0685,47.05834],[13.06828,47.05908],[13.06802,47.05924],[13.06523,47.05874],[13.06433,47.0584]]}},{"type":"Feature","properties":{"kind":"piste","difficulty":"intermediate","name":null,"aerialway":null,"osm":"way/514316999"},"geometry":{"type":"LineString","coordinates":[[13.05886,47.06113],[13.05882,47.06123]]}},{"type":"Feature","properties":{"kind":"piste","difficulty":"intermediate","name":null,"aerialway":null,"osm":"way/514317000"},"geometry":{"type":"LineString","coordinates":[[13.05918,47.06031],[13.05913,47.06052]]}},{"type":"Feature","properties":{"kind":"piste","difficulty":"intermediate","name":null,"aerialway":null,"osm":"way/514317001"},"geometry":{"type":"LineString","coordinates":[[13.05913,47.06052],[13.05904,47.06062]]}},{"type":"Feature","properties":{"kind":"piste","difficulty":"intermediate","name":"Mooskar","aerialway":null,"osm":"way/514317002"},"geometry":{"type":"LineString","coordinates":[[13.05882,47.06123],[13.05912,47.0618],[13.05872,47.06215]]}},{"type":"Feature","properties":{"kind":"piste","difficulty":"intermediate","name":null,"aerialway":null,"osm":"way/514317005"},"geometry":{"type":"LineString","coordinates":[[13.05904,47.06062],[13.05886,47.06113]]}},{"type":"Feature","properties":{"kind":"piste","difficulty":"advanced","name":null,"aerialway":null,"osm":"way/514863364"},"geometry":{"type":"LineString","coordinates":[[13.05937,47.06259],[13.05919,47.06217],[13.05872,47.06215]]}},{"type":"Feature","properties":{"kind":"piste","difficulty":"advanced","name":null,"aerialway":null,"osm":"way/514863365"},"geometry":{"type":"LineString","coordinates":[[13.05964,47.0626],[13.05937,47.06259]]}},{"type":"Feature","properties":{"kind":"piste","difficulty":"intermediate","name":null,"aerialway":null,"osm":"way/515302367"},"geometry":{"type":"LineString","coordinates":[[13.06867,47.06017],[13.06826,47.06041],[13.06685,47.06024],[13.06571,47.05952],[13.06523,47.059],[13.06433,47.0584],[13.06261,47.05829],[13.06225,47.058]]}},{"type":"Feature","properties":{"kind":"piste","difficulty":"intermediate","name":null,"aerialway":null,"osm":"way/1409843774"},"geometry":{"type":"LineString","coordinates":[[13.09116,47.05562],[13.08962,47.05465],[13.08842,47.05431],[13.08758,47.05302],[13.08662,47.0522],[13.08538,47.05181],[13.08416,47.05175],[13.08214,47.05199],[13.08048,47.05339],[13.07779,47.05364],[13.0733,47.05437],[13.07187,47.05527]]}},{"type":"Feature","properties":{"kind":"piste","difficulty":"intermediate","name":null,"aerialway":null,"osm":"way/1427275847"},"geometry":{"type":"LineString","coordinates":[[13.06386,47.05834],[13.06347,47.05811]]}}]}