{"type":"FeatureCollection","features":[{"type":"Feature","properties":{"kind":"piste","difficulty":"intermediate","name":"Vordere Widmoos - FIS Strecke","aerialway":null,"osm":"way/23659572"},"geometry":{"type":"LineString","coordinates":[[13.32425,47.32929],[13.32306,47.32988],[13.3226,47.33042],[13.32185,47.33177],[13.31896,47.33429],[13.31798,47.33489],[13.31714,47.33573],[13.31591,47.33622],[13.31454,47.33631],[13.31223,47.33562],[13.30874,47.33373]]}},{"type":"Feature","properties":{"kind":"piste","difficulty":"intermediate","name":"Abfahrt Grafenberg","aerialway":null,"osm":"way/49225070"},"geometry":{"type":"LineString","coordinates":[[13.27319,47.30919],[13.27317,47.3094],[13.27395,47.31033],[13.2751,47.31118],[13.27779,47.31245],[13.2822,47.31415],[13.28407,47.31516],[13.28458,47.31567],[13.28546,47.31743],[13.28572,47.31847],[13.28598,47.31871],[13.28906,47.31977],[13.2896,47.3201],[13.29064,47.32118],[13.29118,47.3223],[13.29076,47.32303]]}},{"type":"Feature","properties":{"kind":"piste","difficulty":"intermediate","name":"Kühberg","aerialway":null,"osm":"way/49225071"},"geometry":{"type":"LineString","coordinates":[[13.29482,47.32221],[13.29653,47.32223],[13.29804,47.3215],[13.29852,47.32161],[13.29926,47.32273],[13.29947,47.32336],[13.29877,47.32472]]}},{"type":"Feature","properties":{"kind":"piste","difficulty":"intermediate","name":null,"aerialway":null,"osm":"way/127222713"},"geometry":{"type":"LineString","coordinates":[[13.29877,47.32472],[13.2982,47.32533],[13.29833,47.32545],[13.29981,47.32504],[13.30118,47.32438],[13.30139,47.32446],[13.30116,47.3249]]}},{"type":"Feature","properties":{"kind":"piste","difficulty":"intermediate","name":"Hintere Widmoos","aerialway":null,"osm":"way/151643578"},"geometry":{"type":"LineString","coordinates":[[13.32185,47.33177],[13.32193,47.33284],[13.31931,47.33586],[13.31833,47.33651],[13.31642,47.33697],[13.31471,47.33633]]}},{"type":"Feature","properties":{"kind":"piste","difficulty":"easy","name":"Eggliftabfahrt","aerialway":null,"osm":"way/199093042"},"geometry":{"type":"LineString","coordinates":[[13.31548,47.3375],[13.31345,47.33747],[13.31217,47.33717]]}},{"type":"Feature","properties":{"kind":"piste","difficulty":"easy","name":"Bergschleppliftabfahrt","aerialway":null,"osm":"way/199093043"},"geometry":{"type":"LineString","coordinates":[[13.31308,47.33148],[13.31195,47.33202],[13.31,47.33144],[13.30845,47.33129],[13.30833,47.33113]]}},{"type":"Feature","properties":{"kind":"piste","difficulty":"intermediate","name":"Flying Mozart Talabfahrt","aerialway":null,"osm":"way/199093063"},"geometry":{"type":"LineString","coordinates":[[13.32097,47.32994],[13.32055,47.33024],[13.32054,47.33044],[13.3193,47.33072],[13.31685,47.33177],[13.31605,47.33246],[13.31607,47.333],[13.31587,47.33312],[13.3143,47.33295],[13.31265,47.33242],[13.31195,47.33202],[13.31054,47.33259],[13.31007,47.33308],[13.30874,47.33373],[13.30859,47.33385],[13.3087,47.33398]]}},{"type":"Feature","properties":{"kind":"piste","difficulty":"easy","name":"Eggliftabfahrt","aerialway":null,"osm":"way/223613070"},"geometry":{"type":"LineString","coordinates":[[13.31514,47.3365],[13.31384,47.3375]]}},{"type":"Feature","properties":{"kind":"piste","difficulty":"intermediate","name":"Vordere Widmoos - FIS Strecke","aerialway":null,"osm":"way/253232936"},"geometry":{"type":"LineString","coordinates":[[13.322,47.33151],[13.32155,47.33151],[13.32131,47.33138],[13.32079,47.33077],[13.32055,47.33024],[13.32015,47.32991]]}},{"type":"Feature","properties":{"kind":"piste","difficulty":"easy","name":"Verbindung Übungslift Flying Mozart","aerialway":null,"osm":"way/449536779"},"geometry":{"type":"LineString","coordinates":[[13.30946,47.33343],[13.30824,47.3331]]}},{"type":"Feature","properties":{"kind":"piste","difficulty":"easy","name":"Übungshang Flying Mozart","aerialway":null,"osm":"way/449536780"},"geometry":{"type":"LineString","coordinates":[[13.30824,47.3331],[13.30766,47.33327],[13.3074,47.33365]]}},{"type":"Feature","properties":{"kind":"piste","difficulty":"intermediate","name":"Vierer Abfahrt","aerialway":null,"osm":"way/449688232"},"geometry":{"type":"LineString","coordinates":[[13.29076,47.32303],[13.29127,47.32306],[13.29147,47.32321],[13.29147,47.32359],[13.29133,47.32405],[13.29053,47.32509],[13.29041,47.32678],[13.29063,47.32735],[13.29122,47.32784],[13.29214,47.32825],[13.29317,47.32838],[13.29656,47.32837],[13.2984,47.3281],[13.29955,47.32769],[13.30004,47.32761],[13.3004,47.32774]]}},{"type":"Feature","properties":{"kind":"piste","difficulty":"intermediate","name":"Kühberg","aerialway":null,"osm":"way/449689070"},"geometry":{"type":"LineString","coordinates":[[13.29187,47.32097],[13.29261,47.32159],[13.29381,47.32208],[13.29482,47.32221]]}},{"type":"Feature","properties":{"kind":"piste","difficulty":"intermediate","name":"Kühberg","aerialway":null,"osm":"way/449689071"},"geometry":{"type":"LineString","coordinates":[[13.28906,47.31977],[13.28982,47.31975],[13.29109,47.32009],[13.29163,47.32048],[13.29187,47.32097]]}},{"type":"Feature","properties":{"kind":"piste","difficulty":"easy","name":"Übergang G-Link - Mittelstation Flying Mozart","aerialway":null,"osm":"way/454869309"},"geometry":{"type":"LineString","coordinates":[[13.32015,47.32991],[13.32097,47.32994]]}},{"type":"Feature","properties":{"kind":"piste","difficulty":"intermediate","name":"Skiweg Wagrainer Höhe - Wagrain Dorf","aerialway":null,"osm":"way/725214654"},"geometry":{"type":"LineString","coordinates":[[13.33295,47.34735],[13.33273,47.34672],[13.33144,47.34587],[13.32957,47.34488],[13.32737,47.34392],[13.32675,47.34267],[13.32543,47.34171],[13.32302,47.34032],[13.32107,47.33995],[13.31959,47.33945],[13.31824,47.33887],[13.31832,47.3388],[13.31576,47.3378],[13.31487,47.33696],[13.3149,47.33672],[13.31514,47.3365]]}},{"type":"Feature","properties":{"kind":"piste","difficulty":"intermediate","name":"Abfahrt Flying Mozart","aerialway":null,"osm":"way/1349525643"},"geometry":{"type":"LineString","coordinates":[[13.32306,47.32988],[13.32245,47.33019],[13.32118,47.33031],[13.32055,47.33024]]}},{"type":"Feature","properties":{"kind":"piste","difficulty":"intermediate","name":"Abfahrt Grafenberg","aerialway":null,"osm":"way/1558760770"},"geometry":{"type":"LineString","coordinates":[[13.28546,47.31743],[13.28699,47.31842],[13.28781,47.31935]]}},{"type":"Feature","properties":{"kind":"piste","difficulty":"intermediate","name":"Kühberg","aerialway":null,"osm":"way/1558760773"},"geometry":{"type":"LineString","coordinates":[[13.30116,47.3249],[13.30128,47.32545],[13.30103,47.32646],[13.30107,47.32708],[13.30099,47.32728],[13.30013,47.32796]]}},{"type":"Feature","properties":{"kind":"piste","difficulty":"intermediate","name":"Kühberg","aerialway":null,"osm":"way/1558760776"},"geometry":{"type":"LineString","coordinates":[[13.29877,47.32472],[13.29895,47.32478],[13.30008,47.32456],[13.30062,47.32464],[13.30116,47.3249]]}},{"type":"Feature","properties":{"kind":"piste","difficulty":"intermediate","name":"Vierer Abfahrt","aerialway":null,"osm":"way/1558760777"},"geometry":{"type":"LineString","coordinates":[[13.29118,47.3223],[13.29147,47.32321]]}},{"type":"Feature","properties":{"kind":"piste","difficulty":"intermediate","name":"Abfahrt Grafenberg","aerialway":null,"osm":"way/1558760778"},"geometry":{"type":"LineString","coordinates":[[13.29187,47.32097],[13.29118,47.3223]]}},{"type":"Feature","properties":{"kind":"piste","difficulty":"intermediate","name":"Kühberg","aerialway":null,"osm":"way/1558760779"},"geometry":{"type":"LineString","coordinates":[[13.29076,47.32303],[13.29356,47.32227],[13.29482,47.32221]]}},{"type":"Feature","properties":{"kind":"piste","difficulty":"easy","name":"Skiroute Hachau","aerialway":null,"osm":"way/1558802659"},"geometry":{"type":"LineString","coordinates":[[13.28387,47.31504],[13.28444,47.31485]]}},{"type":"Feature","properties":{"kind":"lift","difficulty":null,"name":"Flying Mozart I","aerialway":"gondola","osm":"way/23149574"},"geometry":{"type":"LineString","coordinates":[[13.3087,47.33398],[13.32097,47.32994]]}},{"type":"Feature","properties":{"kind":"lift","difficulty":null,"name":"Egglift","aerialway":"platter","osm":"way/151643508"},"geometry":{"type":"LineString","coordinates":[[13.31217,47.33717],[13.31548,47.3375]]}},{"type":"Feature","properties":{"kind":"lift","difficulty":null,"name":"Bergschlepplift","aerialway":"platter","osm":"way/199092958"},"geometry":{"type":"LineString","coordinates":[[13.30833,47.33113],[13.31308,47.33148]]}},{"type":"Feature","properties":{"kind":"lift","difficulty":null,"name":"G-Link Wagrain","aerialway":"cable_car","osm":"way/227817176"},"geometry":{"type":"LineString","coordinates":[[13.32015,47.32991],[13.29072,47.32333]]}},{"type":"Feature","properties":{"kind":"lift","difficulty":null,"name":"Übungslift Flying Mozart","aerialway":"rope_tow","osm":"way/449536781"},"geometry":{"type":"LineString","coordinates":[[13.3074,47.33365],[13.30824,47.3331]]}},{"type":"Feature","properties":{"kind":"lift","difficulty":null,"name":"Grafenbergbahn 1","aerialway":"gondola","osm":"way/1551817347"},"geometry":{"type":"LineString","coordinates":[[13.29971,47.32815],[13.29025,47.32333]]}},{"type":"Feature","properties":{"kind":"lift","difficulty":null,"name":"Grafenbergbahn 2","aerialway":"gondola","osm":"way/1551817348"},"geometry":{"type":"LineString","coordinates":[[13.29025,47.32333],[13.27384,47.30883]]}}]}