{"type":"FeatureCollection","features":[{"type":"Feature","properties":{"kind":"lift","difficulty":null,"name":"Serlesbahn","aerialway":"gondola","osm":"way/26779051"},"geometry":{"type":"LineString","coordinates":[[11.38006,47.16358],[11.39501,47.14996]]}},{"type":"Feature","properties":{"kind":"piste","difficulty":"easy","name":null,"aerialway":null,"osm":"way/28629300"},"geometry":{"type":"LineString","coordinates":[[11.39526,47.15004],[11.39509,47.1515],[11.39445,47.1543],[11.39453,47.1547]]}},{"type":"Feature","properties":{"kind":"lift","difficulty":null,"name":"Waldrastecklift","aerialway":"t-bar","osm":"way/29284449"},"geometry":{"type":"LineString","coordinates":[[11.39534,47.15743],[11.39611,47.14932]]}},{"type":"Feature","properties":{"kind":"lift","difficulty":null,"name":"Ochsenhüttenlift","aerialway":"t-bar","osm":"way/29284467"},"geometry":{"type":"LineString","coordinates":[[11.40282,47.14998],[11.39956,47.14553]]}},{"type":"Feature","properties":{"kind":"piste","difficulty":"intermediate","name":null,"aerialway":null,"osm":"way/29284551"},"geometry":{"type":"LineString","coordinates":[[11.39502,47.15723],[11.39475,47.15859],[11.39484,47.15895],[11.39462,47.16061],[11.39435,47.16181],[11.39466,47.16318],[11.39448,47.16384],[11.39391,47.16463],[11.39302,47.16524],[11.39105,47.16623],[11.38942,47.16641],[11.38846,47.16618],[11.38727,47.1658],[11.38616,47.16503],[11.38492,47.16465],[11.38408,47.16421],[11.38006,47.16358]]}},{"type":"Feature","properties":{"kind":"piste","difficulty":"easy","name":null,"aerialway":null,"osm":"way/29284617"},"geometry":{"type":"LineString","coordinates":[[11.39606,47.14978],[11.39676,47.14956],[11.39762,47.14951],[11.39782,47.14934],[11.39789,47.14915],[11.39763,47.14884],[11.39724,47.14864],[11.39748,47.14853],[11.40033,47.14983],[11.40181,47.1497],[11.40217,47.1498],[11.40239,47.15004],[11.40262,47.1501],[11.40282,47.14998]]}},{"type":"Feature","properties":{"kind":"piste","difficulty":"intermediate","name":null,"aerialway":null,"osm":"way/29284640"},"geometry":{"type":"LineString","coordinates":[[11.39938,47.14629],[11.4002,47.14717],[11.40076,47.14801],[11.40049,47.14891],[11.40063,47.14948],[11.40095,47.14977]]}},{"type":"Feature","properties":{"kind":"lift","difficulty":null,"name":"Lärchenlift","aerialway":"platter","osm":"way/29284858"},"geometry":{"type":"LineString","coordinates":[[11.38025,47.16355],[11.38215,47.16183]]}},{"type":"Feature","properties":{"kind":"piste","difficulty":"easy","name":null,"aerialway":null,"osm":"way/29284871"},"geometry":{"type":"LineString","coordinates":[[11.38204,47.16193],[11.38203,47.16209],[11.38048,47.16352],[11.38025,47.16355]]}},{"type":"Feature","properties":{"kind":"piste","difficulty":"easy","name":null,"aerialway":null,"osm":"way/152349094"},"geometry":{"type":"LineString","coordinates":[[11.40274,47.15053],[11.40274,47.15074],[11.40233,47.15094],[11.40046,47.15147],[11.39935,47.15199],[11.39852,47.15204],[11.39857,47.15263],[11.39815,47.15303],[11.3975,47.15317],[11.3975,47.15378],[11.39714,47.15395],[11.39651,47.154],[11.39655,47.15438],[11.39637,47.1547],[11.39657,47.15516],[11.39607,47.15547],[11.39602,47.15588],[11.39583,47.15604],[11.3952,47.15602],[11.39483,47.1562]]}},{"type":"Feature","properties":{"kind":"piste","difficulty":"easy","name":null,"aerialway":null,"osm":"way/152349101"},"geometry":{"type":"LineString","coordinates":[[11.40282,47.14998],[11.40274,47.15053]]}},{"type":"Feature","properties":{"kind":"piste","difficulty":"easy","name":null,"aerialway":null,"osm":"way/670942821"},"geometry":{"type":"LineString","coordinates":[[11.39501,47.14996],[11.3951,47.14978],[11.39475,47.14939],[11.39452,47.14933],[11.39451,47.14984],[11.39454,47.15029],[11.39485,47.15062],[11.39509,47.1515]]}},{"type":"Feature","properties":{"kind":"piste","difficulty":"intermediate","name":"4 Ochsenschuss","aerialway":null,"osm":"way/907796136"},"geometry":{"type":"LineString","coordinates":[[11.39959,47.14571],[11.39903,47.14632],[11.3992,47.14677],[11.40005,47.14752],[11.40032,47.14794],[11.40037,47.14825],[11.40016,47.14838],[11.40008,47.14907],[11.39997,47.14918],[11.40034,47.14955],[11.40033,47.14983],[11.40117,47.14971],[11.40091,47.14956],[11.40088,47.14864],[11.40101,47.14847],[11.40149,47.1483],[11.4001,47.14643],[11.39966,47.1462],[11.39985,47.14604],[11.39959,47.14571]]}},{"type":"Feature","properties":{"kind":"piste","difficulty":"easy","name":null,"aerialway":null,"osm":"way/1060271268"},"geometry":{"type":"LineString","coordinates":[[11.38048,47.16352],[11.38025,47.16363]]}},{"type":"Feature","properties":{"kind":"piste","difficulty":"easy","name":null,"aerialway":null,"osm":"way/1060271269"},"geometry":{"type":"LineString","coordinates":[[11.38105,47.16378],[11.38048,47.16352]]}},{"type":"Feature","properties":{"kind":"piste","difficulty":"intermediate","name":null,"aerialway":null,"osm":"way/1466759074"},"geometry":{"type":"LineString","coordinates":[[11.39976,47.14581],[11.39933,47.14606]]}},{"type":"Feature","properties":{"kind":"piste","difficulty":"intermediate","name":null,"aerialway":null,"osm":"way/1466759076"},"geometry":{"type":"LineString","coordinates":[[11.39933,47.14606],[11.39938,47.14629]]}},{"type":"Feature","properties":{"kind":"piste","difficulty":"easy","name":null,"aerialway":null,"osm":"way/1466759081"},"geometry":{"type":"LineString","coordinates":[[11.39497,47.15637],[11.3951,47.15661],[11.39502,47.15723]]}},{"type":"Feature","properties":{"kind":"piste","difficulty":"easy","name":null,"aerialway":null,"osm":"way/1466759082"},"geometry":{"type":"LineString","coordinates":[[11.39483,47.1562],[11.39497,47.15637]]}},{"type":"Feature","properties":{"kind":"piste","difficulty":"easy","name":null,"aerialway":null,"osm":"way/1466759094"},"geometry":{"type":"LineString","coordinates":[[11.39453,47.1547],[11.39483,47.1562]]}},{"type":"Feature","properties":{"kind":"piste","difficulty":"easy","name":null,"aerialway":null,"osm":"way/1466759095"},"geometry":{"type":"LineString","coordinates":[[11.39606,47.14978],[11.39556,47.14984],[11.39526,47.15004]]}},{"type":"Feature","properties":{"kind":"piste","difficulty":"easy","name":null,"aerialway":null,"osm":"way/1466759097"},"geometry":{"type":"LineString","coordinates":[[11.39502,47.15723],[11.39535,47.1573]]}}]}