{"type":"FeatureCollection","features":[{"type":"Feature","properties":{"kind":"piste","difficulty":"intermediate","name":"Garnitzen-Alm-Abfahrt","aerialway":null,"osm":"way/29429504"},"geometry":{"type":"LineString","coordinates":[[13.29896,46.56682],[13.29914,46.56685],[13.30228,46.56582],[13.30273,46.5652],[13.3029,46.56422],[13.30405,46.56279],[13.30831,46.56132],[13.31103,46.55963],[13.31241,46.5595],[13.31391,46.56001],[13.31526,46.5599],[13.31619,46.56001],[13.31635,46.56015],[13.31599,46.56037]]}},{"type":"Feature","properties":{"kind":"piste","difficulty":"intermediate","name":"Garnitzen-Alm-Abfahrt","aerialway":null,"osm":"way/29429669"},"geometry":{"type":"LineString","coordinates":[[13.31632,46.56017],[13.31605,46.56013]]}},{"type":"Feature","properties":{"kind":"piste","difficulty":"intermediate","name":null,"aerialway":null,"osm":"way/29429872"},"geometry":{"type":"LineString","coordinates":[[13.30055,46.56879],[13.30057,46.56899]]}},{"type":"Feature","properties":{"kind":"piste","difficulty":"intermediate","name":null,"aerialway":null,"osm":"way/29429873"},"geometry":{"type":"LineString","coordinates":[[13.27794,46.56626],[13.27725,46.5665],[13.27732,46.56667],[13.2776,46.5667]]}},{"type":"Feature","properties":{"kind":"piste","difficulty":"intermediate","name":"Familien-Abfahrt","aerialway":null,"osm":"way/29430023"},"geometry":{"type":"LineString","coordinates":[[13.29914,46.56685],[13.29911,46.56639],[13.29941,46.56494],[13.29759,46.56467],[13.29564,46.5642],[13.29342,46.56338],[13.29059,46.56297],[13.28898,46.56329],[13.28834,46.56379],[13.28529,46.56479],[13.28474,46.56514],[13.28425,46.56575],[13.2828,46.56654],[13.28159,46.56688],[13.27949,46.56715]]}},{"type":"Feature","properties":{"kind":"piste","difficulty":"advanced","name":null,"aerialway":null,"osm":"way/29430025"},"geometry":{"type":"LineString","coordinates":[[13.29911,46.56639],[13.29659,46.56637],[13.29565,46.56654]]}},{"type":"Feature","properties":{"kind":"piste","difficulty":"intermediate","name":"Millennium-Abfahrt","aerialway":null,"osm":"way/29430687"},"geometry":{"type":"LineString","coordinates":[[13.25318,46.56111],[13.25305,46.56111],[13.25297,46.56135],[13.25301,46.56209],[13.25349,46.56322],[13.25511,46.56477],[13.25541,46.5654],[13.25599,46.56601],[13.25798,46.56626],[13.25957,46.56668],[13.26,46.56729],[13.26011,46.56861],[13.26092,46.57085],[13.26078,46.57168],[13.26031,46.57282]]}},{"type":"Feature","properties":{"kind":"piste","difficulty":"intermediate","name":"Kammabfahrt","aerialway":null,"osm":"way/29430688"},"geometry":{"type":"LineString","coordinates":[[13.2547,46.56497],[13.25428,46.56501],[13.25401,46.5656],[13.25317,46.56556],[13.25214,46.56579],[13.25175,46.56602],[13.24838,46.56515],[13.24771,46.56514],[13.24652,46.56542],[13.24454,46.5663],[13.24383,46.56722],[13.24387,46.56742],[13.24409,46.56745]]}},{"type":"Feature","properties":{"kind":"piste","difficulty":"intermediate","name":null,"aerialway":null,"osm":"way/29430689"},"geometry":{"type":"LineString","coordinates":[[13.27702,46.56623],[13.27764,46.56605],[13.27754,46.5659],[13.2773,46.56587]]}},{"type":"Feature","properties":{"kind":"piste","difficulty":"easy","name":"Blue Day-Park","aerialway":null,"osm":"way/29430690"},"geometry":{"type":"LineString","coordinates":[[13.26078,46.57168],[13.26127,46.57197],[13.26145,46.5725],[13.26277,46.57364],[13.26318,46.57339]]}},{"type":"Feature","properties":{"kind":"piste","difficulty":"easy","name":"Blue Day-Park","aerialway":null,"osm":"way/29430691"},"geometry":{"type":"LineString","coordinates":[[13.26127,46.57197],[13.26031,46.57282]]}},{"type":"Feature","properties":{"kind":"piste","difficulty":"intermediate","name":"Scheibelbodenabfahrt","aerialway":null,"osm":"way/29430692"},"geometry":{"type":"LineString","coordinates":[[13.25197,46.56091],[13.25217,46.56085],[13.25206,46.56107],[13.25181,46.5611],[13.24828,46.56066],[13.24768,46.56081],[13.2471,46.56124],[13.24492,46.56207],[13.24471,46.56244],[13.24432,46.56272],[13.24468,46.56363],[13.24468,46.56415],[13.24442,46.565]]}},{"type":"Feature","properties":{"kind":"piste","difficulty":"intermediate","name":null,"aerialway":null,"osm":"way/29430693"},"geometry":{"type":"LineString","coordinates":[[13.25349,46.56322],[13.25376,46.56385],[13.25466,46.56522],[13.25487,46.56536],[13.25541,46.5654]]}},{"type":"Feature","properties":{"kind":"piste","difficulty":"intermediate","name":"Leitern-Abfahrt","aerialway":null,"osm":"way/29430695"},"geometry":{"type":"LineString","coordinates":[[13.25474,46.56757],[13.25465,46.56741],[13.25452,46.56768],[13.25498,46.57093],[13.25419,46.57262],[13.25454,46.57593],[13.25482,46.5768],[13.2552,46.57746],[13.25613,46.57774],[13.25653,46.57808]]}},{"type":"Feature","properties":{"kind":"piste","difficulty":"intermediate","name":"Kammabfahrt","aerialway":null,"osm":"way/29430697"},"geometry":{"type":"LineString","coordinates":[[13.25483,46.56579],[13.25467,46.56543],[13.25441,46.56587],[13.25401,46.5656]]}},{"type":"Feature","properties":{"kind":"piste","difficulty":"intermediate","name":null,"aerialway":null,"osm":"way/29430817"},"geometry":{"type":"LineString","coordinates":[[13.25206,46.56107],[13.2531,46.56248]]}},{"type":"Feature","properties":{"kind":"piste","difficulty":"intermediate","name":null,"aerialway":null,"osm":"way/29430818"},"geometry":{"type":"LineString","coordinates":[[13.25305,46.56111],[13.2525,46.56097],[13.25206,46.56107]]}},{"type":"Feature","properties":{"kind":"piste","difficulty":"intermediate","name":"Schnittlauchkofel-Abfahrt","aerialway":null,"osm":"way/29431233"},"geometry":{"type":"LineString","coordinates":[[13.22691,46.56449],[13.22674,46.56454],[13.2269,46.56459],[13.22738,46.56447],[13.22803,46.56475],[13.22949,46.56637],[13.23004,46.56731],[13.23071,46.56778],[13.23174,46.56811],[13.23247,46.5682],[13.23331,46.56811],[13.23459,46.56723],[13.23545,46.56681],[13.23607,46.56679],[13.23668,46.567],[13.23691,46.56721],[13.23765,46.56856],[13.23826,46.57006],[13.23912,46.57094],[13.23899,46.57223],[13.23917,46.57287],[13.24003,46.57417],[13.24039,46.57557],[13.24105,46.57644],[13.24139,46.57722],[13.24265,46.57861]]}},{"type":"Feature","properties":{"kind":"piste","difficulty":"advanced","name":"Trogkofelabfahrt","aerialway":null,"osm":"way/29431234"},"geometry":{"type":"LineString","coordinates":[[13.23331,46.56811],[13.23423,46.56819],[13.23448,46.56831],[13.23489,46.56882],[13.23613,46.57088],[13.23681,46.57315],[13.23814,46.57511],[13.23854,46.57548],[13.24139,46.57722]]}},{"type":"Feature","properties":{"kind":"piste","difficulty":"intermediate","name":"Carnia - Talabfahrt","aerialway":null,"osm":"way/29431421"},"geometry":{"type":"LineString","coordinates":[[13.22715,46.58241],[13.22693,46.58247],[13.22703,46.58267],[13.22756,46.58275],[13.22835,46.58264],[13.22846,46.58248],[13.22842,46.58164],[13.22935,46.58123],[13.22983,46.58145],[13.23038,46.58287],[13.23056,46.58375],[13.23117,46.58464],[13.23278,46.58649],[13.23344,46.58753],[13.23499,46.5885],[13.23724,46.58882],[13.23891,46.58963],[13.24077,46.58991],[13.24236,46.59078],[13.2426,46.59148],[13.24203,46.59222],[13.24203,46.59306],[13.24238,46.59397],[13.24439,46.59541],[13.249,46.59673],[13.24981,46.59673],[13.25118,46.59718],[13.2532,46.59695],[13.25452,46.5964],[13.25695,46.59625],[13.25826,46.59671],[13.2602,46.59701],[13.26152,46.59683],[13.2646,46.59757],[13.26976,46.59807],[13.27142,46.59853],[13.27326,46.59883]]}},{"type":"Feature","properties":{"kind":"piste","difficulty":"intermediate","name":"Carnia - Talabfahrt","aerialway":null,"osm":"way/29431422"},"geometry":{"type":"LineString","coordinates":[[13.26976,46.59807],[13.27112,46.59762],[13.27209,46.59761],[13.27287,46.59744],[13.27331,46.59752]]}},{"type":"Feature","properties":{"kind":"piste","difficulty":"intermediate","name":"Zweikofel-Abfahrt","aerialway":null,"osm":"way/29431423"},"geometry":{"type":"LineString","coordinates":[[13.22756,46.58275],[13.22713,46.58301]]}},{"type":"Feature","properties":{"kind":"piste","difficulty":"intermediate","name":"Zweikofel-Abfahrt","aerialway":null,"osm":"way/29431424"},"geometry":{"type":"LineString","coordinates":[[13.23117,46.58464],[13.23174,46.58484],[13.23247,46.58489],[13.23285,46.58478],[13.23371,46.58261],[13.2352,46.58148],[13.23559,46.5808],[13.23533,46.57908],[13.23551,46.57862],[13.23655,46.57826],[13.23741,46.57831],[13.23888,46.57864],[13.24027,46.57856],[13.24251,46.57795],[13.24263,46.57773]]}},{"type":"Feature","properties":{"kind":"piste","difficulty":"intermediate","name":"Lärchenboden-Abfahrt","aerialway":null,"osm":"way/29462425"},"geometry":{"type":"LineString","coordinates":[[13.25334,46.56064],[13.25368,46.56075],[13.25394,46.56043],[13.25541,46.56036],[13.25877,46.55942],[13.25898,46.55977],[13.25903,46.56029],[13.25956,46.56064],[13.26353,46.56194],[13.26511,46.56225],[13.26842,46.56234],[13.26893,46.56258],[13.27193,46.56339],[13.27396,46.56312]]}},{"type":"Feature","properties":{"kind":"piste","difficulty":"intermediate","name":"Strohsack-Abfahrt","aerialway":null,"osm":"way/29462426"},"geometry":{"type":"LineString","coordinates":[[13.26053,46.55821],[13.25958,46.55891],[13.25952,46.55945],[13.26216,46.55997],[13.26407,46.56112],[13.26511,46.56225]]}},{"type":"Feature","properties":{"kind":"piste","difficulty":"intermediate","name":null,"aerialway":null,"osm":"way/29462427"},"geometry":{"type":"LineString","coordinates":[[13.25877,46.55942],[13.25952,46.55945]]}},{"type":"Feature","properties":{"kind":"piste","difficulty":"intermediate","name":null,"aerialway":null,"osm":"way/29462428"},"geometry":{"type":"LineString","coordinates":[[13.26407,46.56112],[13.26399,46.56083]]}},{"type":"Feature","properties":{"kind":"piste","difficulty":"intermediate","name":"Kanonenrohr-Abfahrt","aerialway":null,"osm":"way/29462429"},"geometry":{"type":"LineString","coordinates":[[13.26399,46.56083],[13.26514,46.56133],[13.26827,46.56158],[13.26981,46.56198],[13.27089,46.562],[13.27396,46.56312]]}},{"type":"Feature","properties":{"kind":"piste","difficulty":"intermediate","name":null,"aerialway":null,"osm":"way/29462430"},"geometry":{"type":"LineString","coordinates":[[13.26746,46.56154],[13.26842,46.56234]]}},{"type":"Feature","properties":{"kind":"piste","difficulty":"intermediate","name":null,"aerialway":null,"osm":"way/29462431"},"geometry":{"type":"LineString","coordinates":[[13.26511,46.56225],[13.26542,46.56135]]}},{"type":"Feature","properties":{"kind":"piste","difficulty":"easy","name":"Lärchenboden-Abfahrt","aerialway":null,"osm":"way/29462432"},"geometry":{"type":"LineString","coordinates":[[13.26935,46.56263],[13.27089,46.562],[13.27169,46.5619],[13.27208,46.56162],[13.2725,46.561],[13.27324,46.56076]]}},{"type":"Feature","properties":{"kind":"piste","difficulty":"easy","name":null,"aerialway":null,"osm":"way/29462433"},"geometry":{"type":"LineString","coordinates":[[13.27401,46.56281],[13.27401,46.56291],[13.27379,46.56286]]}},{"type":"Feature","properties":{"kind":"piste","difficulty":"easy","name":null,"aerialway":null,"osm":"way/29462435"},"geometry":{"type":"LineString","coordinates":[[13.27396,46.56312],[13.27401,46.56291]]}},{"type":"Feature","properties":{"kind":"piste","difficulty":"easy","name":null,"aerialway":null,"osm":"way/29462436"},"geometry":{"type":"LineString","coordinates":[[13.27269,46.56122],[13.27295,46.56088]]}},{"type":"Feature","properties":{"kind":"piste","difficulty":"easy","name":null,"aerialway":null,"osm":"way/29462438"},"geometry":{"type":"LineString","coordinates":[[13.27274,46.5612],[13.27334,46.56135]]}},{"type":"Feature","properties":{"kind":"piste","difficulty":"easy","name":"Übungswiese-Nassfeld","aerialway":null,"osm":"way/29462439"},"geometry":{"type":"LineString","coordinates":[[13.27324,46.56076],[13.27371,46.56027],[13.27481,46.55994],[13.275,46.55997],[13.27499,46.56012]]}},{"type":"Feature","properties":{"kind":"piste","difficulty":"easy","name":"Übungswiese-Nassfeld","aerialway":null,"osm":"way/29462440"},"geometry":{"type":"LineString","coordinates":[[13.27348,46.56105],[13.27489,46.56048],[13.27513,46.5602],[13.2749,46.5602]]}},{"type":"Feature","properties":{"kind":"piste","difficulty":"easy","name":"Lärchenboden-Abfahrt","aerialway":null,"osm":"way/29462442"},"geometry":{"type":"LineString","coordinates":[[13.25368,46.56075],[13.25449,46.56076],[13.25541,46.56036],[13.25584,46.56062],[13.25638,46.56074],[13.25667,46.56061],[13.25715,46.55997],[13.25765,46.5597]]}},{"type":"Feature","properties":{"kind":"piste","difficulty":"intermediate","name":"Verbindungsabfahrt-Lärchenboden","aerialway":null,"osm":"way/29462443"},"geometry":{"type":"LineString","coordinates":[[13.25671,46.56446],[13.25774,46.56371],[13.25847,46.56349]]}},{"type":"Feature","properties":{"kind":"piste","difficulty":"intermediate","name":null,"aerialway":null,"osm":"way/29463260"},"geometry":{"type":"LineString","coordinates":[[13.25326,46.5606],[13.25305,46.56111]]}},{"type":"Feature","properties":{"kind":"piste","difficulty":"easy","name":"Bobo-Skiweg Rastl","aerialway":null,"osm":"way/30108892"},"geometry":{"type":"LineString","coordinates":[[13.23826,46.57006],[13.23803,46.57123],[13.23735,46.5722],[13.23665,46.57271],[13.23599,46.57291],[13.23561,46.5735],[13.23401,46.57412],[13.23348,46.5745],[13.23342,46.57468],[13.23354,46.57488],[13.2348,46.57501],[13.23589,46.57551],[13.23675,46.57541],[13.23593,46.57579],[13.23525,46.57579],[13.23452,46.57599],[13.23457,46.57624],[13.23497,46.57639],[13.23544,46.57682],[13.2357,46.57676],[13.23567,46.57636],[13.23583,46.57618],[13.2368,46.57617],[13.23872,46.57663],[13.23974,46.57672],[13.24139,46.57722]]}},{"type":"Feature","properties":{"kind":"piste","difficulty":"intermediate","name":"Schnittlauchkofel-Abfahrt","aerialway":null,"osm":"way/30108893"},"geometry":{"type":"LineString","coordinates":[[13.23793,46.57136],[13.23899,46.57223]]}},{"type":"Feature","properties":{"kind":"piste","difficulty":"easy","name":"Bobo-Skiweg Lärchenboden","aerialway":null,"osm":"way/30108894"},"geometry":{"type":"LineString","coordinates":[[13.25387,46.56358],[13.25452,46.56375],[13.25422,46.56304],[13.2543,46.56282],[13.25472,46.56266],[13.25596,46.56291]]}},{"type":"Feature","properties":{"kind":"piste","difficulty":"intermediate","name":"Felsenköpfel-Abfahrt","aerialway":null,"osm":"way/30108895"},"geometry":{"type":"LineString","coordinates":[[13.30057,46.56899],[13.30089,46.56891],[13.3009,46.56846],[13.29952,46.56758],[13.29914,46.56685]]}},{"type":"Feature","properties":{"kind":"piste","difficulty":"intermediate","name":"Tröglabfahrt","aerialway":null,"osm":"way/30108897"},"geometry":{"type":"LineString","coordinates":[[13.25541,46.5654],[13.25614,46.5653],[13.2563,46.56514],[13.25638,46.5645],[13.25671,46.56446],[13.25898,46.56504],[13.26152,46.56549],[13.26202,46.56589],[13.26279,46.56618],[13.26427,46.56603],[13.2663,46.56634],[13.26696,46.5666],[13.26805,46.56635],[13.26908,46.56583],[13.26947,46.56593],[13.27014,46.56674],[13.27113,46.56714],[13.27205,46.56676],[13.27236,46.56607],[13.27276,46.56571],[13.27333,46.5656],[13.2747,46.56575],[13.27702,46.56623]]}},{"type":"Feature","properties":{"kind":"piste","difficulty":"easy","name":null,"aerialway":null,"osm":"way/30108898"},"geometry":{"type":"LineString","coordinates":[[13.28701,46.56537],[13.28609,46.56537],[13.28529,46.56479],[13.28433,46.56462],[13.28334,46.56412],[13.28161,46.5639],[13.28091,46.56416],[13.28051,46.56516],[13.28067,46.56609],[13.28025,46.56701]]}},{"type":"Feature","properties":{"kind":"piste","difficulty":"intermediate","name":"Watschiger-Alm-Abfahrt","aerialway":null,"osm":"way/30108899"},"geometry":{"type":"LineString","coordinates":[[13.29564,46.5642],[13.29356,46.56439],[13.29195,46.56431],[13.29057,46.56423],[13.28834,46.56379],[13.2875,46.56457],[13.28701,46.56537],[13.28639,46.56597],[13.28315,46.56634]]}},{"type":"Feature","properties":{"kind":"piste","difficulty":"intermediate","name":null,"aerialway":null,"osm":"way/31111902"},"geometry":{"type":"LineString","coordinates":[[13.29941,46.56494],[13.29989,46.56499],[13.30045,46.56534]]}},{"type":"Feature","properties":{"kind":"piste","difficulty":"intermediate","name":"Garnitzen-Alm-Abfahrt","aerialway":null,"osm":"way/31111903"},"geometry":{"type":"LineString","coordinates":[[13.29941,46.56494],[13.30129,46.56388],[13.30321,46.56379]]}},{"type":"Feature","properties":{"kind":"piste","difficulty":"intermediate","name":null,"aerialway":null,"osm":"way/31111905"},"geometry":{"type":"LineString","coordinates":[[13.3004,46.56554],[13.30096,46.56624]]}},{"type":"Feature","properties":{"kind":"piste","difficulty":"intermediate","name":null,"aerialway":null,"osm":"way/31111906"},"geometry":{"type":"LineString","coordinates":[[13.2999,46.56658],[13.30024,46.56567],[13.3004,46.56554]]}},{"type":"Feature","properties":{"kind":"piste","difficulty":"easy","name":"Garnitzen-Alm-Abfahrt","aerialway":null,"osm":"way/31111907"},"geometry":{"type":"LineString","coordinates":[[13.30239,46.56565],[13.30311,46.56578],[13.30447,46.5654],[13.30511,46.56537],[13.30509,46.56525],[13.30441,46.56488],[13.30451,46.56433],[13.30418,46.56368],[13.30431,46.56329],[13.30423,46.56272]]}},{"type":"Feature","properties":{"kind":"piste","difficulty":"easy","name":"Garnitzen-Alm-Abfahrt","aerialway":null,"osm":"way/31111908"},"geometry":{"type":"LineString","coordinates":[[13.30831,46.56132],[13.30837,46.56163],[13.30758,46.56214],[13.30774,46.56269],[13.30795,46.56274],[13.30819,46.56253],[13.30907,46.56223],[13.30987,46.56162],[13.31025,46.56099],[13.31045,46.56094],[13.31052,46.56136],[13.31092,46.56105],[13.31088,46.56148],[13.31099,46.56156],[13.31141,46.56113],[13.31244,46.56064],[13.31296,46.56024]]}},{"type":"Feature","properties":{"kind":"piste","difficulty":"intermediate","name":"Garnitzen-Alm-Abfahrt","aerialway":null,"osm":"way/31111909"},"geometry":{"type":"LineString","coordinates":[[13.30894,46.5609],[13.31391,46.56001]]}},{"type":"Feature","properties":{"kind":"piste","difficulty":"intermediate","name":"Krone-Abfahrt","aerialway":null,"osm":"way/31111910"},"geometry":{"type":"LineString","coordinates":[[13.304,46.55727],[13.304,46.55718],[13.30466,46.5572],[13.30491,46.55735],[13.30505,46.55783],[13.30546,46.55792],[13.3076,46.55785],[13.30841,46.55769],[13.30954,46.55721],[13.31003,46.55737],[13.31099,46.55736],[13.3122,46.55768],[13.31307,46.55826],[13.31406,46.55867],[13.31591,46.55922],[13.31652,46.55954],[13.31659,46.5599],[13.31635,46.56015]]}},{"type":"Feature","properties":{"kind":"piste","difficulty":"intermediate","name":"Pontebbana","aerialway":null,"osm":"way/31111911"},"geometry":{"type":"LineString","coordinates":[[13.304,46.55727],[13.30371,46.55738],[13.3037,46.55757],[13.30419,46.55808],[13.30446,46.55912],[13.30751,46.56021],[13.30894,46.5609]]}},{"type":"Feature","properties":{"kind":"piste","difficulty":"intermediate","name":null,"aerialway":null,"osm":"way/31111912"},"geometry":{"type":"LineString","coordinates":[[13.30505,46.55783],[13.30437,46.55878]]}},{"type":"Feature","properties":{"kind":"piste","difficulty":"intermediate","name":null,"aerialway":null,"osm":"way/31111913"},"geometry":{"type":"LineString","coordinates":[[13.30963,46.56051],[13.3106,46.55918],[13.31083,46.55904],[13.31241,46.5595]]}},{"type":"Feature","properties":{"kind":"piste","difficulty":"easy","name":"Wulfenia-Abfahrt","aerialway":null,"osm":"way/31111915"},"geometry":{"type":"LineString","coordinates":[[13.29439,46.56732],[13.29418,46.56717],[13.29213,46.5672],[13.28771,46.56796],[13.2868,46.56799],[13.28703,46.56814]]}},{"type":"Feature","properties":{"kind":"piste","difficulty":"easy","name":null,"aerialway":null,"osm":"way/31111916"},"geometry":{"type":"LineString","coordinates":[[13.28708,46.5684],[13.2868,46.56799]]}},{"type":"Feature","properties":{"kind":"piste","difficulty":"easy","name":null,"aerialway":null,"osm":"way/31111918"},"geometry":{"type":"LineString","coordinates":[[13.28639,46.56597],[13.2868,46.56799],[13.28658,46.56856]]}},{"type":"Feature","properties":{"kind":"piste","difficulty":"intermediate","name":"Märchenwiese-Abfahrt","aerialway":null,"osm":"way/31111920"},"geometry":{"type":"LineString","coordinates":[[13.29168,46.56727],[13.29157,46.56704],[13.28904,46.56713],[13.28786,46.56731],[13.2871,46.56763],[13.2868,46.56799]]}},{"type":"Feature","properties":{"kind":"piste","difficulty":"intermediate","name":null,"aerialway":null,"osm":"way/31111921"},"geometry":{"type":"LineString","coordinates":[[13.29439,46.56732],[13.29428,46.56764]]}},{"type":"Feature","properties":{"kind":"piste","difficulty":"intermediate","name":null,"aerialway":null,"osm":"way/31111924"},"geometry":{"type":"LineString","coordinates":[[13.29428,46.56764],[13.29172,46.56786],[13.29168,46.56727]]}},{"type":"Feature","properties":{"kind":"piste","difficulty":"intermediate","name":null,"aerialway":null,"osm":"way/31111925"},"geometry":{"type":"LineString","coordinates":[[13.27193,46.56339],[13.27195,46.5638],[13.27268,46.56425],[13.27265,46.56478],[13.2732,46.56531],[13.27372,46.5656]]}},{"type":"Feature","properties":{"kind":"piste","difficulty":"easy","name":null,"aerialway":null,"osm":"way/31111926"},"geometry":{"type":"LineString","coordinates":[[13.27195,46.5638],[13.2717,46.56396],[13.27231,46.56404]]}},{"type":"Feature","properties":{"kind":"piste","difficulty":"intermediate","name":"Kanonenrohr-Abfahrt","aerialway":null,"osm":"way/31111927"},"geometry":{"type":"LineString","coordinates":[[13.26053,46.55821],[13.2614,46.55823],[13.26207,46.55921],[13.26389,46.56057],[13.26542,46.56135]]}},{"type":"Feature","properties":{"kind":"piste","difficulty":"intermediate","name":"Dreierliftabfahrt","aerialway":null,"osm":"way/31111928"},"geometry":{"type":"LineString","coordinates":[[13.25387,46.56358],[13.25414,46.56352],[13.25434,46.56311],[13.2547,46.563],[13.25652,46.56286],[13.25776,46.56291],[13.25847,46.56349],[13.25923,46.56333],[13.2609,46.56261],[13.26204,46.5629],[13.26332,46.5635],[13.26509,46.56485]]}},{"type":"Feature","properties":{"kind":"piste","difficulty":"easy","name":"Bobo-Skiweg Lärchenboden","aerialway":null,"osm":"way/31111929"},"geometry":{"type":"LineString","coordinates":[[13.25652,46.56286],[13.25705,46.56259],[13.25718,46.56186],[13.25793,46.56172],[13.2587,46.56099],[13.26008,46.56076]]}},{"type":"Feature","properties":{"kind":"piste","difficulty":"intermediate","name":"Bobo-Skiweg Lärchenboden","aerialway":null,"osm":"way/31112858"},"geometry":{"type":"LineString","coordinates":[[13.26051,46.56091],[13.26085,46.56125],[13.26157,46.5616],[13.26295,46.56206],[13.26353,46.56194]]}},{"type":"Feature","properties":{"kind":"piste","difficulty":"intermediate","name":"Dreierliftabfahrt","aerialway":null,"osm":"way/31112859"},"geometry":{"type":"LineString","coordinates":[[13.25996,46.56301],[13.26196,46.56346],[13.26306,46.56437],[13.26462,46.56496],[13.26509,46.56485],[13.26602,46.5649],[13.26727,46.56463],[13.26813,46.56472],[13.26852,46.56463],[13.26924,46.56476],[13.27004,46.56553],[13.27139,46.56576],[13.27276,46.56571]]}},{"type":"Feature","properties":{"kind":"piste","difficulty":"intermediate","name":"Verbindungsabfahrt-Lärchenboden","aerialway":null,"osm":"way/31112860"},"geometry":{"type":"LineString","coordinates":[[13.2609,46.56261],[13.26361,46.56229],[13.26429,46.56209]]}},{"type":"Feature","properties":{"kind":"piste","difficulty":"intermediate","name":"Tröglabfahrt","aerialway":null,"osm":"way/31112862"},"geometry":{"type":"LineString","coordinates":[[13.26947,46.56593],[13.27004,46.56553]]}},{"type":"Feature","properties":{"kind":"piste","difficulty":"intermediate","name":"Tröglabfahrt","aerialway":null,"osm":"way/31112863"},"geometry":{"type":"LineString","coordinates":[[13.25798,46.56626],[13.26117,46.56609],[13.26279,46.56618]]}},{"type":"Feature","properties":{"kind":"piste","difficulty":"easy","name":"Bobo-Skiweg Tressdorfer Alm","aerialway":null,"osm":"way/31112864"},"geometry":{"type":"LineString","coordinates":[[13.25683,46.56619],[13.25774,46.5659],[13.25786,46.56574],[13.25781,46.56555],[13.25748,46.5652],[13.25769,46.56521],[13.25863,46.56558],[13.25913,46.56595],[13.25982,46.56578],[13.26003,46.56584],[13.26119,46.56733],[13.26106,46.56762],[13.26057,46.56799],[13.26092,46.56809],[13.26112,46.56844],[13.26073,46.56879],[13.26073,46.56894],[13.26101,46.56895],[13.26119,46.56923],[13.261,46.57064],[13.26055,46.57168],[13.25976,46.57268],[13.25939,46.57344],[13.2594,46.57375],[13.25959,46.57397],[13.26086,46.57425]]}},{"type":"Feature","properties":{"kind":"piste","difficulty":"easy","name":null,"aerialway":null,"osm":"way/31112865"},"geometry":{"type":"LineString","coordinates":[[13.26073,46.56894],[13.26073,46.57024]]}},{"type":"Feature","properties":{"kind":"piste","difficulty":"intermediate","name":null,"aerialway":null,"osm":"way/31118531"},"geometry":{"type":"LineString","coordinates":[[13.25474,46.56757],[13.25473,46.56735],[13.2549,46.56718],[13.25487,46.56536]]}},{"type":"Feature","properties":{"kind":"piste","difficulty":"easy","name":null,"aerialway":null,"osm":"way/31118533"},"geometry":{"type":"LineString","coordinates":[[13.25919,46.58335],[13.25831,46.58359],[13.25862,46.58369],[13.25913,46.58415]]}},{"type":"Feature","properties":{"kind":"piste","difficulty":"easy","name":null,"aerialway":null,"osm":"way/31118536"},"geometry":{"type":"LineString","coordinates":[[13.25867,46.58208],[13.25804,46.58245],[13.25735,46.58266],[13.25721,46.58283],[13.2573,46.58292],[13.25762,46.58276],[13.25786,46.5828],[13.25832,46.5831],[13.25919,46.58335]]}},{"type":"Feature","properties":{"kind":"piste","difficulty":"intermediate","name":"Tressdorfer Alm-Abfahrt","aerialway":null,"osm":"way/31118538"},"geometry":{"type":"LineString","coordinates":[[13.25599,46.56601],[13.25672,46.56792],[13.2578,46.5697],[13.25791,46.57256],[13.2578,46.57383],[13.25817,46.57457],[13.25818,46.57567],[13.2577,46.57908]]}},{"type":"Feature","properties":{"kind":"piste","difficulty":"easy","name":"Millennium-Abfahrt","aerialway":null,"osm":"way/31118540"},"geometry":{"type":"LineString","coordinates":[[13.26031,46.57282],[13.2602,46.57312],[13.26062,46.57375]]}},{"type":"Feature","properties":{"kind":"piste","difficulty":"easy","name":null,"aerialway":null,"osm":"way/31118541"},"geometry":{"type":"LineString","coordinates":[[13.26018,46.57498],[13.25902,46.57593],[13.25836,46.57704],[13.25792,46.57741]]}},{"type":"Feature","properties":{"kind":"piste","difficulty":"easy","name":"Tressdorfer-Alm-Übungswiese","aerialway":null,"osm":"way/31118543"},"geometry":{"type":"LineString","coordinates":[[13.2596,46.57549],[13.26125,46.57667],[13.26212,46.57789],[13.26265,46.57795],[13.26264,46.57787]]}},{"type":"Feature","properties":{"kind":"piste","difficulty":"easy","name":null,"aerialway":null,"osm":"way/31118544"},"geometry":{"type":"LineString","coordinates":[[13.26036,46.575],[13.26018,46.57498]]}},{"type":"Feature","properties":{"kind":"piste","difficulty":"easy","name":null,"aerialway":null,"osm":"way/31118546"},"geometry":{"type":"LineString","coordinates":[[13.26041,46.57498],[13.26042,46.57491]]}},{"type":"Feature","properties":{"kind":"piste","difficulty":"easy","name":"Tressdorfer-Alm-Übungsgelände","aerialway":null,"osm":"way/31118547"},"geometry":{"type":"LineString","coordinates":[[13.26085,46.57466],[13.26237,46.57666],[13.26295,46.57772],[13.26268,46.57785]]}},{"type":"Feature","properties":{"kind":"piste","difficulty":"easy","name":"Bobo-Skiweg Lockstanalm","aerialway":null,"osm":"way/31118548"},"geometry":{"type":"LineString","coordinates":[[13.25376,46.56385],[13.25283,46.56356],[13.25238,46.56296],[13.25016,46.56249],[13.248,46.56141],[13.2471,46.56124],[13.24724,46.56181],[13.24794,46.56213],[13.24797,46.56238],[13.24834,46.56282],[13.24822,46.56299],[13.2473,46.56296],[13.24663,46.56248],[13.24544,46.56222],[13.24471,46.56244],[13.24488,46.5629],[13.24524,46.56323],[13.24574,46.56339],[13.24582,46.56417],[13.24652,46.56542]]}},{"type":"Feature","properties":{"kind":"piste","difficulty":"easy","name":"Bobo-Skiweg Rudnig","aerialway":null,"osm":"way/31118549"},"geometry":{"type":"LineString","coordinates":[[13.22725,46.56446],[13.22784,46.56357],[13.22852,46.56295],[13.22866,46.56256],[13.22931,46.56221],[13.22954,46.56179]]}},{"type":"Feature","properties":{"kind":"piste","difficulty":"intermediate","name":"Sattelabfahrt","aerialway":null,"osm":"way/31118550"},"geometry":{"type":"LineString","coordinates":[[13.23545,46.56681],[13.23684,46.5659]]}},{"type":"Feature","properties":{"kind":"piste","difficulty":"advanced","name":"Zweikofel-Abfahrt","aerialway":null,"osm":"way/31118554"},"geometry":{"type":"LineString","coordinates":[[13.22713,46.58301],[13.22788,46.58354],[13.22789,46.58375],[13.22844,46.58415],[13.22979,46.58397],[13.23001,46.58415],[13.23027,46.58407],[13.23117,46.58464]]}},{"type":"Feature","properties":{"kind":"piste","difficulty":"easy","name":"Bobo-Skiweg Zweikofel","aerialway":null,"osm":"way/31118555"},"geometry":{"type":"LineString","coordinates":[[13.22713,46.58301],[13.22686,46.58317],[13.22695,46.58382],[13.22576,46.58365],[13.2253,46.5838],[13.22497,46.58412],[13.22469,46.58415],[13.22584,46.58411],[13.22668,46.58427],[13.22672,46.58443],[13.22548,46.58448],[13.22545,46.58515],[13.22585,46.58551],[13.22767,46.58556],[13.23032,46.58459],[13.23117,46.58464]]}},{"type":"Feature","properties":{"kind":"piste","difficulty":"intermediate","name":"Schwefelbodenabfahrt","aerialway":null,"osm":"way/31309358"},"geometry":{"type":"LineString","coordinates":[[13.26511,46.56225],[13.26603,46.56286],[13.26593,46.5637],[13.26602,46.56398],[13.26691,46.5647]]}},{"type":"Feature","properties":{"kind":"piste","difficulty":"intermediate","name":"Kammabfahrt","aerialway":null,"osm":"way/31363344"},"geometry":{"type":"LineString","coordinates":[[13.25358,46.56348],[13.25306,46.56429],[13.25237,46.56465],[13.25213,46.56493],[13.2521,46.56525],[13.25234,46.56575]]}},{"type":"Feature","properties":{"kind":"piste","difficulty":"intermediate","name":"Speed-test","aerialway":null,"osm":"way/31363345"},"geometry":{"type":"LineString","coordinates":[[13.22908,46.5659],[13.22966,46.5676],[13.2298,46.56772],[13.23071,46.56778]]}},{"type":"Feature","properties":{"kind":"piste","difficulty":"intermediate","name":null,"aerialway":null,"osm":"way/31364558"},"geometry":{"type":"LineString","coordinates":[[13.3122,46.55768],[13.31216,46.55842],[13.31083,46.55904]]}},{"type":"Feature","properties":{"kind":"piste","difficulty":"intermediate","name":null,"aerialway":null,"osm":"way/31364559"},"geometry":{"type":"LineString","coordinates":[[13.30027,46.56805],[13.29996,46.56717],[13.30022,46.56646]]}},{"type":"Feature","properties":{"kind":"piste","difficulty":"intermediate","name":null,"aerialway":null,"osm":"way/31364560"},"geometry":{"type":"LineString","coordinates":[[13.2992,46.56606],[13.29965,46.56548],[13.29964,46.56524],[13.29941,46.56494]]}},{"type":"Feature","properties":{"kind":"piste","difficulty":"intermediate","name":null,"aerialway":null,"osm":"way/31364561"},"geometry":{"type":"LineString","coordinates":[[13.29759,46.56467],[13.29695,46.56484],[13.29362,46.56463],[13.29195,46.56431]]}},{"type":"Feature","properties":{"kind":"piste","difficulty":"intermediate","name":null,"aerialway":null,"osm":"way/31364563"},"geometry":{"type":"LineString","coordinates":[[13.29614,46.56477],[13.29501,46.56588]]}},{"type":"Feature","properties":{"kind":"piste","difficulty":"intermediate","name":null,"aerialway":null,"osm":"way/31364564"},"geometry":{"type":"LineString","coordinates":[[13.29614,46.56477],[13.29507,46.56535],[13.29501,46.56588]]}},{"type":"Feature","properties":{"kind":"piste","difficulty":"intermediate","name":null,"aerialway":null,"osm":"way/31364565"},"geometry":{"type":"LineString","coordinates":[[13.29911,46.56639],[13.30004,46.56555],[13.30045,46.56534],[13.30042,46.56573]]}},{"type":"Feature","properties":{"kind":"piste","difficulty":"easy","name":null,"aerialway":null,"osm":"way/31364566"},"geometry":{"type":"LineString","coordinates":[[13.28609,46.56537],[13.28639,46.56597]]}},{"type":"Feature","properties":{"kind":"piste","difficulty":"easy","name":null,"aerialway":null,"osm":"way/31364567"},"geometry":{"type":"LineString","coordinates":[[13.2875,46.56457],[13.28825,46.56546],[13.28774,46.56614],[13.28658,46.56665]]}},{"type":"Feature","properties":{"kind":"piste","difficulty":"easy","name":null,"aerialway":null,"osm":"way/31364568"},"geometry":{"type":"LineString","coordinates":[[13.28812,46.56557],[13.28639,46.56597]]}},{"type":"Feature","properties":{"kind":"piste","difficulty":"easy","name":null,"aerialway":null,"osm":"way/31364569"},"geometry":{"type":"LineString","coordinates":[[13.29157,46.56704],[13.28984,46.56676],[13.28968,46.56662],[13.28964,46.56621],[13.28908,46.56585],[13.28879,46.56585],[13.28829,46.56611],[13.28774,46.56614]]}},{"type":"Feature","properties":{"kind":"piste","difficulty":"easy","name":null,"aerialway":null,"osm":"way/31364570"},"geometry":{"type":"LineString","coordinates":[[13.28855,46.56597],[13.28812,46.56557]]}},{"type":"Feature","properties":{"kind":"piste","difficulty":"intermediate","name":"Scheibelbodenabfahrt","aerialway":null,"osm":"way/31364571"},"geometry":{"type":"LineString","coordinates":[[13.25197,46.56091],[13.252,46.56074],[13.25174,46.56058],[13.25064,46.56089]]}},{"type":"Feature","properties":{"kind":"piste","difficulty":"intermediate","name":"Scheibelbodenabfahrt","aerialway":null,"osm":"way/31364572"},"geometry":{"type":"LineString","coordinates":[[13.24492,46.56207],[13.24432,46.56234],[13.24367,46.5624],[13.24344,46.56275],[13.24402,46.56359],[13.24442,46.565]]}},{"type":"Feature","properties":{"kind":"piste","difficulty":"intermediate","name":"Kammabfahrt","aerialway":null,"osm":"way/31364573"},"geometry":{"type":"LineString","coordinates":[[13.25473,46.56735],[13.254,46.56655],[13.25311,46.56616],[13.25175,46.56602]]}},{"type":"Feature","properties":{"kind":"piste","difficulty":"easy","name":null,"aerialway":null,"osm":"way/31364575"},"geometry":{"type":"LineString","coordinates":[[13.26073,46.57024],[13.26068,46.57078],[13.26041,46.57131],[13.25963,46.57218],[13.25909,46.57254],[13.25835,46.57274],[13.25785,46.57317]]}},{"type":"Feature","properties":{"kind":"piste","difficulty":"easy","name":null,"aerialway":null,"osm":"way/31364577"},"geometry":{"type":"LineString","coordinates":[[13.25785,46.57317],[13.2594,46.57375]]}},{"type":"Feature","properties":{"kind":"piste","difficulty":"easy","name":null,"aerialway":null,"osm":"way/31364581"},"geometry":{"type":"LineString","coordinates":[[13.25794,46.57694],[13.25747,46.57726],[13.257,46.57789],[13.25653,46.57808]]}},{"type":"Feature","properties":{"kind":"piste","difficulty":"novice","name":"Eggerboden-Übungsgelände","aerialway":null,"osm":"way/31364585"},"geometry":{"type":"LineString","coordinates":[[13.26045,46.58233],[13.26089,46.58225],[13.26115,46.58248],[13.26064,46.58357],[13.26042,46.5837]]}},{"type":"Feature","properties":{"kind":"piste","difficulty":"intermediate","name":"Sattelabfahrt","aerialway":null,"osm":"way/31364701"},"geometry":{"type":"LineString","coordinates":[[13.23735,46.5648],[13.2378,46.56539],[13.23808,46.5655]]}},{"type":"Feature","properties":{"kind":"piste","difficulty":"intermediate","name":null,"aerialway":null,"osm":"way/31569142"},"geometry":{"type":"LineString","coordinates":[[13.29501,46.56588],[13.29565,46.56654],[13.29547,46.56686],[13.29434,46.56692],[13.29418,46.56717]]}},{"type":"Feature","properties":{"kind":"piste","difficulty":"easy","name":"Lärchenboden-Abfahrt","aerialway":null,"osm":"way/150005020"},"geometry":{"type":"LineString","coordinates":[[13.27348,46.56105],[13.27334,46.56135],[13.27421,46.5631]]}},{"type":"Feature","properties":{"kind":"piste","difficulty":"easy","name":"Lärchenboden-Abfahrt","aerialway":null,"osm":"way/150005022"},"geometry":{"type":"LineString","coordinates":[[13.27396,46.56312],[13.27421,46.5631],[13.27446,46.56276]]}},{"type":"Feature","properties":{"kind":"piste","difficulty":"easy","name":null,"aerialway":null,"osm":"way/150005026"},"geometry":{"type":"LineString","coordinates":[[13.2739,46.56292],[13.27383,46.56285]]}},{"type":"Feature","properties":{"kind":"piste","difficulty":"intermediate","name":"Lärchenboden-Abfahrt","aerialway":null,"osm":"way/150081861"},"geometry":{"type":"LineString","coordinates":[[13.25326,46.5606],[13.25336,46.56048],[13.25394,46.56043]]}},{"type":"Feature","properties":{"kind":"piste","difficulty":"intermediate","name":"Sattelabfahrt","aerialway":null,"osm":"way/191946833"},"geometry":{"type":"LineString","coordinates":[[13.23684,46.5659],[13.23702,46.56583]]}},{"type":"Feature","properties":{"kind":"piste","difficulty":"intermediate","name":"Sattelabfahrt","aerialway":null,"osm":"way/191946834"},"geometry":{"type":"LineString","coordinates":[[13.23702,46.56583],[13.23851,46.5654],[13.24049,46.56512]]}},{"type":"Feature","properties":{"kind":"piste","difficulty":"intermediate","name":null,"aerialway":null,"osm":"way/335584161"},"geometry":{"type":"LineString","coordinates":[[13.27794,46.56626],[13.27764,46.56605]]}},{"type":"Feature","properties":{"kind":"piste","difficulty":"intermediate","name":null,"aerialway":null,"osm":"way/335584162"},"geometry":{"type":"LineString","coordinates":[[13.27702,46.56623],[13.27725,46.5665]]}},{"type":"Feature","properties":{"kind":"piste","difficulty":"easy","name":null,"aerialway":null,"osm":"way/335584163"},"geometry":{"type":"LineString","coordinates":[[13.2378,46.5715],[13.23731,46.57269],[13.23681,46.57315]]}},{"type":"Feature","properties":{"kind":"piste","difficulty":"intermediate","name":"Carnia - Talabfahrt","aerialway":null,"osm":"way/335584164"},"geometry":{"type":"LineString","coordinates":[[13.27326,46.59883],[13.27356,46.60022],[13.27336,46.60076],[13.27345,46.60124],[13.27374,46.60149],[13.27465,46.60164],[13.27578,46.60249],[13.27623,46.6034],[13.27631,46.60391],[13.27783,46.60521],[13.27837,46.60596],[13.27932,46.60814],[13.27919,46.61014],[13.2789,46.61081],[13.27897,46.61138],[13.27913,46.61152],[13.27936,46.61147]]}},{"type":"Feature","properties":{"kind":"piste","difficulty":"intermediate","name":"Carnia - Talabfahrt","aerialway":null,"osm":"way/335584165"},"geometry":{"type":"LineString","coordinates":[[13.27331,46.59752],[13.27348,46.59749],[13.27365,46.5982],[13.27326,46.59883]]}},{"type":"Feature","properties":{"kind":"piste","difficulty":"intermediate","name":"FIS-Abfahrt","aerialway":null,"osm":"way/335584166"},"geometry":{"type":"LineString","coordinates":[[13.30057,46.56899],[13.29954,46.5695],[13.29871,46.57025],[13.29695,46.57151],[13.29655,46.57164],[13.29631,46.57143],[13.29636,46.57061],[13.29608,46.56989],[13.29583,46.56966],[13.29392,46.56891],[13.29164,46.56868],[13.28868,46.56819],[13.28779,46.56822],[13.28544,46.56882],[13.28193,46.56858],[13.28112,46.56822],[13.27949,46.56715],[13.27879,46.56687],[13.27834,46.56636],[13.27794,46.56626]]}},{"type":"Feature","properties":{"kind":"piste","difficulty":"intermediate","name":"Sattelabfahrt","aerialway":null,"osm":"way/335584167"},"geometry":{"type":"LineString","coordinates":[[13.23654,46.56314],[13.2372,46.56429],[13.23735,46.5648],[13.23679,46.56646],[13.23691,46.56721]]}},{"type":"Feature","properties":{"kind":"piste","difficulty":"intermediate","name":"Schnittlauchkofel-Abfahrt","aerialway":null,"osm":"way/335584168"},"geometry":{"type":"LineString","coordinates":[[13.23917,46.57287],[13.23895,46.57375],[13.23896,46.57512],[13.23957,46.57611]]}},{"type":"Feature","properties":{"kind":"piste","difficulty":"advanced","name":"Trogkofelabfahrt","aerialway":null,"osm":"way/335584169"},"geometry":{"type":"LineString","coordinates":[[13.23681,46.57315],[13.23659,46.57379],[13.23705,46.57455],[13.23746,46.57488],[13.23814,46.57511]]}},{"type":"Feature","properties":{"kind":"piste","difficulty":"intermediate","name":null,"aerialway":null,"osm":"way/393043379"},"geometry":{"type":"LineString","coordinates":[[13.22962,46.56109],[13.22939,46.56123],[13.22927,46.56163],[13.22976,46.56192],[13.23076,46.56208],[13.23167,46.56255],[13.23449,46.56247],[13.23618,46.56275]]}},{"type":"Feature","properties":{"kind":"piste","difficulty":"intermediate","name":"Sattelabfahrt","aerialway":null,"osm":"way/399081186"},"geometry":{"type":"LineString","coordinates":[[13.23435,46.56129],[13.23555,46.56205],[13.23654,46.56314],[13.23815,46.56357],[13.23888,46.56396],[13.23985,46.56474],[13.24151,46.56569],[13.24348,46.56627],[13.24398,46.5665],[13.2441,46.5668]]}},{"type":"Feature","properties":{"kind":"piste","difficulty":"easy","name":"Bobo-Skiweg Rudnig","aerialway":null,"osm":"way/477184306"},"geometry":{"type":"LineString","coordinates":[[13.2313,46.56236],[13.23161,46.56221],[13.23174,46.56177],[13.23237,46.56139],[13.23301,46.56122],[13.23435,46.56129]]}},{"type":"Feature","properties":{"kind":"piste","difficulty":"intermediate","name":"Scheibelbodenabfahrt","aerialway":null,"osm":"way/477184307"},"geometry":{"type":"LineString","coordinates":[[13.24442,46.565],[13.24454,46.5663],[13.2438,46.5661]]}},{"type":"Feature","properties":{"kind":"piste","difficulty":"intermediate","name":"Sattelabfahrt","aerialway":null,"osm":"way/477184309"},"geometry":{"type":"LineString","coordinates":[[13.24398,46.5665],[13.24426,46.56646],[13.24428,46.5663]]}},{"type":"Feature","properties":{"kind":"piste","difficulty":"intermediate","name":"The Snake","aerialway":null,"osm":"way/477184318"},"geometry":{"type":"LineString","coordinates":[[13.26379,46.56113],[13.26417,46.56122]]}},{"type":"Feature","properties":{"kind":"piste","difficulty":"intermediate","name":"Slalom 1","aerialway":null,"osm":"way/560738960"},"geometry":{"type":"LineString","coordinates":[[13.27662,46.60441],[13.27755,46.60514],[13.27828,46.606],[13.27913,46.60796],[13.27909,46.60978]]}},{"type":"Feature","properties":{"kind":"piste","difficulty":"novice","name":"Eggerboden-Übungsgelände","aerialway":null,"osm":"way/1033795936"},"geometry":{"type":"LineString","coordinates":[[13.26033,46.58237],[13.26024,46.58298],[13.26042,46.5837]]}},{"type":"Feature","properties":{"kind":"piste","difficulty":"novice","name":null,"aerialway":null,"osm":"way/1033795939"},"geometry":{"type":"LineString","coordinates":[[13.26042,46.5837],[13.25913,46.58415]]}},{"type":"Feature","properties":{"kind":"piste","difficulty":"novice","name":null,"aerialway":null,"osm":"way/1034076545"},"geometry":{"type":"LineString","coordinates":[[13.27328,46.561],[13.27324,46.56076]]}},{"type":"Feature","properties":{"kind":"piste","difficulty":"novice","name":null,"aerialway":null,"osm":"way/1034076546"},"geometry":{"type":"LineString","coordinates":[[13.27328,46.561],[13.27348,46.56105]]}},{"type":"Feature","properties":{"kind":"piste","difficulty":"intermediate","name":"Zweikofel-Abfahrt","aerialway":null,"osm":"way/1148157531"},"geometry":{"type":"LineString","coordinates":[[13.22983,46.58145],[13.23097,46.58164],[13.23231,46.58218],[13.23418,46.58217]]}},{"type":"Feature","properties":{"kind":"piste","difficulty":"intermediate","name":"Leitern-Abfahrt","aerialway":null,"osm":"way/1257456768"},"geometry":{"type":"LineString","coordinates":[[13.25653,46.57808],[13.2577,46.57908],[13.25809,46.58054],[13.25919,46.58335],[13.25903,46.58459],[13.2588,46.58461],[13.25876,46.58445]]}},{"type":"Feature","properties":{"kind":"piste","difficulty":"intermediate","name":null,"aerialway":null,"osm":"way/1257458952"},"geometry":{"type":"LineString","coordinates":[[13.25454,46.57518],[13.25493,46.57451],[13.25575,46.57422],[13.25683,46.57419],[13.25699,46.57434],[13.25677,46.57496],[13.25697,46.57513],[13.25753,46.57497],[13.25817,46.57457]]}},{"type":"Feature","properties":{"kind":"piste","difficulty":"easy","name":"Umfahrung Flachstück","aerialway":null,"osm":"way/1343407093"},"geometry":{"type":"LineString","coordinates":[[13.24206,46.59282],[13.24206,46.59294],[13.24286,46.59324],[13.2429,46.59344],[13.24253,46.59369],[13.24257,46.59382],[13.24454,46.5942],[13.24636,46.59417],[13.24656,46.59432]]}},{"type":"Feature","properties":{"kind":"piste","difficulty":"easy","name":"Umfahrung Flachstück Carnia","aerialway":null,"osm":"way/1343407094"},"geometry":{"type":"LineString","coordinates":[[13.24206,46.59294],[13.24286,46.59324],[13.2429,46.59344],[13.24253,46.59369],[13.24257,46.59382],[13.24454,46.5942],[13.24636,46.59417],[13.24694,46.59464],[13.24746,46.59529],[13.24698,46.59603],[13.24731,46.59624]]}},{"type":"Feature","properties":{"kind":"piste","difficulty":"novice","name":"Eggerboden-Übungsgelände","aerialway":null,"osm":"way/1361183412"},"geometry":{"type":"LineString","coordinates":[[13.26042,46.5837],[13.26053,46.58357]]}},{"type":"Feature","properties":{"kind":"piste","difficulty":"easy","name":null,"aerialway":null,"osm":"way/1435896502"},"geometry":{"type":"LineString","coordinates":[[13.26046,46.57244],[13.26097,46.57266],[13.26123,46.57345],[13.26277,46.57364]]}},{"type":"Feature","properties":{"kind":"piste","difficulty":"easy","name":"Millennium-Abfahrt","aerialway":null,"osm":"way/1435896504"},"geometry":{"type":"LineString","coordinates":[[13.26086,46.57425],[13.26139,46.57426]]}},{"type":"Feature","properties":{"kind":"piste","difficulty":"easy","name":null,"aerialway":null,"osm":"way/1481235560"},"geometry":{"type":"LineString","coordinates":[[13.27926,46.60915],[13.27998,46.60958],[13.28099,46.60956]]}},{"type":"Feature","properties":{"kind":"piste","difficulty":"easy","name":null,"aerialway":null,"osm":"way/1481235561"},"geometry":{"type":"LineString","coordinates":[[13.28099,46.60956],[13.27994,46.60979],[13.27902,46.61054]]}},{"type":"Feature","properties":{"kind":"piste","difficulty":"easy","name":null,"aerialway":null,"osm":"way/1537732843"},"geometry":{"type":"LineString","coordinates":[[13.26033,46.58237],[13.25985,46.58289],[13.25919,46.58335]]}},{"type":"Feature","properties":{"kind":"piste","difficulty":"novice","name":"Eggerboden-Übungsgelände","aerialway":null,"osm":"way/1537732844"},"geometry":{"type":"LineString","coordinates":[[13.26045,46.58233],[13.26033,46.58237]]}},{"type":"Feature","properties":{"kind":"piste","difficulty":"easy","name":null,"aerialway":null,"osm":"way/1537732845"},"geometry":{"type":"LineString","coordinates":[[13.26265,46.57795],[13.26278,46.57788]]}},{"type":"Feature","properties":{"kind":"piste","difficulty":"easy","name":null,"aerialway":null,"osm":"way/1537732846"},"geometry":{"type":"LineString","coordinates":[[13.26086,46.57425],[13.26085,46.57466],[13.26018,46.57498]]}},{"type":"Feature","properties":{"kind":"piste","difficulty":"easy","name":"Lärchenboden-Abfahrt","aerialway":null,"osm":"way/1537732847"},"geometry":{"type":"LineString","coordinates":[[13.27295,46.56088],[13.27299,46.5611],[13.27334,46.56135]]}},{"type":"Feature","properties":{"kind":"piste","difficulty":"easy","name":"Millennium-Abfahrt","aerialway":null,"osm":"way/1537732848"},"geometry":{"type":"LineString","coordinates":[[13.26062,46.57375],[13.26086,46.57425]]}},{"type":"Feature","properties":{"kind":"piste","difficulty":"easy","name":null,"aerialway":null,"osm":"way/1537732849"},"geometry":{"type":"LineString","coordinates":[[13.26062,46.57375],[13.26277,46.57364]]}},{"type":"Feature","properties":{"kind":"piste","difficulty":"easy","name":null,"aerialway":null,"osm":"way/1537732850"},"geometry":{"type":"LineString","coordinates":[[13.26218,46.57367],[13.26183,46.57353]]}},{"type":"Feature","properties":{"kind":"piste","difficulty":"easy","name":null,"aerialway":null,"osm":"way/1537732851"},"geometry":{"type":"LineString","coordinates":[[13.26123,46.57345],[13.26062,46.57375]]}},{"type":"Feature","properties":{"kind":"piste","difficulty":"freeride","name":"ehemalige rote Piste","aerialway":null,"osm":"way/1540957836"},"geometry":{"type":"LineString","coordinates":[[13.25909,46.58436],[13.26026,46.58472],[13.26036,46.58505],[13.25976,46.58611],[13.26033,46.58677],[13.26195,46.58751],[13.26246,46.58851],[13.26268,46.58863]]}},{"type":"Feature","properties":{"kind":"lift","difficulty":null,"name":"Millennium-Express Sektion I","aerialway":"gondola","osm":"way/26976014"},"geometry":{"type":"LineString","coordinates":[[13.27936,46.61147],[13.27331,46.59752]]}},{"type":"Feature","properties":{"kind":"lift","difficulty":null,"name":"Gartnerkofelbahn","aerialway":"gondola","osm":"way/26976015"},"geometry":{"type":"LineString","coordinates":[[13.2776,46.5667],[13.29896,46.56682]]}},{"type":"Feature","properties":{"kind":"lift","difficulty":null,"name":"Millennium-Express Sektion III","aerialway":"gondola","osm":"way/29385168"},"geometry":{"type":"LineString","coordinates":[[13.26139,46.57426],[13.25318,46.56111]]}},{"type":"Feature","properties":{"kind":"lift","difficulty":null,"name":"Millennium-Express Sektion II","aerialway":"gondola","osm":"way/29385169"},"geometry":{"type":"LineString","coordinates":[[13.27331,46.59752],[13.26139,46.57426]]}},{"type":"Feature","properties":{"kind":"lift","difficulty":null,"name":"Zweikofelbahn","aerialway":"gondola","osm":"way/29385170"},"geometry":{"type":"LineString","coordinates":[[13.24265,46.57861],[13.22715,46.58241]]}},{"type":"Feature","properties":{"kind":"lift","difficulty":null,"name":"Trogkofelbahn","aerialway":"gondola","osm":"way/29385171"},"geometry":{"type":"LineString","coordinates":[[13.24263,46.57773],[13.22675,46.56435]]}},{"type":"Feature","properties":{"kind":"lift","difficulty":null,"name":"6er Mössernbahn","aerialway":"chair_lift","osm":"way/29385179"},"geometry":{"type":"LineString","coordinates":[[13.24409,46.56745],[13.25197,46.56091]]}},{"type":"Feature","properties":{"kind":"lift","difficulty":null,"name":"Trögl-6er-Sesselbahn","aerialway":"chair_lift","osm":"way/29385182"},"geometry":{"type":"LineString","coordinates":[[13.2773,46.56587],[13.2547,46.56497]]}},{"type":"Feature","properties":{"kind":"lift","difficulty":null,"name":"Madritschen","aerialway":"chair_lift","osm":"way/29385185"},"geometry":{"type":"LineString","coordinates":[[13.27446,46.56276],[13.25334,46.56064]]}},{"type":"Feature","properties":{"kind":"lift","difficulty":null,"name":"Kanonenrohrlift","aerialway":"t-bar","osm":"way/29385189"},"geometry":{"type":"LineString","coordinates":[[13.26404,46.56086],[13.26015,46.55793]]}},{"type":"Feature","properties":{"kind":"lift","difficulty":null,"name":"Babydoppellift II","aerialway":"platter","osm":"way/29385193"},"geometry":{"type":"LineString","coordinates":[[13.27387,46.5629],[13.27259,46.56099]]}},{"type":"Feature","properties":{"kind":"lift","difficulty":null,"name":"Babydoppellift I","aerialway":"platter","osm":"way/29385195"},"geometry":{"type":"LineString","coordinates":[[13.27382,46.56291],[13.27255,46.561]]}},{"type":"Feature","properties":{"kind":"lift","difficulty":null,"name":"Babylift","aerialway":"platter","osm":"way/29385198"},"geometry":{"type":"LineString","coordinates":[[13.27496,46.56017],[13.27313,46.56107]]}},{"type":"Feature","properties":{"kind":"lift","difficulty":null,"name":"4er-SB FIS","aerialway":"chair_lift","osm":"way/29385199"},"geometry":{"type":"LineString","coordinates":[[13.30042,46.56573],[13.30055,46.56879]]}},{"type":"Feature","properties":{"kind":"lift","difficulty":null,"name":"6er-SB Garnitzen II \"La Perla\"","aerialway":"chair_lift","osm":"way/29385200"},"geometry":{"type":"LineString","coordinates":[[13.31605,46.56013],[13.304,46.55727]]}},{"type":"Feature","properties":{"kind":"lift","difficulty":null,"name":"6er-SB Garnitzen I \"La Prima\"","aerialway":"chair_lift","osm":"way/29385201"},"geometry":{"type":"LineString","coordinates":[[13.31599,46.56037],[13.29933,46.56566]]}},{"type":"Feature","properties":{"kind":"lift","difficulty":null,"name":"Rossalmlift","aerialway":"platter","osm":"way/29430686"},"geometry":{"type":"LineString","coordinates":[[13.26323,46.57344],[13.26099,46.57175]]}},{"type":"Feature","properties":{"kind":"lift","difficulty":null,"name":"Watschiger-Alm-Lift","aerialway":"t-bar","osm":"way/31111914"},"geometry":{"type":"LineString","coordinates":[[13.28692,46.56815],[13.29509,46.56725]]}},{"type":"Feature","properties":{"kind":"lift","difficulty":null,"name":"Sonnleitn-4er-Sesselbahn","aerialway":"chair_lift","osm":"way/31118530"},"geometry":{"type":"LineString","coordinates":[[13.25876,46.58445],[13.25474,46.56757]]}},{"type":"Feature","properties":{"kind":"lift","difficulty":null,"name":"Tressdorfer Alm-Übungslift","aerialway":"platter","osm":"way/31118542"},"geometry":{"type":"LineString","coordinates":[[13.26266,46.5779],[13.2601,46.57467]]}},{"type":"Feature","properties":{"kind":"lift","difficulty":null,"name":"Kuhalmlift","aerialway":"platter","osm":"way/31118545"},"geometry":{"type":"LineString","coordinates":[[13.2627,46.57789],[13.26014,46.57465]]}},{"type":"Feature","properties":{"kind":"lift","difficulty":null,"name":"Schlanitzer Übungslift","aerialway":"platter","osm":"way/31364584"},"geometry":{"type":"LineString","coordinates":[[13.26053,46.58362],[13.26043,46.58193]]}},{"type":"Feature","properties":{"kind":"lift","difficulty":null,"name":"Schlanitzer Babylift","aerialway":"magic_carpet","osm":"way/31364588"},"geometry":{"type":"LineString","coordinates":[[13.26141,46.58211],[13.26082,46.58193]]}},{"type":"Feature","properties":{"kind":"lift","difficulty":null,"name":"Übungslift Tröpolach I","aerialway":"magic_carpet","osm":"way/335577193"},"geometry":{"type":"LineString","coordinates":[[13.27849,46.61093],[13.27838,46.61023]]}},{"type":"Feature","properties":{"kind":"lift","difficulty":null,"name":"Rudnigsattelbahn","aerialway":"chair_lift","osm":"way/393043378"},"geometry":{"type":"LineString","coordinates":[[13.2438,46.5661],[13.22962,46.56109]]}},{"type":"Feature","properties":{"kind":"lift","difficulty":null,"name":"Übungslift Tröpolach II","aerialway":"magic_carpet","osm":"way/899946975"},"geometry":{"type":"LineString","coordinates":[[13.27868,46.61096],[13.2786,46.61053]]}},{"type":"Feature","properties":{"kind":"lift","difficulty":null,"name":null,"aerialway":"magic_carpet","osm":"way/1257445104"},"geometry":{"type":"LineString","coordinates":[[13.25999,46.57379],[13.26006,46.5739]]}},{"type":"Feature","properties":{"kind":"lift","difficulty":null,"name":"Skischullift Tressdorfer Alm","aerialway":"magic_carpet","osm":"way/1257445105"},"geometry":{"type":"LineString","coordinates":[[13.26007,46.57361],[13.26026,46.57392]]}},{"type":"Feature","properties":{"kind":"lift","difficulty":null,"name":"Übungsgelände Tressdorfer Alm","aerialway":"magic_carpet","osm":"way/1257445106"},"geometry":{"type":"LineString","coordinates":[[13.26183,46.57353],[13.26097,46.57266]]}}]}