{"type":"FeatureCollection","features":[{"type":"Feature","properties":{"kind":"piste","difficulty":"intermediate","name":"Burgstallofen-Bahn","aerialway":null,"osm":"way/44480015"},"geometry":{"type":"LineString","coordinates":[[14.94286,46.79819],[14.94292,46.79808],[14.9431,46.79816],[14.94286,46.79922],[14.94058,46.8065],[14.94016,46.80874],[14.9393,46.81076],[14.93893,46.81077]]}},{"type":"Feature","properties":{"kind":"piste","difficulty":"intermediate","name":"Hipfabfahrt III","aerialway":null,"osm":"way/44480016"},"geometry":{"type":"LineString","coordinates":[[14.95663,46.8037],[14.95632,46.80395],[14.95515,46.80439],[14.94957,46.80589],[14.9489,46.80586],[14.94849,46.80567]]}},{"type":"Feature","properties":{"kind":"lift","difficulty":null,"name":"Raiffeisenlift","aerialway":"t-bar","osm":"way/44480017"},"geometry":{"type":"LineString","coordinates":[[14.94816,46.80581],[14.94655,46.80077]]}},{"type":"Feature","properties":{"kind":"piste","difficulty":"easy","name":"Raiffeisen-abfahrt","aerialway":null,"osm":"way/44480018"},"geometry":{"type":"LineString","coordinates":[[14.94569,46.80141],[14.94625,46.8019],[14.94625,46.80451],[14.94603,46.80685],[14.94622,46.80721],[14.9465,46.80721],[14.94775,46.80607],[14.94809,46.80603]]}},{"type":"Feature","properties":{"kind":"lift","difficulty":null,"name":"Wasserhanggipfellift","aerialway":"t-bar","osm":"way/44480019"},"geometry":{"type":"LineString","coordinates":[[14.94706,46.7908],[14.95941,46.79388]]}},{"type":"Feature","properties":{"kind":"piste","difficulty":"easy","name":null,"aerialway":null,"osm":"way/155288214"},"geometry":{"type":"LineString","coordinates":[[14.94687,46.79655],[14.94691,46.79553],[14.94761,46.7939],[14.94773,46.79324],[14.9486,46.79143]]}},{"type":"Feature","properties":{"kind":"piste","difficulty":"easy","name":null,"aerialway":null,"osm":"way/567924232"},"geometry":{"type":"LineString","coordinates":[[14.94665,46.8011],[14.94598,46.80166]]}},{"type":"Feature","properties":{"kind":"piste","difficulty":"advanced","name":"Frantschacher-Abfahrt","aerialway":null,"osm":"way/567924233"},"geometry":{"type":"LineString","coordinates":[[14.95841,46.80058],[14.95255,46.80148],[14.95119,46.80192]]}},{"type":"Feature","properties":{"kind":"piste","difficulty":"intermediate","name":"FIS-Slalomstrecke","aerialway":null,"osm":"way/567924234"},"geometry":{"type":"LineString","coordinates":[[14.95622,46.80355],[14.94885,46.80518]]}},{"type":"Feature","properties":{"kind":"piste","difficulty":"easy","name":"Verbindung Burgstallofen-Wasserhang","aerialway":null,"osm":"way/567924235"},"geometry":{"type":"LineString","coordinates":[[14.94292,46.79808],[14.9434,46.79785],[14.94528,46.79611],[14.94704,46.79306],[14.94766,46.79121]]}},{"type":"Feature","properties":{"kind":"piste","difficulty":"easy","name":null,"aerialway":null,"osm":"way/567924236"},"geometry":{"type":"LineString","coordinates":[[14.94796,46.79708],[14.94723,46.79691],[14.94687,46.79655]]}},{"type":"Feature","properties":{"kind":"piste","difficulty":"easy","name":"Verbindung Steinschneider-Burgstallofen","aerialway":null,"osm":"way/567924237"},"geometry":{"type":"LineString","coordinates":[[14.94861,46.79702],[14.9431,46.79816]]}},{"type":"Feature","properties":{"kind":"piste","difficulty":"intermediate","name":"Märchenwiese","aerialway":null,"osm":"way/567924238"},"geometry":{"type":"LineString","coordinates":[[14.94305,46.79836],[14.94229,46.79859],[14.941,46.80092],[14.94102,46.80173],[14.94076,46.80272],[14.93988,46.80431],[14.94011,46.80591],[14.94051,46.80683]]}},{"type":"Feature","properties":{"kind":"piste","difficulty":"easy","name":null,"aerialway":null,"osm":"way/567924239"},"geometry":{"type":"LineString","coordinates":[[14.9431,46.79816],[14.94319,46.79893],[14.94569,46.80141]]}},{"type":"Feature","properties":{"kind":"piste","difficulty":"easy","name":"Trafo-abfahrt","aerialway":null,"osm":"way/567924240"},"geometry":{"type":"LineString","coordinates":[[14.94625,46.8019],[14.94495,46.80287],[14.94335,46.80552],[14.94159,46.80778],[14.94132,46.8086],[14.93987,46.80953]]}},{"type":"Feature","properties":{"kind":"lift","difficulty":null,"name":"Burgstallofenlift","aerialway":"chair_lift","osm":"way/567924241"},"geometry":{"type":"LineString","coordinates":[[14.93893,46.81077],[14.94286,46.79819]]}},{"type":"Feature","properties":{"kind":"piste","difficulty":"intermediate","name":"Steinschneiderabfahrt","aerialway":null,"osm":"way/567924242"},"geometry":{"type":"LineString","coordinates":[[14.94832,46.79701],[14.94682,46.80009],[14.94595,46.80091],[14.94569,46.80141]]}},{"type":"Feature","properties":{"kind":"lift","difficulty":null,"name":"Steínschneiderlift","aerialway":"t-bar","osm":"way/567924243"},"geometry":{"type":"LineString","coordinates":[[14.94826,46.80591],[14.94674,46.80118],[14.94887,46.79642]]}},{"type":"Feature","properties":{"kind":"piste","difficulty":"intermediate","name":"Familienabfahrt","aerialway":null,"osm":"way/567924244"},"geometry":{"type":"LineString","coordinates":[[14.95663,46.8037],[14.95622,46.80355],[14.956,46.80331]]}},{"type":"Feature","properties":{"kind":"lift","difficulty":null,"name":"Hipfllift","aerialway":"drag_lift","osm":"way/567924245"},"geometry":{"type":"LineString","coordinates":[[14.9488,46.80565],[14.9572,46.80355]]}},{"type":"Feature","properties":{"kind":"piste","difficulty":"intermediate","name":"Familienabfahrt","aerialway":null,"osm":"way/567924246"},"geometry":{"type":"LineString","coordinates":[[14.95871,46.7939],[14.95863,46.79448],[14.95823,46.79498],[14.95802,46.79572],[14.95873,46.79663],[14.9589,46.79808],[14.95869,46.79839],[14.95866,46.7996],[14.95846,46.80045],[14.95742,46.80236],[14.95631,46.80331],[14.95489,46.80332],[14.95376,46.80292],[14.95188,46.80198],[14.95119,46.80192],[14.95035,46.80209],[14.94967,46.80242],[14.94945,46.80276],[14.94906,46.80478],[14.94868,46.80557],[14.94835,46.80574],[14.94825,46.80601],[14.94809,46.80603],[14.94813,46.80587],[14.94826,46.80591]]}},{"type":"Feature","properties":{"kind":"piste","difficulty":"intermediate","name":"Wasserhang Abfahrt II","aerialway":null,"osm":"way/567924247"},"geometry":{"type":"LineString","coordinates":[[14.95886,46.79375],[14.95871,46.7939],[14.94901,46.79154],[14.94844,46.79159],[14.94691,46.79093],[14.94706,46.7908]]}},{"type":"Feature","properties":{"kind":"piste","difficulty":"intermediate","name":"Familienabfahrt","aerialway":null,"osm":"way/1071705082"},"geometry":{"type":"LineString","coordinates":[[14.94813,46.80587],[14.94816,46.80581]]}}]}