{"type":"FeatureCollection","features":[{"type":"Feature","properties":{"kind":"piste","difficulty":"unknown","name":"Übungslift Schischule","aerialway":null,"osm":"way/340867384"},"geometry":{"type":"LineString","coordinates":[[12.72961,47.3672],[12.7324,47.36704],[12.73241,47.3664],[12.73128,47.36646],[12.73005,47.3667],[12.72961,47.36685],[12.72961,47.3672]]}},{"type":"Feature","properties":{"kind":"piste","difficulty":"easy","name":"Viehhofen-Abfahrt (Skiroute)","aerialway":null,"osm":"way/513219368"},"geometry":{"type":"LineString","coordinates":[[12.7297,47.36094],[12.72898,47.36187],[12.72878,47.36189],[12.7285,47.36169],[12.7282,47.36115],[12.72746,47.36049],[12.72737,47.36023],[12.72681,47.36003],[12.72704,47.36031],[12.72679,47.36104],[12.72716,47.36223],[12.72709,47.36294],[12.7275,47.36361],[12.72819,47.364],[12.72717,47.36392],[12.72521,47.3621],[12.72513,47.36216],[12.7253,47.36238],[12.72558,47.36381],[12.72542,47.36459],[12.7248,47.36409],[12.72382,47.36372],[12.72357,47.36348],[12.72255,47.36371]]}},{"type":"Feature","properties":{"kind":"piste","difficulty":"novice","name":null,"aerialway":null,"osm":"way/706867997"},"geometry":{"type":"LineString","coordinates":[[12.72949,47.36722],[12.72955,47.36708],[12.72998,47.36694],[12.73085,47.36681],[12.73228,47.36682]]}},{"type":"Feature","properties":{"kind":"piste","difficulty":"easy","name":null,"aerialway":null,"osm":"way/706867998"},"geometry":{"type":"LineString","coordinates":[[12.73223,47.36706],[12.73244,47.36689]]}},{"type":"Feature","properties":{"kind":"piste","difficulty":"novice","name":null,"aerialway":null,"osm":"way/743112477"},"geometry":{"type":"LineString","coordinates":[[12.73125,47.36647],[12.73188,47.36648],[12.73244,47.36689]]}},{"type":"Feature","properties":{"kind":"piste","difficulty":"easy","name":null,"aerialway":null,"osm":"way/766285969"},"geometry":{"type":"LineString","coordinates":[[12.72898,47.36187],[12.72894,47.36207],[12.72909,47.3622]]}},{"type":"Feature","properties":{"kind":"piste","difficulty":"easy","name":null,"aerialway":null,"osm":"way/909085447"},"geometry":{"type":"LineString","coordinates":[[12.72878,47.37671],[12.72998,47.37603],[12.73055,47.37481],[12.73166,47.37403],[12.73209,47.37334],[12.73193,47.37286],[12.73224,47.37241],[12.73259,47.37076],[12.73254,47.37011],[12.73225,47.36987],[12.73068,47.36975],[12.7305,47.36962],[12.73064,47.36887],[12.73052,47.36825],[12.73083,47.36803],[12.73133,47.36793],[12.73151,47.36776],[12.73151,47.36724],[12.73178,47.36713],[12.73374,47.36698],[12.73522,47.36661]]}},{"type":"Feature","properties":{"kind":"piste","difficulty":"easy","name":"Hecherbergweg","aerialway":null,"osm":"way/909085453"},"geometry":{"type":"LineString","coordinates":[[12.72522,47.37509],[12.72586,47.37526],[12.72649,47.37571],[12.72765,47.37719],[12.72794,47.37721],[12.72878,47.37671]]}},{"type":"Feature","properties":{"kind":"piste","difficulty":"easy","name":null,"aerialway":null,"osm":"way/909085454"},"geometry":{"type":"LineString","coordinates":[[12.72439,47.37778],[12.7251,47.37645],[12.72508,47.37545],[12.72522,47.37509]]}},{"type":"Feature","properties":{"kind":"piste","difficulty":"easy","name":null,"aerialway":null,"osm":"way/909085455"},"geometry":{"type":"LineString","coordinates":[[12.72087,47.38347],[12.72141,47.38213],[12.72219,47.38127],[12.72345,47.3795],[12.72439,47.37778]]}},{"type":"Feature","properties":{"kind":"piste","difficulty":"intermediate","name":"Tannwaldabfahrt","aerialway":null,"osm":"way/1359529208"},"geometry":{"type":"LineString","coordinates":[[12.7331,47.3562],[12.73277,47.35658],[12.7309,47.35802],[12.7298,47.36036],[12.7297,47.36094],[12.72984,47.36133],[12.72966,47.36205],[12.72909,47.3622]]}},{"type":"Feature","properties":{"kind":"piste","difficulty":"intermediate","name":null,"aerialway":null,"osm":"way/1359529213"},"geometry":{"type":"LineString","coordinates":[[12.73305,47.35646],[12.7328,47.3564],[12.73085,47.35797],[12.72943,47.36111],[12.72994,47.36114],[12.73064,47.35884],[12.73115,47.35793],[12.73238,47.3571],[12.73305,47.35646]]}},{"type":"Feature","properties":{"kind":"piste","difficulty":"intermediate","name":null,"aerialway":null,"osm":"way/1359529214"},"geometry":{"type":"LineString","coordinates":[[12.72994,47.36114],[12.72988,47.36178],[12.72965,47.36214],[12.72935,47.36226],[12.72968,47.36146],[12.72968,47.36113],[12.72994,47.36114]]}},{"type":"Feature","properties":{"kind":"piste","difficulty":"intermediate","name":null,"aerialway":null,"osm":"way/1359529215"},"geometry":{"type":"LineString","coordinates":[[12.72965,47.36125],[12.72968,47.36113],[12.72943,47.36111],[12.72889,47.36184],[12.72891,47.36212],[12.72965,47.36125]]}},{"type":"Feature","properties":{"kind":"piste","difficulty":"intermediate","name":"X4 Skiroute Viehhofen neu","aerialway":null,"osm":"way/1456228266"},"geometry":{"type":"LineString","coordinates":[[12.73441,47.35554],[12.73338,47.35543],[12.73152,47.35498],[12.72943,47.3556],[12.72806,47.35674],[12.72697,47.35689],[12.72451,47.35805],[12.72351,47.35875],[12.72264,47.359],[12.7218,47.36033],[12.72215,47.36114]]}},{"type":"Feature","properties":{"kind":"piste","difficulty":"easy","name":null,"aerialway":null,"osm":"way/1551691452"},"geometry":{"type":"LineString","coordinates":[[12.73105,47.36799],[12.72998,47.36756],[12.72949,47.36722]]}},{"type":"Feature","properties":{"kind":"piste","difficulty":"easy","name":null,"aerialway":null,"osm":"way/1551691453"},"geometry":{"type":"LineString","coordinates":[[12.7234,47.36352],[12.72311,47.36379],[12.72236,47.36584],[12.72197,47.36609]]}},{"type":"Feature","properties":{"kind":"lift","difficulty":null,"name":"Babylift Viehhofen","aerialway":"rope_tow","osm":"way/440930069"},"geometry":{"type":"LineString","coordinates":[[12.73244,47.36689],[12.72949,47.36722]]}},{"type":"Feature","properties":{"kind":"lift","difficulty":null,"name":"zellamseeXpress II","aerialway":"gondola","osm":"way/447200480"},"geometry":{"type":"LineString","coordinates":[[12.72909,47.3622],[12.7433,47.3389]]}},{"type":"Feature","properties":{"kind":"lift","difficulty":null,"name":"zellamseeXpress I","aerialway":"gondola","osm":"way/1255225714"},"geometry":{"type":"LineString","coordinates":[[12.73125,47.36647],[12.72909,47.3622]]}},{"type":"Feature","properties":{"kind":"piste","difficulty":"advanced","name":"Trassabfahrt","aerialway":null,"osm":"way/30472868"},"geometry":{"type":"LineString","coordinates":[[12.74639,47.32259],[12.74974,47.32382],[12.75148,47.3248],[12.75556,47.32522],[12.75576,47.32539],[12.75577,47.32617],[12.75596,47.32625],[12.75671,47.32609],[12.75759,47.32665],[12.75939,47.32673],[12.76039,47.32708],[12.76349,47.32698],[12.76411,47.32707],[12.76573,47.32771],[12.7669,47.32768],[12.76877,47.32786],[12.77062,47.32691],[12.77171,47.32655]]}},{"type":"Feature","properties":{"kind":"piste","difficulty":"intermediate","name":"Hirschkogelpiste","aerialway":null,"osm":"way/30473146"},"geometry":{"type":"LineString","coordinates":[[12.75067,47.3156],[12.75127,47.31529],[12.75453,47.31532]]}},{"type":"Feature","properties":{"kind":"piste","difficulty":"unknown","name":null,"aerialway":null,"osm":"way/30473154"},"geometry":{"type":"LineString","coordinates":[[12.76839,47.34576],[12.76848,47.34563]]}},{"type":"Feature","properties":{"kind":"piste","difficulty":"easy","name":"Hahnkopf","aerialway":null,"osm":"way/30473155"},"geometry":{"type":"LineString","coordinates":[[12.721,47.32805],[12.72172,47.32823],[12.72717,47.32745],[12.72871,47.32707],[12.72904,47.32671]]}},{"type":"Feature","properties":{"kind":"piste","difficulty":"easy","name":null,"aerialway":null,"osm":"way/30473156"},"geometry":{"type":"LineString","coordinates":[[12.72871,47.32707],[12.72925,47.32733]]}},{"type":"Feature","properties":{"kind":"piste","difficulty":"advanced","name":"Kettingpiste","aerialway":null,"osm":"way/30473233"},"geometry":{"type":"LineString","coordinates":[[12.73764,47.33316],[12.73574,47.3337],[12.73329,47.33474],[12.73047,47.3353],[12.7297,47.33531]]}},{"type":"Feature","properties":{"kind":"piste","difficulty":"intermediate","name":"Sonnengalerie","aerialway":null,"osm":"way/30473238"},"geometry":{"type":"LineString","coordinates":[[12.75558,47.34405],[12.7553,47.34411],[12.75413,47.34346],[12.75303,47.34127],[12.75236,47.34086]]}},{"type":"Feature","properties":{"kind":"piste","difficulty":"easy","name":null,"aerialway":null,"osm":"way/30473304"},"geometry":{"type":"LineString","coordinates":[[12.738,47.33347],[12.73787,47.33347],[12.73799,47.3336],[12.73842,47.33368]]}},{"type":"Feature","properties":{"kind":"piste","difficulty":"easy","name":null,"aerialway":null,"osm":"way/51815569"},"geometry":{"type":"LineString","coordinates":[[12.72972,47.32684],[12.72841,47.32649]]}},{"type":"Feature","properties":{"kind":"piste","difficulty":"easy","name":null,"aerialway":null,"osm":"way/51815640"},"geometry":{"type":"LineString","coordinates":[[12.72904,47.32671],[12.72893,47.32645],[12.72828,47.32604],[12.72837,47.32579],[12.72863,47.32581]]}},{"type":"Feature","properties":{"kind":"piste","difficulty":"intermediate","name":"Südabfahrt","aerialway":null,"osm":"way/51815987"},"geometry":{"type":"LineString","coordinates":[[12.76683,47.3361],[12.76768,47.33647],[12.7684,47.33637],[12.76943,47.33648],[12.77007,47.3362],[12.77046,47.33583],[12.77146,47.3359],[12.77169,47.33562],[12.77189,47.33486],[12.77228,47.33461],[12.77532,47.33371],[12.77683,47.33375],[12.77803,47.33346],[12.77741,47.33329],[12.77668,47.3333],[12.77646,47.3331],[12.7757,47.33072],[12.77572,47.32997],[12.77552,47.32951],[12.77398,47.32845],[12.77344,47.32785],[12.77332,47.32743]]}},{"type":"Feature","properties":{"kind":"piste","difficulty":"intermediate","name":"Sonnkogelpiste","aerialway":null,"osm":"way/51816205"},"geometry":{"type":"LineString","coordinates":[[12.75352,47.33956],[12.75413,47.33953],[12.75495,47.33982],[12.7556,47.34043],[12.75588,47.34051],[12.75683,47.3391],[12.75727,47.33889],[12.75772,47.3389],[12.7579,47.33861],[12.76058,47.33818],[12.76167,47.33782],[12.76223,47.33709],[12.76228,47.33641],[12.76314,47.33598],[12.76485,47.33578],[12.76496,47.33569],[12.76489,47.33558],[12.76454,47.33558]]}},{"type":"Feature","properties":{"kind":"piste","difficulty":"intermediate","name":null,"aerialway":null,"osm":"way/51816669"},"geometry":{"type":"LineString","coordinates":[[12.76307,47.34399],[12.76356,47.34444],[12.76362,47.34469],[12.76441,47.34507]]}},{"type":"Feature","properties":{"kind":"piste","difficulty":"intermediate","name":"Osthangpiste","aerialway":null,"osm":"way/51816670"},"geometry":{"type":"LineString","coordinates":[[12.75602,47.34422],[12.75623,47.34411],[12.75711,47.34411],[12.75957,47.34378],[12.76307,47.34399]]}},{"type":"Feature","properties":{"kind":"piste","difficulty":"intermediate","name":"Skiweg Sonnengrat","aerialway":null,"osm":"way/51817392"},"geometry":{"type":"LineString","coordinates":[[12.74144,47.33607],[12.74172,47.336],[12.74283,47.33638],[12.7433,47.33677],[12.74459,47.33734],[12.74483,47.33784],[12.74504,47.33797],[12.74761,47.33862],[12.74885,47.33937],[12.75025,47.33999],[12.75106,47.34057],[12.75236,47.34086]]}},{"type":"Feature","properties":{"kind":"piste","difficulty":"easy","name":null,"aerialway":null,"osm":"way/51817394"},"geometry":{"type":"LineString","coordinates":[[12.73842,47.33368],[12.73879,47.33383],[12.74025,47.33517],[12.74144,47.33607]]}},{"type":"Feature","properties":{"kind":"piste","difficulty":"easy","name":null,"aerialway":null,"osm":"way/102411577"},"geometry":{"type":"LineString","coordinates":[[12.76822,47.30764],[12.76874,47.30768],[12.76941,47.30801]]}},{"type":"Feature","properties":{"kind":"piste","difficulty":"easy","name":"Glocknerwiese","aerialway":null,"osm":"way/102411580"},"geometry":{"type":"LineString","coordinates":[[12.75914,47.31322],[12.7591,47.31335],[12.7599,47.31352],[12.76017,47.31341],[12.76185,47.31214],[12.76477,47.31044],[12.76759,47.30798],[12.76782,47.30745]]}},{"type":"Feature","properties":{"kind":"piste","difficulty":"easy","name":"Hirschkogelpiste","aerialway":null,"osm":"way/102413628"},"geometry":{"type":"LineString","coordinates":[[12.75067,47.3156],[12.74913,47.31732],[12.74894,47.31795],[12.74897,47.31844],[12.74883,47.31873],[12.74849,47.31891]]}},{"type":"Feature","properties":{"kind":"piste","difficulty":"advanced","name":"Slalomhang","aerialway":null,"osm":"way/102413838"},"geometry":{"type":"LineString","coordinates":[[12.78611,47.3211],[12.78751,47.32062],[12.78832,47.32051],[12.79014,47.32102],[12.79151,47.32101],[12.79295,47.32155]]}},{"type":"Feature","properties":{"kind":"piste","difficulty":"novice","name":"Käferpark","aerialway":null,"osm":"way/102414340"},"geometry":{"type":"LineString","coordinates":[[12.78862,47.3016],[12.7895,47.30149],[12.79016,47.30175],[12.79104,47.3019]]}},{"type":"Feature","properties":{"kind":"piste","difficulty":"novice","name":"Käferpark","aerialway":null,"osm":"way/102414341"},"geometry":{"type":"LineString","coordinates":[[12.7895,47.30149],[12.78974,47.30139],[12.78989,47.30094]]}},{"type":"Feature","properties":{"kind":"piste","difficulty":"novice","name":"Käferpark","aerialway":null,"osm":"way/102414342"},"geometry":{"type":"LineString","coordinates":[[12.78984,47.3023],[12.78998,47.30198],[12.78991,47.30113]]}},{"type":"Feature","properties":{"kind":"piste","difficulty":"novice","name":null,"aerialway":null,"osm":"way/102419327"},"geometry":{"type":"LineString","coordinates":[[12.78872,47.30087],[12.78877,47.30079]]}},{"type":"Feature","properties":{"kind":"piste","difficulty":"easy","name":null,"aerialway":null,"osm":"way/103443590"},"geometry":{"type":"LineString","coordinates":[[12.77485,47.3257],[12.77664,47.32522],[12.77793,47.32515],[12.77838,47.32484],[12.77973,47.3249]]}},{"type":"Feature","properties":{"kind":"piste","difficulty":"easy","name":"Skiweg Nord a","aerialway":null,"osm":"way/103443594"},"geometry":{"type":"LineString","coordinates":[[12.78518,47.32174],[12.78411,47.32202],[12.78397,47.32251],[12.7833,47.32263],[12.78194,47.32205],[12.78196,47.32322],[12.78161,47.32362],[12.781,47.32388],[12.78018,47.32369],[12.77847,47.32385],[12.77813,47.32404],[12.77755,47.32411],[12.77644,47.32397],[12.7763,47.3241],[12.77591,47.32533],[12.77485,47.3257]]}},{"type":"Feature","properties":{"kind":"piste","difficulty":"easy","name":"Nordabfahrt","aerialway":null,"osm":"way/103443599"},"geometry":{"type":"LineString","coordinates":[[12.77098,47.31628],[12.77346,47.31633],[12.77556,47.31671],[12.77663,47.31717],[12.77754,47.31822],[12.77791,47.31822],[12.7802,47.31743],[12.78129,47.31787],[12.78206,47.31835]]}},{"type":"Feature","properties":{"kind":"piste","difficulty":"easy","name":null,"aerialway":null,"osm":"way/103450234"},"geometry":{"type":"LineString","coordinates":[[12.76882,47.30673],[12.76973,47.30728],[12.77014,47.30827],[12.76984,47.30891],[12.77,47.30896],[12.77077,47.30812],[12.77078,47.3072],[12.77062,47.30684],[12.77084,47.30596],[12.77079,47.3055]]}},{"type":"Feature","properties":{"kind":"piste","difficulty":"intermediate","name":null,"aerialway":null,"osm":"way/103497520"},"geometry":{"type":"LineString","coordinates":[[12.74269,47.32232],[12.74464,47.32142],[12.74561,47.32056],[12.74677,47.31987]]}},{"type":"Feature","properties":{"kind":"piste","difficulty":"easy","name":"Hirschkogelpiste","aerialway":null,"osm":"way/104403096"},"geometry":{"type":"LineString","coordinates":[[12.75453,47.31532],[12.75631,47.31502],[12.75918,47.31495],[12.76175,47.3151],[12.76422,47.31589],[12.76633,47.31712],[12.7689,47.31653],[12.7713,47.31571]]}},{"type":"Feature","properties":{"kind":"piste","difficulty":"easy","name":null,"aerialway":null,"osm":"way/104403098"},"geometry":{"type":"LineString","coordinates":[[12.7713,47.31571],[12.77153,47.31513]]}},{"type":"Feature","properties":{"kind":"piste","difficulty":"easy","name":null,"aerialway":null,"osm":"way/104403113"},"geometry":{"type":"LineString","coordinates":[[12.73752,47.32921],[12.73707,47.32865]]}},{"type":"Feature","properties":{"kind":"piste","difficulty":"advanced","name":"Wilder Kaiser","aerialway":null,"osm":"way/104403119"},"geometry":{"type":"LineString","coordinates":[[12.74144,47.33607],[12.73991,47.33533],[12.73619,47.33429],[12.7345,47.33356],[12.73413,47.33441]]}},{"type":"Feature","properties":{"kind":"piste","difficulty":"easy","name":"Kapellenpiste","aerialway":null,"osm":"way/104403121"},"geometry":{"type":"LineString","coordinates":[[12.73632,47.32473],[12.73596,47.32466],[12.73471,47.32513],[12.73402,47.32565],[12.73339,47.32658],[12.72972,47.32684]]}},{"type":"Feature","properties":{"kind":"piste","difficulty":"easy","name":null,"aerialway":null,"osm":"way/104403122"},"geometry":{"type":"LineString","coordinates":[[12.77171,47.32655],[12.77165,47.32611],[12.77183,47.32602],[12.77337,47.32612],[12.77458,47.32583]]}},{"type":"Feature","properties":{"kind":"piste","difficulty":"intermediate","name":"Sonnengratpiste","aerialway":null,"osm":"way/104403129"},"geometry":{"type":"LineString","coordinates":[[12.7435,47.3386],[12.74459,47.33915],[12.74735,47.33973],[12.74866,47.34021],[12.75098,47.34148]]}},{"type":"Feature","properties":{"kind":"piste","difficulty":"easy","name":null,"aerialway":null,"osm":"way/104403130"},"geometry":{"type":"LineString","coordinates":[[12.738,47.33347],[12.73764,47.33316],[12.73686,47.33103],[12.73585,47.33045],[12.73474,47.3302],[12.73425,47.32994],[12.73316,47.32856],[12.73277,47.32751],[12.73196,47.32667]]}},{"type":"Feature","properties":{"kind":"piste","difficulty":"easy","name":null,"aerialway":null,"osm":"way/104508075"},"geometry":{"type":"LineString","coordinates":[[12.7599,47.31352],[12.76081,47.31463],[12.76126,47.3149],[12.76175,47.3151],[12.76266,47.31471],[12.76297,47.31399],[12.76358,47.3131],[12.76561,47.3115],[12.76631,47.31058],[12.76759,47.30798],[12.76822,47.30764]]}},{"type":"Feature","properties":{"kind":"piste","difficulty":"intermediate","name":"Hirschkogelpiste","aerialway":null,"osm":"way/104508076"},"geometry":{"type":"LineString","coordinates":[[12.76175,47.3151],[12.77006,47.31619]]}},{"type":"Feature","properties":{"kind":"piste","difficulty":"easy","name":null,"aerialway":null,"osm":"way/104508078"},"geometry":{"type":"LineString","coordinates":[[12.73782,47.3318],[12.73791,47.33244]]}},{"type":"Feature","properties":{"kind":"piste","difficulty":"easy","name":"Skiweg Nord b","aerialway":null,"osm":"way/104515850"},"geometry":{"type":"LineString","coordinates":[[12.78562,47.32047],[12.78625,47.32003],[12.78728,47.31984],[12.7891,47.31827],[12.78897,47.31874],[12.78801,47.32013],[12.7873,47.32089],[12.78751,47.32175]]}},{"type":"Feature","properties":{"kind":"piste","difficulty":"intermediate","name":"Sonnkogelpiste","aerialway":null,"osm":"way/104515858"},"geometry":{"type":"LineString","coordinates":[[12.75588,47.34051],[12.75773,47.34026],[12.75942,47.33977],[12.75946,47.33947],[12.76018,47.33891],[12.76058,47.33818]]}},{"type":"Feature","properties":{"kind":"piste","difficulty":"expert","name":"Rodeo Buckelpiste","aerialway":null,"osm":"way/104516943"},"geometry":{"type":"LineString","coordinates":[[12.75649,47.34436],[12.75707,47.345],[12.76108,47.34497]]}},{"type":"Feature","properties":{"kind":"piste","difficulty":"advanced","name":"Standardabfahrt","aerialway":null,"osm":"way/104868819"},"geometry":{"type":"LineString","coordinates":[[12.76633,47.31712],[12.76656,47.31765],[12.76715,47.3181],[12.76689,47.31894],[12.76702,47.31965],[12.76799,47.31971],[12.76818,47.3199],[12.76822,47.3202],[12.76728,47.32272],[12.76686,47.32317],[12.76683,47.32344],[12.76784,47.32431],[12.76788,47.32466],[12.7675,47.32528],[12.76762,47.32553],[12.76829,47.32589],[12.76948,47.32711],[12.76995,47.32724]]}},{"type":"Feature","properties":{"kind":"piste","difficulty":"intermediate","name":"Sisi Hang","aerialway":null,"osm":"way/104876238"},"geometry":{"type":"LineString","coordinates":[[12.73743,47.32908],[12.73714,47.32901],[12.73638,47.32915],[12.73488,47.3284],[12.73298,47.32795],[12.73232,47.32755],[12.73129,47.32719],[12.72972,47.32684]]}},{"type":"Feature","properties":{"kind":"piste","difficulty":"advanced","name":"Kanonenrohr Route","aerialway":null,"osm":"way/104878007"},"geometry":{"type":"LineString","coordinates":[[12.78469,47.31882],[12.78635,47.31828],[12.78731,47.3177],[12.78819,47.31808],[12.78883,47.31809],[12.7891,47.31827]]}},{"type":"Feature","properties":{"kind":"piste","difficulty":"expert","name":"Sonnengrat Route","aerialway":null,"osm":"way/104878012"},"geometry":{"type":"LineString","coordinates":[[12.7435,47.3386],[12.74474,47.33898],[12.74535,47.33888],[12.74885,47.33937]]}},{"type":"Feature","properties":{"kind":"piste","difficulty":"freeride","name":"Sonnenkogel Route","aerialway":null,"osm":"way/104878017"},"geometry":{"type":"LineString","coordinates":[[12.75558,47.34405],[12.75542,47.34296]]}},{"type":"Feature","properties":{"kind":"piste","difficulty":"easy","name":null,"aerialway":null,"osm":"way/115245710"},"geometry":{"type":"LineString","coordinates":[[12.78559,47.30079],[12.7858,47.30157],[12.78622,47.30179],[12.7863,47.30173],[12.78619,47.30131],[12.78632,47.30109],[12.78652,47.30127],[12.78723,47.30085]]}},{"type":"Feature","properties":{"kind":"piste","difficulty":"easy","name":null,"aerialway":null,"osm":"way/115245711"},"geometry":{"type":"LineString","coordinates":[[12.76925,47.32795],[12.77048,47.32793]]}},{"type":"Feature","properties":{"kind":"piste","difficulty":"easy","name":null,"aerialway":null,"osm":"way/115245712"},"geometry":{"type":"LineString","coordinates":[[12.7549,47.31499],[12.75503,47.31474],[12.75485,47.31413],[12.75681,47.31381]]}},{"type":"Feature","properties":{"kind":"piste","difficulty":"advanced","name":"Sonnkogelpiste","aerialway":null,"osm":"way/115245713"},"geometry":{"type":"LineString","coordinates":[[12.75364,47.34251],[12.75463,47.34291],[12.75542,47.34296],[12.75541,47.34257],[12.75559,47.34239],[12.75712,47.34192],[12.75789,47.34157],[12.75825,47.34123],[12.75772,47.3389],[12.75973,47.33917]]}},{"type":"Feature","properties":{"kind":"piste","difficulty":"easy","name":null,"aerialway":null,"osm":"way/115245714"},"geometry":{"type":"LineString","coordinates":[[12.77036,47.32857],[12.7699,47.32796]]}},{"type":"Feature","properties":{"kind":"piste","difficulty":"advanced","name":"Eiskanal Route","aerialway":null,"osm":"way/115245717"},"geometry":{"type":"LineString","coordinates":[[12.76789,47.34148],[12.77207,47.34062],[12.7688,47.33936],[12.76828,47.33887],[12.76608,47.33765],[12.76507,47.33743],[12.76351,47.33677]]}},{"type":"Feature","properties":{"kind":"piste","difficulty":"easy","name":null,"aerialway":null,"osm":"way/115245718"},"geometry":{"type":"LineString","coordinates":[[12.73783,47.33309],[12.73764,47.33316]]}},{"type":"Feature","properties":{"kind":"piste","difficulty":"novice","name":null,"aerialway":null,"osm":"way/115245723"},"geometry":{"type":"LineString","coordinates":[[12.77029,47.329],[12.77048,47.32793],[12.77074,47.32733],[12.77171,47.32655]]}},{"type":"Feature","properties":{"kind":"piste","difficulty":"easy","name":null,"aerialway":null,"osm":"way/115245724"},"geometry":{"type":"LineString","coordinates":[[12.7699,47.32796],[12.7702,47.32749]]}},{"type":"Feature","properties":{"kind":"piste","difficulty":"easy","name":null,"aerialway":null,"osm":"way/115328460"},"geometry":{"type":"LineString","coordinates":[[12.74144,47.33607],[12.7412,47.33608]]}},{"type":"Feature","properties":{"kind":"piste","difficulty":"novice","name":null,"aerialway":null,"osm":"way/115328461"},"geometry":{"type":"LineString","coordinates":[[12.78862,47.3016],[12.78872,47.30087]]}},{"type":"Feature","properties":{"kind":"piste","difficulty":"novice","name":"Käferpark","aerialway":null,"osm":"way/115328462"},"geometry":{"type":"LineString","coordinates":[[12.78998,47.30198],[12.79104,47.3019],[12.79113,47.30208]]}},{"type":"Feature","properties":{"kind":"piste","difficulty":"intermediate","name":"Schüttabfahrt","aerialway":null,"osm":"way/135537677"},"geometry":{"type":"LineString","coordinates":[[12.77271,47.30465],[12.77757,47.30236],[12.77828,47.30175],[12.78063,47.30124],[12.78118,47.30091],[12.78207,47.30079],[12.78268,47.30104],[12.7838,47.30113],[12.78559,47.30079],[12.78798,47.30099],[12.78872,47.30087]]}},{"type":"Feature","properties":{"kind":"piste","difficulty":"advanced","name":"Nordabfahrt","aerialway":null,"osm":"way/147127142"},"geometry":{"type":"LineString","coordinates":[[12.78206,47.31835],[12.78245,47.31886],[12.78238,47.31963],[12.78252,47.31993],[12.78297,47.32009],[12.78408,47.32009],[12.78514,47.32059]]}},{"type":"Feature","properties":{"kind":"piste","difficulty":"easy","name":null,"aerialway":null,"osm":"way/230169128"},"geometry":{"type":"LineString","coordinates":[[12.76926,47.307],[12.76973,47.30728],[12.77014,47.30827],[12.76985,47.30895],[12.77,47.30896],[12.7706,47.30838],[12.77079,47.30802],[12.77078,47.3072],[12.77062,47.30684],[12.77084,47.30596],[12.77079,47.3055]]}},{"type":"Feature","properties":{"kind":"piste","difficulty":"advanced","name":"Standardabfahrt","aerialway":null,"osm":"way/285709462"},"geometry":{"type":"LineString","coordinates":[[12.77098,47.31628],[12.77073,47.31739],[12.76991,47.31854],[12.76926,47.31905],[12.76868,47.32008],[12.76822,47.3202]]}},{"type":"Feature","properties":{"kind":"piste","difficulty":"intermediate","name":"Rennstrecke","aerialway":null,"osm":"way/319880256"},"geometry":{"type":"LineString","coordinates":[[12.78562,47.32047],[12.78736,47.32136],[12.78832,47.32147],[12.79112,47.32219],[12.79203,47.32203],[12.79295,47.32155],[12.79394,47.32159],[12.79403,47.32145],[12.79392,47.3214]]}},{"type":"Feature","properties":{"kind":"piste","difficulty":"advanced","name":"Wilder Kaiser","aerialway":null,"osm":"way/319889215"},"geometry":{"type":"LineString","coordinates":[[12.7345,47.33356],[12.73403,47.33257],[12.73223,47.33456],[12.73063,47.33472],[12.7297,47.33531]]}},{"type":"Feature","properties":{"kind":"piste","difficulty":"advanced","name":"Wilder Kaiser","aerialway":null,"osm":"way/319889216"},"geometry":{"type":"LineString","coordinates":[[12.73736,47.3323],[12.73639,47.33289],[12.73554,47.3331],[12.7335,47.33402],[12.73276,47.33401]]}},{"type":"Feature","properties":{"kind":"piste","difficulty":"intermediate","name":"Schmiedhofpiste","aerialway":null,"osm":"way/319891890"},"geometry":{"type":"LineString","coordinates":[[12.76848,47.34563],[12.76816,47.34545],[12.76512,47.34474],[12.76329,47.34469]]}},{"type":"Feature","properties":{"kind":"piste","difficulty":"easy","name":null,"aerialway":null,"osm":"way/319891891"},"geometry":{"type":"LineString","coordinates":[[12.73763,47.32946],[12.73769,47.32956]]}},{"type":"Feature","properties":{"kind":"piste","difficulty":"easy","name":"Nordabfahrt","aerialway":null,"osm":"way/320087134"},"geometry":{"type":"LineString","coordinates":[[12.78751,47.32175],[12.79027,47.32295],[12.79274,47.32342]]}},{"type":"Feature","properties":{"kind":"piste","difficulty":"easy","name":"Glocknerwiese","aerialway":null,"osm":"way/413667505"},"geometry":{"type":"LineString","coordinates":[[12.76509,47.31095],[12.76535,47.31094],[12.76614,47.31045],[12.76769,47.30897],[12.76917,47.30782],[12.76918,47.30762],[12.76855,47.30724],[12.76794,47.30706],[12.7678,47.30689],[12.76758,47.30693],[12.76785,47.30735],[12.76658,47.30798],[12.76627,47.3084],[12.76313,47.31064],[12.76026,47.31243],[12.75959,47.31267],[12.75982,47.31296],[12.7596,47.31316],[12.75915,47.31332],[12.75894,47.31317],[12.75881,47.3133],[12.75893,47.31352],[12.76067,47.31368],[12.76297,47.31199],[12.76509,47.31095]]}},{"type":"Feature","properties":{"kind":"piste","difficulty":"intermediate","name":"Tannwaldabfahrt","aerialway":null,"osm":"way/478512401"},"geometry":{"type":"LineString","coordinates":[[12.7435,47.3386],[12.74262,47.33897],[12.74238,47.33892],[12.74144,47.3382],[12.74094,47.33816],[12.74061,47.33838],[12.74057,47.33875],[12.74095,47.33978],[12.7409,47.34051],[12.74013,47.34367],[12.7402,47.34564],[12.7395,47.34739],[12.73949,47.3481],[12.73829,47.35033],[12.73766,47.35241],[12.73711,47.35334],[12.73604,47.35454],[12.73498,47.35528]]}},{"type":"Feature","properties":{"kind":"piste","difficulty":"expert","name":"Verbindung Pinzgauer Hütte","aerialway":null,"osm":"way/542465919"},"geometry":{"type":"LineString","coordinates":[[12.72972,47.32684],[12.72949,47.32609],[12.72973,47.32553],[12.72777,47.32569],[12.72691,47.32594],[12.72609,47.32584],[12.72533,47.32599],[12.72375,47.32574],[12.72214,47.32518],[12.72196,47.32492],[12.7219,47.3245],[12.7214,47.32419],[12.72112,47.32379],[12.72015,47.32362],[12.71964,47.32336],[12.7193,47.323]]}},{"type":"Feature","properties":{"kind":"piste","difficulty":"easy","name":null,"aerialway":null,"osm":"way/581136397"},"geometry":{"type":"LineString","coordinates":[[12.78399,47.32444],[12.78454,47.3246],[12.78784,47.32476],[12.78832,47.32468],[12.79018,47.3239],[12.79228,47.32371],[12.79311,47.32328],[12.79395,47.32327],[12.7941,47.32355]]}},{"type":"Feature","properties":{"kind":"piste","difficulty":"easy","name":null,"aerialway":null,"osm":"way/581136398"},"geometry":{"type":"LineString","coordinates":[[12.7837,47.32447],[12.78399,47.32444]]}},{"type":"Feature","properties":{"kind":"piste","difficulty":"intermediate","name":null,"aerialway":null,"osm":"way/712730684"},"geometry":{"type":"LineString","coordinates":[[12.74144,47.33607],[12.74113,47.33616],[12.74037,47.33574],[12.74041,47.33605],[12.74089,47.3369],[12.74061,47.33838]]}},{"type":"Feature","properties":{"kind":"piste","difficulty":"easy","name":null,"aerialway":null,"osm":"way/712730685"},"geometry":{"type":"LineString","coordinates":[[12.7435,47.3386],[12.74182,47.33639],[12.74144,47.33607]]}},{"type":"Feature","properties":{"kind":"piste","difficulty":"intermediate","name":null,"aerialway":null,"osm":"way/712730686"},"geometry":{"type":"LineString","coordinates":[[12.76886,47.34564],[12.76848,47.34563]]}},{"type":"Feature","properties":{"kind":"piste","difficulty":"intermediate","name":"Neue Hochmaispiste","aerialway":null,"osm":"way/712730687"},"geometry":{"type":"LineString","coordinates":[[12.76848,47.34563],[12.76826,47.34538],[12.76813,47.34466],[12.76848,47.34288],[12.76837,47.34231],[12.7681,47.34177],[12.76789,47.34148],[12.76687,47.34085],[12.76633,47.3402],[12.76519,47.33984],[12.76431,47.33933],[12.76426,47.33872],[12.76337,47.33758],[12.76351,47.33677],[12.76494,47.33574],[12.76489,47.33558],[12.76543,47.33553]]}},{"type":"Feature","properties":{"kind":"piste","difficulty":"intermediate","name":"Skimovie Strecke","aerialway":null,"osm":"way/712730688"},"geometry":{"type":"LineString","coordinates":[[12.76848,47.34563],[12.76527,47.345],[12.76427,47.34493]]}},{"type":"Feature","properties":{"kind":"piste","difficulty":"intermediate","name":"Alte Hochmaispiste","aerialway":null,"osm":"way/712730693"},"geometry":{"type":"LineString","coordinates":[[12.76307,47.34399],[12.7652,47.34281],[12.76529,47.34254],[12.76527,47.3421],[12.76505,47.34159],[12.76511,47.34081],[12.76451,47.33988],[12.76431,47.33933]]}},{"type":"Feature","properties":{"kind":"piste","difficulty":"advanced","name":"Sonnenkogel Route","aerialway":null,"osm":"way/712730694"},"geometry":{"type":"LineString","coordinates":[[12.75542,47.34296],[12.7571,47.34242],[12.758,47.34169],[12.75922,47.3411],[12.75936,47.34079],[12.7597,47.34061],[12.75975,47.34034],[12.75942,47.33977]]}},{"type":"Feature","properties":{"kind":"piste","difficulty":"easy","name":"Skiweg Ketting","aerialway":null,"osm":"way/712730696"},"geometry":{"type":"LineString","coordinates":[[12.72972,47.32684],[12.72928,47.32698],[12.72925,47.32733],[12.72996,47.33016],[12.73002,47.33096],[12.73021,47.33127],[12.73082,47.3317],[12.73131,47.33275],[12.73125,47.33302],[12.73065,47.33361],[12.73008,47.33475],[12.72936,47.33572],[12.72942,47.3359]]}},{"type":"Feature","properties":{"kind":"piste","difficulty":"easy","name":"Hirschkogelpiste","aerialway":null,"osm":"way/712730697"},"geometry":{"type":"LineString","coordinates":[[12.74849,47.31891],[12.74967,47.31894],[12.75054,47.31862],[12.75123,47.31757],[12.75453,47.31532]]}},{"type":"Feature","properties":{"kind":"piste","difficulty":"easy","name":null,"aerialway":null,"osm":"way/712730698"},"geometry":{"type":"LineString","coordinates":[[12.75681,47.31381],[12.75848,47.31281],[12.75931,47.31249],[12.76068,47.31218],[12.76185,47.31214]]}},{"type":"Feature","properties":{"kind":"piste","difficulty":"easy","name":"Skiweg Nord","aerialway":null,"osm":"way/712730699"},"geometry":{"type":"LineString","coordinates":[[12.78206,47.31835],[12.78316,47.3189],[12.78391,47.31895],[12.78469,47.31882],[12.78415,47.31916],[12.7829,47.31946],[12.78282,47.31955],[12.78297,47.31962],[12.78429,47.31957],[12.78581,47.31905],[12.78467,47.31987],[12.78267,47.32066],[12.783,47.32073],[12.78396,47.32053],[12.78484,47.32078],[12.78389,47.32081],[12.78313,47.32136],[12.78385,47.32118],[12.78498,47.32153],[12.78588,47.32153]]}},{"type":"Feature","properties":{"kind":"piste","difficulty":"easy","name":null,"aerialway":null,"osm":"way/712730700"},"geometry":{"type":"LineString","coordinates":[[12.78004,47.32479],[12.78046,47.32479],[12.78146,47.32515],[12.78294,47.32495],[12.7837,47.32447]]}},{"type":"Feature","properties":{"kind":"piste","difficulty":"easy","name":null,"aerialway":null,"osm":"way/712730701"},"geometry":{"type":"LineString","coordinates":[[12.77973,47.3249],[12.78004,47.32479]]}},{"type":"Feature","properties":{"kind":"piste","difficulty":"easy","name":null,"aerialway":null,"osm":"way/712730702"},"geometry":{"type":"LineString","coordinates":[[12.76822,47.30764],[12.76882,47.30673]]}},{"type":"Feature","properties":{"kind":"piste","difficulty":"easy","name":null,"aerialway":null,"osm":"way/712730703"},"geometry":{"type":"LineString","coordinates":[[12.77079,47.3055],[12.77054,47.30486],[12.76932,47.30378],[12.76879,47.30362],[12.76878,47.30351],[12.77037,47.30378],[12.77271,47.30465]]}},{"type":"Feature","properties":{"kind":"piste","difficulty":"easy","name":null,"aerialway":null,"osm":"way/712730704"},"geometry":{"type":"LineString","coordinates":[[12.77271,47.30465],[12.77301,47.30479],[12.77359,47.30565],[12.77377,47.30639],[12.77344,47.30695],[12.77358,47.30737],[12.77355,47.308],[12.77372,47.30806],[12.77376,47.30774],[12.77415,47.30713],[12.77493,47.3062],[12.77517,47.3053],[12.77517,47.30459],[12.7756,47.30394],[12.77562,47.30323]]}},{"type":"Feature","properties":{"kind":"piste","difficulty":"expert","name":"Ketting Route","aerialway":null,"osm":"way/739671048"},"geometry":{"type":"LineString","coordinates":[[12.73795,47.33103],[12.73638,47.33138],[12.73605,47.33173],[12.73541,47.33181],[12.73444,47.33218],[12.73403,47.33257],[12.7333,47.33257],[12.73323,47.3331],[12.7327,47.3332],[12.73213,47.33371],[12.73151,47.33398],[12.73104,47.33438],[12.73057,47.3345],[12.7297,47.33531]]}},{"type":"Feature","properties":{"kind":"piste","difficulty":"advanced","name":"Wilder Kaiser","aerialway":null,"osm":"way/739671049"},"geometry":{"type":"LineString","coordinates":[[12.73769,47.32956],[12.738,47.3313],[12.73782,47.3318],[12.73736,47.3323]]}},{"type":"Feature","properties":{"kind":"piste","difficulty":"easy","name":null,"aerialway":null,"osm":"way/739671050"},"geometry":{"type":"LineString","coordinates":[[12.73769,47.32956],[12.73825,47.33016],[12.73877,47.33112],[12.73879,47.33161],[12.738,47.33224],[12.73782,47.33285],[12.73793,47.33324],[12.73842,47.33368]]}},{"type":"Feature","properties":{"kind":"piste","difficulty":"easy","name":"Trassabfahrt","aerialway":null,"osm":"way/750898785"},"geometry":{"type":"LineString","coordinates":[[12.73707,47.32865],[12.73609,47.3276],[12.73566,47.32619],[12.73577,47.32556],[12.73632,47.32473],[12.73775,47.32431],[12.73944,47.32332],[12.74269,47.32232],[12.74639,47.32259]]}},{"type":"Feature","properties":{"kind":"piste","difficulty":"easy","name":null,"aerialway":null,"osm":"way/750898786"},"geometry":{"type":"LineString","coordinates":[[12.74639,47.32259],[12.74668,47.32245],[12.74648,47.32174],[12.74673,47.32113],[12.74658,47.3205],[12.74677,47.31987],[12.74849,47.31891]]}},{"type":"Feature","properties":{"kind":"piste","difficulty":"easy","name":"Hirschkogelpiste","aerialway":null,"osm":"way/759916632"},"geometry":{"type":"LineString","coordinates":[[12.77006,47.31619],[12.77098,47.31628]]}},{"type":"Feature","properties":{"kind":"piste","difficulty":"unknown","name":null,"aerialway":null,"osm":"way/759922193"},"geometry":{"type":"LineString","coordinates":[[12.72422,47.3258],[12.72214,47.32518],[12.72196,47.32492],[12.7219,47.3245],[12.7214,47.32419],[12.72112,47.32379],[12.72015,47.32362],[12.71964,47.32336],[12.7193,47.323]]}},{"type":"Feature","properties":{"kind":"piste","difficulty":"easy","name":null,"aerialway":null,"osm":"way/777559689"},"geometry":{"type":"LineString","coordinates":[[12.76543,47.33553],[12.76494,47.33574],[12.76542,47.33588],[12.76683,47.3361],[12.7667,47.33581],[12.76693,47.33586]]}},{"type":"Feature","properties":{"kind":"piste","difficulty":"easy","name":"Drachenpiste","aerialway":null,"osm":"way/963661741"},"geometry":{"type":"LineString","coordinates":[[12.7599,47.31352],[12.76121,47.31374],[12.76146,47.31341],[12.76179,47.31341],[12.76234,47.31263],[12.76212,47.31198]]}},{"type":"Feature","properties":{"kind":"piste","difficulty":"intermediate","name":"Schüttabfahrt","aerialway":null,"osm":"way/1015324676"},"geometry":{"type":"LineString","coordinates":[[12.77967,47.30125],[12.78117,47.30063],[12.78184,47.30055],[12.7837,47.30082],[12.78601,47.30048],[12.78664,47.30063],[12.78789,47.30063],[12.78872,47.30087],[12.78835,47.30121],[12.7879,47.30127],[12.78574,47.30095],[12.78331,47.30154],[12.78215,47.30128],[12.78193,47.301],[12.78117,47.30111],[12.77844,47.30188],[12.77754,47.30255],[12.77338,47.3045],[12.77284,47.3049],[12.77275,47.30538],[12.77253,47.30562],[12.7722,47.30578],[12.77078,47.30583],[12.76949,47.30637],[12.76885,47.30686],[12.76878,47.30739],[12.76805,47.30707],[12.76841,47.30694],[12.76834,47.30676],[12.76758,47.30693],[12.76834,47.30617],[12.76871,47.30599],[12.76928,47.30589],[12.77066,47.30518],[12.77164,47.30508],[12.77242,47.30468],[12.77277,47.30433],[12.77309,47.30428],[12.77612,47.30261],[12.77765,47.30209],[12.77844,47.30148],[12.77967,47.30125]]}},{"type":"Feature","properties":{"kind":"piste","difficulty":"easy","name":"Hirschkogelpiste","aerialway":null,"osm":"way/1015324677"},"geometry":{"type":"LineString","coordinates":[[12.76961,47.31536],[12.76912,47.31587],[12.76786,47.31637],[12.76679,47.31673],[12.76615,47.31671],[12.76524,47.316],[12.76277,47.31468],[12.76051,47.31485],[12.75528,47.31463],[12.75401,47.31567],[12.7512,47.3175],[12.75057,47.31854],[12.74957,47.31884],[12.74922,47.31866],[12.74912,47.31777],[12.74926,47.31734],[12.74986,47.31686],[12.75046,47.31601],[12.75085,47.31576],[12.75027,47.31535],[12.75024,47.31571],[12.74994,47.31633],[12.74915,47.31711],[12.74888,47.31758],[12.74886,47.31839],[12.74838,47.31878],[12.74849,47.31891],[12.74829,47.31921],[12.75,47.31901],[12.75054,47.31884],[12.75093,47.31842],[12.75111,47.31795],[12.75154,47.31753],[12.75353,47.31627],[12.75709,47.31527],[12.75953,47.31519],[12.76454,47.31628],[12.76597,47.31741],[12.76675,47.31739],[12.77109,47.3161],[12.77153,47.31513],[12.77137,47.31525],[12.76961,47.31536]]}},{"type":"Feature","properties":{"kind":"piste","difficulty":"intermediate","name":"Hirschkogelpiste","aerialway":null,"osm":"way/1015714924"},"geometry":{"type":"LineString","coordinates":[[12.75027,47.31535],[12.75172,47.31482],[12.75358,47.31473],[12.75499,47.31487],[12.75401,47.31567],[12.75105,47.3155],[12.75079,47.31565],[12.75085,47.31576],[12.75027,47.31535]]}},{"type":"Feature","properties":{"kind":"piste","difficulty":"intermediate","name":"Hirschkogelpiste","aerialway":null,"osm":"way/1015714925"},"geometry":{"type":"LineString","coordinates":[[12.76337,47.31495],[12.7667,47.31564],[12.76896,47.31558],[12.76961,47.31536],[12.76912,47.31587],[12.76786,47.31637],[12.76598,47.3158],[12.76539,47.31586],[12.76524,47.316],[12.76337,47.31495]]}},{"type":"Feature","properties":{"kind":"piste","difficulty":"easy","name":null,"aerialway":null,"osm":"way/1015714926"},"geometry":{"type":"LineString","coordinates":[[12.76067,47.31368],[12.75991,47.31365],[12.76005,47.31422],[12.76033,47.3147],[12.76056,47.31477],[12.76051,47.31485],[12.76277,47.31468],[12.76304,47.31481],[12.76314,47.31456],[12.76297,47.31417],[12.76359,47.31322],[12.76561,47.31164],[12.76723,47.30951],[12.76614,47.31045],[12.76626,47.3105],[12.76544,47.31156],[12.76394,47.31252],[12.76333,47.31309],[12.76275,47.31406],[12.76263,47.31451],[12.76227,47.31456],[12.76142,47.31437],[12.76067,47.31368]]}},{"type":"Feature","properties":{"kind":"piste","difficulty":"advanced","name":"Standardabfahrt","aerialway":null,"osm":"way/1015714927"},"geometry":{"type":"LineString","coordinates":[[12.76734,47.31797],[12.76675,47.31739],[12.76597,47.31741],[12.76691,47.31829],[12.76663,47.31897],[12.76684,47.31981],[12.76779,47.31992],[12.76787,47.32032],[12.76741,47.32153],[12.76715,47.32182],[12.76691,47.3227],[12.76637,47.32311],[12.76667,47.32367],[12.76752,47.32435],[12.76757,47.32468],[12.76724,47.325],[12.76656,47.32529],[12.7668,47.3256],[12.76728,47.32589],[12.76809,47.32611],[12.76826,47.32658],[12.76871,47.32664],[12.76958,47.32735],[12.76996,47.3271],[12.76963,47.32697],[12.76929,47.32652],[12.76924,47.32584],[12.7687,47.32585],[12.76849,47.32562],[12.7685,47.32527],[12.76799,47.32499],[12.76833,47.32454],[12.76847,47.3241],[12.76745,47.3238],[12.76716,47.32351],[12.76733,47.32311],[12.76773,47.32277],[12.76772,47.32245],[12.76827,47.32135],[12.76858,47.32014],[12.76835,47.31945],[12.76752,47.3196],[12.76722,47.31947],[12.76715,47.3187],[12.76733,47.31835],[12.76734,47.31797]]}},{"type":"Feature","properties":{"kind":"piste","difficulty":"easy","name":"Nordabfahrt","aerialway":null,"osm":"way/1015714928"},"geometry":{"type":"LineString","coordinates":[[12.77195,47.3158],[12.77141,47.31546],[12.77123,47.31589],[12.77207,47.31622],[12.77168,47.31626],[12.77109,47.3161],[12.76962,47.31659],[12.77092,47.31666],[12.77268,47.31635],[12.77482,47.31666],[12.77608,47.31717],[12.77701,47.31802],[12.77723,47.31851],[12.77742,47.31856],[12.77797,47.31844],[12.77945,47.31764],[12.78036,47.31747],[12.78281,47.31882],[12.7828,47.31871],[12.78143,47.31788],[12.78022,47.3174],[12.77995,47.3174],[12.77865,47.31792],[12.77776,47.31793],[12.77744,47.31772],[12.77731,47.31734],[12.77692,47.31694],[12.77534,47.31651],[12.77409,47.31635],[12.77308,47.31529],[12.77242,47.31574],[12.77195,47.3158]]}},{"type":"Feature","properties":{"kind":"piste","difficulty":"advanced","name":"Trassabfahrt","aerialway":null,"osm":"way/1015714929"},"geometry":{"type":"LineString","coordinates":[[12.74736,47.3227],[12.74693,47.32245],[12.74668,47.32245],[12.7464,47.32269],[12.7489,47.32368],[12.75025,47.3244],[12.75118,47.32506],[12.75214,47.32504],[12.75323,47.32534],[12.75437,47.32546],[12.75547,47.32538],[12.75565,47.32545],[12.75572,47.32639],[12.75667,47.32631],[12.75761,47.32683],[12.75911,47.32688],[12.76046,47.32729],[12.76357,47.32717],[12.76394,47.32723],[12.76497,47.32777],[12.7681,47.32787],[12.76838,47.32808],[12.76875,47.32801],[12.77065,47.32695],[12.77172,47.32658],[12.7722,47.32656],[12.77218,47.32644],[12.77086,47.32662],[12.76889,47.32767],[12.76808,47.32778],[12.76706,47.32759],[12.76579,47.32759],[12.76558,47.32739],[12.76458,47.32701],[12.76377,47.32683],[12.76017,47.32684],[12.75944,47.32656],[12.75806,47.32654],[12.75756,47.32641],[12.75677,47.32589],[12.7559,47.32602],[12.75581,47.32592],[12.75588,47.32525],[12.75557,47.32502],[12.75493,47.32485],[12.75323,47.32479],[12.75163,47.32456],[12.74944,47.32342],[12.74736,47.3227]]}},{"type":"Feature","properties":{"kind":"piste","difficulty":"advanced","name":"Nordabfahrt","aerialway":null,"osm":"way/1015934458"},"geometry":{"type":"LineString","coordinates":[[12.78266,47.31948],[12.78281,47.31882],[12.78166,47.31814],[12.78214,47.31876],[12.78222,47.31904],[12.78196,47.3194],[12.78239,47.31998],[12.78306,47.32017],[12.78381,47.32013],[12.78443,47.32032],[12.78484,47.32081],[12.78596,47.3215],[12.78538,47.32044],[12.78479,47.32015],[12.78462,47.31996],[12.78467,47.31987],[12.78402,47.32005],[12.78299,47.32001],[12.7827,47.31989],[12.78266,47.31948]]}},{"type":"Feature","properties":{"kind":"piste","difficulty":"advanced","name":"Nordabfahrt","aerialway":null,"osm":"way/1015934459"},"geometry":{"type":"LineString","coordinates":[[12.78514,47.32059],[12.78751,47.32175]]}},{"type":"Feature","properties":{"kind":"piste","difficulty":"advanced","name":"Slalomhang","aerialway":null,"osm":"way/1015934460"},"geometry":{"type":"LineString","coordinates":[[12.78783,47.32033],[12.78756,47.3207],[12.78823,47.32068],[12.79026,47.32124],[12.79129,47.3212],[12.79228,47.32149],[12.79234,47.32163],[12.79298,47.32139],[12.79167,47.32077],[12.79027,47.32083],[12.7895,47.32069],[12.78801,47.32013],[12.78783,47.32033]]}},{"type":"Feature","properties":{"kind":"piste","difficulty":"intermediate","name":"Rennstrecke","aerialway":null,"osm":"way/1015934461"},"geometry":{"type":"LineString","coordinates":[[12.78538,47.32044],[12.78596,47.3215],[12.78628,47.32168],[12.78701,47.32181],[12.78697,47.32103],[12.78748,47.32055],[12.78643,47.32059],[12.78538,47.32044]]}},{"type":"Feature","properties":{"kind":"piste","difficulty":"easy","name":"Nordabfahrt","aerialway":null,"osm":"way/1015934462"},"geometry":{"type":"LineString","coordinates":[[12.79205,47.32315],[12.7913,47.32265],[12.79046,47.32232],[12.78883,47.32201],[12.7883,47.32172],[12.78762,47.32123],[12.78738,47.32088],[12.78783,47.32033],[12.78697,47.32103],[12.78701,47.32181],[12.78745,47.32204],[12.78836,47.32286],[12.78874,47.32303],[12.79236,47.32359],[12.79313,47.32336],[12.79392,47.32343],[12.79391,47.32323],[12.79205,47.32315]]}},{"type":"Feature","properties":{"kind":"piste","difficulty":"intermediate","name":"Rennstrecke","aerialway":null,"osm":"way/1015934463"},"geometry":{"type":"LineString","coordinates":[[12.78843,47.32133],[12.78762,47.32123],[12.7882,47.32161],[12.78992,47.32199],[12.7913,47.32265],[12.79138,47.32243],[12.79264,47.322],[12.79296,47.3217],[12.7941,47.32169],[12.79403,47.32145],[12.79298,47.32139],[12.79197,47.32191],[12.79059,47.32188],[12.78843,47.32133]]}},{"type":"Feature","properties":{"kind":"piste","difficulty":"easy","name":null,"aerialway":null,"osm":"way/1030429739"},"geometry":{"type":"LineString","coordinates":[[12.75648,47.31463],[12.75652,47.31423],[12.75671,47.31403],[12.75837,47.31296],[12.75982,47.31243],[12.76026,47.31243],[12.761,47.31197],[12.7586,47.31266],[12.75636,47.31387],[12.75555,47.31459],[12.75648,47.31463]]}},{"type":"Feature","properties":{"kind":"piste","difficulty":"easy","name":null,"aerialway":null,"osm":"way/1127868006"},"geometry":{"type":"LineString","coordinates":[[12.76714,47.34518],[12.76669,47.34472],[12.76525,47.34402],[12.76374,47.34366]]}},{"type":"Feature","properties":{"kind":"piste","difficulty":"easy","name":null,"aerialway":null,"osm":"way/1127868007"},"geometry":{"type":"LineString","coordinates":[[12.72925,47.32733],[12.72803,47.32816],[12.72953,47.32825]]}},{"type":"Feature","properties":{"kind":"piste","difficulty":"intermediate","name":"Sonnengratpiste","aerialway":null,"osm":"way/1232440610"},"geometry":{"type":"LineString","coordinates":[[12.75098,47.34148],[12.75149,47.34149],[12.75236,47.34086],[12.75251,47.34014],[12.75352,47.33956],[12.75346,47.33935],[12.75316,47.33926]]}},{"type":"Feature","properties":{"kind":"piste","difficulty":"easy","name":"Skiweg Nord a","aerialway":null,"osm":"way/1280177239"},"geometry":{"type":"LineString","coordinates":[[12.78588,47.32153],[12.78518,47.32174]]}},{"type":"Feature","properties":{"kind":"piste","difficulty":"easy","name":null,"aerialway":null,"osm":"way/1305803367"},"geometry":{"type":"LineString","coordinates":[[12.73522,47.36661],[12.73525,47.36613]]}},{"type":"Feature","properties":{"kind":"piste","difficulty":"intermediate","name":null,"aerialway":null,"osm":"way/1355890134"},"geometry":{"type":"LineString","coordinates":[[12.73638,47.32915],[12.73355,47.32908]]}},{"type":"Feature","properties":{"kind":"piste","difficulty":"easy","name":null,"aerialway":null,"osm":"way/1355890135"},"geometry":{"type":"LineString","coordinates":[[12.73758,47.32938],[12.73709,47.32923],[12.73683,47.32879],[12.73674,47.32833]]}},{"type":"Feature","properties":{"kind":"piste","difficulty":"easy","name":null,"aerialway":null,"osm":"way/1355890136"},"geometry":{"type":"LineString","coordinates":[[12.73733,47.32935],[12.73715,47.32938],[12.73705,47.32961],[12.73777,47.3302]]}},{"type":"Feature","properties":{"kind":"piste","difficulty":"easy","name":null,"aerialway":null,"osm":"way/1355890137"},"geometry":{"type":"LineString","coordinates":[[12.73674,47.32911],[12.73616,47.32867],[12.73543,47.32677],[12.73537,47.32636],[12.73572,47.32585]]}},{"type":"Feature","properties":{"kind":"piste","difficulty":"easy","name":null,"aerialway":null,"osm":"way/1355897634"},"geometry":{"type":"LineString","coordinates":[[12.77086,47.32662],[12.77155,47.32597],[12.77273,47.32605],[12.7719,47.32603],[12.77187,47.32628],[12.77212,47.32631],[12.77214,47.32645],[12.77086,47.32662]]}},{"type":"Feature","properties":{"kind":"piste","difficulty":"easy","name":null,"aerialway":null,"osm":"way/1355897635"},"geometry":{"type":"LineString","coordinates":[[12.77269,47.32612],[12.77323,47.32611],[12.77489,47.32574],[12.77358,47.32613],[12.77269,47.32612]]}},{"type":"Feature","properties":{"kind":"piste","difficulty":"novice","name":null,"aerialway":null,"osm":"way/1355897636"},"geometry":{"type":"LineString","coordinates":[[12.77029,47.329],[12.77057,47.32893],[12.77162,47.3271]]}},{"type":"Feature","properties":{"kind":"piste","difficulty":"novice","name":null,"aerialway":null,"osm":"way/1355897637"},"geometry":{"type":"LineString","coordinates":[[12.7703,47.32902],[12.77064,47.32909],[12.77095,47.32879],[12.77182,47.32713],[12.7715,47.32701],[12.77124,47.32771],[12.7703,47.32902]]}},{"type":"Feature","properties":{"kind":"piste","difficulty":"novice","name":null,"aerialway":null,"osm":"way/1355897638"},"geometry":{"type":"LineString","coordinates":[[12.77025,47.32902],[12.77002,47.32884],[12.77015,47.32833],[12.76973,47.32763],[12.77054,47.32723],[12.77065,47.32695],[12.77172,47.32658],[12.7722,47.32656],[12.77165,47.32666],[12.77025,47.32902]]}},{"type":"Feature","properties":{"kind":"piste","difficulty":"intermediate","name":"Tannwaldabfahrt","aerialway":null,"osm":"way/1357221171"},"geometry":{"type":"LineString","coordinates":[[12.73498,47.35528],[12.73467,47.35495],[12.73429,47.35421],[12.73404,47.35421],[12.73329,47.35561],[12.7331,47.3562]]}},{"type":"Feature","properties":{"kind":"piste","difficulty":"easy","name":null,"aerialway":null,"osm":"way/1358008562"},"geometry":{"type":"LineString","coordinates":[[12.73678,47.32875],[12.73694,47.32873],[12.73684,47.32855],[12.73697,47.32873],[12.73721,47.32866],[12.73683,47.32826],[12.73654,47.32838],[12.73678,47.32875]]}},{"type":"Feature","properties":{"kind":"piste","difficulty":"easy","name":null,"aerialway":null,"osm":"way/1358008563"},"geometry":{"type":"LineString","coordinates":[[12.73654,47.32838],[12.73683,47.32826],[12.73622,47.32761],[12.73579,47.32617],[12.73598,47.32558],[12.73623,47.32526],[12.73727,47.32478],[12.736,47.32482],[12.73571,47.32507],[12.7354,47.32617],[12.73595,47.32775],[12.73654,47.32838]]}},{"type":"Feature","properties":{"kind":"piste","difficulty":"easy","name":null,"aerialway":null,"osm":"way/1358008564"},"geometry":{"type":"LineString","coordinates":[[12.736,47.32482],[12.73589,47.32464],[12.73608,47.32436],[12.7363,47.32439],[12.7364,47.32427],[12.73631,47.32419],[12.73668,47.32388],[12.73679,47.32403],[12.73704,47.32393],[12.73738,47.32415],[12.73676,47.32414],[12.73672,47.32435],[12.73704,47.32437],[12.73727,47.32478],[12.736,47.32482]]}},{"type":"Feature","properties":{"kind":"piste","difficulty":"easy","name":null,"aerialway":null,"osm":"way/1358008565"},"geometry":{"type":"LineString","coordinates":[[12.73727,47.32478],[12.73704,47.32437],[12.73745,47.32433],[12.73704,47.32393],[12.73789,47.32358],[12.73863,47.32449],[12.73727,47.32478]]}},{"type":"Feature","properties":{"kind":"piste","difficulty":"easy","name":null,"aerialway":null,"osm":"way/1358008566"},"geometry":{"type":"LineString","coordinates":[[12.73789,47.32358],[12.73863,47.32449],[12.73929,47.32425],[12.74036,47.32359],[12.74102,47.32337],[12.7419,47.32327],[12.74315,47.32277],[12.74445,47.32269],[12.74451,47.32223],[12.74368,47.32112],[12.74268,47.32179],[12.73789,47.32358]]}},{"type":"Feature","properties":{"kind":"piste","difficulty":"easy","name":null,"aerialway":null,"osm":"way/1358008567"},"geometry":{"type":"LineString","coordinates":[[12.74445,47.32269],[12.74451,47.32223],[12.74648,47.32242],[12.74674,47.32229],[12.74677,47.32238],[12.74635,47.32275],[12.74445,47.32269]]}},{"type":"Feature","properties":{"kind":"piste","difficulty":"easy","name":null,"aerialway":null,"osm":"way/1358008568"},"geometry":{"type":"LineString","coordinates":[[12.7441,47.32164],[12.74438,47.32199],[12.74512,47.32174],[12.74531,47.32156],[12.74492,47.32137],[12.7441,47.32164]]}},{"type":"Feature","properties":{"kind":"piste","difficulty":"easy","name":null,"aerialway":null,"osm":"way/1358008569"},"geometry":{"type":"LineString","coordinates":[[12.74464,47.32142],[12.74547,47.32177],[12.74604,47.32257]]}},{"type":"Feature","properties":{"kind":"piste","difficulty":"intermediate","name":null,"aerialway":null,"osm":"way/1358008570"},"geometry":{"type":"LineString","coordinates":[[12.74492,47.32137],[12.7441,47.32164],[12.74368,47.32112],[12.74405,47.32078],[12.74535,47.32031],[12.74631,47.31974],[12.74664,47.32008],[12.74531,47.32156],[12.74492,47.32137]]}},{"type":"Feature","properties":{"kind":"piste","difficulty":"easy","name":null,"aerialway":null,"osm":"way/1358008571"},"geometry":{"type":"LineString","coordinates":[[12.74664,47.32008],[12.74683,47.32012],[12.74742,47.31964],[12.74829,47.31921],[12.74849,47.31891],[12.74838,47.31878],[12.74631,47.31974],[12.74664,47.32008]]}},{"type":"Feature","properties":{"kind":"piste","difficulty":"easy","name":null,"aerialway":null,"osm":"way/1358008573"},"geometry":{"type":"LineString","coordinates":[[12.75453,47.31532],[12.7549,47.31499]]}},{"type":"Feature","properties":{"kind":"piste","difficulty":"easy","name":null,"aerialway":null,"osm":"way/1358008574"},"geometry":{"type":"LineString","coordinates":[[12.7549,47.31499],[12.75503,47.31474],[12.75485,47.31413],[12.75681,47.31381]]}},{"type":"Feature","properties":{"kind":"piste","difficulty":"easy","name":null,"aerialway":null,"osm":"way/1358008575"},"geometry":{"type":"LineString","coordinates":[[12.7549,47.31499],[12.75582,47.31457],[12.75681,47.31381]]}},{"type":"Feature","properties":{"kind":"piste","difficulty":"intermediate","name":"Schüttabfahrt","aerialway":null,"osm":"way/1358008576"},"geometry":{"type":"LineString","coordinates":[[12.76782,47.30745],[12.76783,47.30727],[12.76758,47.30693],[12.76769,47.30678],[12.76812,47.30661],[12.76882,47.30673],[12.76905,47.30639],[12.77079,47.3055]]}},{"type":"Feature","properties":{"kind":"piste","difficulty":"intermediate","name":"Schüttabfahrt","aerialway":null,"osm":"way/1358008578"},"geometry":{"type":"LineString","coordinates":[[12.77079,47.3055],[12.77198,47.30524],[12.77271,47.30465]]}},{"type":"Feature","properties":{"kind":"piste","difficulty":"easy","name":null,"aerialway":null,"osm":"way/1358037637"},"geometry":{"type":"LineString","coordinates":[[12.72098,47.32807],[12.721,47.32826],[12.72136,47.32834],[12.72331,47.32837],[12.72571,47.32803],[12.72862,47.32711],[12.72862,47.32664],[12.72783,47.32681],[12.72597,47.32758],[12.72266,47.32804],[12.72098,47.32807]]}},{"type":"Feature","properties":{"kind":"piste","difficulty":"easy","name":null,"aerialway":null,"osm":"way/1358037638"},"geometry":{"type":"LineString","coordinates":[[12.72862,47.32711],[12.72913,47.32748],[12.72935,47.32737],[12.72977,47.32743],[12.73007,47.32723],[12.72993,47.3261],[12.7291,47.3261],[12.7282,47.32583],[12.72808,47.32621],[12.72862,47.32664],[12.72862,47.32711]]}},{"type":"Feature","properties":{"kind":"piste","difficulty":"easy","name":null,"aerialway":null,"osm":"way/1358037639"},"geometry":{"type":"LineString","coordinates":[[12.72913,47.32748],[12.72935,47.32737],[12.72977,47.32743],[12.7298,47.32858],[12.72942,47.32853],[12.72931,47.32777],[12.72913,47.32748]]}},{"type":"Feature","properties":{"kind":"piste","difficulty":"easy","name":null,"aerialway":null,"osm":"way/1358037640"},"geometry":{"type":"LineString","coordinates":[[12.73007,47.32723],[12.73026,47.32703],[12.73063,47.32697],[12.73285,47.32753],[12.73277,47.32736],[12.73303,47.32601],[12.73196,47.32628],[12.72993,47.3261],[12.73007,47.32723]]}},{"type":"Feature","properties":{"kind":"piste","difficulty":"easy","name":null,"aerialway":null,"osm":"way/1358037641"},"geometry":{"type":"LineString","coordinates":[[12.73288,47.32684],[12.73335,47.32688],[12.73429,47.32553],[12.73594,47.32472],[12.73589,47.32464],[12.73463,47.3251],[12.73366,47.32593],[12.73303,47.32601],[12.73288,47.32684]]}},{"type":"Feature","properties":{"kind":"piste","difficulty":"intermediate","name":null,"aerialway":null,"osm":"way/1358037642"},"geometry":{"type":"LineString","coordinates":[[12.73606,47.32841],[12.73391,47.32737],[12.73226,47.32696]]}},{"type":"Feature","properties":{"kind":"piste","difficulty":"intermediate","name":null,"aerialway":null,"osm":"way/1358037643"},"geometry":{"type":"LineString","coordinates":[[12.7364,47.32925],[12.73366,47.32915],[12.73351,47.32893],[12.73604,47.32906],[12.7364,47.32925]]}},{"type":"Feature","properties":{"kind":"piste","difficulty":"advanced","name":null,"aerialway":null,"osm":"way/1358037644"},"geometry":{"type":"LineString","coordinates":[[12.72976,47.33555],[12.73007,47.33516],[12.73161,47.33439],[12.73234,47.3346],[12.73288,47.33523],[12.73076,47.33563],[12.72976,47.33555]]}},{"type":"Feature","properties":{"kind":"piste","difficulty":"advanced","name":null,"aerialway":null,"osm":"way/1358037645"},"geometry":{"type":"LineString","coordinates":[[12.73254,47.33483],[12.73358,47.33454],[12.73513,47.33375],[12.7355,47.33423],[12.73288,47.33523],[12.73254,47.33483]]}},{"type":"Feature","properties":{"kind":"piste","difficulty":"advanced","name":null,"aerialway":null,"osm":"way/1358037646"},"geometry":{"type":"LineString","coordinates":[[12.73234,47.3346],[12.73161,47.33439],[12.73234,47.33425],[12.73403,47.33241],[12.73415,47.33263],[12.73388,47.33275],[12.73234,47.3346]]}},{"type":"Feature","properties":{"kind":"piste","difficulty":"advanced","name":null,"aerialway":null,"osm":"way/1358037647"},"geometry":{"type":"LineString","coordinates":[[12.73415,47.33263],[12.73402,47.33269],[12.73435,47.33353],[12.73458,47.33341],[12.73415,47.33263]]}},{"type":"Feature","properties":{"kind":"piste","difficulty":"advanced","name":null,"aerialway":null,"osm":"way/1358037648"},"geometry":{"type":"LineString","coordinates":[[12.73435,47.33353],[12.73418,47.3342],[12.73513,47.33375],[12.73496,47.33333],[12.73435,47.33353]]}},{"type":"Feature","properties":{"kind":"piste","difficulty":"advanced","name":null,"aerialway":null,"osm":"way/1358037649"},"geometry":{"type":"LineString","coordinates":[[12.7355,47.33423],[12.7361,47.33417],[12.73586,47.33401],[12.73591,47.33334],[12.73496,47.33333],[12.7355,47.33423]]}},{"type":"Feature","properties":{"kind":"piste","difficulty":"advanced","name":null,"aerialway":null,"osm":"way/1358037650"},"geometry":{"type":"LineString","coordinates":[[12.73591,47.33334],[12.73595,47.33381],[12.73768,47.33334],[12.7373,47.33223],[12.73697,47.3329],[12.73591,47.33334]]}},{"type":"Feature","properties":{"kind":"piste","difficulty":"intermediate","name":null,"aerialway":null,"osm":"way/1358037651"},"geometry":{"type":"LineString","coordinates":[[12.73288,47.32687],[12.73277,47.32736],[12.73417,47.32773],[12.73587,47.32848],[12.73585,47.32811],[12.73403,47.32716],[12.73288,47.32687]]}},{"type":"Feature","properties":{"kind":"piste","difficulty":"easy","name":null,"aerialway":null,"osm":"way/1358037652"},"geometry":{"type":"LineString","coordinates":[[12.7364,47.32925],[12.73587,47.32848],[12.73585,47.32811],[12.73614,47.32806],[12.73672,47.32877],[12.73694,47.32873],[12.73715,47.32896],[12.73703,47.32921],[12.73677,47.32914],[12.7364,47.32925]]}},{"type":"Feature","properties":{"kind":"piste","difficulty":"easy","name":null,"aerialway":null,"osm":"way/1358037653"},"geometry":{"type":"LineString","coordinates":[[12.73721,47.32866],[12.73697,47.32873],[12.7372,47.32886],[12.73703,47.32948],[12.73746,47.32948],[12.73752,47.32936],[12.73713,47.32919],[12.73722,47.32906],[12.73761,47.32912],[12.73721,47.32866]]}},{"type":"Feature","properties":{"kind":"piste","difficulty":"easy","name":null,"aerialway":null,"osm":"way/1358037654"},"geometry":{"type":"LineString","coordinates":[[12.73742,47.32916],[12.73763,47.32963],[12.73791,47.32962],[12.73761,47.32912],[12.73742,47.32916]]}},{"type":"Feature","properties":{"kind":"piste","difficulty":"easy","name":null,"aerialway":null,"osm":"way/1358037655"},"geometry":{"type":"LineString","coordinates":[[12.72976,47.33555],[12.72922,47.33583],[12.73004,47.33465],[12.73013,47.33481],[12.73007,47.33516],[12.72976,47.33555]]}},{"type":"Feature","properties":{"kind":"piste","difficulty":"easy","name":null,"aerialway":null,"osm":"way/1358037656"},"geometry":{"type":"LineString","coordinates":[[12.73013,47.33481],[12.73004,47.33465],[12.73026,47.33385],[12.73048,47.33347],[12.73112,47.33304],[12.73119,47.33259],[12.73064,47.3316],[12.73013,47.33129],[12.72993,47.33101],[12.7299,47.33027],[12.72942,47.32853],[12.7298,47.32858],[12.72973,47.32909],[12.73002,47.33022],[12.73006,47.33096],[12.73021,47.33122],[12.73076,47.33159],[12.73135,47.33269],[12.73135,47.33295],[12.73073,47.33364],[12.73013,47.33481]]}},{"type":"Feature","properties":{"kind":"piste","difficulty":"easy","name":null,"aerialway":null,"osm":"way/1358037657"},"geometry":{"type":"LineString","coordinates":[[12.73585,47.32811],[12.7357,47.32803],[12.73535,47.32683],[12.7354,47.32617],[12.73589,47.32775],[12.73614,47.32806],[12.73585,47.32811]]}},{"type":"Feature","properties":{"kind":"piste","difficulty":"intermediate","name":null,"aerialway":null,"osm":"way/1358041127"},"geometry":{"type":"LineString","coordinates":[[12.7718,47.32716],[12.77257,47.3271],[12.77216,47.32722],[12.7718,47.32716]]}},{"type":"Feature","properties":{"kind":"piste","difficulty":"intermediate","name":null,"aerialway":null,"osm":"way/1358041128"},"geometry":{"type":"LineString","coordinates":[[12.77253,47.32714],[12.77296,47.32711],[12.7733,47.32727],[12.77253,47.32714]]}},{"type":"Feature","properties":{"kind":"piste","difficulty":"intermediate","name":null,"aerialway":null,"osm":"way/1358041129"},"geometry":{"type":"LineString","coordinates":[[12.77325,47.3273],[12.77404,47.32844],[12.77561,47.32945],[12.77589,47.32981],[12.77582,47.33073],[12.77623,47.33142],[12.77644,47.33207],[12.77657,47.3331],[12.77641,47.33313],[12.77613,47.3329],[12.77596,47.33256],[12.77575,47.33131],[12.77545,47.3305],[12.77539,47.32962],[12.77495,47.32941],[12.77381,47.32844],[12.77333,47.32787],[12.77325,47.3273]]}},{"type":"Feature","properties":{"kind":"piste","difficulty":"intermediate","name":null,"aerialway":null,"osm":"way/1358041130"},"geometry":{"type":"LineString","coordinates":[[12.77657,47.3331],[12.77641,47.33313],[12.77676,47.33334],[12.7779,47.33337],[12.77794,47.33351],[12.7774,47.33353],[12.7767,47.33375],[12.77547,47.33365],[12.77551,47.33376],[12.77686,47.3338],[12.77809,47.33349],[12.77804,47.33336],[12.77677,47.33326],[12.77657,47.3331]]}},{"type":"Feature","properties":{"kind":"piste","difficulty":"intermediate","name":null,"aerialway":null,"osm":"way/1358041131"},"geometry":{"type":"LineString","coordinates":[[12.77547,47.33365],[12.77551,47.33376],[12.77528,47.33388],[12.77443,47.334],[12.7721,47.33475],[12.77161,47.33592],[12.77124,47.33597],[12.77066,47.33566],[12.77047,47.33568],[12.77057,47.33606],[12.77023,47.33632],[12.76779,47.33653],[12.76681,47.33613],[12.76696,47.33607],[12.76744,47.33633],[12.76798,47.33642],[12.76963,47.33629],[12.77003,47.33604],[12.77021,47.33555],[12.77037,47.3355],[12.77137,47.33584],[12.77158,47.3357],[12.7718,47.33487],[12.77206,47.33459],[12.77547,47.33365]]}},{"type":"Feature","properties":{"kind":"piste","difficulty":"easy","name":null,"aerialway":null,"osm":"way/1358093009"},"geometry":{"type":"LineString","coordinates":[[12.76681,47.33613],[12.76696,47.33607],[12.76673,47.3359],[12.76678,47.3358],[12.76664,47.33579],[12.76673,47.33605],[12.76536,47.33582],[12.76533,47.33594],[12.76681,47.33613]]}},{"type":"Feature","properties":{"kind":"piste","difficulty":"easy","name":null,"aerialway":null,"osm":"way/1358093010"},"geometry":{"type":"LineString","coordinates":[[12.76536,47.33582],[12.76535,47.33552],[12.76469,47.33551],[12.76474,47.33564],[12.76455,47.33573],[12.76509,47.33606],[12.76536,47.33582]]}},{"type":"Feature","properties":{"kind":"piste","difficulty":"easy","name":null,"aerialway":null,"osm":"way/1358093011"},"geometry":{"type":"LineString","coordinates":[[12.75974,47.3383],[12.76124,47.33699],[12.76228,47.33641]]}},{"type":"Feature","properties":{"kind":"piste","difficulty":"intermediate","name":null,"aerialway":null,"osm":"way/1358093012"},"geometry":{"type":"LineString","coordinates":[[12.76509,47.33606],[12.76424,47.33682],[12.76409,47.33708],[12.76415,47.33742],[12.76301,47.33624],[12.76376,47.33615],[12.76464,47.33582],[12.76509,47.33606]]}},{"type":"Feature","properties":{"kind":"piste","difficulty":"intermediate","name":null,"aerialway":null,"osm":"way/1358093013"},"geometry":{"type":"LineString","coordinates":[[12.76455,47.33573],[12.76464,47.33582],[12.76444,47.33587],[12.76353,47.33593],[12.76286,47.33614],[12.76279,47.33606],[12.76455,47.33573]]}},{"type":"Feature","properties":{"kind":"piste","difficulty":"intermediate","name":null,"aerialway":null,"osm":"way/1358093014"},"geometry":{"type":"LineString","coordinates":[[12.76279,47.33606],[12.76415,47.33742],[12.76451,47.33796],[12.76309,47.33823],[12.76272,47.33786],[12.76229,47.33784],[12.76143,47.3375],[12.76174,47.3368],[12.76145,47.33696],[12.76127,47.33681],[12.7621,47.33627],[12.76279,47.33606]]}},{"type":"Feature","properties":{"kind":"piste","difficulty":"intermediate","name":null,"aerialway":null,"osm":"way/1358093015"},"geometry":{"type":"LineString","coordinates":[[12.76127,47.33681],[12.76145,47.33696],[12.76104,47.3374],[12.76229,47.33784],[12.76211,47.33803],[12.76058,47.33753],[12.76127,47.33681]]}},{"type":"Feature","properties":{"kind":"piste","difficulty":"intermediate","name":null,"aerialway":null,"osm":"way/1358093016"},"geometry":{"type":"LineString","coordinates":[[12.76211,47.33803],[12.76058,47.33753],[12.75984,47.33813],[12.75945,47.33812],[12.75927,47.33855],[12.75994,47.33864],[12.76064,47.33855],[12.76211,47.33803]]}},{"type":"Feature","properties":{"kind":"piste","difficulty":"intermediate","name":null,"aerialway":null,"osm":"way/1358093017"},"geometry":{"type":"LineString","coordinates":[[12.76451,47.33796],[12.76309,47.33823],[12.76344,47.33851],[12.76316,47.33912],[12.76329,47.33948],[12.76432,47.34042],[12.76524,47.34023],[12.76516,47.34007],[12.76525,47.34],[12.76542,47.34004],[12.766,47.33974],[12.76478,47.33927],[12.76451,47.33796]]}},{"type":"Feature","properties":{"kind":"piste","difficulty":"intermediate","name":null,"aerialway":null,"osm":"way/1358296902"},"geometry":{"type":"LineString","coordinates":[[12.76558,47.33996],[12.766,47.33974],[12.76649,47.34],[12.76743,47.34102],[12.76826,47.34161],[12.7685,47.34203],[12.76884,47.3435],[12.76862,47.34453],[12.76873,47.34533],[12.768,47.34528],[12.76786,47.34508],[12.76765,47.34396],[12.76776,47.3421],[12.76748,47.34162],[12.76609,47.34025],[12.76558,47.33996]]}},{"type":"Feature","properties":{"kind":"piste","difficulty":"easy","name":null,"aerialway":null,"osm":"way/1358296903"},"geometry":{"type":"LineString","coordinates":[[12.76558,47.33996],[12.76542,47.34004],[12.76723,47.34163],[12.76715,47.34169],[12.76738,47.34196],[12.76713,47.34221],[12.76762,47.3421],[12.76729,47.34169],[12.76744,47.3417],[12.76744,47.34159],[12.76726,47.34159],[12.76659,47.34103],[12.76558,47.33996]]}},{"type":"Feature","properties":{"kind":"piste","difficulty":"intermediate","name":null,"aerialway":null,"osm":"way/1358296904"},"geometry":{"type":"LineString","coordinates":[[12.76524,47.34023],[12.76432,47.34042],[12.76467,47.34092],[12.76483,47.34277],[12.76368,47.34351],[12.76457,47.34368],[12.76442,47.34342],[12.76589,47.34252],[12.76589,47.34236],[12.76559,47.34203],[12.76545,47.3408],[12.76524,47.34023]]}},{"type":"Feature","properties":{"kind":"piste","difficulty":"easy","name":null,"aerialway":null,"osm":"way/1358296905"},"geometry":{"type":"LineString","coordinates":[[12.76713,47.34213],[12.76629,47.34228],[12.7663,47.3424],[12.76666,47.34263],[12.76497,47.34316],[12.76585,47.34349],[12.76588,47.34363],[12.76494,47.3437],[12.76538,47.3439],[12.76659,47.34395],[12.76707,47.34464],[12.76675,47.34463],[12.7666,47.34405],[12.76489,47.34385],[12.76492,47.34362],[12.76585,47.3436],[12.76498,47.34329],[12.76491,47.34312],[12.76651,47.34263],[12.76654,47.34255],[12.76617,47.34238],[12.7662,47.34225],[12.76713,47.34213]]}},{"type":"Feature","properties":{"kind":"piste","difficulty":"intermediate","name":null,"aerialway":null,"osm":"way/1358296906"},"geometry":{"type":"LineString","coordinates":[[12.76873,47.34533],[12.76877,47.34568],[12.76846,47.34576],[12.76819,47.34571],[12.768,47.34528],[12.76873,47.34533]]}},{"type":"Feature","properties":{"kind":"piste","difficulty":"intermediate","name":null,"aerialway":null,"osm":"way/1358296907"},"geometry":{"type":"LineString","coordinates":[[12.76693,47.34468],[12.76665,47.34481],[12.76724,47.34526],[12.76713,47.34551],[12.7682,47.34568],[12.76786,47.34508],[12.76693,47.34468]]}},{"type":"Feature","properties":{"kind":"piste","difficulty":"intermediate","name":null,"aerialway":null,"osm":"way/1358296908"},"geometry":{"type":"LineString","coordinates":[[12.76713,47.34551],[12.76724,47.34526],[12.76688,47.34506],[12.76424,47.34448],[12.7638,47.34425],[12.76333,47.34463],[12.76331,47.34475],[12.76434,47.34505],[12.76713,47.34551]]}},{"type":"Feature","properties":{"kind":"piste","difficulty":"intermediate","name":null,"aerialway":null,"osm":"way/1358296909"},"geometry":{"type":"LineString","coordinates":[[12.76457,47.34368],[12.76446,47.34395],[12.76537,47.34419],[12.76665,47.34481],[12.76673,47.34469],[12.76457,47.34368]]}},{"type":"Feature","properties":{"kind":"piste","difficulty":"intermediate","name":null,"aerialway":null,"osm":"way/1358296910"},"geometry":{"type":"LineString","coordinates":[[12.76375,47.34409],[12.76446,47.34395],[12.76457,47.34368],[12.76368,47.34351],[12.76321,47.34368],[12.76287,47.34439],[12.76338,47.34459],[12.7638,47.34425],[12.76375,47.34409]]}},{"type":"Feature","properties":{"kind":"piste","difficulty":"intermediate","name":null,"aerialway":null,"osm":"way/1358296911"},"geometry":{"type":"LineString","coordinates":[[12.76287,47.34439],[12.76321,47.34368],[12.75959,47.34332],[12.75604,47.34402],[12.75602,47.34424],[12.75664,47.34434],[12.75633,47.3442],[12.75748,47.34426],[12.7596,47.34405],[12.76287,47.34439]]}},{"type":"Feature","properties":{"kind":"piste","difficulty":"intermediate","name":null,"aerialway":null,"osm":"way/1358296912"},"geometry":{"type":"LineString","coordinates":[[12.75604,47.34402],[12.75602,47.34424],[12.75538,47.34423],[12.75544,47.34412],[12.75604,47.34402]]}},{"type":"Feature","properties":{"kind":"piste","difficulty":"intermediate","name":null,"aerialway":null,"osm":"way/1358296913"},"geometry":{"type":"LineString","coordinates":[[12.75945,47.33812],[12.75927,47.33855],[12.75797,47.3388],[12.75729,47.33851],[12.75762,47.33831],[12.75945,47.33812]]}},{"type":"Feature","properties":{"kind":"piste","difficulty":"intermediate","name":null,"aerialway":null,"osm":"way/1358296914"},"geometry":{"type":"LineString","coordinates":[[12.75729,47.33851],[12.75686,47.33886],[12.7572,47.33906],[12.75799,47.33909],[12.75797,47.3388],[12.75729,47.33851]]}},{"type":"Feature","properties":{"kind":"piste","difficulty":"advanced","name":null,"aerialway":null,"osm":"way/1358296915"},"geometry":{"type":"LineString","coordinates":[[12.75799,47.33909],[12.75755,47.33911],[12.75776,47.34003],[12.75755,47.34021],[12.75758,47.34039],[12.75832,47.34036],[12.75799,47.33909]]}},{"type":"Feature","properties":{"kind":"piste","difficulty":"advanced","name":null,"aerialway":null,"osm":"way/1358296916"},"geometry":{"type":"LineString","coordinates":[[12.75832,47.34036],[12.75758,47.34039],[12.75808,47.34111],[12.75803,47.34131],[12.75681,47.34189],[12.75609,47.34201],[12.75522,47.34247],[12.75506,47.34278],[12.75551,47.34298],[12.75554,47.34268],[12.75759,47.34187],[12.75816,47.34152],[12.7584,47.34119],[12.75832,47.34036]]}},{"type":"Feature","properties":{"kind":"piste","difficulty":"intermediate","name":null,"aerialway":null,"osm":"way/1358296917"},"geometry":{"type":"LineString","coordinates":[[12.75755,47.34021],[12.75758,47.34039],[12.75617,47.34053],[12.75627,47.34034],[12.75755,47.34021]]}},{"type":"Feature","properties":{"kind":"piste","difficulty":"advanced","name":null,"aerialway":null,"osm":"way/1358296918"},"geometry":{"type":"LineString","coordinates":[[12.75506,47.34278],[12.75551,47.34298],[12.75528,47.34307],[12.7545,47.34296],[12.75377,47.34261],[12.75362,47.34238],[12.75464,47.34282],[12.75506,47.34278]]}},{"type":"Feature","properties":{"kind":"piste","difficulty":"intermediate","name":null,"aerialway":null,"osm":"way/1358296919"},"geometry":{"type":"LineString","coordinates":[[12.75686,47.33886],[12.7572,47.33906],[12.75664,47.33961],[12.75617,47.34053],[12.75573,47.34058],[12.75555,47.34045],[12.75562,47.34031],[12.75586,47.34032],[12.75686,47.33886]]}},{"type":"Feature","properties":{"kind":"piste","difficulty":"intermediate","name":null,"aerialway":null,"osm":"way/1358296920"},"geometry":{"type":"LineString","coordinates":[[12.75555,47.34045],[12.75562,47.34031],[12.75527,47.33995],[12.75367,47.33936],[12.75353,47.33967],[12.75388,47.33955],[12.75475,47.33979],[12.7552,47.34004],[12.75555,47.34045]]}},{"type":"Feature","properties":{"kind":"piste","difficulty":"intermediate","name":null,"aerialway":null,"osm":"way/1358296921"},"geometry":{"type":"LineString","coordinates":[[12.75367,47.33936],[12.75333,47.33922],[12.75347,47.33933],[12.75326,47.3395],[12.75353,47.33967],[12.75367,47.33936]]}},{"type":"Feature","properties":{"kind":"piste","difficulty":"intermediate","name":null,"aerialway":null,"osm":"way/1358296922"},"geometry":{"type":"LineString","coordinates":[[12.75353,47.33967],[12.75326,47.3395],[12.75205,47.34009],[12.75155,47.34064],[12.75277,47.34083],[12.75269,47.34062],[12.75281,47.34027],[12.75353,47.33967]]}},{"type":"Feature","properties":{"kind":"piste","difficulty":"intermediate","name":null,"aerialway":null,"osm":"way/1358296923"},"geometry":{"type":"LineString","coordinates":[[12.75277,47.34083],[12.75262,47.34121],[12.75284,47.34131],[12.7531,47.34195],[12.75343,47.34238],[12.75362,47.34238],[12.75314,47.3412],[12.75277,47.34083]]}},{"type":"Feature","properties":{"kind":"piste","difficulty":"intermediate","name":null,"aerialway":null,"osm":"way/1358296924"},"geometry":{"type":"LineString","coordinates":[[12.75277,47.34083],[12.75155,47.34064],[12.75153,47.34072],[12.75242,47.34126],[12.75262,47.34121],[12.75277,47.34083]]}},{"type":"Feature","properties":{"kind":"piste","difficulty":"intermediate","name":null,"aerialway":null,"osm":"way/1358296925"},"geometry":{"type":"LineString","coordinates":[[12.75242,47.34126],[12.75172,47.34075],[12.75172,47.34103],[12.75151,47.34127],[12.75086,47.3413],[12.75053,47.34113],[12.75043,47.34121],[12.7509,47.34149],[12.75122,47.34153],[12.75242,47.34126]]}},{"type":"Feature","properties":{"kind":"piste","difficulty":"intermediate","name":null,"aerialway":null,"osm":"way/1358296926"},"geometry":{"type":"LineString","coordinates":[[12.75362,47.34238],[12.75343,47.34238],[12.75395,47.3434],[12.75538,47.34423],[12.75544,47.34412],[12.75405,47.34334],[12.75362,47.34238]]}},{"type":"Feature","properties":{"kind":"piste","difficulty":"intermediate","name":null,"aerialway":null,"osm":"way/1358984487"},"geometry":{"type":"LineString","coordinates":[[12.75155,47.34064],[12.75153,47.34072],[12.75096,47.34057],[12.75022,47.34],[12.74894,47.33947],[12.74824,47.33897],[12.74905,47.33945],[12.74992,47.33975],[12.75115,47.34057],[12.75155,47.34064]]}},{"type":"Feature","properties":{"kind":"piste","difficulty":"intermediate","name":null,"aerialway":null,"osm":"way/1358984488"},"geometry":{"type":"LineString","coordinates":[[12.74831,47.33894],[12.74736,47.33856],[12.74496,47.33795],[12.7445,47.3373],[12.74327,47.33678],[12.74279,47.33638],[12.74169,47.33602],[12.74277,47.33633],[12.7433,47.33674],[12.74458,47.3373],[12.74499,47.33793],[12.74749,47.33856],[12.74831,47.33894]]}},{"type":"Feature","properties":{"kind":"piste","difficulty":"easy","name":null,"aerialway":null,"osm":"way/1358984489"},"geometry":{"type":"LineString","coordinates":[[12.74172,47.33596],[12.74158,47.33602],[12.74167,47.33615],[12.7414,47.33628],[12.7412,47.33616],[12.7413,47.33605],[12.74114,47.33592],[12.74133,47.33581],[12.74172,47.33596]]}},{"type":"Feature","properties":{"kind":"piste","difficulty":"easy","name":null,"aerialway":null,"osm":"way/1358984490"},"geometry":{"type":"LineString","coordinates":[[12.7414,47.33628],[12.7415,47.33623],[12.74185,47.33662],[12.74295,47.33819],[12.7414,47.33628]]}},{"type":"Feature","properties":{"kind":"piste","difficulty":"easy","name":null,"aerialway":null,"osm":"way/1358984491"},"geometry":{"type":"LineString","coordinates":[[12.74155,47.33621],[12.7428,47.33774],[12.74297,47.33813],[12.7431,47.33805],[12.74177,47.33626],[12.74167,47.33615],[12.74155,47.33621]]}},{"type":"Feature","properties":{"kind":"piste","difficulty":"easy","name":null,"aerialway":null,"osm":"way/1358984492"},"geometry":{"type":"LineString","coordinates":[[12.74295,47.33819],[12.7431,47.33805],[12.74356,47.33861],[12.74374,47.33866],[12.7437,47.33881],[12.74328,47.33878],[12.743,47.33858],[12.74316,47.33842],[12.74295,47.33819]]}},{"type":"Feature","properties":{"kind":"piste","difficulty":"intermediate","name":null,"aerialway":null,"osm":"way/1358984493"},"geometry":{"type":"LineString","coordinates":[[12.7437,47.33881],[12.74373,47.33869],[12.74485,47.33917],[12.74739,47.33957],[12.74892,47.34014],[12.75053,47.34113],[12.75043,47.34121],[12.74843,47.34017],[12.74725,47.3398],[12.74447,47.33929],[12.7437,47.33881]]}},{"type":"Feature","properties":{"kind":"piste","difficulty":"intermediate","name":null,"aerialway":null,"osm":"way/1358984494"},"geometry":{"type":"LineString","coordinates":[[12.743,47.33858],[12.74317,47.3387],[12.74259,47.33901],[12.74212,47.33882],[12.74142,47.33825],[12.74075,47.33835],[12.74083,47.33794],[12.74167,47.33811],[12.74191,47.33842],[12.74238,47.33866],[12.74277,47.3387],[12.743,47.33858]]}},{"type":"Feature","properties":{"kind":"piste","difficulty":"intermediate","name":null,"aerialway":null,"osm":"way/1358984495"},"geometry":{"type":"LineString","coordinates":[[12.74083,47.33794],[12.74064,47.3379],[12.74056,47.33836],[12.74075,47.33835],[12.74083,47.33794]]}},{"type":"Feature","properties":{"kind":"piste","difficulty":"intermediate","name":null,"aerialway":null,"osm":"way/1358984496"},"geometry":{"type":"LineString","coordinates":[[12.74083,47.33794],[12.74064,47.3379],[12.74084,47.33675],[12.74038,47.33607],[12.74038,47.33571],[12.74124,47.33621],[12.74038,47.33579],[12.74043,47.33606],[12.74092,47.33682],[12.74083,47.33794]]}},{"type":"Feature","properties":{"kind":"piste","difficulty":"easy","name":null,"aerialway":null,"osm":"way/1358984497"},"geometry":{"type":"LineString","coordinates":[[12.74133,47.33581],[12.74122,47.33587],[12.74018,47.33514],[12.73913,47.33415],[12.73801,47.33338],[12.73879,47.33377],[12.74037,47.33521],[12.74133,47.33581]]}},{"type":"Feature","properties":{"kind":"piste","difficulty":"easy","name":null,"aerialway":null,"osm":"way/1358984498"},"geometry":{"type":"LineString","coordinates":[[12.74119,47.3359],[12.73882,47.335],[12.73599,47.33424],[12.7361,47.33417],[12.7392,47.33506],[12.74119,47.3359]]}},{"type":"Feature","properties":{"kind":"piste","difficulty":"easy","name":null,"aerialway":null,"osm":"way/1358984499"},"geometry":{"type":"LineString","coordinates":[[12.73806,47.33342],[12.73785,47.33349],[12.73768,47.33334],[12.73806,47.33342]]}},{"type":"Feature","properties":{"kind":"piste","difficulty":"easy","name":null,"aerialway":null,"osm":"way/1358984500"},"geometry":{"type":"LineString","coordinates":[[12.73809,47.33334],[12.73787,47.33327],[12.73779,47.33303],[12.73793,47.33234],[12.73807,47.33211],[12.73866,47.33173],[12.73876,47.33145],[12.73798,47.32994],[12.73806,47.3299],[12.73888,47.33097],[12.73883,47.33166],[12.73814,47.33217],[12.73796,47.3325],[12.73786,47.33301],[12.73809,47.33334]]}},{"type":"Feature","properties":{"kind":"piste","difficulty":"easy","name":null,"aerialway":null,"osm":"way/1358984501"},"geometry":{"type":"LineString","coordinates":[[12.73768,47.33334],[12.73777,47.33334],[12.73774,47.33313],[12.73739,47.33218],[12.7373,47.33223],[12.73768,47.33334]]}},{"type":"Feature","properties":{"kind":"piste","difficulty":"advanced","name":null,"aerialway":null,"osm":"way/1359529192"},"geometry":{"type":"LineString","coordinates":[[12.73739,47.33218],[12.73744,47.33227],[12.73781,47.33196],[12.73769,47.33182],[12.73739,47.33218]]}},{"type":"Feature","properties":{"kind":"piste","difficulty":"advanced","name":null,"aerialway":null,"osm":"way/1359529193"},"geometry":{"type":"LineString","coordinates":[[12.73781,47.33196],[12.73791,47.33174],[12.73769,47.33182],[12.73781,47.33196]]}},{"type":"Feature","properties":{"kind":"piste","difficulty":"advanced","name":null,"aerialway":null,"osm":"way/1359529194"},"geometry":{"type":"LineString","coordinates":[[12.73777,47.33176],[12.73791,47.33174],[12.7382,47.33123],[12.73779,47.33017],[12.73757,47.33025],[12.73786,47.33113],[12.73777,47.33176]]}},{"type":"Feature","properties":{"kind":"piste","difficulty":"advanced","name":null,"aerialway":null,"osm":"way/1359529195"},"geometry":{"type":"LineString","coordinates":[[12.73757,47.33025],[12.73779,47.33017],[12.73773,47.32994],[12.73741,47.32996],[12.73757,47.33025]]}},{"type":"Feature","properties":{"kind":"piste","difficulty":"advanced","name":null,"aerialway":null,"osm":"way/1359529196"},"geometry":{"type":"LineString","coordinates":[[12.73757,47.32995],[12.73712,47.32976],[12.73703,47.32948],[12.73757,47.32995]]}},{"type":"Feature","properties":{"kind":"piste","difficulty":"advanced","name":null,"aerialway":null,"osm":"way/1359529197"},"geometry":{"type":"LineString","coordinates":[[12.73763,47.32963],[12.73773,47.32994],[12.73757,47.32995],[12.73763,47.32963]]}},{"type":"Feature","properties":{"kind":"piste","difficulty":"easy","name":null,"aerialway":null,"osm":"way/1359529198"},"geometry":{"type":"LineString","coordinates":[[12.73798,47.32994],[12.73806,47.3299],[12.73791,47.32962],[12.73771,47.32966],[12.73798,47.32994]]}},{"type":"Feature","properties":{"kind":"piste","difficulty":"easy","name":null,"aerialway":null,"osm":"way/1359529199"},"geometry":{"type":"LineString","coordinates":[[12.73739,47.33218],[12.7373,47.33223],[12.73683,47.33104],[12.7362,47.33065],[12.73647,47.3307],[12.73688,47.33102],[12.73739,47.33218]]}},{"type":"Feature","properties":{"kind":"piste","difficulty":"easy","name":null,"aerialway":null,"osm":"way/1359529200"},"geometry":{"type":"LineString","coordinates":[[12.73626,47.33061],[12.73435,47.33007],[12.73354,47.32915],[12.73366,47.32915],[12.73442,47.33003],[12.73626,47.33061]]}},{"type":"Feature","properties":{"kind":"piste","difficulty":"easy","name":null,"aerialway":null,"osm":"way/1359529201"},"geometry":{"type":"LineString","coordinates":[[12.73366,47.32915],[12.73354,47.32915],[12.73341,47.32892],[12.73366,47.32915]]}},{"type":"Feature","properties":{"kind":"piste","difficulty":"easy","name":null,"aerialway":null,"osm":"way/1359529202"},"geometry":{"type":"LineString","coordinates":[[12.73351,47.32893],[12.73313,47.32857],[12.73272,47.3275],[12.73285,47.32753],[12.73318,47.32848],[12.73351,47.32893]]}},{"type":"Feature","properties":{"kind":"piste","difficulty":"advanced","name":null,"aerialway":null,"osm":"way/1359529203"},"geometry":{"type":"LineString","coordinates":[[12.771,47.31664],[12.77083,47.31666],[12.7707,47.31739],[12.7698,47.31861],[12.76924,47.319],[12.76851,47.32029],[12.76878,47.32009],[12.7689,47.31989],[12.76885,47.31967],[12.76912,47.31947],[12.7693,47.31904],[12.76997,47.31851],[12.77073,47.31743],[12.771,47.31664]]}},{"type":"Feature","properties":{"kind":"piste","difficulty":"intermediate","name":null,"aerialway":null,"osm":"way/1359529204"},"geometry":{"type":"LineString","coordinates":[[12.74075,47.33835],[12.74056,47.33836],[12.7405,47.33873],[12.74084,47.33977],[12.74029,47.34271],[12.74045,47.3427],[12.74093,47.34062],[12.74099,47.33923],[12.74074,47.33888],[12.74075,47.33835]]}},{"type":"Feature","properties":{"kind":"piste","difficulty":"intermediate","name":null,"aerialway":null,"osm":"way/1359529205"},"geometry":{"type":"LineString","coordinates":[[12.74045,47.3427],[12.74029,47.34271],[12.74001,47.34377],[12.74005,47.34584],[12.73955,47.34695],[12.73933,47.34824],[12.73881,47.34889],[12.7383,47.35012],[12.73844,47.35014],[12.73956,47.34818],[12.73972,47.34691],[12.74001,47.34623],[12.74045,47.34561],[12.74026,47.34504],[12.74033,47.34457],[12.74019,47.34397],[12.74022,47.3434],[12.74045,47.3427]]}},{"type":"Feature","properties":{"kind":"piste","difficulty":"intermediate","name":null,"aerialway":null,"osm":"way/1359529206"},"geometry":{"type":"LineString","coordinates":[[12.73844,47.35014],[12.7383,47.35012],[12.73762,47.35226],[12.73706,47.35328],[12.73597,47.35451],[12.73506,47.35504],[12.73522,47.35527],[12.73608,47.35462],[12.73738,47.35313],[12.73786,47.35232],[12.73844,47.35014]]}},{"type":"Feature","properties":{"kind":"piste","difficulty":"intermediate","name":null,"aerialway":null,"osm":"way/1359529207"},"geometry":{"type":"LineString","coordinates":[[12.73506,47.35504],[12.73472,47.35515],[12.73497,47.35543],[12.73522,47.35527],[12.73506,47.35504]]}},{"type":"Feature","properties":{"kind":"piste","difficulty":"advanced","name":"Tannwaldabfahrt","aerialway":null,"osm":"way/1359529209"},"geometry":{"type":"LineString","coordinates":[[12.73498,47.35528],[12.7331,47.3562]]}},{"type":"Feature","properties":{"kind":"piste","difficulty":"advanced","name":null,"aerialway":null,"osm":"way/1359529210"},"geometry":{"type":"LineString","coordinates":[[12.73479,47.35522],[12.73319,47.35605],[12.73315,47.35637],[12.73397,47.35581],[12.73497,47.35543],[12.73479,47.35522]]}},{"type":"Feature","properties":{"kind":"piste","difficulty":"intermediate","name":null,"aerialway":null,"osm":"way/1359529211"},"geometry":{"type":"LineString","coordinates":[[12.73499,47.35506],[12.73472,47.35515],[12.73438,47.35442],[12.73405,47.35427],[12.73319,47.35605],[12.73296,47.35606],[12.7341,47.35409],[12.7343,47.35412],[12.73467,47.35487],[12.73499,47.35506]]}},{"type":"Feature","properties":{"kind":"piste","difficulty":"intermediate","name":null,"aerialway":null,"osm":"way/1359529212"},"geometry":{"type":"LineString","coordinates":[[12.73296,47.35606],[12.73319,47.35605],[12.73305,47.35646],[12.7328,47.3564],[12.73296,47.35606]]}},{"type":"Feature","properties":{"kind":"piste","difficulty":"intermediate","name":"Südabfahrt","aerialway":null,"osm":"way/1428933180"},"geometry":{"type":"LineString","coordinates":[[12.77328,47.32729],[12.7729,47.32712],[12.77214,47.32721],[12.77154,47.32708],[12.77145,47.3269],[12.77171,47.32655]]}},{"type":"Feature","properties":{"kind":"piste","difficulty":"intermediate","name":"Südabfahrt","aerialway":null,"osm":"way/1428933181"},"geometry":{"type":"LineString","coordinates":[[12.77332,47.32743],[12.77328,47.32729]]}},{"type":"Feature","properties":{"kind":"piste","difficulty":"easy","name":"7","aerialway":null,"osm":"way/1433334703"},"geometry":{"type":"LineString","coordinates":[[12.77458,47.32583],[12.77485,47.3257]]}},{"type":"Feature","properties":{"kind":"piste","difficulty":"expert","name":"Rodeo Buckelpiste","aerialway":null,"osm":"way/1551921487"},"geometry":{"type":"LineString","coordinates":[[12.76108,47.34497],[12.76237,47.34476],[12.76345,47.34479],[12.76362,47.34469]]}},{"type":"Feature","properties":{"kind":"lift","difficulty":null,"name":"areitXpress","aerialway":"gondola","osm":"way/5213001"},"geometry":{"type":"LineString","coordinates":[[12.7884,47.3],[12.76805,47.30694]]}},{"type":"Feature","properties":{"kind":"lift","difficulty":null,"name":"Areitbahn II","aerialway":"gondola","osm":"way/5213002"},"geometry":{"type":"LineString","coordinates":[[12.76708,47.30727],[12.75027,47.31535]]}},{"type":"Feature","properties":{"kind":"lift","difficulty":null,"name":"Areitbahn III","aerialway":"gondola","osm":"way/5213003"},"geometry":{"type":"LineString","coordinates":[[12.75027,47.31535],[12.73628,47.32402]]}},{"type":"Feature","properties":{"kind":"lift","difficulty":null,"name":"Hirschkogel-Express","aerialway":"chair_lift","osm":"way/5213141"},"geometry":{"type":"LineString","coordinates":[[12.77153,47.31513],[12.75085,47.31576]]}},{"type":"Feature","properties":{"kind":"lift","difficulty":null,"name":"Schmittenhöhebahn","aerialway":"cable_car","osm":"way/5213151"},"geometry":{"type":"LineString","coordinates":[[12.77231,47.32637],[12.73845,47.32885]]}},{"type":"Feature","properties":{"kind":"lift","difficulty":null,"name":"Sonnenalmbahn","aerialway":"cable_car","osm":"way/5217380"},"geometry":{"type":"LineString","coordinates":[[12.77191,47.32692],[12.76693,47.33586]]}},{"type":"Feature","properties":{"kind":"lift","difficulty":null,"name":"Schmidolins Zauberteppich","aerialway":"magic_carpet","osm":"way/29874067"},"geometry":{"type":"LineString","coordinates":[[12.78989,47.30094],[12.78862,47.3016]]}},{"type":"Feature","properties":{"kind":"lift","difficulty":null,"name":"trassXpress","aerialway":"gondola","osm":"way/30473147"},"geometry":{"type":"LineString","coordinates":[[12.77236,47.32627],[12.73689,47.32423]]}},{"type":"Feature","properties":{"kind":"lift","difficulty":null,"name":"Kapellenbahn","aerialway":"chair_lift","osm":"way/30473149"},"geometry":{"type":"LineString","coordinates":[[12.72863,47.32581],[12.73734,47.32921]]}},{"type":"Feature","properties":{"kind":"lift","difficulty":null,"name":"Hahnkopflift","aerialway":"drag_lift","osm":"way/30473150"},"geometry":{"type":"LineString","coordinates":[[12.72841,47.32649],[12.72045,47.32817]]}},{"type":"Feature","properties":{"kind":"lift","difficulty":null,"name":"Hochmaisbahn","aerialway":"chair_lift","osm":"way/30473152"},"geometry":{"type":"LineString","coordinates":[[12.76543,47.33553],[12.76886,47.34564]]}},{"type":"Feature","properties":{"kind":"lift","difficulty":null,"name":"Sonnkogelbahn","aerialway":"chair_lift","osm":"way/30473153"},"geometry":{"type":"LineString","coordinates":[[12.76454,47.33558],[12.75558,47.34405]]}},{"type":"Feature","properties":{"kind":"lift","difficulty":null,"name":"Sonnengratbahn","aerialway":"chair_lift","osm":"way/30473237"},"geometry":{"type":"LineString","coordinates":[[12.75316,47.33926],[12.74359,47.33854]]}},{"type":"Feature","properties":{"kind":"lift","difficulty":null,"name":"Hochzellerbahn","aerialway":"chair_lift","osm":"way/30473305"},"geometry":{"type":"LineString","coordinates":[[12.7412,47.33608],[12.738,47.33347]]}},{"type":"Feature","properties":{"kind":"lift","difficulty":null,"name":"Kettingalmbahn","aerialway":"chair_lift","osm":"way/51522516"},"geometry":{"type":"LineString","coordinates":[[12.72942,47.3359],[12.7375,47.32953]]}},{"type":"Feature","properties":{"kind":"lift","difficulty":null,"name":"Schmiedhoflift","aerialway":"drag_lift","osm":"way/51816665"},"geometry":{"type":"LineString","coordinates":[[12.76441,47.34507],[12.76894,47.34586]]}},{"type":"Feature","properties":{"kind":"lift","difficulty":null,"name":"Osthanglift","aerialway":"drag_lift","osm":"way/51816667"},"geometry":{"type":"LineString","coordinates":[[12.76329,47.34469],[12.75595,47.34434]]}},{"type":"Feature","properties":{"kind":"lift","difficulty":null,"name":"Breiteckbahn","aerialway":"chair_lift","osm":"way/103450239"},"geometry":{"type":"LineString","coordinates":[[12.74827,47.31883],[12.73679,47.32389]]}},{"type":"Feature","properties":{"kind":"lift","difficulty":null,"name":"cityXpress","aerialway":"gondola","osm":"way/104403103"},"geometry":{"type":"LineString","coordinates":[[12.77142,47.31603],[12.7941,47.32355]]}},{"type":"Feature","properties":{"kind":"lift","difficulty":null,"name":"Ebenbergbahn","aerialway":"chair_lift","osm":"way/104403111"},"geometry":{"type":"LineString","coordinates":[[12.79392,47.3214],[12.78562,47.32047]]}},{"type":"Feature","properties":{"kind":"lift","difficulty":null,"name":"Fallegglift","aerialway":"t-bar","osm":"way/115245720"},"geometry":{"type":"LineString","coordinates":[[12.77173,47.32667],[12.77002,47.32943]]}},{"type":"Feature","properties":{"kind":"lift","difficulty":null,"name":"Schmidolinlift","aerialway":"platter","osm":"way/115245721"},"geometry":{"type":"LineString","coordinates":[[12.7702,47.32749],[12.76925,47.32795]]}},{"type":"Feature","properties":{"kind":"lift","difficulty":null,"name":null,"aerialway":"rope_tow","osm":"way/115328459"},"geometry":{"type":"LineString","coordinates":[[12.79113,47.30208],[12.78984,47.3023]]}},{"type":"Feature","properties":{"kind":"lift","difficulty":null,"name":"Enzianlift","aerialway":"j-bar","osm":"way/196874521"},"geometry":{"type":"LineString","coordinates":[[12.77412,47.31633],[12.77312,47.3153]]}},{"type":"Feature","properties":{"kind":"lift","difficulty":null,"name":"Glocknerbahn","aerialway":"chair_lift","osm":"way/285709106"},"geometry":{"type":"LineString","coordinates":[[12.76941,47.30801],[12.75914,47.31322]]}},{"type":"Feature","properties":{"kind":"lift","difficulty":null,"name":"Schidolins Drachentunnel","aerialway":"magic_carpet","osm":"way/319924703"},"geometry":{"type":"LineString","coordinates":[[12.76634,47.30778],[12.76563,47.30824]]}}]}