{"type":"FeatureCollection","features":[{"type":"Feature","properties":{"kind":"lift","difficulty":null,"name":"4er Sesselbahn Hennesteck","aerialway":"chair_lift","osm":"way/30268242"},"geometry":{"type":"LineString","coordinates":[[15.36544,47.8788],[15.35354,47.88668]]}},{"type":"Feature","properties":{"kind":"lift","difficulty":null,"name":"4er Sesselbahn Söllnreith","aerialway":"chair_lift","osm":"way/30268282"},"geometry":{"type":"LineString","coordinates":[[15.36569,47.87913],[15.36271,47.88535]]}},{"type":"Feature","properties":{"kind":"lift","difficulty":null,"name":"Almboden","aerialway":"drag_lift","osm":"way/30268311"},"geometry":{"type":"LineString","coordinates":[[15.34889,47.88948],[15.35285,47.88654]]}},{"type":"Feature","properties":{"kind":"lift","difficulty":null,"name":"Förderband","aerialway":"magic_carpet","osm":"way/30334389"},"geometry":{"type":"LineString","coordinates":[[15.36537,47.87691],[15.36581,47.87553]]}},{"type":"Feature","properties":{"kind":"lift","difficulty":null,"name":"Reidl-Lift IV","aerialway":"platter","osm":"way/30334417"},"geometry":{"type":"LineString","coordinates":[[15.36575,47.87713],[15.37263,47.87699]]}},{"type":"Feature","properties":{"kind":"piste","difficulty":"easy","name":"Schiweg","aerialway":null,"osm":"way/240023015"},"geometry":{"type":"LineString","coordinates":[[15.37651,47.8725],[15.37979,47.87232],[15.38079,47.8721],[15.38547,47.87246],[15.38738,47.87226]]}},{"type":"Feature","properties":{"kind":"piste","difficulty":"easy","name":"Schiweg","aerialway":null,"osm":"way/240023016"},"geometry":{"type":"LineString","coordinates":[[15.38633,47.87244],[15.38601,47.87267],[15.38375,47.87329],[15.3824,47.87387],[15.38208,47.87572],[15.38216,47.8764],[15.38266,47.87724]]}},{"type":"Feature","properties":{"kind":"lift","difficulty":null,"name":"Jugendherberge-Lift","aerialway":"drag_lift","osm":"way/240023237"},"geometry":{"type":"LineString","coordinates":[[15.38754,47.87223],[15.3871,47.86899]]}},{"type":"Feature","properties":{"kind":"piste","difficulty":"easy","name":"Piste","aerialway":null,"osm":"way/240024923"},"geometry":{"type":"LineString","coordinates":[[15.3871,47.86899],[15.38737,47.86922],[15.38754,47.86966],[15.38776,47.87152],[15.38754,47.87223]]}},{"type":"Feature","properties":{"kind":"piste","difficulty":"easy","name":"Piste","aerialway":null,"osm":"way/240024924"},"geometry":{"type":"LineString","coordinates":[[15.38754,47.86966],[15.38825,47.87006],[15.38854,47.87035],[15.38865,47.87072],[15.38842,47.8716],[15.38764,47.87213]]}},{"type":"Feature","properties":{"kind":"piste","difficulty":"easy","name":"8 - Abfahrt Reidl IV","aerialway":null,"osm":"way/241764150"},"geometry":{"type":"LineString","coordinates":[[15.3721,47.877],[15.36793,47.87665],[15.36637,47.87671],[15.36572,47.8769],[15.36568,47.8772]]}},{"type":"Feature","properties":{"kind":"piste","difficulty":"easy","name":"6 - Übungshang","aerialway":null,"osm":"way/241764434"},"geometry":{"type":"LineString","coordinates":[[15.36581,47.87553],[15.36612,47.87569],[15.36572,47.8769],[15.36537,47.87691]]}},{"type":"Feature","properties":{"kind":"piste","difficulty":"freeride","name":"Schiweg Hennesteck (closed)","aerialway":null,"osm":"way/241764948"},"geometry":{"type":"LineString","coordinates":[[15.35829,47.88698],[15.35917,47.88714],[15.36012,47.88764],[15.36109,47.8878],[15.3618,47.88876],[15.36323,47.88952],[15.36459,47.89056],[15.36673,47.89169],[15.36495,47.88988],[15.36438,47.88901],[15.3642,47.8872],[15.36371,47.88605],[15.36343,47.88578],[15.3638,47.88516],[15.36363,47.88475]]}},{"type":"Feature","properties":{"kind":"piste","difficulty":"intermediate","name":"5 - Almboden","aerialway":null,"osm":"way/241765351"},"geometry":{"type":"LineString","coordinates":[[15.35252,47.8868],[15.3524,47.88671],[15.35151,47.88711],[15.35055,47.88775],[15.34875,47.88937],[15.34889,47.88948]]}},{"type":"Feature","properties":{"kind":"piste","difficulty":"advanced","name":"1a - FIS-Abfahrt","aerialway":null,"osm":"way/241765470"},"geometry":{"type":"LineString","coordinates":[[15.35481,47.88594],[15.3556,47.88548],[15.35566,47.88515],[15.35644,47.884],[15.35727,47.88331],[15.35815,47.88293]]}},{"type":"Feature","properties":{"kind":"piste","difficulty":"easy","name":"3 - Reidlwiese","aerialway":null,"osm":"way/241765528"},"geometry":{"type":"LineString","coordinates":[[15.36271,47.88535],[15.36222,47.88517],[15.36212,47.88501],[15.36199,47.8846],[15.3621,47.8841],[15.36179,47.88347],[15.36182,47.88295],[15.36536,47.8793],[15.36561,47.87888]]}},{"type":"Feature","properties":{"kind":"piste","difficulty":"advanced","name":"2 - Söllnreith-Abfahrt","aerialway":null,"osm":"way/241765620"},"geometry":{"type":"LineString","coordinates":[[15.35884,47.88688],[15.36001,47.88685],[15.36082,47.88667],[15.36204,47.88586],[15.36222,47.88517]]}},{"type":"Feature","properties":{"kind":"piste","difficulty":"easy","name":"4 - Gassneralm","aerialway":null,"osm":"way/241766152"},"geometry":{"type":"LineString","coordinates":[[15.3621,47.8841],[15.36284,47.88339],[15.36401,47.88336],[15.36472,47.88145],[15.3647,47.88102],[15.36536,47.8793]]}},{"type":"Feature","properties":{"kind":"lift","difficulty":null,"name":"Förderband","aerialway":"magic_carpet","osm":"way/463501536"},"geometry":{"type":"LineString","coordinates":[[15.36811,47.87624],[15.3687,47.87574]]}},{"type":"Feature","properties":{"kind":"lift","difficulty":null,"name":"Übungslift","aerialway":"platter","osm":"way/463501539"},"geometry":{"type":"LineString","coordinates":[[15.36819,47.87638],[15.36889,47.87594]]}},{"type":"Feature","properties":{"kind":"lift","difficulty":null,"name":"Zipline Hennesteck","aerialway":"zip_line","osm":"way/825391671"},"geometry":{"type":"LineString","coordinates":[[15.35391,47.8867],[15.36651,47.87874]]}},{"type":"Feature","properties":{"kind":"piste","difficulty":"easy","name":"1- Schiweg Hennesteck","aerialway":null,"osm":"way/973042427"},"geometry":{"type":"LineString","coordinates":[[15.35252,47.8868],[15.35268,47.88661],[15.35381,47.88681],[15.35584,47.88755]]}},{"type":"Feature","properties":{"kind":"piste","difficulty":"easy","name":"1- Schiweg Hennesteck","aerialway":null,"osm":"way/1472951837"},"geometry":{"type":"LineString","coordinates":[[15.35584,47.88755],[15.35586,47.88741],[15.35541,47.88707],[15.35409,47.88624],[15.35271,47.88566],[15.35262,47.88546],[15.35618,47.88625],[15.35758,47.88686],[15.35829,47.88698],[15.35884,47.88688],[15.35886,47.88676],[15.35797,47.88578],[15.35783,47.88554],[15.35778,47.88489],[15.35742,47.88442],[15.35699,47.88398],[15.35582,47.88323],[15.3554,47.88263],[15.35534,47.88195],[15.35544,47.88193],[15.35571,47.88235],[15.35659,47.88263],[15.35867,47.88277],[15.35992,47.88263],[15.3632,47.88053],[15.36475,47.87864],[15.36512,47.87854],[15.3655,47.87873]]}},{"type":"Feature","properties":{"kind":"piste","difficulty":"intermediate","name":"2a - Zdarsky-Piste","aerialway":null,"osm":"way/1472951838"},"geometry":{"type":"LineString","coordinates":[[15.36271,47.88535],[15.36306,47.88536],[15.36339,47.88514],[15.36363,47.88475],[15.36401,47.88336]]}},{"type":"Feature","properties":{"kind":"piste","difficulty":"advanced","name":"2 - Söllnreith-Abfahrt","aerialway":null,"osm":"way/1472951839"},"geometry":{"type":"LineString","coordinates":[[15.36204,47.88586],[15.36306,47.88536]]}},{"type":"Feature","properties":{"kind":"piste","difficulty":"intermediate","name":"1b - Hennest-Abfahrt","aerialway":null,"osm":"way/1472951840"},"geometry":{"type":"LineString","coordinates":[[15.35736,47.88679],[15.35783,47.88554]]}},{"type":"Feature","properties":{"kind":"piste","difficulty":"intermediate","name":null,"aerialway":null,"osm":"way/1472951842"},"geometry":{"type":"LineString","coordinates":[[15.35644,47.884],[15.35645,47.88335],[15.35867,47.88277]]}},{"type":"Feature","properties":{"kind":"piste","difficulty":"novice","name":"7 - Anna Land","aerialway":null,"osm":"way/1472953846"},"geometry":{"type":"LineString","coordinates":[[15.36889,47.87594],[15.36873,47.87591],[15.36819,47.87638]]}},{"type":"Feature","properties":{"kind":"piste","difficulty":"novice","name":"7 - Anna Land","aerialway":null,"osm":"way/1472953847"},"geometry":{"type":"LineString","coordinates":[[15.3687,47.87574],[15.36873,47.87591]]}},{"type":"Feature","properties":{"kind":"piste","difficulty":"novice","name":"7 - Anna Land","aerialway":null,"osm":"way/1472953848"},"geometry":{"type":"LineString","coordinates":[[15.36819,47.87628],[15.36811,47.87624]]}},{"type":"Feature","properties":{"kind":"piste","difficulty":"easy","name":null,"aerialway":null,"osm":"way/1472956046"},"geometry":{"type":"LineString","coordinates":[[15.36182,47.88295],[15.3632,47.88053]]}},{"type":"Feature","properties":{"kind":"piste","difficulty":"easy","name":"Piste","aerialway":null,"osm":"way/1472956048"},"geometry":{"type":"LineString","coordinates":[[15.36509,47.87782],[15.3651,47.87803],[15.36552,47.8787]]}},{"type":"Feature","properties":{"kind":"piste","difficulty":"easy","name":"Unoffical forest track","aerialway":null,"osm":"way/1472956049"},"geometry":{"type":"LineString","coordinates":[[15.36401,47.88336],[15.36492,47.8833],[15.36528,47.88282],[15.3661,47.88335],[15.36609,47.88289],[15.36535,47.88164],[15.36471,47.8813]]}}]}