{"type":"FeatureCollection","features":[{"type":"Feature","properties":{"kind":"piste","difficulty":"easy","name":"Weitmoosabfahrt","aerialway":null,"osm":"way/32679038"},"geometry":{"type":"LineString","coordinates":[[13.73083,47.36275],[13.73065,47.36265],[13.73051,47.36278],[13.73038,47.36338],[13.72978,47.36405],[13.72932,47.36437],[13.72728,47.36498],[13.72625,47.36545],[13.72603,47.3657],[13.72398,47.36632],[13.72224,47.3681],[13.7198,47.36815],[13.71472,47.36784],[13.71403,47.36773],[13.71396,47.36754],[13.71417,47.36751]]}},{"type":"Feature","properties":{"kind":"lift","difficulty":null,"name":"Weitmoos-Tellerlift","aerialway":"platter","osm":"way/32679039"},"geometry":{"type":"LineString","coordinates":[[13.71417,47.36751],[13.7223,47.36796]]}},{"type":"Feature","properties":{"kind":"lift","difficulty":null,"name":"Weitmooslift","aerialway":"t-bar","osm":"way/32679040"},"geometry":{"type":"LineString","coordinates":[[13.71407,47.36746],[13.72233,47.3679]]}},{"type":"Feature","properties":{"kind":"piste","difficulty":"easy","name":"Weitmoosabfahrt","aerialway":null,"osm":"way/32679042"},"geometry":{"type":"LineString","coordinates":[[13.72179,47.36787],[13.7219,47.36778],[13.72195,47.36786],[13.72185,47.36803]]}},{"type":"Feature","properties":{"kind":"piste","difficulty":"easy","name":"Weitmoosabfahrt","aerialway":null,"osm":"way/32679043"},"geometry":{"type":"LineString","coordinates":[[13.72013,47.36927],[13.71827,47.37028],[13.71724,47.37045],[13.71652,47.37029],[13.71622,47.37009],[13.71415,47.36779]]}},{"type":"Feature","properties":{"kind":"piste","difficulty":"easy","name":"Verbindungsweg","aerialway":null,"osm":"way/32679045"},"geometry":{"type":"LineString","coordinates":[[13.71622,47.37009],[13.71551,47.37004],[13.71485,47.3705]]}},{"type":"Feature","properties":{"kind":"lift","difficulty":null,"name":"Fritz-Blitz","aerialway":"magic_carpet","osm":"way/32679047"},"geometry":{"type":"LineString","coordinates":[[13.71485,47.3705],[13.71377,47.37022]]}},{"type":"Feature","properties":{"kind":"piste","difficulty":"easy","name":"Lärchkogelweg","aerialway":null,"osm":"way/32679048"},"geometry":{"type":"LineString","coordinates":[[13.71481,47.37191],[13.71568,47.37221],[13.7189,47.37275],[13.71969,47.37266]]}},{"type":"Feature","properties":{"kind":"piste","difficulty":"intermediate","name":"Startstrecke WM-Abfahrt","aerialway":null,"osm":"way/32679052"},"geometry":{"type":"LineString","coordinates":[[13.71419,47.37173],[13.71435,47.3723],[13.71459,47.37264],[13.71525,47.37305],[13.71542,47.37326],[13.71538,47.37351],[13.71561,47.3738],[13.71644,47.3743],[13.71673,47.37504]]}},{"type":"Feature","properties":{"kind":"piste","difficulty":"intermediate","name":"WM Herrenstrecke","aerialway":null,"osm":"way/32679053"},"geometry":{"type":"LineString","coordinates":[[13.7223,47.37354],[13.72269,47.37435],[13.72255,47.37456],[13.72206,47.37472],[13.71842,47.37482],[13.71673,47.37504],[13.71608,47.37534],[13.71552,47.3757],[13.71544,47.37663],[13.71512,47.37688],[13.714,47.37728],[13.71298,47.37794],[13.71015,47.38062],[13.70961,47.38089],[13.707,47.38131],[13.70647,47.3815]]}},{"type":"Feature","properties":{"kind":"piste","difficulty":"easy","name":null,"aerialway":null,"osm":"way/32679054"},"geometry":{"type":"LineString","coordinates":[[13.70647,47.3815],[13.70501,47.38107]]}},{"type":"Feature","properties":{"kind":"piste","difficulty":"advanced","name":"WM Herrenstrecke","aerialway":null,"osm":"way/32679057"},"geometry":{"type":"LineString","coordinates":[[13.70198,47.38459],[13.70162,47.38484],[13.70026,47.38489],[13.6998,47.38504],[13.6982,47.38579],[13.69728,47.38654],[13.69656,47.38746],[13.69639,47.38808],[13.69719,47.38896],[13.6969,47.38977],[13.69735,47.39074],[13.69657,47.39144],[13.69433,47.39272]]}},{"type":"Feature","properties":{"kind":"lift","difficulty":null,"name":"Planaibahn II","aerialway":"gondola","osm":"way/32679059"},"geometry":{"type":"LineString","coordinates":[[13.70774,47.38214],[13.72439,47.373]]}},{"type":"Feature","properties":{"kind":"lift","difficulty":null,"name":"Planaibahn I","aerialway":"gondola","osm":"way/32679060"},"geometry":{"type":"LineString","coordinates":[[13.69322,47.39289],[13.70774,47.38214]]}},{"type":"Feature","properties":{"kind":"piste","difficulty":"easy","name":null,"aerialway":null,"osm":"way/32679062"},"geometry":{"type":"LineString","coordinates":[[13.72439,47.373],[13.7245,47.3729],[13.72437,47.37276]]}},{"type":"Feature","properties":{"kind":"piste","difficulty":"intermediate","name":"Burgstallalmabfahrt","aerialway":null,"osm":"way/32679063"},"geometry":{"type":"LineString","coordinates":[[13.72472,47.3724],[13.72486,47.37269],[13.72602,47.37354],[13.72669,47.37421],[13.72686,47.37469],[13.72837,47.376],[13.7285,47.37662],[13.72978,47.37799],[13.73032,47.37817],[13.7305,47.37801],[13.73045,47.37788]]}},{"type":"Feature","properties":{"kind":"piste","difficulty":"intermediate","name":null,"aerialway":null,"osm":"way/32679064"},"geometry":{"type":"LineString","coordinates":[[13.72405,47.37498],[13.72419,47.37485],[13.72482,47.37497]]}},{"type":"Feature","properties":{"kind":"piste","difficulty":"intermediate","name":"Burgstallalmabfahrt","aerialway":null,"osm":"way/32679066"},"geometry":{"type":"LineString","coordinates":[[13.72546,47.37558],[13.72715,47.37638],[13.7285,47.37662]]}},{"type":"Feature","properties":{"kind":"piste","difficulty":"intermediate","name":null,"aerialway":null,"osm":"way/32679068"},"geometry":{"type":"LineString","coordinates":[[13.72387,47.37303],[13.72281,47.37274]]}},{"type":"Feature","properties":{"kind":"piste","difficulty":"easy","name":"Verbindungsweg","aerialway":null,"osm":"way/32679069"},"geometry":{"type":"LineString","coordinates":[[13.72437,47.37276],[13.72279,47.37208],[13.72218,47.37152],[13.72148,47.37126],[13.72129,47.37102],[13.72121,47.37061],[13.72108,47.36868]]}},{"type":"Feature","properties":{"kind":"piste","difficulty":"easy","name":"Verbindungsweg","aerialway":null,"osm":"way/32679072"},"geometry":{"type":"LineString","coordinates":[[13.71969,47.37266],[13.72206,47.37472]]}},{"type":"Feature","properties":{"kind":"piste","difficulty":"freeride","name":"Skiroute Burgstallalm","aerialway":null,"osm":"way/32679075"},"geometry":{"type":"LineString","coordinates":[[13.72578,47.36946],[13.7265,47.36932],[13.72715,47.36863],[13.72934,47.37041],[13.72952,47.37077],[13.72949,47.37113],[13.72974,47.37198],[13.73152,47.3734],[13.73153,47.37393],[13.73113,47.37446],[13.7308,47.37549],[13.72981,47.37617]]}},{"type":"Feature","properties":{"kind":"lift","difficulty":null,"name":"Burgstallalmbahn","aerialway":"chair_lift","osm":"way/32679077"},"geometry":{"type":"LineString","coordinates":[[13.73045,47.37788],[13.72584,47.36965]]}},{"type":"Feature","properties":{"kind":"piste","difficulty":"intermediate","name":"WM Herrenstrecke oben","aerialway":null,"osm":"way/32679079"},"geometry":{"type":"LineString","coordinates":[[13.72584,47.36965],[13.72578,47.36946],[13.72555,47.36974]]}},{"type":"Feature","properties":{"kind":"piste","difficulty":"easy","name":"Verbindungsweg","aerialway":null,"osm":"way/32679080"},"geometry":{"type":"LineString","coordinates":[[13.71904,47.37626],[13.72058,47.37679],[13.72186,47.37747],[13.72225,47.37776],[13.72304,47.37885],[13.72349,47.37919],[13.72713,47.37942],[13.72918,47.37895],[13.7302,47.37818],[13.73037,47.3782],[13.72978,47.37921],[13.72943,47.37953],[13.7289,47.38085],[13.72832,47.38116],[13.72657,47.38114],[13.72472,47.38183],[13.7236,47.38171],[13.72266,47.38196],[13.7217,47.38193],[13.72111,47.3821]]}},{"type":"Feature","properties":{"kind":"lift","difficulty":null,"name":"Fastenberg 6er","aerialway":"chair_lift","osm":"way/32679082"},"geometry":{"type":"LineString","coordinates":[[13.70859,47.39017],[13.72405,47.37498]]}},{"type":"Feature","properties":{"kind":"lift","difficulty":null,"name":"Lärchkogelbahn","aerialway":"chair_lift","osm":"way/32679085"},"geometry":{"type":"LineString","coordinates":[[13.70578,47.381],[13.71313,47.37155]]}},{"type":"Feature","properties":{"kind":"piste","difficulty":"intermediate","name":"Lärchkogelabfahrt","aerialway":null,"osm":"way/32679088"},"geometry":{"type":"LineString","coordinates":[[13.71322,47.37143],[13.71249,47.37133],[13.71075,47.37159],[13.71056,47.37175],[13.71053,47.37212],[13.71176,47.37311],[13.71171,47.37358],[13.70939,47.37458],[13.70924,47.37483],[13.70943,47.37566],[13.70848,47.37648],[13.70824,47.37707],[13.70785,47.37729],[13.70509,47.37808],[13.70462,47.3785],[13.70371,47.3797],[13.70377,47.38008],[13.704,47.38034],[13.70501,47.38107]]}},{"type":"Feature","properties":{"kind":"piste","difficulty":"intermediate","name":"Kraiterabfahrt","aerialway":null,"osm":"way/32679092"},"geometry":{"type":"LineString","coordinates":[[13.71075,47.37159],[13.71007,47.37165],[13.70872,47.37219],[13.70699,47.37253],[13.70545,47.37242],[13.70346,47.37258],[13.70237,47.37303],[13.70124,47.37323],[13.70107,47.37343],[13.70111,47.37368],[13.70248,47.3751],[13.70253,47.37573],[13.70356,47.37883],[13.70371,47.3797]]}},{"type":"Feature","properties":{"kind":"piste","difficulty":"advanced","name":"Über die freien Wiesen","aerialway":null,"osm":"way/32679096"},"geometry":{"type":"LineString","coordinates":[[13.70356,47.37915],[13.70186,47.3793],[13.69962,47.37876],[13.69779,47.37881],[13.69632,47.37831],[13.69567,47.37824],[13.69431,47.37783],[13.6927,47.37785],[13.69171,47.37859],[13.69144,47.37901],[13.69163,47.3807],[13.69137,47.38104]]}},{"type":"Feature","properties":{"kind":"piste","difficulty":"intermediate","name":null,"aerialway":null,"osm":"way/32679099"},"geometry":{"type":"LineString","coordinates":[[13.70296,47.37887],[13.7032,47.37888],[13.70356,47.37915]]}},{"type":"Feature","properties":{"kind":"piste","difficulty":"easy","name":"Weitmoosabfahrt","aerialway":null,"osm":"way/32679104"},"geometry":{"type":"LineString","coordinates":[[13.72578,47.36946],[13.72529,47.36942],[13.72503,47.36904],[13.72527,47.3684],[13.72671,47.3663],[13.72714,47.36585],[13.7283,47.36519],[13.72852,47.36465]]}},{"type":"Feature","properties":{"kind":"piste","difficulty":"easy","name":"Weitmoosabfahrt","aerialway":null,"osm":"way/50344586"},"geometry":{"type":"LineString","coordinates":[[13.7257,47.36917],[13.72595,47.36916],[13.72592,47.36907],[13.72519,47.36864]]}},{"type":"Feature","properties":{"kind":"lift","difficulty":null,"name":"Märchenwiesebahn","aerialway":"chair_lift","osm":"way/50344597"},"geometry":{"type":"LineString","coordinates":[[13.71675,47.36989],[13.7257,47.36917]]}},{"type":"Feature","properties":{"kind":"piste","difficulty":"easy","name":"Weitmoosabfahrt","aerialway":null,"osm":"way/142430639"},"geometry":{"type":"LineString","coordinates":[[13.71481,47.37191],[13.71612,47.37176],[13.71662,47.37156],[13.71687,47.3712],[13.71691,47.3706]]}},{"type":"Feature","properties":{"kind":"piste","difficulty":"intermediate","name":"Rittiserhang","aerialway":null,"osm":"way/152131431"},"geometry":{"type":"LineString","coordinates":[[13.72439,47.37114],[13.72337,47.37141],[13.72145,47.37153],[13.71994,47.37218]]}},{"type":"Feature","properties":{"kind":"piste","difficulty":"easy","name":"Verbindungsweg","aerialway":null,"osm":"way/152131432"},"geometry":{"type":"LineString","coordinates":[[13.71377,47.37022],[13.7129,47.36932],[13.71265,47.36921],[13.712,47.36916],[13.71115,47.36937],[13.7093,47.37063],[13.70813,47.37183],[13.7075,47.37208],[13.70699,47.37253]]}},{"type":"Feature","properties":{"kind":"piste","difficulty":"easy","name":null,"aerialway":null,"osm":"way/169248917"},"geometry":{"type":"LineString","coordinates":[[13.70339,47.38516],[13.70369,47.38528],[13.70434,47.3861],[13.70484,47.38635]]}},{"type":"Feature","properties":{"kind":"piste","difficulty":"easy","name":"Verbindungsweg","aerialway":null,"osm":"way/169248919"},"geometry":{"type":"LineString","coordinates":[[13.71813,47.37575],[13.71846,47.37614],[13.71904,47.37626]]}},{"type":"Feature","properties":{"kind":"piste","difficulty":"easy","name":null,"aerialway":null,"osm":"way/172672379"},"geometry":{"type":"LineString","coordinates":[[13.69778,47.38351],[13.69636,47.38322],[13.69485,47.38254]]}},{"type":"Feature","properties":{"kind":"piste","difficulty":"intermediate","name":"Mitterhausabfahrt","aerialway":null,"osm":"way/198963074"},"geometry":{"type":"LineString","coordinates":[[13.73047,47.36284],[13.73093,47.36335],[13.73099,47.36364],[13.73072,47.36422],[13.73114,47.36489]]}},{"type":"Feature","properties":{"kind":"piste","difficulty":"easy","name":null,"aerialway":null,"osm":"way/198970297"},"geometry":{"type":"LineString","coordinates":[[13.71048,47.37418],[13.71214,47.37458],[13.71276,47.37513],[13.71321,47.37512],[13.71357,47.37533],[13.71552,47.3757]]}},{"type":"Feature","properties":{"kind":"piste","difficulty":"easy","name":null,"aerialway":null,"osm":"way/198970298"},"geometry":{"type":"LineString","coordinates":[[13.7071,47.37239],[13.70678,47.37279],[13.70718,47.37308],[13.70829,47.37333],[13.70951,47.37398],[13.71048,47.37418]]}},{"type":"Feature","properties":{"kind":"piste","difficulty":"easy","name":null,"aerialway":null,"osm":"way/198970304"},"geometry":{"type":"LineString","coordinates":[[13.70786,47.38602],[13.70668,47.38577],[13.70602,47.38548],[13.70468,47.3853],[13.70416,47.38489],[13.70337,47.38492],[13.70274,47.38452],[13.7024,47.38463],[13.70239,47.38483]]}},{"type":"Feature","properties":{"kind":"piste","difficulty":"easy","name":"Verbindungsweg","aerialway":null,"osm":"way/198970307"},"geometry":{"type":"LineString","coordinates":[[13.71194,47.37898],[13.71343,47.37924],[13.71417,47.37965],[13.71523,47.38054]]}},{"type":"Feature","properties":{"kind":"piste","difficulty":"easy","name":null,"aerialway":null,"osm":"way/198970311"},"geometry":{"type":"LineString","coordinates":[[13.71157,47.38132],[13.71328,47.38304],[13.71344,47.38375],[13.71368,47.38416],[13.71535,47.38508],[13.71609,47.38574]]}},{"type":"Feature","properties":{"kind":"piste","difficulty":"novice","name":null,"aerialway":null,"osm":"way/198970312"},"geometry":{"type":"LineString","coordinates":[[13.70739,47.3818],[13.70766,47.38206]]}},{"type":"Feature","properties":{"kind":"piste","difficulty":"easy","name":"Verbindungsweg","aerialway":null,"osm":"way/198970313"},"geometry":{"type":"LineString","coordinates":[[13.70501,47.38107],[13.70502,47.3815],[13.70538,47.38203],[13.70692,47.383],[13.70803,47.38389],[13.70875,47.38473],[13.70939,47.38502],[13.70984,47.38553],[13.71197,47.38705],[13.71305,47.38736],[13.71355,47.38765],[13.71414,47.38775],[13.71427,47.38798]]}},{"type":"Feature","properties":{"kind":"piste","difficulty":"easy","name":"Verbindungsweg","aerialway":null,"osm":"way/198970323"},"geometry":{"type":"LineString","coordinates":[[13.69779,47.37881],[13.69738,47.37927],[13.69704,47.38012],[13.69752,47.38108],[13.6983,47.38155],[13.69938,47.38247],[13.70132,47.38326],[13.70212,47.38418]]}},{"type":"Feature","properties":{"kind":"piste","difficulty":"easy","name":null,"aerialway":null,"osm":"way/198970324"},"geometry":{"type":"LineString","coordinates":[[13.71609,47.38574],[13.71449,47.38601],[13.71365,47.38583],[13.71181,47.38573],[13.70875,47.38473]]}},{"type":"Feature","properties":{"kind":"piste","difficulty":"easy","name":null,"aerialway":null,"osm":"way/198970327"},"geometry":{"type":"LineString","coordinates":[[13.70913,47.38175],[13.70833,47.38168],[13.70739,47.3818],[13.70647,47.3815]]}},{"type":"Feature","properties":{"kind":"piste","difficulty":"easy","name":"Verbindungsweg","aerialway":null,"osm":"way/198970328"},"geometry":{"type":"LineString","coordinates":[[13.69424,47.38219],[13.69137,47.38104]]}},{"type":"Feature","properties":{"kind":"piste","difficulty":"easy","name":"Verbindungsweg","aerialway":null,"osm":"way/198970329"},"geometry":{"type":"LineString","coordinates":[[13.70212,47.38418],[13.69778,47.38351]]}},{"type":"Feature","properties":{"kind":"piste","difficulty":"easy","name":"Verbindungsweg","aerialway":null,"osm":"way/198970330"},"geometry":{"type":"LineString","coordinates":[[13.70484,47.38635],[13.70548,47.387],[13.70574,47.3875],[13.70631,47.38768],[13.70726,47.38829]]}},{"type":"Feature","properties":{"kind":"piste","difficulty":"easy","name":"Verbindungsweg","aerialway":null,"osm":"way/287235191"},"geometry":{"type":"LineString","coordinates":[[13.7223,47.37354],[13.72212,47.37362],[13.72167,47.37329]]}},{"type":"Feature","properties":{"kind":"piste","difficulty":"freeride","name":"Skiroute Burgstallalm","aerialway":null,"osm":"way/287922079"},"geometry":{"type":"LineString","coordinates":[[13.72981,47.37617],[13.72959,47.37644],[13.7295,47.37732],[13.72934,47.37756]]}},{"type":"Feature","properties":{"kind":"piste","difficulty":"easy","name":null,"aerialway":null,"osm":"way/310942739"},"geometry":{"type":"LineString","coordinates":[[13.7084,47.39007],[13.70879,47.38993],[13.7091,47.39009]]}},{"type":"Feature","properties":{"kind":"lift","difficulty":null,"name":"Planai West II","aerialway":"gondola","osm":"way/326893907"},"geometry":{"type":"LineString","coordinates":[[13.68615,47.38336],[13.70296,47.37887]]}},{"type":"Feature","properties":{"kind":"piste","difficulty":"intermediate","name":"WM Herrenstrecke","aerialway":null,"osm":"way/386942983"},"geometry":{"type":"LineString","coordinates":[[13.72419,47.37485],[13.72307,47.37492],[13.72206,47.37472]]}},{"type":"Feature","properties":{"kind":"piste","difficulty":"easy","name":"Weitmoosabfahrt","aerialway":null,"osm":"way/386942984"},"geometry":{"type":"LineString","coordinates":[[13.71905,47.37224],[13.71835,47.37149],[13.71652,47.37029],[13.71655,47.37007],[13.71675,47.36989]]}},{"type":"Feature","properties":{"kind":"piste","difficulty":"easy","name":"Weitmoosabfahrt","aerialway":null,"osm":"way/386959078"},"geometry":{"type":"LineString","coordinates":[[13.71396,47.36765],[13.71387,47.36749],[13.71407,47.36746]]}},{"type":"Feature","properties":{"kind":"piste","difficulty":"easy","name":null,"aerialway":null,"osm":"way/386959362"},"geometry":{"type":"LineString","coordinates":[[13.71313,47.37155],[13.71322,47.37143]]}},{"type":"Feature","properties":{"kind":"piste","difficulty":"easy","name":"Verbindungsweg","aerialway":null,"osm":"way/396278119"},"geometry":{"type":"LineString","coordinates":[[13.7223,47.37354],[13.72313,47.37408]]}},{"type":"Feature","properties":{"kind":"piste","difficulty":"intermediate","name":null,"aerialway":null,"osm":"way/450504636"},"geometry":{"type":"LineString","coordinates":[[13.72595,47.36916],[13.72599,47.36939],[13.72578,47.36946]]}},{"type":"Feature","properties":{"kind":"piste","difficulty":"intermediate","name":"Burgstallalmabfahrt","aerialway":null,"osm":"way/450504637"},"geometry":{"type":"LineString","coordinates":[[13.72437,47.37276],[13.72486,47.37269]]}},{"type":"Feature","properties":{"kind":"piste","difficulty":"intermediate","name":"Mitterhausabfahrt","aerialway":null,"osm":"way/450504639"},"geometry":{"type":"LineString","coordinates":[[13.7283,47.36519],[13.73042,47.36482],[13.73114,47.36489],[13.73339,47.36465],[13.73473,47.36423]]}},{"type":"Feature","properties":{"kind":"piste","difficulty":"intermediate","name":"Märchenwiesenabfahrt","aerialway":null,"osm":"way/450504640"},"geometry":{"type":"LineString","coordinates":[[13.72281,47.37274],[13.71969,47.37266]]}},{"type":"Feature","properties":{"kind":"piste","difficulty":"freeride","name":"Skiroute Mitterhaus","aerialway":null,"osm":"way/450504641"},"geometry":{"type":"LineString","coordinates":[[13.72595,47.36916],[13.72629,47.36857],[13.72715,47.36781],[13.72755,47.36617],[13.72815,47.3656],[13.7283,47.36519]]}},{"type":"Feature","properties":{"kind":"piste","difficulty":"easy","name":"Verbindungsweg","aerialway":null,"osm":"way/450680026"},"geometry":{"type":"LineString","coordinates":[[13.71981,47.38134],[13.7199,47.38163],[13.7209,47.38194],[13.72111,47.3821],[13.72107,47.38219],[13.71822,47.3828]]}},{"type":"Feature","properties":{"kind":"piste","difficulty":"intermediate","name":"WM Damenstrecke","aerialway":null,"osm":"way/450680027"},"geometry":{"type":"LineString","coordinates":[[13.70913,47.38175],[13.70875,47.38203],[13.70841,47.38254],[13.70851,47.38361],[13.70886,47.38447],[13.70797,47.38577],[13.70747,47.3872],[13.70723,47.38864],[13.7074,47.38978]]}},{"type":"Feature","properties":{"kind":"piste","difficulty":"intermediate","name":"WM Damenstrecke","aerialway":null,"osm":"way/450680028"},"geometry":{"type":"LineString","coordinates":[[13.71983,47.37955],[13.71829,47.38036],[13.71663,47.38017],[13.71586,47.38025],[13.71436,47.38095],[13.70913,47.38175]]}},{"type":"Feature","properties":{"kind":"lift","difficulty":null,"name":"WM Shuttle","aerialway":"chair_lift","osm":"way/450680029"},"geometry":{"type":"LineString","coordinates":[[13.69396,47.39213],[13.69733,47.38854]]}},{"type":"Feature","properties":{"kind":"piste","difficulty":"easy","name":"Zustieg Planai 6er","aerialway":null,"osm":"way/450680030"},"geometry":{"type":"LineString","coordinates":[[13.70827,47.38987],[13.70859,47.39017]]}},{"type":"Feature","properties":{"kind":"piste","difficulty":"advanced","name":"Über die freien Wiesen","aerialway":null,"osm":"way/450680031"},"geometry":{"type":"LineString","coordinates":[[13.68797,47.3828],[13.68684,47.38348],[13.68637,47.3835],[13.68615,47.38336]]}},{"type":"Feature","properties":{"kind":"piste","difficulty":"easy","name":"Verbindungsweg","aerialway":null,"osm":"way/458815917"},"geometry":{"type":"LineString","coordinates":[[13.72013,47.36927],[13.71994,47.37075],[13.71994,47.37218]]}},{"type":"Feature","properties":{"kind":"piste","difficulty":"intermediate","name":"SG Start","aerialway":null,"osm":"way/524749464"},"geometry":{"type":"LineString","coordinates":[[13.71494,47.38099],[13.71436,47.38095]]}},{"type":"Feature","properties":{"kind":"piste","difficulty":"easy","name":"Verbindungsweg","aerialway":null,"osm":"way/577593452"},"geometry":{"type":"LineString","coordinates":[[13.71194,47.37898],[13.70693,47.37799]]}},{"type":"Feature","properties":{"kind":"piste","difficulty":"advanced","name":"Über die freien Wiesen","aerialway":null,"osm":"way/577593459"},"geometry":{"type":"LineString","coordinates":[[13.69112,47.38117],[13.69071,47.38093],[13.69037,47.38092],[13.68945,47.38254],[13.6869,47.38287],[13.68627,47.38305],[13.68615,47.38336]]}},{"type":"Feature","properties":{"kind":"piste","difficulty":"advanced","name":"Über die freien Wiesen","aerialway":null,"osm":"way/577593462"},"geometry":{"type":"LineString","coordinates":[[13.69137,47.38104],[13.69112,47.38117]]}},{"type":"Feature","properties":{"kind":"piste","difficulty":"novice","name":"Boardstars Übungsgelände","aerialway":null,"osm":"way/577593463"},"geometry":{"type":"LineString","coordinates":[[13.72135,47.36871],[13.72184,47.36851],[13.72144,47.36876],[13.72135,47.36871]]}},{"type":"Feature","properties":{"kind":"piste","difficulty":"novice","name":null,"aerialway":null,"osm":"way/577593465"},"geometry":{"type":"LineString","coordinates":[[13.71906,47.37258],[13.71914,47.37251]]}},{"type":"Feature","properties":{"kind":"piste","difficulty":"novice","name":null,"aerialway":null,"osm":"way/577593466"},"geometry":{"type":"LineString","coordinates":[[13.71939,47.37268],[13.71888,47.37246]]}},{"type":"Feature","properties":{"kind":"piste","difficulty":"novice","name":null,"aerialway":null,"osm":"way/577593467"},"geometry":{"type":"LineString","coordinates":[[13.71939,47.37268],[13.71944,47.37259],[13.71914,47.37251]]}},{"type":"Feature","properties":{"kind":"lift","difficulty":null,"name":null,"aerialway":"magic_carpet","osm":"way/577593468"},"geometry":{"type":"LineString","coordinates":[[13.71888,47.37246],[13.71906,47.37258]]}},{"type":"Feature","properties":{"kind":"lift","difficulty":null,"name":null,"aerialway":"magic_carpet","osm":"way/577593469"},"geometry":{"type":"LineString","coordinates":[[13.71914,47.37251],[13.71939,47.37268]]}},{"type":"Feature","properties":{"kind":"piste","difficulty":"novice","name":null,"aerialway":null,"osm":"way/577593475"},"geometry":{"type":"LineString","coordinates":[[13.70858,47.38222],[13.70816,47.38229]]}},{"type":"Feature","properties":{"kind":"piste","difficulty":"intermediate","name":"Lärchkogelabfahrt","aerialway":null,"osm":"way/663945279"},"geometry":{"type":"LineString","coordinates":[[13.71374,47.37161],[13.71277,47.37236],[13.71206,47.3733],[13.71171,47.37358]]}},{"type":"Feature","properties":{"kind":"piste","difficulty":"easy","name":null,"aerialway":null,"osm":"way/680880337"},"geometry":{"type":"LineString","coordinates":[[13.69814,47.39258],[13.69812,47.39271],[13.69834,47.39289],[13.69817,47.39326],[13.69745,47.39311],[13.69691,47.39273]]}},{"type":"Feature","properties":{"kind":"piste","difficulty":"easy","name":null,"aerialway":null,"osm":"way/680880860"},"geometry":{"type":"LineString","coordinates":[[13.70926,47.37511],[13.71098,47.3759],[13.71172,47.37663],[13.71203,47.37713],[13.71286,47.37763],[13.71298,47.37794]]}},{"type":"Feature","properties":{"kind":"piste","difficulty":"freeride","name":"Skiroute Burgstallalm","aerialway":null,"osm":"way/847325350"},"geometry":{"type":"LineString","coordinates":[[13.72857,47.36978],[13.72888,47.37068],[13.72955,47.37122]]}},{"type":"Feature","properties":{"kind":"piste","difficulty":"easy","name":null,"aerialway":null,"osm":"way/847325351"},"geometry":{"type":"LineString","coordinates":[[13.71069,47.38863],[13.7106,47.38925],[13.71105,47.3896],[13.7116,47.39044],[13.71152,47.39054],[13.7091,47.39009]]}},{"type":"Feature","properties":{"kind":"piste","difficulty":"intermediate","name":"Streicherabfahrt","aerialway":null,"osm":"way/996236730"},"geometry":{"type":"LineString","coordinates":[[13.71983,47.37955],[13.72081,47.38085],[13.7207,47.38108],[13.72037,47.38123],[13.71877,47.3817],[13.71846,47.3821],[13.71799,47.38321],[13.71777,47.3845],[13.71609,47.38574],[13.71595,47.3864],[13.71628,47.38718],[13.71606,47.38748],[13.71421,47.388],[13.71133,47.38838],[13.70847,47.38981],[13.7074,47.38978]]}},{"type":"Feature","properties":{"kind":"piste","difficulty":"intermediate","name":"WM Damenstrecke","aerialway":null,"osm":"way/996236731"},"geometry":{"type":"LineString","coordinates":[[13.72437,47.37276],[13.72387,47.37303],[13.72367,47.37349],[13.72482,47.37497],[13.72546,47.37558],[13.72574,47.3761],[13.72567,47.37714],[13.72537,47.37757],[13.72472,47.37794],[13.72287,47.37845],[13.72086,47.37855],[13.7202,47.37898],[13.71983,47.37955]]}},{"type":"Feature","properties":{"kind":"piste","difficulty":"easy","name":null,"aerialway":null,"osm":"way/1005087132"},"geometry":{"type":"LineString","coordinates":[[13.70198,47.38459],[13.70239,47.38483]]}},{"type":"Feature","properties":{"kind":"piste","difficulty":"easy","name":null,"aerialway":null,"osm":"way/1005087133"},"geometry":{"type":"LineString","coordinates":[[13.70239,47.38483],[13.70297,47.38493],[13.70339,47.38516]]}},{"type":"Feature","properties":{"kind":"piste","difficulty":"easy","name":"Verbindungsweg","aerialway":null,"osm":"way/1005087135"},"geometry":{"type":"LineString","coordinates":[[13.70693,47.37799],[13.70625,47.37773]]}},{"type":"Feature","properties":{"kind":"piste","difficulty":"easy","name":"Spreizenbergweg","aerialway":null,"osm":"way/1005087142"},"geometry":{"type":"LineString","coordinates":[[13.69772,47.39088],[13.69895,47.39139],[13.6991,47.39179]]}},{"type":"Feature","properties":{"kind":"piste","difficulty":"easy","name":"Verbindungsweg","aerialway":null,"osm":"way/1005087163"},"geometry":{"type":"LineString","coordinates":[[13.72415,47.37466],[13.72448,47.37493]]}},{"type":"Feature","properties":{"kind":"piste","difficulty":"easy","name":"404 - Rookie Downhill","aerialway":null,"osm":"way/1005087164"},"geometry":{"type":"LineString","coordinates":[[13.72313,47.37408],[13.72415,47.37466]]}},{"type":"Feature","properties":{"kind":"piste","difficulty":"easy","name":"Spreizenbergweg","aerialway":null,"osm":"way/1005087214"},"geometry":{"type":"LineString","coordinates":[[13.6991,47.39179],[13.69925,47.39201]]}},{"type":"Feature","properties":{"kind":"piste","difficulty":"easy","name":"Verbindungsweg","aerialway":null,"osm":"way/1005087215"},"geometry":{"type":"LineString","coordinates":[[13.69925,47.39201],[13.69935,47.3923]]}},{"type":"Feature","properties":{"kind":"piste","difficulty":"intermediate","name":"Burgstallalmabfahrt","aerialway":null,"osm":"way/1005181220"},"geometry":{"type":"LineString","coordinates":[[13.72439,47.37114],[13.72438,47.37165],[13.72472,47.3724]]}},{"type":"Feature","properties":{"kind":"piste","difficulty":"easy","name":"Weitmoosabfahrt","aerialway":null,"osm":"way/1006302004"},"geometry":{"type":"LineString","coordinates":[[13.7218,47.36793],[13.72185,47.36803],[13.72108,47.36868],[13.72013,47.36927]]}},{"type":"Feature","properties":{"kind":"piste","difficulty":"easy","name":"Rittiserhang","aerialway":null,"osm":"way/1006302005"},"geometry":{"type":"LineString","coordinates":[[13.71994,47.37218],[13.71905,47.37224]]}},{"type":"Feature","properties":{"kind":"piste","difficulty":"intermediate","name":"WM Herrenstrecke","aerialway":null,"osm":"way/1006302007"},"geometry":{"type":"LineString","coordinates":[[13.72555,47.36974],[13.72515,47.37049],[13.72336,47.37195],[13.7223,47.37354]]}},{"type":"Feature","properties":{"kind":"piste","difficulty":"easy","name":"Verbindungsweg","aerialway":null,"osm":"way/1006302008"},"geometry":{"type":"LineString","coordinates":[[13.72069,47.37281],[13.71969,47.37266],[13.71905,47.37224]]}},{"type":"Feature","properties":{"kind":"piste","difficulty":"easy","name":"Weitmoosabfahrt","aerialway":null,"osm":"way/1006302013"},"geometry":{"type":"LineString","coordinates":[[13.71322,47.37143],[13.71419,47.37173]]}},{"type":"Feature","properties":{"kind":"piste","difficulty":"easy","name":"Lärchkogelweg","aerialway":null,"osm":"way/1006302014"},"geometry":{"type":"LineString","coordinates":[[13.71419,47.37173],[13.71481,47.37191]]}},{"type":"Feature","properties":{"kind":"piste","difficulty":"novice","name":null,"aerialway":null,"osm":"way/1006302016"},"geometry":{"type":"LineString","coordinates":[[13.71759,47.37245],[13.71832,47.37237],[13.71888,47.37246]]}},{"type":"Feature","properties":{"kind":"piste","difficulty":"novice","name":null,"aerialway":null,"osm":"way/1006302017"},"geometry":{"type":"LineString","coordinates":[[13.71888,47.37246],[13.71813,47.37204]]}},{"type":"Feature","properties":{"kind":"lift","difficulty":null,"name":null,"aerialway":"magic_carpet","osm":"way/1006302018"},"geometry":{"type":"LineString","coordinates":[[13.71813,47.37204],[13.71759,47.37245]]}},{"type":"Feature","properties":{"kind":"piste","difficulty":"easy","name":"Verbindungsweg","aerialway":null,"osm":"way/1006302026"},"geometry":{"type":"LineString","coordinates":[[13.71821,47.37485],[13.71804,47.37505],[13.71813,47.37575]]}},{"type":"Feature","properties":{"kind":"piste","difficulty":"easy","name":"Verbindungsweg","aerialway":null,"osm":"way/1009649557"},"geometry":{"type":"LineString","coordinates":[[13.72167,47.37329],[13.72069,47.37281]]}},{"type":"Feature","properties":{"kind":"piste","difficulty":"easy","name":null,"aerialway":null,"osm":"way/1009649559"},"geometry":{"type":"LineString","coordinates":[[13.69485,47.38254],[13.69424,47.38219]]}},{"type":"Feature","properties":{"kind":"piste","difficulty":"easy","name":"Spreizenbergweg","aerialway":null,"osm":"way/1103546556"},"geometry":{"type":"LineString","coordinates":[[13.69735,47.39074],[13.69772,47.39088]]}},{"type":"Feature","properties":{"kind":"lift","difficulty":null,"name":null,"aerialway":"magic_carpet","osm":"way/1340793628"},"geometry":{"type":"LineString","coordinates":[[13.71967,47.37315],[13.71995,47.37327]]}},{"type":"Feature","properties":{"kind":"piste","difficulty":"advanced","name":"WM Herrenstrecke","aerialway":null,"osm":"way/1469740350"},"geometry":{"type":"LineString","coordinates":[[13.70647,47.3815],[13.70538,47.38203],[13.70339,47.38347],[13.70212,47.38418],[13.70195,47.38438],[13.70198,47.38459]]}},{"type":"Feature","properties":{"kind":"piste","difficulty":"easy","name":null,"aerialway":null,"osm":"way/1469740641"},"geometry":{"type":"LineString","coordinates":[[13.7024,47.38463],[13.70198,47.38459]]}},{"type":"Feature","properties":{"kind":"piste","difficulty":"advanced","name":"Skiroute 43","aerialway":null,"osm":"way/1483892240"},"geometry":{"type":"LineString","coordinates":[[13.66266,47.37536],[13.66401,47.37558],[13.66478,47.37592],[13.6664,47.37614],[13.66847,47.37548],[13.67022,47.3739],[13.67095,47.3739],[13.67214,47.37359],[13.67272,47.37312],[13.67285,47.37233],[13.67665,47.37357]]}},{"type":"Feature","properties":{"kind":"piste","difficulty":"novice","name":"Waldwegerl","aerialway":null,"osm":"relation/15468169"},"geometry":{"type":"MultiLineString","coordinates":[[[13.72214,47.37147],[13.72205,47.37065],[13.7222,47.37038]],[[13.7222,47.37038],[13.723,47.36925],[13.72394,47.36846],[13.72429,47.36793],[13.7263,47.36689]]]}}]}