{"type":"FeatureCollection","features":[{"type":"Feature","properties":{"kind":"lift","difficulty":null,"name":"Großer Ötscher - Sessellift","aerialway":"chair_lift","osm":"way/5083194"},"geometry":{"type":"LineString","coordinates":[[15.16331,47.86568],[15.17961,47.85623]]}},{"type":"Feature","properties":{"kind":"lift","difficulty":null,"name":"Fuchswald 1","aerialway":"t-bar","osm":"way/27911194"},"geometry":{"type":"LineString","coordinates":[[15.1642,47.86503],[15.15678,47.85991]]}},{"type":"Feature","properties":{"kind":"lift","difficulty":null,"name":"Kleiner Ötschersessellift","aerialway":"chair_lift","osm":"way/27911195"},"geometry":{"type":"LineString","coordinates":[[15.15385,47.86192],[15.15344,47.85264]]}},{"type":"Feature","properties":{"kind":"lift","difficulty":null,"name":"Eibenkogl","aerialway":"chair_lift","osm":"way/27911234"},"geometry":{"type":"LineString","coordinates":[[15.15526,47.86965],[15.15474,47.86199]]}},{"type":"Feature","properties":{"kind":"piste","difficulty":"intermediate","name":"Distelpiste","aerialway":null,"osm":"way/28872105"},"geometry":{"type":"LineString","coordinates":[[15.15344,47.85264],[15.15363,47.85261],[15.1538,47.85283],[15.15407,47.85579],[15.15519,47.85727],[15.15758,47.85923]]}},{"type":"Feature","properties":{"kind":"piste","difficulty":"easy","name":"Eibenkoglabfahrt","aerialway":null,"osm":"way/28872133"},"geometry":{"type":"LineString","coordinates":[[15.15474,47.86199],[15.15622,47.86298],[15.15686,47.86377],[15.15622,47.86496],[15.15523,47.86565],[15.15379,47.86725],[15.15459,47.86883],[15.15526,47.86965]]}},{"type":"Feature","properties":{"kind":"piste","difficulty":"easy","name":null,"aerialway":null,"osm":"way/28872139"},"geometry":{"type":"LineString","coordinates":[[15.15474,47.86199],[15.15466,47.86186],[15.15407,47.86205],[15.15385,47.86192]]}},{"type":"Feature","properties":{"kind":"piste","difficulty":"intermediate","name":"Distelpiste","aerialway":null,"osm":"way/135038323"},"geometry":{"type":"LineString","coordinates":[[15.15705,47.85988],[15.15772,47.85998],[15.15825,47.86025]]}},{"type":"Feature","properties":{"kind":"piste","difficulty":"intermediate","name":"Distelpiste","aerialway":null,"osm":"way/135038324"},"geometry":{"type":"LineString","coordinates":[[15.15758,47.85923],[15.15754,47.85961],[15.1567,47.85995]]}},{"type":"Feature","properties":{"kind":"piste","difficulty":"intermediate","name":"Distelpiste","aerialway":null,"osm":"way/135038325"},"geometry":{"type":"LineString","coordinates":[[15.15758,47.85923],[15.15825,47.86025],[15.15941,47.86115],[15.16151,47.86187],[15.16195,47.86216],[15.163,47.86308],[15.16384,47.86427]]}},{"type":"Feature","properties":{"kind":"piste","difficulty":"intermediate","name":"Distelpiste","aerialway":null,"osm":"way/135038327"},"geometry":{"type":"LineString","coordinates":[[15.16384,47.86427],[15.16431,47.86504],[15.16382,47.86558],[15.16339,47.86585],[15.16322,47.86575],[15.16331,47.86568]]}},{"type":"Feature","properties":{"kind":"piste","difficulty":"easy","name":"Eibenkoglabfahrt","aerialway":null,"osm":"way/135038340"},"geometry":{"type":"LineString","coordinates":[[15.1557,47.86532],[15.15453,47.86566],[15.15375,47.86571],[15.15326,47.86594],[15.15324,47.86617],[15.15379,47.86725]]}},{"type":"Feature","properties":{"kind":"piste","difficulty":"easy","name":"Fuchswald","aerialway":null,"osm":"way/135038341"},"geometry":{"type":"LineString","coordinates":[[15.1567,47.85995],[15.15625,47.86009],[15.15599,47.86032],[15.15538,47.86152],[15.1569,47.86184],[15.15929,47.86314],[15.15959,47.86404],[15.15996,47.86449],[15.16248,47.86516],[15.16338,47.86525],[15.16415,47.86506]]}},{"type":"Feature","properties":{"kind":"lift","difficulty":null,"name":"Fuchswald 2","aerialway":"t-bar","osm":"way/135038343"},"geometry":{"type":"LineString","coordinates":[[15.16415,47.86506],[15.1567,47.85995]]}},{"type":"Feature","properties":{"kind":"piste","difficulty":"advanced","name":"Grosser Ötscherabfahrt","aerialway":null,"osm":"way/135038353"},"geometry":{"type":"LineString","coordinates":[[15.17961,47.85623],[15.17971,47.85647],[15.17964,47.85671],[15.17882,47.85714],[15.1777,47.85821],[15.17643,47.85853],[15.1751,47.85852],[15.17418,47.85869],[15.17081,47.86103],[15.17049,47.86134],[15.17039,47.86181],[15.17054,47.86201],[15.17093,47.86211],[15.17176,47.86205],[15.17196,47.86209],[15.17197,47.86229],[15.16994,47.86301],[15.16711,47.86362],[15.16494,47.86449],[15.16441,47.86483],[15.16431,47.86504]]}},{"type":"Feature","properties":{"kind":"piste","difficulty":"advanced","name":"Kleiner Ötscherabfahrt","aerialway":null,"osm":"way/135038358"},"geometry":{"type":"LineString","coordinates":[[15.15344,47.85264],[15.15363,47.85261],[15.15369,47.85284],[15.15427,47.85911],[15.15407,47.86205],[15.15385,47.86192]]}},{"type":"Feature","properties":{"kind":"lift","difficulty":null,"name":"Kälberhalt","aerialway":"t-bar","osm":"way/135038361"},"geometry":{"type":"LineString","coordinates":[[15.15248,47.86826],[15.15354,47.86566]]}},{"type":"Feature","properties":{"kind":"piste","difficulty":"intermediate","name":"Riffelabfahrt","aerialway":null,"osm":"way/135038374"},"geometry":{"type":"LineString","coordinates":[[15.17961,47.85623],[15.17971,47.85647],[15.17964,47.85671],[15.17902,47.85678],[15.17636,47.85634],[15.17578,47.85606],[15.1756,47.85492],[15.17576,47.85261],[15.17551,47.85194],[15.17514,47.85193],[15.1745,47.85239],[15.17331,47.85277],[15.17135,47.85311],[15.16938,47.85401],[15.16852,47.85484],[15.1681,47.85576],[15.16718,47.85702],[15.16726,47.85804],[15.16706,47.85852],[15.16614,47.86003],[15.16491,47.86148],[15.16388,47.86381],[15.16384,47.86427]]}},{"type":"Feature","properties":{"kind":"lift","difficulty":null,"name":null,"aerialway":"platter","osm":"way/143300233"},"geometry":{"type":"LineString","coordinates":[[15.16465,47.86609],[15.1655,47.86561]]}},{"type":"Feature","properties":{"kind":"lift","difficulty":null,"name":null,"aerialway":"magic_carpet","osm":"way/143300234"},"geometry":{"type":"LineString","coordinates":[[15.16445,47.86604],[15.16461,47.86591]]}},{"type":"Feature","properties":{"kind":"piste","difficulty":"easy","name":null,"aerialway":null,"osm":"way/143300236"},"geometry":{"type":"LineString","coordinates":[[15.15391,47.85596],[15.15192,47.85606],[15.15046,47.85569],[15.14957,47.85518],[15.14911,47.85465],[15.14747,47.85345],[15.14665,47.85328]]}},{"type":"Feature","properties":{"kind":"piste","difficulty":"easy","name":"Kälberhaltpiste","aerialway":null,"osm":"way/219118315"},"geometry":{"type":"LineString","coordinates":[[15.15326,47.86594],[15.15291,47.8663],[15.15232,47.8673],[15.15216,47.868],[15.1526,47.86838],[15.15393,47.86853],[15.1543,47.86909],[15.15526,47.86965]]}},{"type":"Feature","properties":{"kind":"piste","difficulty":"easy","name":"Familienabfahrt","aerialway":null,"osm":"way/279414710"},"geometry":{"type":"LineString","coordinates":[[15.15344,47.85264],[15.15096,47.85063],[15.14978,47.85057],[15.14878,47.8507],[15.14768,47.85118],[15.14723,47.85183],[15.14682,47.85276],[15.14601,47.85524],[15.14555,47.85575],[15.14418,47.85677],[15.14234,47.85761],[15.14178,47.85805],[15.14141,47.85874],[15.14152,47.85911],[15.1431,47.85925],[15.15013,47.85918],[15.15297,47.86016],[15.15402,47.86156],[15.15407,47.86205],[15.15385,47.86192]]}},{"type":"Feature","properties":{"kind":"piste","difficulty":"unknown","name":null,"aerialway":null,"osm":"way/1021361768"},"geometry":{"type":"LineString","coordinates":[[15.15411,47.86129],[15.15538,47.86152]]}},{"type":"Feature","properties":{"kind":"piste","difficulty":"unknown","name":null,"aerialway":null,"osm":"way/1021361769"},"geometry":{"type":"LineString","coordinates":[[15.15538,47.86152],[15.15516,47.8618],[15.1551,47.86214]]}},{"type":"Feature","properties":{"kind":"piste","difficulty":"unknown","name":null,"aerialway":null,"osm":"way/1150147257"},"geometry":{"type":"LineString","coordinates":[[15.15579,47.86072],[15.15449,47.86166],[15.15439,47.86188]]}}]}