{"type":"FeatureCollection","features":[{"type":"Feature","properties":{"kind":"piste","difficulty":"intermediate","name":"Panorama-Abfahrt","aerialway":null,"osm":"way/47994458"},"geometry":{"type":"LineString","coordinates":[[10.7844,47.16598],[10.78472,47.16601],[10.78497,47.16622],[10.78571,47.16744],[10.78587,47.16929],[10.78608,47.17004],[10.78597,47.17017],[10.7854,47.17029],[10.78525,47.17046],[10.78552,47.17165],[10.78544,47.17192],[10.78452,47.17279],[10.78328,47.1745],[10.78273,47.17454],[10.78067,47.17375],[10.77851,47.17329],[10.77694,47.17171],[10.77572,47.17111],[10.77534,47.17067],[10.7751,47.17006],[10.77391,47.16896]]}},{"type":"Feature","properties":{"kind":"piste","difficulty":"intermediate","name":"Zirben-Abfahrt","aerialway":null,"osm":"way/47994460"},"geometry":{"type":"LineString","coordinates":[[10.78429,47.16602],[10.78444,47.16591],[10.78434,47.16506],[10.78449,47.16422],[10.78328,47.16398],[10.78052,47.16381],[10.77998,47.16388],[10.77865,47.16487],[10.77845,47.16561],[10.77862,47.16617],[10.77854,47.16635],[10.77799,47.16638],[10.7762,47.16598],[10.77576,47.16631],[10.77582,47.16656]]}},{"type":"Feature","properties":{"kind":"piste","difficulty":"advanced","name":"Zirbenfall-Abfahrt","aerialway":null,"osm":"way/47994462"},"geometry":{"type":"LineString","coordinates":[[10.77667,47.16872],[10.77589,47.16901],[10.77456,47.16861],[10.77391,47.16896]]}},{"type":"Feature","properties":{"kind":"piste","difficulty":"intermediate","name":"Panorama-Abfahrt","aerialway":null,"osm":"way/47994463"},"geometry":{"type":"LineString","coordinates":[[10.77391,47.16896],[10.7733,47.16831],[10.7719,47.16722],[10.77111,47.1662],[10.76946,47.16465],[10.76854,47.16338],[10.76812,47.16306],[10.76748,47.16208],[10.76672,47.16153],[10.76672,47.16138],[10.76781,47.16053],[10.7682,47.16003],[10.7686,47.15881],[10.76909,47.15803],[10.77037,47.15745],[10.77116,47.15725],[10.77164,47.15665],[10.7716,47.15615],[10.77188,47.15577]]}},{"type":"Feature","properties":{"kind":"piste","difficulty":"intermediate","name":"Panorama-Abfahrt","aerialway":null,"osm":"way/47994466"},"geometry":{"type":"LineString","coordinates":[[10.76854,47.16338],[10.76828,47.16413],[10.76714,47.16309],[10.76698,47.16284],[10.76698,47.16256],[10.76722,47.16201],[10.76693,47.16166]]}},{"type":"Feature","properties":{"kind":"piste","difficulty":"intermediate","name":"Kalbenalm-Abfahrt","aerialway":null,"osm":"way/47994468"},"geometry":{"type":"LineString","coordinates":[[10.78449,47.16422],[10.78309,47.16323],[10.78158,47.16283],[10.78097,47.1628],[10.78024,47.16311],[10.77925,47.16435]]}},{"type":"Feature","properties":{"kind":"piste","difficulty":"easy","name":"Talabfahrt","aerialway":null,"osm":"way/47994470"},"geometry":{"type":"LineString","coordinates":[[10.78106,47.15292],[10.78023,47.15288],[10.77974,47.15334],[10.77912,47.15436],[10.77882,47.15463],[10.77814,47.15498],[10.77664,47.15524],[10.77595,47.15565],[10.77538,47.15622],[10.77515,47.15627],[10.77363,47.1557],[10.77241,47.15508],[10.77304,47.1537],[10.77289,47.15342],[10.77222,47.1529],[10.77144,47.15261],[10.77083,47.15254],[10.76986,47.15303],[10.76809,47.15298],[10.76536,47.15247],[10.76366,47.15235],[10.76331,47.15259],[10.76079,47.15229],[10.75913,47.15245],[10.75871,47.15237],[10.75874,47.15228]]}},{"type":"Feature","properties":{"kind":"piste","difficulty":"intermediate","name":"Sechszeiger-Abfahrt","aerialway":null,"osm":"way/47994472"},"geometry":{"type":"LineString","coordinates":[[10.77785,47.16204],[10.77697,47.16305],[10.77671,47.16322],[10.77604,47.16334],[10.77575,47.16352],[10.77557,47.16382],[10.77535,47.16392],[10.77481,47.16379],[10.77423,47.16388],[10.77582,47.16656]]}},{"type":"Feature","properties":{"kind":"piste","difficulty":"intermediate","name":null,"aerialway":null,"osm":"way/47994474"},"geometry":{"type":"LineString","coordinates":[[10.78277,47.16311],[10.78241,47.16361],[10.78183,47.16387]]}},{"type":"Feature","properties":{"kind":"piste","difficulty":"intermediate","name":null,"aerialway":null,"osm":"way/47994476"},"geometry":{"type":"LineString","coordinates":[[10.78501,47.16187],[10.7845,47.16226],[10.78328,47.16259],[10.78277,47.16311]]}},{"type":"Feature","properties":{"kind":"piste","difficulty":"intermediate","name":null,"aerialway":null,"osm":"way/47994477"},"geometry":{"type":"LineString","coordinates":[[10.78158,47.16283],[10.78028,47.16184]]}},{"type":"Feature","properties":{"kind":"piste","difficulty":"intermediate","name":null,"aerialway":null,"osm":"way/47994479"},"geometry":{"type":"LineString","coordinates":[[10.78125,47.16264],[10.78072,47.16241],[10.77952,47.16287],[10.77913,47.16286]]}},{"type":"Feature","properties":{"kind":"piste","difficulty":"intermediate","name":null,"aerialway":null,"osm":"way/47994480"},"geometry":{"type":"LineString","coordinates":[[10.78024,47.16311],[10.77962,47.16313],[10.77785,47.16204]]}},{"type":"Feature","properties":{"kind":"piste","difficulty":"intermediate","name":"zur Stalderhütte","aerialway":null,"osm":"way/47994481"},"geometry":{"type":"LineString","coordinates":[[10.77419,47.15593],[10.77335,47.15648],[10.77202,47.15658],[10.77094,47.15681],[10.77072,47.15675]]}},{"type":"Feature","properties":{"kind":"piste","difficulty":"intermediate","name":"zur Talabfahrt","aerialway":null,"osm":"way/47994483"},"geometry":{"type":"LineString","coordinates":[[10.77072,47.15675],[10.77112,47.15665],[10.77136,47.15585],[10.77236,47.15475],[10.77246,47.15449]]}},{"type":"Feature","properties":{"kind":"piste","difficulty":"intermediate","name":"zur Panoramabahn","aerialway":null,"osm":"way/47994485"},"geometry":{"type":"LineString","coordinates":[[10.77112,47.15665],[10.77155,47.15601],[10.77237,47.15541],[10.77241,47.15508],[10.77216,47.15511],[10.77213,47.15523]]}},{"type":"Feature","properties":{"kind":"piste","difficulty":"intermediate","name":"Niederjöchl Abfahrt","aerialway":null,"osm":"way/47994486"},"geometry":{"type":"LineString","coordinates":[[10.78933,47.15963],[10.78692,47.1586],[10.78389,47.15757],[10.77848,47.15606],[10.77638,47.15641],[10.77569,47.15642],[10.77515,47.15627]]}},{"type":"Feature","properties":{"kind":"piste","difficulty":"intermediate","name":"Sechszeiger-Abfahrt","aerialway":null,"osm":"way/47994488"},"geometry":{"type":"LineString","coordinates":[[10.7867,47.16158],[10.78671,47.16174],[10.78649,47.16193],[10.78544,47.16175],[10.78501,47.16187],[10.78257,47.16181],[10.78139,47.16159],[10.77975,47.16197],[10.77855,47.16208],[10.77781,47.162],[10.77801,47.1612],[10.77859,47.16041],[10.78001,47.15923],[10.78134,47.15886],[10.78216,47.15842],[10.78286,47.1573],[10.78301,47.15691],[10.78207,47.15479],[10.78205,47.15428]]}},{"type":"Feature","properties":{"kind":"piste","difficulty":"easy","name":"Familienabfahrt","aerialway":null,"osm":"way/47994491"},"geometry":{"type":"LineString","coordinates":[[10.78059,47.15375],[10.78098,47.15377],[10.78121,47.15323],[10.78082,47.15256],[10.78073,47.15187],[10.7801,47.15189],[10.77999,47.15179],[10.78006,47.15171]]}},{"type":"Feature","properties":{"kind":"piste","difficulty":"intermediate","name":"Talabfahrt","aerialway":null,"osm":"way/47994492"},"geometry":{"type":"LineString","coordinates":[[10.77882,47.15463],[10.7784,47.15473],[10.77682,47.15465],[10.77373,47.15476],[10.76877,47.15354],[10.76505,47.15302],[10.76331,47.15259]]}},{"type":"Feature","properties":{"kind":"piste","difficulty":"easy","name":"Familienabfahrt","aerialway":null,"osm":"way/47994494"},"geometry":{"type":"LineString","coordinates":[[10.78665,47.16182],[10.78715,47.1611],[10.78911,47.15991],[10.7894,47.15943],[10.78929,47.1585],[10.78825,47.1565],[10.78751,47.15622],[10.78709,47.15635],[10.78658,47.15702],[10.7864,47.15701],[10.78606,47.15652],[10.78405,47.15595],[10.78163,47.1539],[10.78098,47.15377],[10.78075,47.15413]]}},{"type":"Feature","properties":{"kind":"piste","difficulty":"easy","name":"\"Hexenweg\"","aerialway":null,"osm":"way/47994496"},"geometry":{"type":"LineString","coordinates":[[10.7801,47.15189],[10.77951,47.15201],[10.77882,47.15285],[10.7776,47.15388],[10.77716,47.15467]]}},{"type":"Feature","properties":{"kind":"piste","difficulty":"advanced","name":"Benni Raich Abfahrt","aerialway":null,"osm":"way/47994497"},"geometry":{"type":"LineString","coordinates":[[10.79444,47.1488],[10.79387,47.14959],[10.79341,47.14984],[10.79266,47.15059],[10.79234,47.15111],[10.7922,47.15176],[10.79061,47.15251],[10.78662,47.15241],[10.78498,47.15335],[10.78174,47.15356],[10.78098,47.15377]]}},{"type":"Feature","properties":{"kind":"piste","difficulty":"easy","name":"Familienabfahrt","aerialway":null,"osm":"way/47994499"},"geometry":{"type":"LineString","coordinates":[[10.79078,47.15676],[10.78994,47.15725],[10.78919,47.15717],[10.78825,47.1565],[10.78775,47.15582]]}},{"type":"Feature","properties":{"kind":"piste","difficulty":"easy","name":"Familienabfahrt","aerialway":null,"osm":"way/47994500"},"geometry":{"type":"LineString","coordinates":[[10.79303,47.14526],[10.79319,47.14552],[10.79388,47.1459],[10.79418,47.14678],[10.79461,47.14717],[10.79463,47.14741],[10.7942,47.14794],[10.79414,47.14823],[10.79451,47.14911],[10.79386,47.15005],[10.79363,47.1511],[10.79298,47.15233],[10.79283,47.15301],[10.79203,47.15417],[10.79134,47.15586],[10.7906,47.15722],[10.78952,47.15844],[10.78929,47.1585]]}},{"type":"Feature","properties":{"kind":"piste","difficulty":"advanced","name":"Benni Raich Abfahrt","aerialway":null,"osm":"way/47994502"},"geometry":{"type":"LineString","coordinates":[[10.79342,47.15146],[10.7922,47.15176]]}},{"type":"Feature","properties":{"kind":"piste","difficulty":"easy","name":"Familienabfahrt","aerialway":null,"osm":"way/47994503"},"geometry":{"type":"LineString","coordinates":[[10.79298,47.15233],[10.79204,47.15304],[10.79126,47.15341],[10.79077,47.15429],[10.78871,47.15546],[10.78742,47.15599],[10.78709,47.15635]]}},{"type":"Feature","properties":{"kind":"piste","difficulty":"easy","name":"Familienabfahrt","aerialway":null,"osm":"way/47994504"},"geometry":{"type":"LineString","coordinates":[[10.78606,47.15652],[10.7859,47.15597],[10.78524,47.15564],[10.78458,47.15467],[10.78373,47.15423],[10.78319,47.15416],[10.78205,47.15428]]}},{"type":"Feature","properties":{"kind":"piste","difficulty":"advanced","name":null,"aerialway":null,"osm":"way/47994505"},"geometry":{"type":"LineString","coordinates":[[10.78817,47.15567],[10.78714,47.15517],[10.78458,47.15467]]}},{"type":"Feature","properties":{"kind":"piste","difficulty":"intermediate","name":"FIS Abfahrt","aerialway":null,"osm":"way/47994506"},"geometry":{"type":"LineString","coordinates":[[10.79043,47.1545],[10.79002,47.15404],[10.78776,47.15318],[10.78684,47.15332],[10.78575,47.15429],[10.78509,47.15462],[10.78458,47.15467]]}},{"type":"Feature","properties":{"kind":"piste","difficulty":"advanced","name":"Benni Raich Abfahrt","aerialway":null,"osm":"way/47994507"},"geometry":{"type":"LineString","coordinates":[[10.79061,47.15251],[10.78855,47.15308],[10.78776,47.15318]]}},{"type":"Feature","properties":{"kind":"piste","difficulty":"advanced","name":"Benni Raich Abfahrt","aerialway":null,"osm":"way/47994508"},"geometry":{"type":"LineString","coordinates":[[10.79444,47.1488],[10.79252,47.14935],[10.79028,47.15047],[10.78884,47.15082],[10.78841,47.15103],[10.7876,47.15189],[10.78622,47.15259]]}},{"type":"Feature","properties":{"kind":"piste","difficulty":"advanced","name":"Rotmoos Abfahrt","aerialway":null,"osm":"way/47994509"},"geometry":{"type":"LineString","coordinates":[[10.79414,47.14823],[10.79313,47.14864],[10.79194,47.14884],[10.79005,47.14871],[10.78891,47.14847],[10.78759,47.14854],[10.78392,47.1495],[10.78236,47.15043]]}},{"type":"Feature","properties":{"kind":"piste","difficulty":"advanced","name":"Kanonenrohr","aerialway":null,"osm":"way/47994510"},"geometry":{"type":"LineString","coordinates":[[10.7942,47.14794],[10.79352,47.14784],[10.79255,47.14797],[10.79185,47.14769],[10.79067,47.14663],[10.78953,47.14613],[10.78893,47.1455],[10.7878,47.14466],[10.78575,47.14457],[10.78291,47.1439]]}},{"type":"Feature","properties":{"kind":"piste","difficulty":"intermediate","name":"Zollberg Abfahrt","aerialway":null,"osm":"way/47994511"},"geometry":{"type":"LineString","coordinates":[[10.78268,47.14387],[10.78291,47.1439],[10.78284,47.14426],[10.78351,47.14481],[10.78368,47.1455],[10.78405,47.14615],[10.78391,47.14781],[10.78361,47.14883],[10.78283,47.14938],[10.78223,47.15005],[10.7822,47.15029],[10.78272,47.15092],[10.78245,47.15221],[10.78215,47.15261],[10.78137,47.15315],[10.78062,47.1541],[10.78072,47.15423]]}},{"type":"Feature","properties":{"kind":"piste","difficulty":"intermediate","name":"Zollberg Abfahrt","aerialway":null,"osm":"way/47994513"},"geometry":{"type":"LineString","coordinates":[[10.78351,47.14481],[10.78456,47.14558],[10.78452,47.14616],[10.78426,47.14644],[10.78189,47.14651],[10.78166,47.14661],[10.78024,47.14813],[10.77963,47.14909],[10.77945,47.14892]]}},{"type":"Feature","properties":{"kind":"piste","difficulty":"intermediate","name":"Niederjöchl Abfahrt","aerialway":null,"osm":"way/47994514"},"geometry":{"type":"LineString","coordinates":[[10.7864,47.15701],[10.78542,47.15714],[10.78489,47.1573],[10.7845,47.15758],[10.78401,47.15762]]}},{"type":"Feature","properties":{"kind":"piste","difficulty":"easy","name":"Talabfahrt","aerialway":null,"osm":"way/47994515"},"geometry":{"type":"LineString","coordinates":[[10.76272,47.15443],[10.76297,47.15391],[10.76308,47.15257]]}},{"type":"Feature","properties":{"kind":"piste","difficulty":"easy","name":"Talabfahrt","aerialway":null,"osm":"way/47994516"},"geometry":{"type":"LineString","coordinates":[[10.76297,47.15391],[10.76073,47.15293],[10.75913,47.15245],[10.75868,47.15262]]}},{"type":"Feature","properties":{"kind":"piste","difficulty":"intermediate","name":"Zirben-Abfahrt","aerialway":null,"osm":"way/47994517"},"geometry":{"type":"LineString","coordinates":[[10.77524,47.17044],[10.77489,47.17011],[10.77316,47.16985]]}},{"type":"Feature","properties":{"kind":"piste","difficulty":"advanced","name":null,"aerialway":null,"osm":"way/47994518"},"geometry":{"type":"LineString","coordinates":[[10.78667,47.15346],[10.78532,47.15322]]}},{"type":"Feature","properties":{"kind":"piste","difficulty":"intermediate","name":"Zirben-Abfahrt","aerialway":null,"osm":"way/214442904"},"geometry":{"type":"LineString","coordinates":[[10.77582,47.16656],[10.77672,47.16783],[10.77673,47.16902],[10.77855,47.17331]]}},{"type":"Feature","properties":{"kind":"piste","difficulty":"advanced","name":"Zirbenfall-Abfahrt","aerialway":null,"osm":"way/214442905"},"geometry":{"type":"LineString","coordinates":[[10.7844,47.16598],[10.78452,47.16603],[10.7843,47.16628],[10.78306,47.16692],[10.78119,47.16739],[10.77699,47.16885],[10.77609,47.16902]]}},{"type":"Feature","properties":{"kind":"piste","difficulty":"advanced","name":"Zirbenfall-Abfahrt","aerialway":null,"osm":"way/214442906"},"geometry":{"type":"LineString","coordinates":[[10.7753,47.16882],[10.77507,47.16845],[10.77456,47.16861]]}},{"type":"Feature","properties":{"kind":"piste","difficulty":"advanced","name":"Zirbenfall-Abfahrt","aerialway":null,"osm":"way/214442907"},"geometry":{"type":"LineString","coordinates":[[10.77391,47.16896],[10.77327,47.16956],[10.77314,47.17007],[10.77323,47.17018]]}},{"type":"Feature","properties":{"kind":"piste","difficulty":"easy","name":"Talabfahrt","aerialway":null,"osm":"way/789625729"},"geometry":{"type":"LineString","coordinates":[[10.76216,47.15212],[10.76191,47.15224],[10.76079,47.15229],[10.76005,47.15203],[10.75958,47.15172],[10.75946,47.15129]]}},{"type":"Feature","properties":{"kind":"piste","difficulty":"advanced","name":"Kanonenrohr","aerialway":null,"osm":"way/1013375735"},"geometry":{"type":"LineString","coordinates":[[10.79412,47.14654],[10.79135,47.1473]]}},{"type":"Feature","properties":{"kind":"piste","difficulty":"freeride","name":null,"aerialway":null,"osm":"way/1013375736"},"geometry":{"type":"LineString","coordinates":[[10.79303,47.14526],[10.7922,47.14514],[10.78817,47.14575],[10.784,47.14686]]}},{"type":"Feature","properties":{"kind":"piste","difficulty":"intermediate","name":"Sechszeiger-Abfahrt","aerialway":null,"osm":"way/1270983931"},"geometry":{"type":"LineString","coordinates":[[10.78653,47.16172],[10.78665,47.16182]]}},{"type":"Feature","properties":{"kind":"piste","difficulty":"intermediate","name":"Sechszeiger-Abfahrt","aerialway":null,"osm":"way/1270983935"},"geometry":{"type":"LineString","coordinates":[[10.78195,47.15561],[10.78229,47.15531],[10.78207,47.15499],[10.78131,47.15417],[10.7808,47.15407]]}},{"type":"Feature","properties":{"kind":"piste","difficulty":"easy","name":"Familienabfahrt","aerialway":null,"osm":"way/1351824570"},"geometry":{"type":"LineString","coordinates":[[10.78106,47.15292],[10.78125,47.15271],[10.7814,47.1521],[10.78129,47.15165],[10.7814,47.15125],[10.77986,47.14964],[10.7803,47.15135],[10.77951,47.15201]]}},{"type":"Feature","properties":{"kind":"piste","difficulty":"intermediate","name":null,"aerialway":null,"osm":"way/1504424552"},"geometry":{"type":"LineString","coordinates":[[10.77963,47.14909],[10.77986,47.14964]]}},{"type":"Feature","properties":{"kind":"piste","difficulty":"intermediate","name":"Zollberg Abfahrt","aerialway":null,"osm":"way/1504424553"},"geometry":{"type":"LineString","coordinates":[[10.78386,47.14805],[10.78249,47.14878],[10.7815,47.14853],[10.78075,47.1489],[10.78039,47.14923],[10.77978,47.14944]]}},{"type":"Feature","properties":{"kind":"piste","difficulty":"intermediate","name":"Zollberg Abfahrt","aerialway":null,"osm":"way/1504424554"},"geometry":{"type":"LineString","coordinates":[[10.7815,47.14853],[10.78061,47.14816],[10.78024,47.14813]]}},{"type":"Feature","properties":{"kind":"piste","difficulty":"intermediate","name":"Talabfahrt","aerialway":null,"osm":"way/1504427516"},"geometry":{"type":"LineString","coordinates":[[10.77996,47.15307],[10.77974,47.15382],[10.77979,47.1544],[10.77927,47.15493],[10.7784,47.15473]]}},{"type":"Feature","properties":{"kind":"piste","difficulty":"freeride","name":"Skiroute A","aerialway":null,"osm":"way/1549764871"},"geometry":{"type":"LineString","coordinates":[[10.78996,47.15056],[10.78243,47.15034]]}},{"type":"Feature","properties":{"kind":"piste","difficulty":"intermediate","name":null,"aerialway":null,"osm":"way/1552085736"},"geometry":{"type":"LineString","coordinates":[[10.78331,47.14458],[10.78195,47.14651]]}},{"type":"Feature","properties":{"kind":"piste","difficulty":"advanced","name":null,"aerialway":null,"osm":"way/1552085737"},"geometry":{"type":"LineString","coordinates":[[10.79406,47.14639],[10.79288,47.14625],[10.79072,47.14667]]}},{"type":"Feature","properties":{"kind":"piste","difficulty":"easy","name":null,"aerialway":null,"osm":"way/1552085738"},"geometry":{"type":"LineString","coordinates":[[10.76366,47.15235],[10.76274,47.15216],[10.76194,47.15222]]}},{"type":"Feature","properties":{"kind":"piste","difficulty":"easy","name":null,"aerialway":null,"osm":"way/1552085739"},"geometry":{"type":"LineString","coordinates":[[10.76274,47.15216],[10.7616,47.15183],[10.76114,47.15191],[10.76079,47.15229]]}},{"type":"Feature","properties":{"kind":"lift","difficulty":null,"name":"Hochzeigerbahn","aerialway":"gondola","osm":"way/39841989"},"geometry":{"type":"LineString","coordinates":[[10.75874,47.15228],[10.78059,47.15375]]}},{"type":"Feature","properties":{"kind":"lift","difficulty":null,"name":"Doppelsesselbahn Sechszeiger","aerialway":"chair_lift","osm":"way/39850469"},"geometry":{"type":"LineString","coordinates":[[10.78072,47.15423],[10.7867,47.16158]]}},{"type":"Feature","properties":{"kind":"lift","difficulty":null,"name":"Panoramabahn","aerialway":"chair_lift","osm":"way/47983263"},"geometry":{"type":"LineString","coordinates":[[10.77213,47.15523],[10.78653,47.16172]]}},{"type":"Feature","properties":{"kind":"lift","difficulty":null,"name":"Zirbenbahn","aerialway":"chair_lift","osm":"way/47983277"},"geometry":{"type":"LineString","coordinates":[[10.77323,47.17018],[10.78429,47.16602]]}},{"type":"Feature","properties":{"kind":"lift","difficulty":null,"name":"Lisslift","aerialway":"platter","osm":"way/47983300"},"geometry":{"type":"LineString","coordinates":[[10.75868,47.15262],[10.76305,47.15458]]}},{"type":"Feature","properties":{"kind":"lift","difficulty":null,"name":"Zollberglift","aerialway":"t-bar","osm":"way/47983301"},"geometry":{"type":"LineString","coordinates":[[10.77945,47.14892],[10.7829,47.14334]]}},{"type":"Feature","properties":{"kind":"lift","difficulty":null,"name":"Wiesenlift","aerialway":"platter","osm":"way/214442903"},"geometry":{"type":"LineString","coordinates":[[10.75946,47.15129],[10.76236,47.15218]]}},{"type":"Feature","properties":{"kind":"lift","difficulty":null,"name":"Hahntennenlift","aerialway":"platter","osm":"way/350475191"},"geometry":{"type":"LineString","coordinates":[[10.78075,47.15413],[10.78202,47.1557]]}},{"type":"Feature","properties":{"kind":"lift","difficulty":null,"name":"Hochzeiger 2.5","aerialway":"chair_lift","osm":"way/971311658"},"geometry":{"type":"LineString","coordinates":[[10.78006,47.15171],[10.79303,47.14526]]}}]}