{"type":"FeatureCollection","features":[{"type":"Feature","properties":{"kind":"piste","difficulty":"intermediate","name":"20","aerialway":null,"osm":"way/46671452"},"geometry":{"type":"LineString","coordinates":[[13.72889,47.65849],[13.72859,47.65883],[13.72865,47.65924],[13.72912,47.65965],[13.73026,47.66021],[13.73384,47.66087],[13.73702,47.66103],[13.73833,47.66143],[13.73968,47.6616],[13.7407,47.66162],[13.7446,47.66118],[13.74477,47.66129],[13.74478,47.6614],[13.74464,47.66142]]}},{"type":"Feature","properties":{"kind":"piste","difficulty":"intermediate","name":"22","aerialway":null,"osm":"way/93375084"},"geometry":{"type":"LineString","coordinates":[[13.7312,47.66033],[13.73343,47.65929],[13.73449,47.65908],[13.7363,47.65895],[13.73739,47.6585],[13.73778,47.65852]]}},{"type":"Feature","properties":{"kind":"piste","difficulty":"easy","name":"21","aerialway":null,"osm":"way/93375086"},"geometry":{"type":"LineString","coordinates":[[13.72916,47.65856],[13.72889,47.65849],[13.72972,47.65667],[13.72955,47.65554],[13.72965,47.65529],[13.72982,47.65505],[13.73019,47.65487],[13.73141,47.65468],[13.73187,47.65494],[13.73228,47.65546],[13.73338,47.65586],[13.73434,47.65648],[13.73565,47.65782],[13.73601,47.65798],[13.73737,47.65825],[13.73822,47.65881],[13.73858,47.65891],[13.74162,47.65918],[13.74219,47.65999],[13.7421,47.66105],[13.74224,47.66138]]}},{"type":"Feature","properties":{"kind":"piste","difficulty":"intermediate","name":"24","aerialway":null,"osm":"way/93375089"},"geometry":{"type":"LineString","coordinates":[[13.72872,47.65931],[13.72884,47.65996],[13.72961,47.66186],[13.73019,47.66221],[13.73257,47.66248],[13.73507,47.66231],[13.73712,47.66299],[13.73768,47.66302],[13.739,47.66278],[13.74115,47.66158]]}},{"type":"Feature","properties":{"kind":"piste","difficulty":"intermediate","name":"1a","aerialway":null,"osm":"way/93375092"},"geometry":{"type":"LineString","coordinates":[[13.76704,47.65602],[13.76585,47.6563],[13.76445,47.65692],[13.76194,47.65763],[13.76027,47.65785],[13.75922,47.65829],[13.75832,47.65929],[13.75612,47.65984],[13.75508,47.6598],[13.75471,47.65967],[13.75315,47.65807],[13.75021,47.65787],[13.74891,47.65882],[13.74792,47.65915],[13.74612,47.65938],[13.74528,47.65972],[13.74471,47.66041],[13.74469,47.66061]]}},{"type":"Feature","properties":{"kind":"piste","difficulty":"intermediate","name":"1b","aerialway":null,"osm":"way/93375093"},"geometry":{"type":"LineString","coordinates":[[13.78329,47.6572],[13.7831,47.65679],[13.78205,47.65631],[13.77783,47.65676],[13.77358,47.65604],[13.77127,47.65617],[13.76952,47.65592],[13.76704,47.65602]]}},{"type":"Feature","properties":{"kind":"piste","difficulty":"easy","name":"13a","aerialway":null,"osm":"way/648026976"},"geometry":{"type":"LineString","coordinates":[[13.77211,47.65553],[13.77223,47.65537],[13.77278,47.65521],[13.7748,47.65508],[13.77412,47.65453],[13.77352,47.65432],[13.77191,47.65409],[13.77074,47.6541],[13.77075,47.65395],[13.7721,47.6534],[13.77314,47.65317],[13.77458,47.65308],[13.77256,47.65237]]}},{"type":"Feature","properties":{"kind":"piste","difficulty":"easy","name":"3","aerialway":null,"osm":"way/648026977"},"geometry":{"type":"LineString","coordinates":[[13.76704,47.65602],[13.77004,47.65348],[13.77256,47.65237]]}},{"type":"Feature","properties":{"kind":"piste","difficulty":"easy","name":"10","aerialway":null,"osm":"way/668549445"},"geometry":{"type":"LineString","coordinates":[[13.79078,47.66498],[13.7905,47.66492],[13.78995,47.66438],[13.78858,47.66255],[13.7883,47.66232],[13.78792,47.6623],[13.78708,47.66181]]}},{"type":"Feature","properties":{"kind":"piste","difficulty":"easy","name":"8","aerialway":null,"osm":"way/668549446"},"geometry":{"type":"LineString","coordinates":[[13.78659,47.66253],[13.78724,47.66247],[13.78817,47.66263],[13.7884,47.66243],[13.78947,47.66283],[13.79059,47.66283],[13.79198,47.66321]]}},{"type":"Feature","properties":{"kind":"piste","difficulty":"easy","name":"9","aerialway":null,"osm":"way/668549447"},"geometry":{"type":"LineString","coordinates":[[13.79078,47.66498],[13.79102,47.66508],[13.79133,47.66486],[13.79159,47.66443],[13.79198,47.66321],[13.79227,47.66279],[13.79236,47.6624],[13.7922,47.66211]]}},{"type":"Feature","properties":{"kind":"piste","difficulty":"intermediate","name":"12","aerialway":null,"osm":"way/668549448"},"geometry":{"type":"LineString","coordinates":[[13.79102,47.66508],[13.79345,47.66563],[13.79445,47.66561],[13.79652,47.66642],[13.79669,47.66641],[13.79676,47.66579],[13.79663,47.66524]]}},{"type":"Feature","properties":{"kind":"piste","difficulty":"advanced","name":"6","aerialway":null,"osm":"way/668549449"},"geometry":{"type":"LineString","coordinates":[[13.78128,47.66409],[13.78098,47.66397],[13.78105,47.66292],[13.78158,47.66065],[13.78231,47.6582],[13.78305,47.65776],[13.78313,47.65746],[13.78298,47.65729]]}},{"type":"Feature","properties":{"kind":"piste","difficulty":"easy","name":"13a","aerialway":null,"osm":"way/668549450"},"geometry":{"type":"LineString","coordinates":[[13.77256,47.65237],[13.77132,47.65213],[13.77061,47.65216],[13.76941,47.6524],[13.76867,47.65271],[13.76551,47.65322],[13.76459,47.65372],[13.76307,47.65504],[13.76103,47.65609],[13.7609,47.65599],[13.76135,47.65574],[13.76199,47.65508],[13.76267,47.65412],[13.76324,47.65316],[13.7632,47.65296],[13.76242,47.65367],[13.76087,47.65452],[13.75977,47.65491],[13.7596,47.65479],[13.76006,47.65432],[13.76031,47.65359],[13.76108,47.65322],[13.76027,47.65319],[13.75945,47.65339],[13.75714,47.6546],[13.75658,47.65537],[13.75648,47.65581],[13.75631,47.65589],[13.75616,47.65584],[13.75594,47.6545],[13.75608,47.65397],[13.75657,47.65342],[13.75635,47.6533],[13.75474,47.65422],[13.75436,47.65472],[13.75429,47.65516],[13.75314,47.65667],[13.75161,47.65758],[13.75021,47.65822],[13.7501,47.65848],[13.75021,47.6595],[13.74838,47.65952],[13.74647,47.6593]]}},{"type":"Feature","properties":{"kind":"piste","difficulty":"unknown","name":null,"aerialway":null,"osm":"way/1136020711"},"geometry":{"type":"LineString","coordinates":[[13.74469,47.66061],[13.74477,47.66129]]}},{"type":"Feature","properties":{"kind":"piste","difficulty":"intermediate","name":null,"aerialway":null,"osm":"way/1256142531"},"geometry":{"type":"LineString","coordinates":[[13.74561,47.65956],[13.74574,47.65996]]}},{"type":"Feature","properties":{"kind":"piste","difficulty":"unknown","name":null,"aerialway":null,"osm":"way/1256142532"},"geometry":{"type":"LineString","coordinates":[[13.7498,47.65951],[13.74953,47.65921]]}},{"type":"Feature","properties":{"kind":"piste","difficulty":"easy","name":null,"aerialway":null,"osm":"way/1313829266"},"geometry":{"type":"LineString","coordinates":[[13.78712,47.66137],[13.78729,47.66129],[13.78682,47.66105],[13.78517,47.66051],[13.78457,47.66048]]}},{"type":"Feature","properties":{"kind":"piste","difficulty":"unknown","name":null,"aerialway":null,"osm":"way/1340586748"},"geometry":{"type":"LineString","coordinates":[[13.74469,47.66061],[13.74496,47.66061]]}},{"type":"Feature","properties":{"kind":"piste","difficulty":"easy","name":null,"aerialway":null,"osm":"way/1355702497"},"geometry":{"type":"LineString","coordinates":[[13.7861,47.66118],[13.78664,47.66099]]}},{"type":"Feature","properties":{"kind":"piste","difficulty":"easy","name":"13b","aerialway":null,"osm":"way/1355702498"},"geometry":{"type":"LineString","coordinates":[[13.78517,47.66051],[13.78484,47.66043],[13.78428,47.66004],[13.78405,47.65961],[13.78402,47.65906],[13.78424,47.65896],[13.78502,47.65924],[13.78524,47.65917],[13.78521,47.659],[13.78387,47.65788],[13.78335,47.6567],[13.78256,47.65636],[13.78275,47.65619],[13.78315,47.65625],[13.78398,47.65668],[13.78407,47.65586],[13.78396,47.65569],[13.78367,47.65565],[13.78312,47.65587],[13.78217,47.65569],[13.77955,47.65614],[13.77753,47.65631],[13.77421,47.6557],[13.77241,47.65564],[13.77211,47.65553]]}},{"type":"Feature","properties":{"kind":"piste","difficulty":"easy","name":null,"aerialway":null,"osm":"way/1460096319"},"geometry":{"type":"LineString","coordinates":[[13.77211,47.65553],[13.76952,47.65592]]}},{"type":"Feature","properties":{"kind":"piste","difficulty":"intermediate","name":null,"aerialway":null,"osm":"way/1472488426"},"geometry":{"type":"LineString","coordinates":[[13.74971,47.65935],[13.74938,47.65917],[13.74792,47.65915]]}},{"type":"Feature","properties":{"kind":"piste","difficulty":"easy","name":null,"aerialway":null,"osm":"way/1472491420"},"geometry":{"type":"LineString","coordinates":[[13.74029,47.66257],[13.74038,47.66204],[13.74057,47.66203],[13.74109,47.66243]]}},{"type":"Feature","properties":{"kind":"piste","difficulty":"easy","name":null,"aerialway":null,"osm":"way/1472491421"},"geometry":{"type":"LineString","coordinates":[[13.74028,47.66273],[13.74221,47.66249],[13.74224,47.66236],[13.74113,47.66232],[13.74112,47.66217],[13.74076,47.66216],[13.7403,47.66241],[13.74028,47.66273]]}},{"type":"Feature","properties":{"kind":"piste","difficulty":"novice","name":null,"aerialway":null,"osm":"way/1472491422"},"geometry":{"type":"LineString","coordinates":[[13.74224,47.66236],[13.74226,47.66226],[13.74112,47.66217],[13.74113,47.66232],[13.74224,47.66236]]}},{"type":"Feature","properties":{"kind":"piste","difficulty":"easy","name":"7","aerialway":null,"osm":"way/1473002023"},"geometry":{"type":"LineString","coordinates":[[13.78128,47.66409],[13.78221,47.66382],[13.78443,47.66273],[13.78495,47.66229],[13.78623,47.66256],[13.78659,47.66253],[13.78705,47.66192],[13.78708,47.66181],[13.78676,47.66151],[13.78487,47.66067],[13.78435,47.66035],[13.78401,47.65994],[13.78385,47.65961],[13.78377,47.6586],[13.78329,47.65746],[13.78329,47.6572]]}},{"type":"Feature","properties":{"kind":"piste","difficulty":"easy","name":null,"aerialway":null,"osm":"way/1473002024"},"geometry":{"type":"LineString","coordinates":[[13.78402,47.65906],[13.78377,47.6586]]}},{"type":"Feature","properties":{"kind":"piste","difficulty":"intermediate","name":"1b","aerialway":null,"osm":"way/1473002025"},"geometry":{"type":"LineString","coordinates":[[13.77542,47.65629],[13.77421,47.6557]]}},{"type":"Feature","properties":{"kind":"piste","difficulty":"easy","name":null,"aerialway":null,"osm":"way/1473007346"},"geometry":{"type":"LineString","coordinates":[[13.74028,47.66277],[13.74029,47.66257],[13.74109,47.66243],[13.74174,47.66246],[13.74179,47.66255]]}},{"type":"Feature","properties":{"kind":"piste","difficulty":"novice","name":null,"aerialway":null,"osm":"way/1473007347"},"geometry":{"type":"LineString","coordinates":[[13.7412,47.66228],[13.74211,47.66231]]}},{"type":"Feature","properties":{"kind":"piste","difficulty":"novice","name":null,"aerialway":null,"osm":"way/1473007348"},"geometry":{"type":"LineString","coordinates":[[13.7412,47.66228],[13.74211,47.66231]]}},{"type":"Feature","properties":{"kind":"piste","difficulty":"easy","name":null,"aerialway":null,"osm":"way/1476071322"},"geometry":{"type":"LineString","coordinates":[[13.74083,47.66221],[13.74123,47.66223]]}},{"type":"Feature","properties":{"kind":"piste","difficulty":"easy","name":"25","aerialway":null,"osm":"way/1482142747"},"geometry":{"type":"LineString","coordinates":[[13.72943,47.65737],[13.72921,47.65699],[13.72852,47.65695],[13.72753,47.65644],[13.72732,47.65598],[13.72699,47.65568],[13.727,47.65551],[13.72763,47.65536],[13.72775,47.65475],[13.72796,47.65447],[13.72993,47.65412],[13.73062,47.65366],[13.73145,47.65334],[13.73246,47.65237],[13.73264,47.65158],[13.73345,47.65136],[13.73399,47.65096],[13.73619,47.6504],[13.73661,47.65007],[13.73703,47.64923],[13.73729,47.64896],[13.74022,47.64925],[13.74097,47.64956],[13.74097,47.64976],[13.74057,47.65019],[13.73878,47.65109],[13.73948,47.65132],[13.73982,47.65166],[13.73865,47.65236],[13.73894,47.65255],[13.73949,47.65264],[13.73995,47.65294],[13.74028,47.65347],[13.74057,47.65463],[13.7412,47.65525],[13.74147,47.65659],[13.74137,47.65699],[13.74089,47.65764],[13.74113,47.65849],[13.74142,47.65876],[13.74143,47.65911]]}},{"type":"Feature","properties":{"kind":"piste","difficulty":"easy","name":"11","aerialway":null,"osm":"way/1482274095"},"geometry":{"type":"LineString","coordinates":[[13.78716,47.66138],[13.7877,47.66162],[13.79022,47.66186],[13.79123,47.66216],[13.79193,47.66223],[13.7922,47.66211]]}},{"type":"Feature","properties":{"kind":"lift","difficulty":null,"name":"Sandling Jet Lift","aerialway":"chair_lift","osm":"way/46671451"},"geometry":{"type":"LineString","coordinates":[[13.74464,47.66142],[13.73267,47.66103],[13.72916,47.65856]]}},{"type":"Feature","properties":{"kind":"lift","difficulty":null,"name":"Loserfenster","aerialway":"chair_lift","osm":"way/85505832"},"geometry":{"type":"LineString","coordinates":[[13.78282,47.65723],[13.7813,47.66389]]}},{"type":"Feature","properties":{"kind":"lift","difficulty":null,"name":"Sommersitz","aerialway":"t-bar","osm":"way/221245897"},"geometry":{"type":"LineString","coordinates":[[13.79663,47.66524],[13.79082,47.6652]]}},{"type":"Feature","properties":{"kind":"lift","difficulty":null,"name":"Sonnleiten","aerialway":"t-bar","osm":"way/221245898"},"geometry":{"type":"LineString","coordinates":[[13.7922,47.66211],[13.79078,47.66498]]}},{"type":"Feature","properties":{"kind":"lift","difficulty":null,"name":null,"aerialway":"drag_lift","osm":"way/283858002"},"geometry":{"type":"LineString","coordinates":[[13.74561,47.65998],[13.7498,47.65934]]}},{"type":"Feature","properties":{"kind":"lift","difficulty":null,"name":"26","aerialway":"drag_lift","osm":"way/639172658"},"geometry":{"type":"LineString","coordinates":[[13.74184,47.66255],[13.74028,47.66277]]}},{"type":"Feature","properties":{"kind":"lift","difficulty":null,"name":"Panoramabahn Loser","aerialway":"gondola","osm":"way/1153495514"},"geometry":{"type":"LineString","coordinates":[[13.74496,47.66061],[13.77269,47.65498],[13.78712,47.66137]]}},{"type":"Feature","properties":{"kind":"lift","difficulty":null,"name":"Sonnleiten","aerialway":"t-bar","osm":"way/1256142529"},"geometry":{"type":"LineString","coordinates":[[13.79078,47.66498],[13.79071,47.66514]]}},{"type":"Feature","properties":{"kind":"lift","difficulty":null,"name":null,"aerialway":"rope_tow","osm":"way/1344568118"},"geometry":{"type":"LineString","coordinates":[[13.78521,47.66061],[13.78604,47.66088]]}},{"type":"Feature","properties":{"kind":"lift","difficulty":null,"name":null,"aerialway":"magic_carpet","osm":"way/1472491423"},"geometry":{"type":"LineString","coordinates":[[13.74211,47.66231],[13.7412,47.66228]]}}]}