{"type":"FeatureCollection","features":[{"type":"Feature","properties":{"kind":"piste","difficulty":"easy","name":null,"aerialway":null,"osm":"way/40109636"},"geometry":{"type":"LineString","coordinates":[[9.90584,46.9645],[9.90681,46.96477],[9.90753,46.9647],[9.90798,46.96481],[9.90733,46.96387],[9.90726,46.96347],[9.90737,46.96341],[9.90796,46.9638],[9.90845,46.96389],[9.90984,46.96397],[9.91157,46.96383],[9.91441,46.96416]]}},{"type":"Feature","properties":{"kind":"piste","difficulty":"easy","name":"Madrisa","aerialway":null,"osm":"way/43685452"},"geometry":{"type":"LineString","coordinates":[[9.91406,46.97082],[9.91412,46.97064],[9.9157,46.97047],[9.91668,46.97041],[9.91679,46.97056]]}},{"type":"Feature","properties":{"kind":"piste","difficulty":"easy","name":null,"aerialway":null,"osm":"way/43685457"},"geometry":{"type":"LineString","coordinates":[[9.91795,46.96387],[9.91778,46.96417],[9.91802,46.96502],[9.91808,46.96706],[9.91897,46.96739]]}},{"type":"Feature","properties":{"kind":"piste","difficulty":"advanced","name":null,"aerialway":null,"osm":"way/46829374"},"geometry":{"type":"LineString","coordinates":[[9.90116,46.95854],[9.90134,46.95864],[9.90132,46.95879],[9.90086,46.95895],[9.90074,46.95914],[9.90101,46.95948],[9.90387,46.96032],[9.90659,46.96093],[9.90678,46.96133],[9.90584,46.96199],[9.90569,46.96225],[9.90504,46.96232],[9.905,46.96245],[9.90524,46.96292],[9.90511,46.9634],[9.90604,46.96382],[9.90628,46.96425],[9.90622,46.96434]]}},{"type":"Feature","properties":{"kind":"piste","difficulty":"intermediate","name":"Schnapfenwald","aerialway":null,"osm":"way/46887421"},"geometry":{"type":"LineString","coordinates":[[9.89996,46.95492],[9.90023,46.95479],[9.90081,46.95486],[9.90217,46.95536],[9.90347,46.95526],[9.90465,46.95534],[9.90586,46.95514],[9.90631,46.95518],[9.90711,46.95558],[9.90733,46.95601],[9.9079,46.95652],[9.9087,46.95713],[9.90894,46.95717],[9.91102,46.95657],[9.91228,46.95691],[9.91246,46.95683],[9.91268,46.9561],[9.91288,46.95606],[9.91345,46.9563],[9.91384,46.95688],[9.91408,46.95761],[9.91379,46.95882],[9.9141,46.95889],[9.91456,46.9586],[9.91483,46.95861]]}},{"type":"Feature","properties":{"kind":"piste","difficulty":"easy","name":null,"aerialway":null,"osm":"way/47080446"},"geometry":{"type":"LineString","coordinates":[[9.91339,46.95204],[9.91414,46.95295],[9.91581,46.95384],[9.91676,46.95487],[9.91712,46.95561],[9.91757,46.95615],[9.91783,46.9569],[9.91824,46.95737],[9.91844,46.95787],[9.91843,46.95843],[9.91785,46.95975],[9.91791,46.9603]]}},{"type":"Feature","properties":{"kind":"piste","difficulty":"easy","name":null,"aerialway":null,"osm":"way/47080448"},"geometry":{"type":"LineString","coordinates":[[9.92101,46.9599],[9.92065,46.95997],[9.91856,46.96175]]}},{"type":"Feature","properties":{"kind":"piste","difficulty":"easy","name":null,"aerialway":null,"osm":"way/47080449"},"geometry":{"type":"LineString","coordinates":[[9.91878,46.96157],[9.91892,46.96176]]}},{"type":"Feature","properties":{"kind":"piste","difficulty":"freeride","name":null,"aerialway":null,"osm":"way/47920821"},"geometry":{"type":"LineString","coordinates":[[9.89802,46.95926],[9.89912,46.95957],[9.89985,46.96012],[9.90057,46.96036],[9.90127,46.96099],[9.90287,46.96153],[9.90457,46.96271],[9.90506,46.96358],[9.90618,46.96412]]}},{"type":"Feature","properties":{"kind":"piste","difficulty":"easy","name":null,"aerialway":null,"osm":"way/143542528"},"geometry":{"type":"LineString","coordinates":[[9.88771,46.96222],[9.88741,46.9625],[9.88697,46.96341],[9.88638,46.96401],[9.88558,46.9652],[9.88595,46.96606],[9.88679,46.96705],[9.88632,46.96763],[9.89043,46.96767],[9.89188,46.96828],[9.89281,46.96826],[9.89418,46.96847],[9.89477,46.96834],[9.89566,46.96835],[9.89802,46.96801],[9.90079,46.96736],[9.90186,46.96695],[9.90306,46.9663],[9.90356,46.9658],[9.90485,46.96566],[9.90509,46.96542],[9.90503,46.9652],[9.90518,46.96506],[9.90523,46.96457],[9.90584,46.9645],[9.90595,46.96418],[9.90621,46.96412]]}},{"type":"Feature","properties":{"kind":"piste","difficulty":"easy","name":null,"aerialway":null,"osm":"way/153335280"},"geometry":{"type":"LineString","coordinates":[[9.91063,46.95176],[9.91066,46.95206],[9.91098,46.95237],[9.91156,46.9525],[9.91162,46.95301],[9.91222,46.95314],[9.91255,46.95348],[9.91324,46.95429],[9.91361,46.95494],[9.91372,46.95489],[9.91359,46.9544],[9.91371,46.95434],[9.91426,46.9554],[9.91459,46.95577],[9.91504,46.95705],[9.91509,46.95782],[9.9149,46.95839]]}},{"type":"Feature","properties":{"kind":"piste","difficulty":"easy","name":null,"aerialway":null,"osm":"way/441942943"},"geometry":{"type":"LineString","coordinates":[[9.91791,46.9603],[9.91887,46.96224],[9.91889,46.96248],[9.91881,46.96335],[9.91815,46.96364],[9.91795,46.96387]]}},{"type":"Feature","properties":{"kind":"piste","difficulty":"easy","name":null,"aerialway":null,"osm":"way/441942945"},"geometry":{"type":"LineString","coordinates":[[9.91795,46.96387],[9.91831,46.96424],[9.91883,46.96566],[9.91877,46.96676],[9.91898,46.96724],[9.91897,46.96763],[9.91914,46.96785]]}},{"type":"Feature","properties":{"kind":"piste","difficulty":"freeride","name":null,"aerialway":null,"osm":"way/441942950"},"geometry":{"type":"LineString","coordinates":[[9.88686,46.96356],[9.88733,46.96401],[9.88748,46.96448],[9.8881,46.96542],[9.88865,46.96566],[9.88963,46.96579],[9.89039,46.96646],[9.89053,46.96714],[9.89102,46.96762],[9.89112,46.9679]]}},{"type":"Feature","properties":{"kind":"piste","difficulty":"easy","name":null,"aerialway":null,"osm":"way/441942953"},"geometry":{"type":"LineString","coordinates":[[9.91433,46.96416],[9.91487,46.96462],[9.9158,46.96595],[9.91528,46.9667],[9.91527,46.96724],[9.91617,46.96731],[9.91662,46.96829],[9.9175,46.96856],[9.91799,46.96857]]}},{"type":"Feature","properties":{"kind":"piste","difficulty":"freeride","name":"Nidla","aerialway":null,"osm":"way/441942954"},"geometry":{"type":"LineString","coordinates":[[9.893,46.96231],[9.89338,46.96267],[9.89468,46.96323],[9.89498,46.96371],[9.89546,46.96395],[9.89752,46.96376],[9.89855,46.96397],[9.90006,46.96389],[9.90093,46.96413],[9.90218,46.96507],[9.90225,46.96586],[9.90275,46.96615],[9.90324,46.96604]]}},{"type":"Feature","properties":{"kind":"piste","difficulty":"easy","name":"Madrisa","aerialway":null,"osm":"way/441942968"},"geometry":{"type":"LineString","coordinates":[[9.91406,46.97082],[9.91484,46.97111],[9.91679,46.97056]]}},{"type":"Feature","properties":{"kind":"piste","difficulty":"intermediate","name":"1 Schnapfenwald","aerialway":null,"osm":"way/945516483"},"geometry":{"type":"LineString","coordinates":[[9.91467,46.96014],[9.91464,46.96055],[9.91481,46.961],[9.91458,46.96236],[9.91464,46.96275],[9.91517,46.96301],[9.9154,46.9636],[9.91637,46.96408]]}},{"type":"Feature","properties":{"kind":"piste","difficulty":"easy","name":null,"aerialway":null,"osm":"way/1194058906"},"geometry":{"type":"LineString","coordinates":[[9.91441,46.96416],[9.91668,46.96403],[9.91728,46.96355],[9.91769,46.96365],[9.91795,46.96387]]}},{"type":"Feature","properties":{"kind":"piste","difficulty":"easy","name":null,"aerialway":null,"osm":"way/1259792426"},"geometry":{"type":"LineString","coordinates":[[9.91408,46.97073],[9.9139,46.97068],[9.91399,46.9704],[9.91566,46.9703],[9.91572,46.97015],[9.91722,46.97013],[9.91698,46.97048],[9.91677,46.97055],[9.91408,46.97073]]}},{"type":"Feature","properties":{"kind":"piste","difficulty":"intermediate","name":"Verbindung Schwefeltobel","aerialway":null,"osm":"way/1259792427"},"geometry":{"type":"LineString","coordinates":[[9.91466,46.96279],[9.9148,46.96333],[9.91447,46.96385],[9.91463,46.96416]]}},{"type":"Feature","properties":{"kind":"piste","difficulty":"easy","name":null,"aerialway":null,"osm":"way/1259792428"},"geometry":{"type":"LineString","coordinates":[[9.91483,46.95861],[9.9149,46.95874],[9.91471,46.95928],[9.91467,46.96014]]}},{"type":"Feature","properties":{"kind":"piste","difficulty":"easy","name":null,"aerialway":null,"osm":"way/1259792429"},"geometry":{"type":"LineString","coordinates":[[9.91467,46.96014],[9.91498,46.96028],[9.91577,46.9602],[9.91657,46.95966],[9.91732,46.95987],[9.91791,46.9603]]}},{"type":"Feature","properties":{"kind":"piste","difficulty":"easy","name":null,"aerialway":null,"osm":"way/1259792431"},"geometry":{"type":"LineString","coordinates":[[9.9149,46.95839],[9.91483,46.95861]]}},{"type":"Feature","properties":{"kind":"piste","difficulty":"intermediate","name":null,"aerialway":null,"osm":"way/1259792434"},"geometry":{"type":"LineString","coordinates":[[9.91248,46.95672],[9.91379,46.95681]]}},{"type":"Feature","properties":{"kind":"piste","difficulty":"easy","name":null,"aerialway":null,"osm":"way/1456118053"},"geometry":{"type":"LineString","coordinates":[[9.9151,46.96417],[9.91555,46.96395],[9.91545,46.96362]]}},{"type":"Feature","properties":{"kind":"piste","difficulty":"easy","name":null,"aerialway":null,"osm":"way/1456118054"},"geometry":{"type":"LineString","coordinates":[[9.91527,46.96724],[9.91547,46.96766],[9.9159,46.96811],[9.91559,46.96841],[9.91563,46.96858],[9.91805,46.96887]]}},{"type":"Feature","properties":{"kind":"piste","difficulty":"easy","name":null,"aerialway":null,"osm":"way/1456118055"},"geometry":{"type":"LineString","coordinates":[[9.91559,46.96841],[9.91536,46.96855],[9.91556,46.96874],[9.91557,46.96903],[9.91581,46.96937],[9.91638,46.96955],[9.91725,46.96945],[9.91749,46.96991],[9.91746,46.97019]]}},{"type":"Feature","properties":{"kind":"piste","difficulty":"easy","name":null,"aerialway":null,"osm":"way/1456118056"},"geometry":{"type":"LineString","coordinates":[[9.91657,46.97042],[9.91754,46.97022]]}},{"type":"Feature","properties":{"kind":"lift","difficulty":null,"name":"Schafbergbahn","aerialway":"gondola","osm":"way/39830452"},"geometry":{"type":"LineString","coordinates":[[9.91929,46.96758],[9.89588,46.95827]]}},{"type":"Feature","properties":{"kind":"lift","difficulty":null,"name":"Madrisa","aerialway":"platter","osm":"way/43685451"},"geometry":{"type":"LineString","coordinates":[[9.91679,46.97056],[9.91406,46.97082]]}},{"type":"Feature","properties":{"kind":"lift","difficulty":null,"name":"Gargellner Alpe - Schafberg","aerialway":"chair_lift","osm":"way/46833865"},"geometry":{"type":"LineString","coordinates":[[9.90622,46.96434],[9.89796,46.95946]]}},{"type":"Feature","properties":{"kind":"lift","difficulty":null,"name":"Vergalden","aerialway":"platter","osm":"way/47080447"},"geometry":{"type":"LineString","coordinates":[[9.91892,46.96176],[9.92134,46.95961]]}},{"type":"Feature","properties":{"kind":"lift","difficulty":null,"name":"Madrisa","aerialway":"t-bar","osm":"way/30283371"},"geometry":{"type":"LineString","coordinates":[[9.87491,46.91974],[9.86819,46.92901],[9.86617,46.92998]]}},{"type":"Feature","properties":{"kind":"lift","difficulty":null,"name":"Kristallbahn","aerialway":"chair_lift","osm":"way/46829377"},"geometry":{"type":"LineString","coordinates":[[9.90104,46.95865],[9.8915,46.96137]]}},{"type":"Feature","properties":{"kind":"piste","difficulty":"easy","name":null,"aerialway":null,"osm":"way/46829378"},"geometry":{"type":"LineString","coordinates":[[9.8915,46.96137],[9.89134,46.96105],[9.89145,46.96095],[9.89269,46.96136],[9.89344,46.9614]]}},{"type":"Feature","properties":{"kind":"piste","difficulty":"easy","name":null,"aerialway":null,"osm":"way/46829381"},"geometry":{"type":"LineString","coordinates":[[9.89322,46.96006],[9.89349,46.95851],[9.89366,46.95817],[9.89557,46.9572],[9.89606,46.9573],[9.89797,46.95826],[9.90033,46.95824],[9.90116,46.95854]]}},{"type":"Feature","properties":{"kind":"lift","difficulty":null,"name":"Gargellner Köpfe","aerialway":"chair_lift","osm":"way/46829383"},"geometry":{"type":"LineString","coordinates":[[9.90043,46.95537],[9.88931,46.95587]]}},{"type":"Feature","properties":{"kind":"piste","difficulty":"easy","name":null,"aerialway":null,"osm":"way/46829384"},"geometry":{"type":"LineString","coordinates":[[9.88931,46.95587],[9.88861,46.95654],[9.88874,46.95663],[9.89006,46.95635],[9.89067,46.95682],[9.89138,46.95793]]}},{"type":"Feature","properties":{"kind":"piste","difficulty":"easy","name":null,"aerialway":null,"osm":"way/46829386"},"geometry":{"type":"LineString","coordinates":[[9.89557,46.9572],[9.89606,46.95654],[9.89647,46.95626],[9.89788,46.95571],[9.8996,46.95484],[9.90079,46.95354],[9.90126,46.95275],[9.90119,46.95232],[9.90024,46.95153],[9.90028,46.9513],[9.90175,46.95156],[9.90191,46.95146],[9.90161,46.95125],[9.90157,46.95108],[9.9017,46.951],[9.9031,46.95111]]}},{"type":"Feature","properties":{"kind":"piste","difficulty":"easy","name":null,"aerialway":null,"osm":"way/46833864"},"geometry":{"type":"LineString","coordinates":[[9.89006,46.95635],[9.89021,46.95577],[9.89044,46.95567],[9.89317,46.95485],[9.89677,46.95424],[9.89812,46.95422],[9.8997,46.95476],[9.90043,46.95537]]}},{"type":"Feature","properties":{"kind":"lift","difficulty":null,"name":"Valzifenz","aerialway":"t-bar","osm":"way/46887424"},"geometry":{"type":"LineString","coordinates":[[9.90798,46.95626],[9.89821,46.95616]]}},{"type":"Feature","properties":{"kind":"piste","difficulty":"easy","name":null,"aerialway":null,"osm":"way/47080450"},"geometry":{"type":"LineString","coordinates":[[9.89787,46.95915],[9.89803,46.95923],[9.89796,46.95946]]}},{"type":"Feature","properties":{"kind":"piste","difficulty":"easy","name":null,"aerialway":null,"osm":"way/47080759"},"geometry":{"type":"LineString","coordinates":[[9.89138,46.95793],[9.89159,46.95794],[9.89167,46.95763],[9.89293,46.95629],[9.89655,46.95622]]}},{"type":"Feature","properties":{"kind":"lift","difficulty":null,"name":"Schmuggi Luggi","aerialway":"platter","osm":"way/47080760"},"geometry":{"type":"LineString","coordinates":[[9.89732,46.95568],[9.89303,46.95582]]}},{"type":"Feature","properties":{"kind":"piste","difficulty":"novice","name":null,"aerialway":null,"osm":"way/47080761"},"geometry":{"type":"LineString","coordinates":[[9.89341,46.95581],[9.89336,46.95602],[9.8957,46.95598],[9.89705,46.95587],[9.89732,46.95568]]}},{"type":"Feature","properties":{"kind":"piste","difficulty":"intermediate","name":null,"aerialway":null,"osm":"way/47920819"},"geometry":{"type":"LineString","coordinates":[[9.89091,46.95555],[9.89073,46.95519],[9.89084,46.9548],[9.89159,46.9541],[9.89421,46.95346],[9.89832,46.95309],[9.89985,46.95158],[9.90021,46.95138]]}},{"type":"Feature","properties":{"kind":"piste","difficulty":"advanced","name":null,"aerialway":null,"osm":"way/47920820"},"geometry":{"type":"LineString","coordinates":[[9.90053,46.95374],[9.90249,46.95401],[9.90535,46.95395],[9.90653,46.95421]]}},{"type":"Feature","properties":{"kind":"piste","difficulty":"intermediate","name":null,"aerialway":null,"osm":"way/47920822"},"geometry":{"type":"LineString","coordinates":[[9.89137,46.96095],[9.89178,46.96045],[9.89276,46.96024],[9.89327,46.95973],[9.89433,46.95923],[9.89692,46.95858],[9.90058,46.95835]]}},{"type":"Feature","properties":{"kind":"piste","difficulty":"easy","name":null,"aerialway":null,"osm":"way/440849304"},"geometry":{"type":"LineString","coordinates":[[9.90841,46.94937],[9.90986,46.95149],[9.91046,46.9516]]}},{"type":"Feature","properties":{"kind":"piste","difficulty":"easy","name":null,"aerialway":null,"osm":"way/441942952"},"geometry":{"type":"LineString","coordinates":[[9.89276,46.96024],[9.89392,46.96021],[9.8968,46.95927],[9.89985,46.95905],[9.90052,46.9587],[9.90116,46.95854]]}},{"type":"Feature","properties":{"kind":"piste","difficulty":"easy","name":null,"aerialway":null,"osm":"way/441942956"},"geometry":{"type":"LineString","coordinates":[[9.89679,46.95612],[9.89715,46.95584]]}},{"type":"Feature","properties":{"kind":"piste","difficulty":"easy","name":null,"aerialway":null,"osm":"way/441942959"},"geometry":{"type":"LineString","coordinates":[[9.89138,46.95793],[9.89166,46.95831],[9.89217,46.95841],[9.8941,46.95789]]}},{"type":"Feature","properties":{"kind":"piste","difficulty":"easy","name":null,"aerialway":null,"osm":"way/441942963"},"geometry":{"type":"LineString","coordinates":[[9.90773,46.95629],[9.90798,46.95626]]}},{"type":"Feature","properties":{"kind":"piste","difficulty":"expert","name":null,"aerialway":null,"osm":"way/441942966"},"geometry":{"type":"LineString","coordinates":[[9.90028,46.9513],[9.90106,46.95065],[9.90218,46.95004],[9.90353,46.9496],[9.90686,46.94915]]}},{"type":"Feature","properties":{"kind":"piste","difficulty":"advanced","name":null,"aerialway":null,"osm":"way/441942967"},"geometry":{"type":"LineString","coordinates":[[9.89351,46.96022],[9.89381,46.96035],[9.89442,46.96033],[9.89649,46.95963],[9.89915,46.95988],[9.89945,46.95973],[9.89985,46.95905]]}},{"type":"Feature","properties":{"kind":"piste","difficulty":"easy","name":null,"aerialway":null,"osm":"way/1194060469"},"geometry":{"type":"LineString","coordinates":[[9.90646,46.95397],[9.90656,46.95445],[9.90705,46.95498],[9.90731,46.95582],[9.90773,46.95629]]}},{"type":"Feature","properties":{"kind":"piste","difficulty":"easy","name":null,"aerialway":null,"osm":"way/1259792430"},"geometry":{"type":"LineString","coordinates":[[9.90785,46.94871],[9.90815,46.94901],[9.90817,46.94922],[9.90841,46.94937]]}},{"type":"Feature","properties":{"kind":"piste","difficulty":"easy","name":null,"aerialway":null,"osm":"way/1259792432"},"geometry":{"type":"LineString","coordinates":[[9.91046,46.9516],[9.91063,46.95176]]}},{"type":"Feature","properties":{"kind":"piste","difficulty":"easy","name":null,"aerialway":null,"osm":"way/1362918702"},"geometry":{"type":"LineString","coordinates":[[9.9031,46.95111],[9.90414,46.95098],[9.90414,46.95055],[9.90471,46.95047],[9.90501,46.95052],[9.90532,46.95081],[9.9056,46.95034],[9.90573,46.95036],[9.90619,46.95104],[9.9063,46.95102],[9.90665,46.95035],[9.90674,46.94928],[9.90708,46.94892],[9.90854,46.94842],[9.90902,46.94797]]}},{"type":"Feature","properties":{"kind":"piste","difficulty":"easy","name":null,"aerialway":null,"osm":"way/1362918704"},"geometry":{"type":"LineString","coordinates":[[9.89326,46.96141],[9.89361,46.9613],[9.89367,46.96117],[9.89327,46.96058],[9.89322,46.96006]]}},{"type":"Feature","properties":{"kind":"piste","difficulty":"easy","name":null,"aerialway":null,"osm":"way/1362918705"},"geometry":{"type":"LineString","coordinates":[[9.89344,46.9614],[9.89364,46.96145],[9.8937,46.96169],[9.89311,46.96225],[9.89122,46.96264],[9.89029,46.9627],[9.88905,46.96223],[9.88771,46.96222]]}},{"type":"Feature","properties":{"kind":"piste","difficulty":"easy","name":null,"aerialway":null,"osm":"way/1366011293"},"geometry":{"type":"LineString","coordinates":[[9.9031,46.95111],[9.90441,46.95174],[9.90491,46.95245],[9.90571,46.95305],[9.90646,46.95397]]}},{"type":"Feature","properties":{"kind":"piste","difficulty":"easy","name":null,"aerialway":null,"osm":"way/1366011294"},"geometry":{"type":"LineString","coordinates":[[9.90902,46.94797],[9.90911,46.94783]]}},{"type":"Feature","properties":{"kind":"piste","difficulty":"easy","name":null,"aerialway":null,"osm":"way/1435099256"},"geometry":{"type":"LineString","coordinates":[[9.90911,46.94783],[9.90964,46.94788],[9.91021,46.94831],[9.91069,46.94889],[9.91123,46.94997],[9.91174,46.95066],[9.91339,46.95204]]}},{"type":"Feature","properties":{"kind":"piste","difficulty":"intermediate","name":"8","aerialway":null,"osm":"way/1444770316"},"geometry":{"type":"LineString","coordinates":[[9.86674,46.92971],[9.86702,46.92974],[9.86761,46.92954],[9.87085,46.92756],[9.87197,46.92732],[9.87261,46.9269],[9.87297,46.92613],[9.87301,46.92427],[9.87329,46.92263],[9.87381,46.92164],[9.87503,46.92014]]}},{"type":"Feature","properties":{"kind":"piste","difficulty":"freeride","name":"12","aerialway":null,"osm":"way/1444770330"},"geometry":{"type":"LineString","coordinates":[[9.86674,46.92971],[9.86668,46.92989],[9.86536,46.9304],[9.86468,46.93035],[9.86428,46.93014],[9.86394,46.92974],[9.86365,46.92877],[9.86331,46.92815],[9.8635,46.92763],[9.86302,46.92691],[9.85919,46.92508],[9.85848,46.9246],[9.85792,46.92388],[9.85786,46.92348],[9.8582,46.92247],[9.85928,46.92103],[9.85958,46.9204],[9.8596,46.91961],[9.85911,46.91816],[9.85944,46.91741],[9.8595,46.91687],[9.85915,46.91602],[9.85778,46.9141],[9.85726,46.91229],[9.85678,46.91129],[9.85609,46.91056],[9.85627,46.91033],[9.85692,46.91013],[9.85729,46.90955],[9.85794,46.90918]]}},{"type":"Feature","properties":{"kind":"piste","difficulty":"easy","name":null,"aerialway":null,"osm":"way/1456118042"},"geometry":{"type":"LineString","coordinates":[[9.89582,46.95795],[9.89557,46.9572]]}},{"type":"Feature","properties":{"kind":"piste","difficulty":"intermediate","name":"Schnapfenwald","aerialway":null,"osm":"way/1456118043"},"geometry":{"type":"LineString","coordinates":[[9.8959,46.95726],[9.89643,46.95661],[9.89684,46.95633],[9.89996,46.95492]]}},{"type":"Feature","properties":{"kind":"piste","difficulty":"easy","name":null,"aerialway":null,"osm":"way/1456118044"},"geometry":{"type":"LineString","coordinates":[[9.8997,46.95476],[9.90023,46.95479]]}},{"type":"Feature","properties":{"kind":"piste","difficulty":"intermediate","name":null,"aerialway":null,"osm":"way/1456118045"},"geometry":{"type":"LineString","coordinates":[[9.8992,46.95532],[9.89989,46.95521],[9.90035,46.95528]]}},{"type":"Feature","properties":{"kind":"piste","difficulty":"easy","name":null,"aerialway":null,"osm":"way/1456118048"},"geometry":{"type":"LineString","coordinates":[[9.89895,46.95617],[9.89875,46.95646],[9.89898,46.95683],[9.90033,46.95824]]}},{"type":"Feature","properties":{"kind":"piste","difficulty":"intermediate","name":null,"aerialway":null,"osm":"way/1456118049"},"geometry":{"type":"LineString","coordinates":[[9.89498,46.95905],[9.89667,46.95894],[9.89787,46.95915]]}},{"type":"Feature","properties":{"kind":"piste","difficulty":"easy","name":null,"aerialway":null,"osm":"way/1456118050"},"geometry":{"type":"LineString","coordinates":[[9.89158,46.95823],[9.8918,46.95855],[9.89222,46.95879],[9.89351,46.95916],[9.89433,46.95923]]}},{"type":"Feature","properties":{"kind":"piste","difficulty":"easy","name":null,"aerialway":null,"osm":"way/1456118051"},"geometry":{"type":"LineString","coordinates":[[9.89336,46.95602],[9.89341,46.95649],[9.89366,46.95672],[9.89468,46.95706],[9.89557,46.9572]]}},{"type":"Feature","properties":{"kind":"piste","difficulty":"easy","name":null,"aerialway":null,"osm":"way/1456118052"},"geometry":{"type":"LineString","coordinates":[[9.88672,46.96689],[9.88716,46.96707],[9.88766,46.96767]]}}]}