{"type":"FeatureCollection","features":[{"type":"Feature","properties":{"kind":"piste","difficulty":"easy","name":null,"aerialway":null,"osm":"way/29188400"},"geometry":{"type":"LineString","coordinates":[[13.61269,47.05833],[13.61266,47.05821],[13.61223,47.05808],[13.61187,47.05848],[13.61168,47.06052],[13.61167,47.06208],[13.61186,47.06352],[13.61218,47.06401],[13.61246,47.06397],[13.61251,47.06385]]}},{"type":"Feature","properties":{"kind":"piste","difficulty":"easy","name":null,"aerialway":null,"osm":"way/29188401"},"geometry":{"type":"LineString","coordinates":[[13.61152,47.05718],[13.61187,47.05848]]}},{"type":"Feature","properties":{"kind":"piste","difficulty":"advanced","name":null,"aerialway":null,"osm":"way/29188404"},"geometry":{"type":"LineString","coordinates":[[13.59619,47.05954],[13.59617,47.05979],[13.59673,47.0601],[13.59759,47.06019],[13.59875,47.0601],[13.6002,47.06044],[13.60237,47.06073],[13.60608,47.06037],[13.60991,47.06061],[13.61083,47.06035]]}},{"type":"Feature","properties":{"kind":"piste","difficulty":"advanced","name":null,"aerialway":null,"osm":"way/29188405"},"geometry":{"type":"LineString","coordinates":[[13.60153,47.05966],[13.60151,47.05992],[13.60237,47.06073]]}},{"type":"Feature","properties":{"kind":"piste","difficulty":"intermediate","name":null,"aerialway":null,"osm":"way/29188406"},"geometry":{"type":"LineString","coordinates":[[13.59619,47.05954],[13.59609,47.05947]]}},{"type":"Feature","properties":{"kind":"piste","difficulty":"intermediate","name":null,"aerialway":null,"osm":"way/29188407"},"geometry":{"type":"LineString","coordinates":[[13.59571,47.05383],[13.59545,47.05338],[13.59542,47.05305],[13.59549,47.05215],[13.59589,47.05099],[13.59803,47.05088],[13.59919,47.05119],[13.59946,47.05109],[13.5997,47.05005],[13.60009,47.04951],[13.60274,47.049],[13.60358,47.04822],[13.60546,47.04713],[13.60629,47.04678],[13.60604,47.04664]]}},{"type":"Feature","properties":{"kind":"piste","difficulty":"intermediate","name":null,"aerialway":null,"osm":"way/35082989"},"geometry":{"type":"LineString","coordinates":[[13.63931,47.05619],[13.64041,47.05833],[13.64274,47.06047],[13.64399,47.06257],[13.6449,47.06378]]}},{"type":"Feature","properties":{"kind":"piste","difficulty":"easy","name":null,"aerialway":null,"osm":"way/35082993"},"geometry":{"type":"LineString","coordinates":[[13.67934,47.07428],[13.67785,47.07487],[13.677,47.07499],[13.67636,47.07582],[13.6751,47.07616],[13.67534,47.07632],[13.67673,47.07649],[13.679,47.07647]]}},{"type":"Feature","properties":{"kind":"piste","difficulty":"intermediate","name":null,"aerialway":null,"osm":"way/57739052"},"geometry":{"type":"LineString","coordinates":[[13.6018,47.05755],[13.60226,47.05757],[13.60353,47.05795],[13.60541,47.05879],[13.6057,47.05908],[13.60551,47.05988],[13.60597,47.06022],[13.61083,47.06035],[13.61102,47.06029],[13.61097,47.06017]]}},{"type":"Feature","properties":{"kind":"piste","difficulty":"intermediate","name":null,"aerialway":null,"osm":"way/57739055"},"geometry":{"type":"LineString","coordinates":[[13.60094,47.05441],[13.60133,47.05347],[13.60244,47.05275]]}},{"type":"Feature","properties":{"kind":"piste","difficulty":"intermediate","name":null,"aerialway":null,"osm":"way/57739060"},"geometry":{"type":"LineString","coordinates":[[13.60094,47.05441],[13.60264,47.05421],[13.60635,47.05283],[13.60726,47.05262],[13.60804,47.05268],[13.60839,47.05291],[13.60875,47.05368],[13.60992,47.05461],[13.61021,47.05601],[13.61113,47.05624],[13.61142,47.05663],[13.61152,47.05718]]}},{"type":"Feature","properties":{"kind":"piste","difficulty":"intermediate","name":null,"aerialway":null,"osm":"way/57739061"},"geometry":{"type":"LineString","coordinates":[[13.59837,47.05525],[13.59936,47.05598],[13.59981,47.05653],[13.60076,47.05694],[13.60539,47.0585],[13.60599,47.0585],[13.6061,47.05836],[13.60599,47.0583]]}},{"type":"Feature","properties":{"kind":"piste","difficulty":"intermediate","name":null,"aerialway":null,"osm":"way/57739064"},"geometry":{"type":"LineString","coordinates":[[13.59716,47.05485],[13.59789,47.05495],[13.59837,47.05525]]}},{"type":"Feature","properties":{"kind":"piste","difficulty":"intermediate","name":null,"aerialway":null,"osm":"way/143830661"},"geometry":{"type":"LineString","coordinates":[[13.64559,47.06281],[13.64525,47.06293],[13.6449,47.06378]]}},{"type":"Feature","properties":{"kind":"piste","difficulty":"advanced","name":null,"aerialway":null,"osm":"way/143835094"},"geometry":{"type":"LineString","coordinates":[[13.6758,47.07169],[13.6776,47.07167],[13.6794,47.07134],[13.68145,47.07067],[13.68205,47.07065],[13.68294,47.07104],[13.68381,47.0717]]}},{"type":"Feature","properties":{"kind":"piste","difficulty":"intermediate","name":null,"aerialway":null,"osm":"way/143835095"},"geometry":{"type":"LineString","coordinates":[[13.67327,47.07032],[13.67299,47.07045],[13.6733,47.0706],[13.67435,47.07076],[13.6758,47.07169],[13.67674,47.07209],[13.67768,47.0723],[13.67983,47.0723],[13.68239,47.07251],[13.68295,47.07237],[13.68324,47.07176],[13.6835,47.07164],[13.68381,47.0717],[13.68506,47.07326],[13.68621,47.07439],[13.68695,47.0756],[13.68759,47.07735],[13.68959,47.07995],[13.68941,47.08041]]}},{"type":"Feature","properties":{"kind":"piste","difficulty":"easy","name":null,"aerialway":null,"osm":"way/143835096"},"geometry":{"type":"LineString","coordinates":[[13.66573,47.06752],[13.66833,47.06866],[13.67299,47.07045],[13.67329,47.07077],[13.67331,47.07097],[13.67325,47.07131],[13.67298,47.07168]]}},{"type":"Feature","properties":{"kind":"piste","difficulty":"intermediate","name":null,"aerialway":null,"osm":"way/143835097"},"geometry":{"type":"LineString","coordinates":[[13.65578,47.07096],[13.65792,47.07032],[13.65845,47.06991],[13.65996,47.06765],[13.6603,47.06695],[13.66065,47.06663],[13.66115,47.0666],[13.66416,47.06707],[13.66573,47.06752]]}},{"type":"Feature","properties":{"kind":"piste","difficulty":"easy","name":null,"aerialway":null,"osm":"way/155641150"},"geometry":{"type":"LineString","coordinates":[[13.61499,47.05941],[13.61484,47.05941]]}},{"type":"Feature","properties":{"kind":"piste","difficulty":"easy","name":null,"aerialway":null,"osm":"way/155641158"},"geometry":{"type":"LineString","coordinates":[[13.61583,47.05914],[13.61499,47.05941]]}},{"type":"Feature","properties":{"kind":"piste","difficulty":"easy","name":null,"aerialway":null,"osm":"way/177818532"},"geometry":{"type":"LineString","coordinates":[[13.67161,47.07426],[13.67366,47.0748],[13.67653,47.07452],[13.67716,47.07435],[13.67789,47.07444],[13.67934,47.07428]]}},{"type":"Feature","properties":{"kind":"piste","difficulty":"easy","name":null,"aerialway":null,"osm":"way/177818537"},"geometry":{"type":"LineString","coordinates":[[13.67475,47.0687],[13.67525,47.06937],[13.67579,47.06963],[13.67592,47.06993],[13.67657,47.0706],[13.67658,47.07139]]}},{"type":"Feature","properties":{"kind":"piste","difficulty":"easy","name":null,"aerialway":null,"osm":"way/198199536"},"geometry":{"type":"LineString","coordinates":[[13.61162,47.05617],[13.61172,47.05616],[13.6122,47.05506],[13.61254,47.05392],[13.61249,47.05376]]}},{"type":"Feature","properties":{"kind":"piste","difficulty":"intermediate","name":null,"aerialway":null,"osm":"way/198219770"},"geometry":{"type":"LineString","coordinates":[[13.59501,47.05079],[13.59532,47.05034],[13.59717,47.04942],[13.59963,47.04879],[13.60107,47.04707],[13.60211,47.04697],[13.60343,47.04705],[13.60552,47.04647],[13.606,47.04644],[13.60629,47.04664],[13.60604,47.04664]]}},{"type":"Feature","properties":{"kind":"piste","difficulty":"easy","name":null,"aerialway":null,"osm":"way/198219772"},"geometry":{"type":"LineString","coordinates":[[13.61132,47.05727],[13.61114,47.05728],[13.61095,47.0575],[13.61076,47.05826],[13.61018,47.05925],[13.61018,47.05955],[13.61043,47.05972],[13.61115,47.05973]]}},{"type":"Feature","properties":{"kind":"piste","difficulty":"intermediate","name":null,"aerialway":null,"osm":"way/198265926"},"geometry":{"type":"LineString","coordinates":[[13.59576,47.0543],[13.5958,47.05408],[13.59616,47.05384],[13.5971,47.05357],[13.59928,47.05384],[13.60056,47.05419],[13.60094,47.05441],[13.60202,47.05454],[13.60236,47.05474],[13.60551,47.05455],[13.60874,47.05417],[13.60961,47.05431]]}},{"type":"Feature","properties":{"kind":"piste","difficulty":"intermediate","name":null,"aerialway":null,"osm":"way/198265927"},"geometry":{"type":"LineString","coordinates":[[13.59501,47.05079],[13.59589,47.05099]]}},{"type":"Feature","properties":{"kind":"piste","difficulty":"intermediate","name":null,"aerialway":null,"osm":"way/198265928"},"geometry":{"type":"LineString","coordinates":[[13.6037,47.04998],[13.60358,47.04822]]}},{"type":"Feature","properties":{"kind":"piste","difficulty":"intermediate","name":null,"aerialway":null,"osm":"way/198265929"},"geometry":{"type":"LineString","coordinates":[[13.5958,47.05408],[13.59571,47.05383],[13.59595,47.05352],[13.59643,47.05322],[13.59704,47.05306],[13.59835,47.05291],[13.59895,47.05302],[13.60135,47.05301],[13.60244,47.05275],[13.60662,47.05127],[13.60743,47.05053],[13.60737,47.05044]]}},{"type":"Feature","properties":{"kind":"piste","difficulty":"intermediate","name":null,"aerialway":null,"osm":"way/198967612"},"geometry":{"type":"LineString","coordinates":[[13.60153,47.05966],[13.60247,47.0585],[13.60177,47.05774],[13.6018,47.05755]]}},{"type":"Feature","properties":{"kind":"piste","difficulty":"advanced","name":null,"aerialway":null,"osm":"way/199389891"},"geometry":{"type":"LineString","coordinates":[[13.6758,47.07169],[13.67812,47.0735],[13.68155,47.07566],[13.68235,47.07633],[13.68396,47.077],[13.68477,47.07749],[13.68503,47.07797],[13.68589,47.07815],[13.68802,47.07951],[13.68927,47.08003],[13.68941,47.08041]]}},{"type":"Feature","properties":{"kind":"piste","difficulty":"intermediate","name":null,"aerialway":null,"osm":"way/199389892"},"geometry":{"type":"LineString","coordinates":[[13.68869,47.07805],[13.68849,47.07843]]}},{"type":"Feature","properties":{"kind":"piste","difficulty":"easy","name":null,"aerialway":null,"osm":"way/199390420"},"geometry":{"type":"LineString","coordinates":[[13.65641,47.06254],[13.6574,47.06162],[13.65784,47.0615],[13.65992,47.06161],[13.6605,47.062],[13.66156,47.06514],[13.67189,47.07114],[13.67247,47.07124],[13.67298,47.07168],[13.67255,47.07176]]}},{"type":"Feature","properties":{"kind":"piste","difficulty":"easy","name":"Branntweinerabfahrt","aerialway":null,"osm":"way/199390423"},"geometry":{"type":"LineString","coordinates":[[13.6713,47.07079],[13.67203,47.07089],[13.67435,47.07076]]}},{"type":"Feature","properties":{"kind":"piste","difficulty":"intermediate","name":null,"aerialway":null,"osm":"way/199391252"},"geometry":{"type":"LineString","coordinates":[[13.64509,47.06392],[13.64973,47.06327],[13.6523,47.06274],[13.65544,47.06183],[13.6574,47.06162],[13.65785,47.06129],[13.65799,47.06103],[13.65795,47.06082]]}},{"type":"Feature","properties":{"kind":"piste","difficulty":"intermediate","name":null,"aerialway":null,"osm":"way/200154953"},"geometry":{"type":"LineString","coordinates":[[13.59919,47.05119],[13.60077,47.05153]]}},{"type":"Feature","properties":{"kind":"piste","difficulty":"intermediate","name":null,"aerialway":null,"osm":"way/200154954"},"geometry":{"type":"LineString","coordinates":[[13.59741,47.05563],[13.59756,47.05526],[13.5978,47.05519],[13.59891,47.05537],[13.60095,47.05595],[13.60416,47.05697],[13.60599,47.05775],[13.60599,47.0583]]}},{"type":"Feature","properties":{"kind":"piste","difficulty":"intermediate","name":null,"aerialway":null,"osm":"way/200154955"},"geometry":{"type":"LineString","coordinates":[[13.59741,47.05563],[13.5974,47.05591],[13.59866,47.05654],[13.60017,47.0571],[13.6015,47.05717]]}},{"type":"Feature","properties":{"kind":"piste","difficulty":"intermediate","name":null,"aerialway":null,"osm":"way/201737210"},"geometry":{"type":"LineString","coordinates":[[13.63931,47.05619],[13.63991,47.05603],[13.64184,47.05652],[13.64552,47.05686],[13.64604,47.0568],[13.64834,47.05605],[13.64975,47.05583],[13.65067,47.05596],[13.65134,47.05628],[13.65148,47.05744],[13.65182,47.05832],[13.65318,47.05995],[13.65522,47.06071],[13.65611,47.0609],[13.65772,47.0607],[13.65856,47.06082],[13.65944,47.0611],[13.65978,47.0613],[13.65992,47.06161]]}},{"type":"Feature","properties":{"kind":"piste","difficulty":"intermediate","name":null,"aerialway":null,"osm":"way/201737212"},"geometry":{"type":"LineString","coordinates":[[13.65992,47.06161],[13.66065,47.0614],[13.66083,47.06106],[13.66062,47.06096]]}},{"type":"Feature","properties":{"kind":"piste","difficulty":"intermediate","name":null,"aerialway":null,"osm":"way/201737213"},"geometry":{"type":"LineString","coordinates":[[13.65611,47.0609],[13.6579,47.06119]]}},{"type":"Feature","properties":{"kind":"piste","difficulty":"intermediate","name":null,"aerialway":null,"osm":"way/201738801"},"geometry":{"type":"LineString","coordinates":[[13.63768,47.05541],[13.63883,47.05454],[13.63901,47.05419],[13.63882,47.05385],[13.63834,47.05347]]}},{"type":"Feature","properties":{"kind":"piste","difficulty":"advanced","name":null,"aerialway":null,"osm":"way/201738803"},"geometry":{"type":"LineString","coordinates":[[13.63768,47.05541],[13.63737,47.05579],[13.63696,47.05596],[13.63118,47.0567],[13.62788,47.0573],[13.62539,47.05875],[13.62476,47.05881],[13.62431,47.05865],[13.62349,47.05793],[13.62277,47.05772],[13.61998,47.05807]]}},{"type":"Feature","properties":{"kind":"piste","difficulty":"advanced","name":null,"aerialway":null,"osm":"way/201738806"},"geometry":{"type":"LineString","coordinates":[[13.64552,47.05686],[13.64992,47.05738],[13.65159,47.05773]]}},{"type":"Feature","properties":{"kind":"piste","difficulty":"intermediate","name":null,"aerialway":null,"osm":"way/201738808"},"geometry":{"type":"LineString","coordinates":[[13.63901,47.05419],[13.63985,47.05391],[13.64233,47.05354],[13.64482,47.05375],[13.64688,47.05365],[13.64834,47.05378],[13.64951,47.05418],[13.65056,47.05475],[13.65129,47.05575],[13.65134,47.05628]]}},{"type":"Feature","properties":{"kind":"piste","difficulty":"intermediate","name":null,"aerialway":null,"osm":"way/201738812"},"geometry":{"type":"LineString","coordinates":[[13.63768,47.05541],[13.64024,47.05569],[13.64151,47.05562],[13.64439,47.05467],[13.64574,47.05401],[13.64688,47.05365]]}},{"type":"Feature","properties":{"kind":"piste","difficulty":"intermediate","name":null,"aerialway":null,"osm":"way/201738814"},"geometry":{"type":"LineString","coordinates":[[13.63768,47.05541],[13.63931,47.05619]]}},{"type":"Feature","properties":{"kind":"piste","difficulty":"easy","name":null,"aerialway":null,"osm":"way/206679931"},"geometry":{"type":"LineString","coordinates":[[13.67658,47.07139],[13.67618,47.0724],[13.67616,47.07275],[13.67515,47.07358],[13.67346,47.07396],[13.67256,47.07434],[13.67169,47.07416],[13.67161,47.07426]]}},{"type":"Feature","properties":{"kind":"piste","difficulty":"easy","name":null,"aerialway":null,"osm":"way/206679935"},"geometry":{"type":"LineString","coordinates":[[13.6733,47.0706],[13.67405,47.07052],[13.67474,47.07006],[13.67471,47.06906],[13.67448,47.06869],[13.67462,47.06861],[13.67475,47.0687]]}},{"type":"Feature","properties":{"kind":"piste","difficulty":"easy","name":null,"aerialway":null,"osm":"way/209225862"},"geometry":{"type":"LineString","coordinates":[[13.68869,47.07805],[13.68892,47.07803],[13.68952,47.07868],[13.6905,47.08013],[13.69061,47.0804],[13.69041,47.08051]]}},{"type":"Feature","properties":{"kind":"piste","difficulty":"intermediate","name":null,"aerialway":null,"osm":"way/209249072"},"geometry":{"type":"LineString","coordinates":[[13.6449,47.06378],[13.64558,47.06445],[13.64633,47.066],[13.64741,47.06706],[13.64794,47.06728],[13.64852,47.06733],[13.65229,47.0695],[13.65646,47.07133],[13.65747,47.07158],[13.65797,47.07184],[13.65876,47.07285],[13.65942,47.07319],[13.66396,47.07382],[13.66559,47.0749],[13.66754,47.07558],[13.66845,47.07604],[13.66926,47.07633],[13.67105,47.0765],[13.67355,47.07733],[13.67702,47.0772],[13.67946,47.07664],[13.67984,47.07672],[13.6802,47.07683],[13.68037,47.07703],[13.68032,47.07724],[13.67981,47.07764],[13.68204,47.0777],[13.68236,47.07786],[13.68428,47.07992],[13.68449,47.07992],[13.68503,47.07933],[13.6878,47.07987],[13.68903,47.07992],[13.68915,47.08023],[13.68905,47.08028]]}},{"type":"Feature","properties":{"kind":"piste","difficulty":"easy","name":null,"aerialway":null,"osm":"way/209629489"},"geometry":{"type":"LineString","coordinates":[[13.61998,47.05807],[13.61695,47.05838]]}},{"type":"Feature","properties":{"kind":"piste","difficulty":"intermediate","name":null,"aerialway":null,"osm":"way/209629492"},"geometry":{"type":"LineString","coordinates":[[13.62273,47.05542],[13.62144,47.05608],[13.61998,47.05807]]}},{"type":"Feature","properties":{"kind":"piste","difficulty":"intermediate","name":null,"aerialway":null,"osm":"way/209630042"},"geometry":{"type":"LineString","coordinates":[[13.62546,47.05758],[13.62385,47.05823]]}},{"type":"Feature","properties":{"kind":"piste","difficulty":"intermediate","name":null,"aerialway":null,"osm":"way/209630043"},"geometry":{"type":"LineString","coordinates":[[13.63825,47.05338],[13.6375,47.05325],[13.63689,47.05347],[13.63649,47.05379],[13.63534,47.054],[13.63486,47.05423],[13.63264,47.05593],[13.63221,47.0558],[13.63174,47.05533],[13.63069,47.05581],[13.63026,47.05615],[13.63009,47.05613],[13.62985,47.05551],[13.63017,47.05445],[13.62994,47.05427],[13.62947,47.05426],[13.62847,47.05466],[13.62611,47.05686],[13.62555,47.05755],[13.62526,47.05751],[13.62483,47.05707]]}},{"type":"Feature","properties":{"kind":"piste","difficulty":"intermediate","name":null,"aerialway":null,"osm":"way/209630044"},"geometry":{"type":"LineString","coordinates":[[13.62483,47.05707],[13.62462,47.05686],[13.62457,47.05495],[13.62439,47.05491],[13.62273,47.05542]]}},{"type":"Feature","properties":{"kind":"piste","difficulty":"easy","name":null,"aerialway":null,"osm":"way/209631388"},"geometry":{"type":"LineString","coordinates":[[13.61363,47.05967],[13.61286,47.05942],[13.61178,47.05957]]}},{"type":"Feature","properties":{"kind":"piste","difficulty":"intermediate","name":null,"aerialway":null,"osm":"way/209631389"},"geometry":{"type":"LineString","coordinates":[[13.61695,47.05838],[13.61685,47.05817],[13.6173,47.0582]]}},{"type":"Feature","properties":{"kind":"piste","difficulty":"intermediate","name":null,"aerialway":null,"osm":"way/209631390"},"geometry":{"type":"LineString","coordinates":[[13.61097,47.06033],[13.61119,47.06026],[13.61118,47.06008],[13.61071,47.06003]]}},{"type":"Feature","properties":{"kind":"piste","difficulty":"intermediate","name":null,"aerialway":null,"osm":"way/209633821"},"geometry":{"type":"LineString","coordinates":[[13.59577,47.05446],[13.59564,47.05441],[13.5957,47.05432],[13.59657,47.05416],[13.59974,47.05427],[13.60138,47.05451],[13.60334,47.05549],[13.60587,47.0556],[13.60934,47.05597],[13.61011,47.05584],[13.61121,47.05595],[13.61122,47.05572]]}},{"type":"Feature","properties":{"kind":"piste","difficulty":"intermediate","name":null,"aerialway":null,"osm":"way/209633826"},"geometry":{"type":"LineString","coordinates":[[13.60202,47.05454],[13.60334,47.05432],[13.60521,47.05381],[13.60804,47.05268]]}},{"type":"Feature","properties":{"kind":"piste","difficulty":"intermediate","name":null,"aerialway":null,"osm":"way/209633829"},"geometry":{"type":"LineString","coordinates":[[13.59609,47.05947],[13.59658,47.05788],[13.59663,47.0568],[13.5965,47.0557],[13.59725,47.05473],[13.59759,47.05449],[13.59805,47.05441],[13.59992,47.05455],[13.60094,47.05441]]}},{"type":"Feature","properties":{"kind":"piste","difficulty":"intermediate","name":null,"aerialway":null,"osm":"way/209648121"},"geometry":{"type":"LineString","coordinates":[[13.59648,47.05273],[13.59744,47.05171],[13.59841,47.05152],[13.60003,47.05171],[13.60256,47.05108],[13.6037,47.04998],[13.60426,47.0496],[13.60521,47.04955],[13.60619,47.04998],[13.60734,47.05029],[13.60749,47.05039],[13.60737,47.05044]]}},{"type":"Feature","properties":{"kind":"piste","difficulty":"easy","name":null,"aerialway":null,"osm":"way/209650084"},"geometry":{"type":"LineString","coordinates":[[13.61152,47.05718],[13.61258,47.05795],[13.61398,47.05829],[13.61387,47.05854],[13.61392,47.059],[13.61414,47.0593],[13.61442,47.05943]]}},{"type":"Feature","properties":{"kind":"piste","difficulty":"easy","name":null,"aerialway":null,"osm":"way/209650085"},"geometry":{"type":"LineString","coordinates":[[13.61695,47.05838],[13.61639,47.05848],[13.61583,47.05914]]}},{"type":"Feature","properties":{"kind":"piste","difficulty":"intermediate","name":null,"aerialway":null,"osm":"way/209650086"},"geometry":{"type":"LineString","coordinates":[[13.59648,47.05273],[13.59671,47.05298],[13.599,47.05346],[13.59988,47.054]]}},{"type":"Feature","properties":{"kind":"piste","difficulty":"easy","name":null,"aerialway":null,"osm":"way/209650087"},"geometry":{"type":"LineString","coordinates":[[13.61169,47.06023],[13.61105,47.0604],[13.61097,47.06033]]}},{"type":"Feature","properties":{"kind":"piste","difficulty":"intermediate","name":null,"aerialway":null,"osm":"way/209650088"},"geometry":{"type":"LineString","coordinates":[[13.59647,47.05268],[13.59572,47.05253],[13.59549,47.05215]]}},{"type":"Feature","properties":{"kind":"piste","difficulty":"intermediate","name":null,"aerialway":null,"osm":"way/209650591"},"geometry":{"type":"LineString","coordinates":[[13.63732,47.05546],[13.63768,47.05541]]}},{"type":"Feature","properties":{"kind":"piste","difficulty":"intermediate","name":null,"aerialway":null,"osm":"way/209651579"},"geometry":{"type":"LineString","coordinates":[[13.63975,47.05627],[13.63931,47.05619]]}},{"type":"Feature","properties":{"kind":"piste","difficulty":"intermediate","name":null,"aerialway":null,"osm":"way/209651580"},"geometry":{"type":"LineString","coordinates":[[13.63931,47.05619],[13.63883,47.05454]]}},{"type":"Feature","properties":{"kind":"piste","difficulty":"easy","name":null,"aerialway":null,"osm":"way/367612330"},"geometry":{"type":"LineString","coordinates":[[13.61484,47.05941],[13.61413,47.05943],[13.61363,47.05967]]}},{"type":"Feature","properties":{"kind":"piste","difficulty":"easy","name":"20 Familienabfahrt","aerialway":null,"osm":"way/367995450"},"geometry":{"type":"LineString","coordinates":[[13.679,47.07647],[13.67934,47.07658],[13.67933,47.07683],[13.67868,47.07728],[13.67793,47.07808],[13.6776,47.07871],[13.67646,47.07949],[13.67556,47.0798],[13.67467,47.07982],[13.67402,47.08011],[13.67462,47.07998],[13.67556,47.0801],[13.67692,47.07988],[13.67828,47.07949],[13.67997,47.0792],[13.68057,47.07894],[13.68298,47.07852]]}},{"type":"Feature","properties":{"kind":"piste","difficulty":"intermediate","name":null,"aerialway":null,"osm":"way/1052436679"},"geometry":{"type":"LineString","coordinates":[[13.64538,47.06372],[13.64496,47.0637]]}},{"type":"Feature","properties":{"kind":"piste","difficulty":"easy","name":null,"aerialway":null,"osm":"way/1052529127"},"geometry":{"type":"LineString","coordinates":[[13.61088,47.05976],[13.61138,47.0599],[13.61169,47.06023]]}},{"type":"Feature","properties":{"kind":"piste","difficulty":"easy","name":"20 Familienabfahrt","aerialway":null,"osm":"way/1453283901"},"geometry":{"type":"LineString","coordinates":[[13.68298,47.07852],[13.68344,47.07843],[13.68304,47.0788],[13.68098,47.07981],[13.68242,47.07967],[13.68428,47.07992]]}},{"type":"Feature","properties":{"kind":"piste","difficulty":"easy","name":"22 Schwaigabfahrt","aerialway":null,"osm":"way/1453283902"},"geometry":{"type":"LineString","coordinates":[[13.68959,47.07995],[13.69041,47.08051]]}},{"type":"Feature","properties":{"kind":"piste","difficulty":"easy","name":"22 Schwaigabfahrt","aerialway":null,"osm":"way/1453283903"},"geometry":{"type":"LineString","coordinates":[[13.68941,47.08041],[13.68967,47.08023],[13.69002,47.08024]]}},{"type":"Feature","properties":{"kind":"piste","difficulty":"easy","name":"19 Übungshang Aineck","aerialway":null,"osm":"way/1453286551"},"geometry":{"type":"LineString","coordinates":[[13.66866,47.06912],[13.66862,47.0692]]}},{"type":"Feature","properties":{"kind":"piste","difficulty":"advanced","name":"T Trainingspiste Aineck","aerialway":null,"osm":"way/1453286552"},"geometry":{"type":"LineString","coordinates":[[13.65646,47.06249],[13.66171,47.06526]]}},{"type":"Feature","properties":{"kind":"piste","difficulty":"easy","name":null,"aerialway":null,"osm":"way/1453286553"},"geometry":{"type":"LineString","coordinates":[[13.61279,47.058],[13.61266,47.05821]]}},{"type":"Feature","properties":{"kind":"piste","difficulty":"easy","name":null,"aerialway":null,"osm":"way/1453286554"},"geometry":{"type":"LineString","coordinates":[[13.61114,47.05728],[13.6111,47.05716],[13.61152,47.05718]]}},{"type":"Feature","properties":{"kind":"piste","difficulty":"easy","name":null,"aerialway":null,"osm":"way/1453286555"},"geometry":{"type":"LineString","coordinates":[[13.61148,47.05696],[13.6111,47.05716],[13.61114,47.05728]]}},{"type":"Feature","properties":{"kind":"piste","difficulty":"intermediate","name":null,"aerialway":null,"osm":"way/1453286556"},"geometry":{"type":"LineString","coordinates":[[13.59837,47.05525],[13.59984,47.05488],[13.59941,47.05459],[13.59974,47.05427]]}},{"type":"Feature","properties":{"kind":"piste","difficulty":"easy","name":null,"aerialway":null,"osm":"way/1453286557"},"geometry":{"type":"LineString","coordinates":[[13.61363,47.05967],[13.61351,47.05979],[13.61351,47.06007],[13.61368,47.06053],[13.61424,47.06096]]}},{"type":"Feature","properties":{"kind":"piste","difficulty":"easy","name":null,"aerialway":null,"osm":"way/1453286558"},"geometry":{"type":"LineString","coordinates":[[13.61424,47.06096],[13.61379,47.06069],[13.61358,47.0603],[13.61274,47.05973],[13.61169,47.06023]]}},{"type":"Feature","properties":{"kind":"piste","difficulty":"intermediate","name":null,"aerialway":null,"osm":"way/1557983751"},"geometry":{"type":"LineString","coordinates":[[13.63834,47.05347],[13.63825,47.05338]]}},{"type":"Feature","properties":{"kind":"lift","difficulty":null,"name":"Königswiesenbahn","aerialway":"chair_lift","osm":"way/29188397"},"geometry":{"type":"LineString","coordinates":[[13.61251,47.06385],[13.61269,47.05833]]}},{"type":"Feature","properties":{"kind":"lift","difficulty":null,"name":"Tschaneckbahn","aerialway":"chair_lift","osm":"way/29188398"},"geometry":{"type":"LineString","coordinates":[[13.61097,47.06017],[13.59619,47.05954]]}},{"type":"Feature","properties":{"kind":"lift","difficulty":null,"name":"Gamskogelexpress","aerialway":"chair_lift","osm":"way/29188399"},"geometry":{"type":"LineString","coordinates":[[13.61122,47.05572],[13.59577,47.05446]]}},{"type":"Feature","properties":{"kind":"lift","difficulty":null,"name":"Bärenwiesenlift","aerialway":"t-bar","osm":"way/29188403"},"geometry":{"type":"LineString","coordinates":[[13.61093,47.06003],[13.60089,47.05963]]}},{"type":"Feature","properties":{"kind":"lift","difficulty":null,"name":"Almbahn","aerialway":"gondola","osm":"way/29547303"},"geometry":{"type":"LineString","coordinates":[[13.6173,47.0582],[13.63732,47.05546]]}},{"type":"Feature","properties":{"kind":"lift","difficulty":null,"name":"Ainecklift","aerialway":"t-bar","osm":"way/29547305"},"geometry":{"type":"LineString","coordinates":[[13.65795,47.06082],[13.64447,47.06394]]}},{"type":"Feature","properties":{"kind":"lift","difficulty":null,"name":"Branntweinerlift","aerialway":"t-bar","osm":"way/29547307"},"geometry":{"type":"LineString","coordinates":[[13.67273,47.07187],[13.65572,47.06215]]}},{"type":"Feature","properties":{"kind":"lift","difficulty":null,"name":"Mini Jet","aerialway":"platter","osm":"way/47414918"},"geometry":{"type":"LineString","coordinates":[[13.61115,47.05973],[13.61134,47.05693]]}},{"type":"Feature","properties":{"kind":"lift","difficulty":null,"name":"Sonnalmbahn","aerialway":"chair_lift","osm":"way/57739048"},"geometry":{"type":"LineString","coordinates":[[13.60599,47.0583],[13.59741,47.05563]]}},{"type":"Feature","properties":{"kind":"lift","difficulty":null,"name":"Gipfelbahn","aerialway":"gondola","osm":"way/93154237"},"geometry":{"type":"LineString","coordinates":[[13.66062,47.06096],[13.63975,47.05627]]}},{"type":"Feature","properties":{"kind":"lift","difficulty":null,"name":"Silverjet II","aerialway":"gondola","osm":"way/143830660"},"geometry":{"type":"LineString","coordinates":[[13.67291,47.07011],[13.64559,47.06281]]}},{"type":"Feature","properties":{"kind":"lift","difficulty":null,"name":"Fischerkogellift","aerialway":"platter","osm":"way/197168605"},"geometry":{"type":"LineString","coordinates":[[13.69041,47.08051],[13.68862,47.07795]]}},{"type":"Feature","properties":{"kind":"lift","difficulty":null,"name":"Tellerlift","aerialway":"drag_lift","osm":"way/197169030"},"geometry":{"type":"LineString","coordinates":[[13.61245,47.05367],[13.61153,47.05644]]}},{"type":"Feature","properties":{"kind":"lift","difficulty":null,"name":"Freiberglift","aerialway":"t-bar","osm":"way/197173659"},"geometry":{"type":"LineString","coordinates":[[13.60737,47.05044],[13.59562,47.05292]]}},{"type":"Feature","properties":{"kind":"lift","difficulty":null,"name":"Sonnleitenlift","aerialway":"t-bar","osm":"way/197173660"},"geometry":{"type":"LineString","coordinates":[[13.60616,47.0466],[13.59454,47.05097]]}},{"type":"Feature","properties":{"kind":"lift","difficulty":null,"name":"Silverjet I","aerialway":"gondola","osm":"way/287446228"},"geometry":{"type":"LineString","coordinates":[[13.68905,47.08028],[13.67327,47.07032]]}},{"type":"Feature","properties":{"kind":"lift","difficulty":null,"name":"Übungslift Sankt Margarethen","aerialway":"magic_carpet","osm":"way/737107688"},"geometry":{"type":"LineString","coordinates":[[13.69081,47.08042],[13.69073,47.08026]]}},{"type":"Feature","properties":{"kind":"lift","difficulty":null,"name":"Kidsjet","aerialway":"platter","osm":"way/1364991669"},"geometry":{"type":"LineString","coordinates":[[13.67272,47.07172],[13.66866,47.06912]]}},{"type":"Feature","properties":{"kind":"lift","difficulty":null,"name":"Brückenlaufband Richtung Aineck","aerialway":"magic_carpet","osm":"way/1481241264"},"geometry":{"type":"LineString","coordinates":[[13.6147,47.05944],[13.61551,47.05934]]}}]}