{"type":"FeatureCollection","features":[{"type":"Feature","properties":{"kind":"piste","difficulty":"intermediate","name":null,"aerialway":null,"osm":"way/23399175"},"geometry":{"type":"LineString","coordinates":[[11.02761,47.23019],[11.02762,47.23029],[11.02773,47.23026],[11.02785,47.22988],[11.02905,47.22893],[11.02905,47.22849],[11.02846,47.22749],[11.02807,47.22715],[11.02791,47.22665],[11.02821,47.22533],[11.02924,47.22468],[11.02995,47.2245],[11.03037,47.2242],[11.03154,47.22221],[11.03174,47.22113],[11.02923,47.21996],[11.02876,47.21946],[11.02949,47.21882],[11.03147,47.21915],[11.03151,47.21907],[11.02689,47.21634],[11.02564,47.21515],[11.02567,47.21485]]}},{"type":"Feature","properties":{"kind":"piste","difficulty":"intermediate","name":null,"aerialway":null,"osm":"way/23399176"},"geometry":{"type":"LineString","coordinates":[[11.02762,47.23029],[11.02737,47.23039],[11.02695,47.23028],[11.02632,47.2297],[11.02595,47.22879],[11.02638,47.22697],[11.0262,47.2259],[11.02578,47.22505],[11.02465,47.22388]]}},{"type":"Feature","properties":{"kind":"piste","difficulty":"intermediate","name":null,"aerialway":null,"osm":"way/23399177"},"geometry":{"type":"LineString","coordinates":[[11.02509,47.2228],[11.02721,47.22145],[11.02876,47.21946],[11.02921,47.21774]]}},{"type":"Feature","properties":{"kind":"piste","difficulty":"intermediate","name":null,"aerialway":null,"osm":"way/23399178"},"geometry":{"type":"LineString","coordinates":[[11.02465,47.22388],[11.02267,47.22127]]}},{"type":"Feature","properties":{"kind":"piste","difficulty":"intermediate","name":null,"aerialway":null,"osm":"way/23399179"},"geometry":{"type":"LineString","coordinates":[[11.02267,47.22127],[11.02222,47.22099],[11.02064,47.22082]]}},{"type":"Feature","properties":{"kind":"piste","difficulty":"intermediate","name":null,"aerialway":null,"osm":"way/23399181"},"geometry":{"type":"LineString","coordinates":[[11.02064,47.22082],[11.01879,47.22024],[11.01749,47.2192]]}},{"type":"Feature","properties":{"kind":"piste","difficulty":"easy","name":null,"aerialway":null,"osm":"way/23399187"},"geometry":{"type":"LineString","coordinates":[[11.01221,47.22747],[11.01249,47.22746],[11.01368,47.22654],[11.01461,47.22611],[11.01704,47.22615],[11.01784,47.22568],[11.0201,47.22317],[11.02095,47.22141],[11.02094,47.22108],[11.02064,47.22082]]}},{"type":"Feature","properties":{"kind":"piste","difficulty":"intermediate","name":null,"aerialway":null,"osm":"way/23399190"},"geometry":{"type":"LineString","coordinates":[[11.01221,47.22747],[11.01207,47.22739],[11.01194,47.22699],[11.01244,47.22616]]}},{"type":"Feature","properties":{"kind":"piste","difficulty":"intermediate","name":null,"aerialway":null,"osm":"way/23399192"},"geometry":{"type":"LineString","coordinates":[[11.01315,47.20398],[11.0141,47.20392],[11.01577,47.2048],[11.01633,47.20579],[11.01657,47.20727],[11.01661,47.20878],[11.01627,47.20929],[11.01508,47.21023],[11.01497,47.21052],[11.01503,47.21115],[11.01486,47.2113]]}},{"type":"Feature","properties":{"kind":"piste","difficulty":"intermediate","name":null,"aerialway":null,"osm":"way/23399193"},"geometry":{"type":"LineString","coordinates":[[11.03923,47.20494],[11.03989,47.20471],[11.03996,47.20458],[11.03963,47.20436],[11.03739,47.20425]]}},{"type":"Feature","properties":{"kind":"piste","difficulty":"advanced","name":null,"aerialway":null,"osm":"way/23399195"},"geometry":{"type":"LineString","coordinates":[[11.02937,47.20978],[11.02971,47.20969],[11.02985,47.20985],[11.02993,47.21009],[11.02972,47.21061],[11.02813,47.21199],[11.02677,47.21352],[11.02651,47.21368],[11.02569,47.21372],[11.02549,47.21381],[11.02542,47.214]]}},{"type":"Feature","properties":{"kind":"piste","difficulty":"intermediate","name":null,"aerialway":null,"osm":"way/23548161"},"geometry":{"type":"LineString","coordinates":[[11.03739,47.20425],[11.03716,47.20454],[11.03705,47.20568],[11.03614,47.20645],[11.03354,47.20737],[11.03191,47.20836],[11.03097,47.20873]]}},{"type":"Feature","properties":{"kind":"piste","difficulty":"intermediate","name":null,"aerialway":null,"osm":"way/23548162"},"geometry":{"type":"LineString","coordinates":[[11.03569,47.20479],[11.0359,47.20546],[11.03628,47.20596],[11.03614,47.20645]]}},{"type":"Feature","properties":{"kind":"piste","difficulty":"intermediate","name":null,"aerialway":null,"osm":"way/23548163"},"geometry":{"type":"LineString","coordinates":[[11.03365,47.20546],[11.03353,47.20579],[11.03393,47.20684],[11.03354,47.20737]]}},{"type":"Feature","properties":{"kind":"piste","difficulty":"intermediate","name":null,"aerialway":null,"osm":"way/23548164"},"geometry":{"type":"LineString","coordinates":[[11.01315,47.20398],[11.01281,47.20401],[11.01246,47.20422],[11.01173,47.2049]]}},{"type":"Feature","properties":{"kind":"piste","difficulty":"advanced","name":null,"aerialway":null,"osm":"way/23548166"},"geometry":{"type":"LineString","coordinates":[[11.01222,47.2008],[11.01226,47.20072],[11.0131,47.20123],[11.0132,47.2014],[11.01194,47.20217],[11.01163,47.20277],[11.01112,47.20473],[11.01083,47.20538],[11.01077,47.20674],[11.01091,47.20741],[11.01126,47.20802],[11.0116,47.20853],[11.01232,47.20909],[11.01268,47.20991]]}},{"type":"Feature","properties":{"kind":"piste","difficulty":"intermediate","name":null,"aerialway":null,"osm":"way/23548169"},"geometry":{"type":"LineString","coordinates":[[11.03894,47.20889],[11.038,47.20855],[11.03751,47.20858],[11.0366,47.20891],[11.0348,47.20874],[11.03413,47.20842],[11.03338,47.20828],[11.03191,47.20836]]}},{"type":"Feature","properties":{"kind":"piste","difficulty":"advanced","name":null,"aerialway":null,"osm":"way/23548171"},"geometry":{"type":"LineString","coordinates":[[11.03028,47.21048],[11.03131,47.21141],[11.0314,47.21188],[11.03054,47.21367],[11.03012,47.21541]]}},{"type":"Feature","properties":{"kind":"piste","difficulty":"advanced","name":null,"aerialway":null,"osm":"way/23548174"},"geometry":{"type":"LineString","coordinates":[[11.03505,47.20914],[11.03485,47.20987],[11.03552,47.21124],[11.03614,47.21323],[11.03606,47.21356],[11.03513,47.21436],[11.03347,47.21527],[11.033,47.21568],[11.03257,47.21584],[11.03189,47.21585],[11.03156,47.21635]]}},{"type":"Feature","properties":{"kind":"piste","difficulty":"intermediate","name":null,"aerialway":null,"osm":"way/23548261"},"geometry":{"type":"LineString","coordinates":[[11.02255,47.2156],[11.02243,47.21562],[11.02218,47.21537],[11.02243,47.21512],[11.0239,47.21422],[11.02415,47.21428]]}},{"type":"Feature","properties":{"kind":"piste","difficulty":"intermediate","name":null,"aerialway":null,"osm":"way/23548262"},"geometry":{"type":"LineString","coordinates":[[11.02255,47.2156],[11.02272,47.21572],[11.02282,47.21566],[11.0239,47.21473],[11.02406,47.21449],[11.0239,47.21422]]}},{"type":"Feature","properties":{"kind":"piste","difficulty":"easy","name":null,"aerialway":null,"osm":"way/37126031"},"geometry":{"type":"LineString","coordinates":[[11.01696,47.22615],[11.01737,47.22633],[11.01785,47.22632],[11.01929,47.22662],[11.02006,47.22658],[11.02122,47.22536],[11.02171,47.22514],[11.02194,47.22461],[11.02234,47.22417],[11.02321,47.22387]]}},{"type":"Feature","properties":{"kind":"piste","difficulty":"intermediate","name":null,"aerialway":null,"osm":"way/53048443"},"geometry":{"type":"LineString","coordinates":[[11.0176,47.21368],[11.01744,47.213],[11.01799,47.21258],[11.0181,47.2123],[11.01775,47.21192]]}},{"type":"Feature","properties":{"kind":"piste","difficulty":"intermediate","name":null,"aerialway":null,"osm":"way/53048444"},"geometry":{"type":"LineString","coordinates":[[11.0176,47.21368],[11.01447,47.21316],[11.01249,47.21258]]}},{"type":"Feature","properties":{"kind":"piste","difficulty":"intermediate","name":null,"aerialway":null,"osm":"way/53048445"},"geometry":{"type":"LineString","coordinates":[[11.01168,47.21184],[11.01073,47.21158],[11.0107,47.21172]]}},{"type":"Feature","properties":{"kind":"piste","difficulty":"intermediate","name":null,"aerialway":null,"osm":"way/53048446"},"geometry":{"type":"LineString","coordinates":[[11.01228,47.21237],[11.01219,47.21189]]}},{"type":"Feature","properties":{"kind":"piste","difficulty":"intermediate","name":null,"aerialway":null,"osm":"way/53048447"},"geometry":{"type":"LineString","coordinates":[[11.01219,47.21189],[11.0122,47.21173]]}},{"type":"Feature","properties":{"kind":"piste","difficulty":"intermediate","name":null,"aerialway":null,"osm":"way/53048451"},"geometry":{"type":"LineString","coordinates":[[11.0122,47.21173],[11.01211,47.21149]]}},{"type":"Feature","properties":{"kind":"piste","difficulty":"intermediate","name":null,"aerialway":null,"osm":"way/53049108"},"geometry":{"type":"LineString","coordinates":[[11.01577,47.2048],[11.01772,47.20493],[11.01818,47.20519],[11.01833,47.20584],[11.01817,47.20636],[11.01749,47.20706],[11.01766,47.20823],[11.01728,47.20885],[11.01674,47.20947],[11.01536,47.20994]]}},{"type":"Feature","properties":{"kind":"piste","difficulty":"intermediate","name":null,"aerialway":null,"osm":"way/53049109"},"geometry":{"type":"LineString","coordinates":[[11.01156,47.20307],[11.01301,47.20399]]}},{"type":"Feature","properties":{"kind":"piste","difficulty":"intermediate","name":null,"aerialway":null,"osm":"way/53049111"},"geometry":{"type":"LineString","coordinates":[[11.01445,47.21114],[11.01339,47.21097],[11.0125,47.21123]]}},{"type":"Feature","properties":{"kind":"piste","difficulty":"intermediate","name":null,"aerialway":null,"osm":"way/53049112"},"geometry":{"type":"LineString","coordinates":[[11.01303,47.2091],[11.01268,47.20991]]}},{"type":"Feature","properties":{"kind":"piste","difficulty":"easy","name":null,"aerialway":null,"osm":"way/53049113"},"geometry":{"type":"LineString","coordinates":[[11.0151,47.21153],[11.01497,47.21141]]}},{"type":"Feature","properties":{"kind":"piste","difficulty":"intermediate","name":"Kanonenrohr","aerialway":null,"osm":"way/53108720"},"geometry":{"type":"LineString","coordinates":[[11.02064,47.22082],[11.0201,47.21872],[11.02029,47.21805],[11.02081,47.21641],[11.02147,47.21574],[11.02222,47.21572]]}},{"type":"Feature","properties":{"kind":"piste","difficulty":"intermediate","name":"Falsches Kanonenrohr","aerialway":null,"osm":"way/53108721"},"geometry":{"type":"LineString","coordinates":[[11.02285,47.21944],[11.02322,47.21797],[11.02457,47.21636],[11.02478,47.21554]]}},{"type":"Feature","properties":{"kind":"piste","difficulty":"intermediate","name":null,"aerialway":null,"osm":"way/53108724"},"geometry":{"type":"LineString","coordinates":[[11.01749,47.2192],[11.01803,47.21835],[11.01829,47.21748],[11.018,47.21455],[11.0176,47.21368]]}},{"type":"Feature","properties":{"kind":"piste","difficulty":"intermediate","name":null,"aerialway":null,"osm":"way/53108725"},"geometry":{"type":"LineString","coordinates":[[11.01821,47.22241],[11.01863,47.22199],[11.0196,47.22153],[11.02064,47.22082]]}},{"type":"Feature","properties":{"kind":"piste","difficulty":"intermediate","name":"Falsches Kanonenrohr","aerialway":null,"osm":"way/53108726"},"geometry":{"type":"LineString","coordinates":[[11.02267,47.22127],[11.02285,47.21944]]}},{"type":"Feature","properties":{"kind":"piste","difficulty":"intermediate","name":null,"aerialway":null,"osm":"way/53108727"},"geometry":{"type":"LineString","coordinates":[[11.02465,47.22388],[11.02561,47.22175],[11.02572,47.22123],[11.02551,47.22075],[11.02498,47.22008],[11.02387,47.21931],[11.02285,47.21944]]}},{"type":"Feature","properties":{"kind":"piste","difficulty":"intermediate","name":null,"aerialway":null,"osm":"way/53116727"},"geometry":{"type":"LineString","coordinates":[[11.03097,47.20873],[11.02627,47.2107]]}},{"type":"Feature","properties":{"kind":"piste","difficulty":"intermediate","name":null,"aerialway":null,"osm":"way/53116728"},"geometry":{"type":"LineString","coordinates":[[11.01067,47.22597],[11.01068,47.22632],[11.011,47.22652],[11.01138,47.22653],[11.01244,47.22616],[11.01517,47.22476],[11.01722,47.22337],[11.01821,47.22241],[11.01743,47.22031],[11.01749,47.2192]]}},{"type":"Feature","properties":{"kind":"piste","difficulty":"intermediate","name":null,"aerialway":null,"osm":"way/53116730"},"geometry":{"type":"LineString","coordinates":[[11.01173,47.2049],[11.01196,47.20599],[11.01257,47.20727],[11.01319,47.20969],[11.01354,47.21059],[11.01381,47.21096]]}},{"type":"Feature","properties":{"kind":"piste","difficulty":"intermediate","name":null,"aerialway":null,"osm":"way/53116731"},"geometry":{"type":"LineString","coordinates":[[11.02627,47.2107],[11.02508,47.21139],[11.02467,47.21199],[11.02486,47.21338],[11.02542,47.214],[11.02568,47.21417],[11.02581,47.21412]]}},{"type":"Feature","properties":{"kind":"piste","difficulty":"intermediate","name":null,"aerialway":null,"osm":"way/53116733"},"geometry":{"type":"LineString","coordinates":[[11.02627,47.2107],[11.0216,47.21229],[11.02023,47.21244],[11.01942,47.21238],[11.01819,47.21202]]}},{"type":"Feature","properties":{"kind":"piste","difficulty":"intermediate","name":null,"aerialway":null,"osm":"way/53116734"},"geometry":{"type":"LineString","coordinates":[[11.03739,47.20425],[11.03615,47.20426],[11.03581,47.20444],[11.03569,47.20479],[11.0351,47.20521],[11.03365,47.20546],[11.03313,47.20542],[11.03242,47.20585],[11.03236,47.20617],[11.03257,47.20672],[11.03243,47.2072],[11.03097,47.20873]]}},{"type":"Feature","properties":{"kind":"piste","difficulty":"advanced","name":null,"aerialway":null,"osm":"way/53181943"},"geometry":{"type":"LineString","coordinates":[[11.03461,47.20868],[11.0322,47.20945],[11.03092,47.21001],[11.03028,47.21048],[11.02984,47.21149],[11.02948,47.21338],[11.02903,47.21473],[11.02925,47.215],[11.03079,47.21573],[11.03176,47.21648]]}},{"type":"Feature","properties":{"kind":"piste","difficulty":"intermediate","name":null,"aerialway":null,"osm":"way/53246417"},"geometry":{"type":"LineString","coordinates":[[11.01486,47.2044],[11.01549,47.20864],[11.01508,47.21023]]}},{"type":"Feature","properties":{"kind":"piste","difficulty":"intermediate","name":null,"aerialway":null,"osm":"way/53246418"},"geometry":{"type":"LineString","coordinates":[[11.01486,47.2113],[11.01497,47.21112]]}},{"type":"Feature","properties":{"kind":"piste","difficulty":"easy","name":null,"aerialway":null,"osm":"way/105331473"},"geometry":{"type":"LineString","coordinates":[[11.01244,47.22616],[11.01461,47.22611]]}},{"type":"Feature","properties":{"kind":"piste","difficulty":"intermediate","name":"Tiroler Abfahrt","aerialway":null,"osm":"way/105331478"},"geometry":{"type":"LineString","coordinates":[[11.01067,47.22597],[11.01078,47.22609],[11.01097,47.22595],[11.01111,47.22521],[11.01157,47.22471],[11.01389,47.22379],[11.0146,47.22319],[11.01464,47.22294],[11.01275,47.22075],[11.01254,47.22022],[11.01249,47.21974],[11.01274,47.21923],[11.01276,47.21879],[11.01226,47.21781],[11.01211,47.21506],[11.01129,47.21211],[11.01104,47.21163]]}},{"type":"Feature","properties":{"kind":"piste","difficulty":"intermediate","name":"Kanonenrohr","aerialway":null,"osm":"way/105335493"},"geometry":{"type":"LineString","coordinates":[[11.02161,47.21568],[11.02218,47.21537]]}},{"type":"Feature","properties":{"kind":"piste","difficulty":"intermediate","name":null,"aerialway":null,"osm":"way/105335495"},"geometry":{"type":"LineString","coordinates":[[11.01497,47.21052],[11.01438,47.21086],[11.01381,47.21096]]}},{"type":"Feature","properties":{"kind":"piste","difficulty":"intermediate","name":null,"aerialway":null,"osm":"way/105335496"},"geometry":{"type":"LineString","coordinates":[[11.02218,47.21537],[11.02181,47.21506],[11.02049,47.21467],[11.01856,47.21384],[11.0176,47.21368]]}},{"type":"Feature","properties":{"kind":"piste","difficulty":"intermediate","name":null,"aerialway":null,"osm":"way/159101109"},"geometry":{"type":"LineString","coordinates":[[11.01819,47.21202],[11.01602,47.21155],[11.0151,47.21153]]}},{"type":"Feature","properties":{"kind":"piste","difficulty":"intermediate","name":null,"aerialway":null,"osm":"way/159102862"},"geometry":{"type":"LineString","coordinates":[[11.02222,47.21572],[11.02239,47.21577]]}},{"type":"Feature","properties":{"kind":"piste","difficulty":"intermediate","name":null,"aerialway":null,"osm":"way/159102863"},"geometry":{"type":"LineString","coordinates":[[11.02239,47.21577],[11.02478,47.21554]]}},{"type":"Feature","properties":{"kind":"piste","difficulty":"intermediate","name":null,"aerialway":null,"osm":"way/159103591"},"geometry":{"type":"LineString","coordinates":[[11.01492,47.21136],[11.01445,47.21114]]}},{"type":"Feature","properties":{"kind":"piste","difficulty":"easy","name":null,"aerialway":null,"osm":"way/159103592"},"geometry":{"type":"LineString","coordinates":[[11.01497,47.21141],[11.01492,47.21136]]}},{"type":"Feature","properties":{"kind":"piste","difficulty":"easy","name":"Übungshang","aerialway":null,"osm":"way/446066801"},"geometry":{"type":"LineString","coordinates":[[11.0227,47.21454],[11.02309,47.21458],[11.02348,47.21447],[11.02348,47.21436]]}},{"type":"Feature","properties":{"kind":"piste","difficulty":"intermediate","name":"Abfahrtsvariante","aerialway":null,"osm":"way/1028649774"},"geometry":{"type":"LineString","coordinates":[[11.05475,47.17857],[11.05612,47.17863],[11.05887,47.17902],[11.05724,47.18014],[11.05793,47.18087],[11.05707,47.1823],[11.05784,47.18292],[11.05964,47.18337],[11.06109,47.18403]]}},{"type":"Feature","properties":{"kind":"piste","difficulty":"intermediate","name":"Abfahrtsvariante","aerialway":null,"osm":"way/1028649790"},"geometry":{"type":"LineString","coordinates":[[11.052,47.17371],[11.05344,47.17438],[11.05297,47.17712],[11.05428,47.1783],[11.05475,47.17857]]}},{"type":"Feature","properties":{"kind":"piste","difficulty":"expert","name":null,"aerialway":null,"osm":"way/1038305793"},"geometry":{"type":"LineString","coordinates":[[11.0388,47.20882],[11.03854,47.20936],[11.039,47.20997],[11.03904,47.21021],[11.0381,47.21087],[11.03691,47.2111],[11.03649,47.2113],[11.036,47.2119],[11.03587,47.21235]]}},{"type":"Feature","properties":{"kind":"piste","difficulty":"easy","name":null,"aerialway":null,"osm":"way/1039369961"},"geometry":{"type":"LineString","coordinates":[[11.01168,47.21184],[11.01138,47.21189]]}},{"type":"Feature","properties":{"kind":"piste","difficulty":"easy","name":"Skiweg","aerialway":null,"osm":"way/1039369962"},"geometry":{"type":"LineString","coordinates":[[11.01355,47.21454],[11.01637,47.2138],[11.01694,47.21339],[11.01709,47.21313],[11.01755,47.21292]]}},{"type":"Feature","properties":{"kind":"piste","difficulty":"advanced","name":null,"aerialway":null,"osm":"way/1039369963"},"geometry":{"type":"LineString","coordinates":[[11.02718,47.21034],[11.02658,47.21084],[11.02593,47.21176],[11.02547,47.21295],[11.02534,47.21362],[11.02542,47.214]]}},{"type":"Feature","properties":{"kind":"piste","difficulty":"intermediate","name":null,"aerialway":null,"osm":"way/1039369966"},"geometry":{"type":"LineString","coordinates":[[11.01211,47.20208],[11.01152,47.2021],[11.01034,47.20173],[11.0106,47.20259],[11.01118,47.20316],[11.0114,47.20371]]}},{"type":"Feature","properties":{"kind":"piste","difficulty":"intermediate","name":null,"aerialway":null,"osm":"way/1057671069"},"geometry":{"type":"LineString","coordinates":[[11.02937,47.20978],[11.02934,47.20964],[11.02902,47.20957]]}},{"type":"Feature","properties":{"kind":"piste","difficulty":"intermediate","name":null,"aerialway":null,"osm":"way/1057671070"},"geometry":{"type":"LineString","coordinates":[[11.02989,47.20921],[11.02975,47.20935],[11.02978,47.20978]]}},{"type":"Feature","properties":{"kind":"piste","difficulty":"advanced","name":null,"aerialway":null,"osm":"way/1057671071"},"geometry":{"type":"LineString","coordinates":[[11.02993,47.21009],[11.03028,47.21048]]}},{"type":"Feature","properties":{"kind":"piste","difficulty":"easy","name":null,"aerialway":null,"osm":"way/1057671074"},"geometry":{"type":"LineString","coordinates":[[11.02394,47.22364],[11.02449,47.22313]]}},{"type":"Feature","properties":{"kind":"piste","difficulty":"intermediate","name":null,"aerialway":null,"osm":"way/1057671075"},"geometry":{"type":"LineString","coordinates":[[11.02321,47.22387],[11.02394,47.22364]]}},{"type":"Feature","properties":{"kind":"piste","difficulty":"intermediate","name":null,"aerialway":null,"osm":"way/1057671076"},"geometry":{"type":"LineString","coordinates":[[11.02449,47.22313],[11.02509,47.2228]]}},{"type":"Feature","properties":{"kind":"piste","difficulty":"novice","name":"KühTeppich-Übungshang","aerialway":null,"osm":"way/1149651441"},"geometry":{"type":"LineString","coordinates":[[11.02766,47.21635],[11.02874,47.21627],[11.03035,47.21654]]}},{"type":"Feature","properties":{"kind":"piste","difficulty":"intermediate","name":null,"aerialway":null,"osm":"way/1173394393"},"geometry":{"type":"LineString","coordinates":[[11.0244,47.21659],[11.02487,47.21648],[11.02894,47.21664],[11.0311,47.21696],[11.0315,47.2168]]}},{"type":"Feature","properties":{"kind":"piste","difficulty":"intermediate","name":null,"aerialway":null,"osm":"way/1173394395"},"geometry":{"type":"LineString","coordinates":[[11.01471,47.21156],[11.0122,47.21144]]}},{"type":"Feature","properties":{"kind":"piste","difficulty":"intermediate","name":null,"aerialway":null,"osm":"way/1173394396"},"geometry":{"type":"LineString","coordinates":[[11.01206,47.2114],[11.01204,47.21127]]}},{"type":"Feature","properties":{"kind":"piste","difficulty":"intermediate","name":null,"aerialway":null,"osm":"way/1173394398"},"geometry":{"type":"LineString","coordinates":[[11.02463,47.21126],[11.0243,47.21214],[11.02431,47.21317],[11.02449,47.21368]]}},{"type":"Feature","properties":{"kind":"piste","difficulty":"advanced","name":null,"aerialway":null,"osm":"way/1173394401"},"geometry":{"type":"LineString","coordinates":[[11.0355,47.20881],[11.03488,47.20932],[11.03171,47.21577],[11.03134,47.21615]]}},{"type":"Feature","properties":{"kind":"piste","difficulty":"novice","name":"KühTeppich-Übungshang","aerialway":null,"osm":"way/1240497010"},"geometry":{"type":"LineString","coordinates":[[11.02766,47.21635],[11.02894,47.21664],[11.03035,47.21654]]}},{"type":"Feature","properties":{"kind":"piste","difficulty":"novice","name":null,"aerialway":null,"osm":"way/1240497011"},"geometry":{"type":"LineString","coordinates":[[11.02766,47.21635],[11.02668,47.21612]]}},{"type":"Feature","properties":{"kind":"piste","difficulty":"easy","name":null,"aerialway":null,"osm":"way/1260836017"},"geometry":{"type":"LineString","coordinates":[[11.0122,47.21144],[11.01211,47.21149]]}},{"type":"Feature","properties":{"kind":"piste","difficulty":"intermediate","name":null,"aerialway":null,"osm":"way/1260836018"},"geometry":{"type":"LineString","coordinates":[[11.0122,47.21144],[11.01206,47.2114]]}},{"type":"Feature","properties":{"kind":"piste","difficulty":"easy","name":null,"aerialway":null,"osm":"way/1260836019"},"geometry":{"type":"LineString","coordinates":[[11.01072,47.21148],[11.0109,47.21131]]}},{"type":"Feature","properties":{"kind":"piste","difficulty":"easy","name":null,"aerialway":null,"osm":"way/1260836020"},"geometry":{"type":"LineString","coordinates":[[11.01073,47.21158],[11.01072,47.21148]]}},{"type":"Feature","properties":{"kind":"piste","difficulty":"easy","name":null,"aerialway":null,"osm":"way/1260836021"},"geometry":{"type":"LineString","coordinates":[[11.0109,47.21131],[11.0115,47.21139]]}},{"type":"Feature","properties":{"kind":"piste","difficulty":"easy","name":null,"aerialway":null,"osm":"way/1260836022"},"geometry":{"type":"LineString","coordinates":[[11.0115,47.21139],[11.01211,47.21149]]}},{"type":"Feature","properties":{"kind":"piste","difficulty":"intermediate","name":null,"aerialway":null,"osm":"way/1260836049"},"geometry":{"type":"LineString","coordinates":[[11.01233,47.21135],[11.0122,47.21144]]}},{"type":"Feature","properties":{"kind":"piste","difficulty":"easy","name":null,"aerialway":null,"osm":"way/1260836050"},"geometry":{"type":"LineString","coordinates":[[11.0125,47.21123],[11.01233,47.21135]]}},{"type":"Feature","properties":{"kind":"piste","difficulty":"easy","name":null,"aerialway":null,"osm":"way/1380173565"},"geometry":{"type":"LineString","coordinates":[[11.01384,47.21443],[11.01292,47.21304],[11.01168,47.21184]]}},{"type":"Feature","properties":{"kind":"piste","difficulty":"intermediate","name":null,"aerialway":null,"osm":"way/1382318018"},"geometry":{"type":"LineString","coordinates":[[11.02478,47.21554],[11.02509,47.21553],[11.02567,47.21485]]}},{"type":"Feature","properties":{"kind":"piste","difficulty":"intermediate","name":null,"aerialway":null,"osm":"way/1382318019"},"geometry":{"type":"LineString","coordinates":[[11.0114,47.20371],[11.01173,47.2049]]}},{"type":"Feature","properties":{"kind":"piste","difficulty":"intermediate","name":null,"aerialway":null,"osm":"way/1382318020"},"geometry":{"type":"LineString","coordinates":[[11.01268,47.20991],[11.01291,47.21049],[11.01287,47.21084],[11.0125,47.21123]]}},{"type":"Feature","properties":{"kind":"piste","difficulty":"intermediate","name":null,"aerialway":null,"osm":"way/1382318021"},"geometry":{"type":"LineString","coordinates":[[11.01438,47.21086],[11.01474,47.21095],[11.01486,47.2113]]}},{"type":"Feature","properties":{"kind":"piste","difficulty":"intermediate","name":"Abfahrtsvariante","aerialway":null,"osm":"way/1468706921"},"geometry":{"type":"LineString","coordinates":[[11.05249,47.17848],[11.05475,47.17857]]}},{"type":"Feature","properties":{"kind":"lift","difficulty":null,"name":"HochAlterBahn","aerialway":"chair_lift","osm":"way/23362764"},"geometry":{"type":"LineString","coordinates":[[11.0259,47.21497],[11.02761,47.23019]]}},{"type":"Feature","properties":{"kind":"lift","difficulty":null,"name":"Wiesbergbahn","aerialway":"chair_lift","osm":"way/23362765"},"geometry":{"type":"LineString","coordinates":[[11.02581,47.21412],[11.02937,47.20978]]}},{"type":"Feature","properties":{"kind":"lift","difficulty":null,"name":"StartBahn","aerialway":"chair_lift","osm":"way/23362767"},"geometry":{"type":"LineString","coordinates":[[11.02415,47.21428],[11.02255,47.2156]]}},{"type":"Feature","properties":{"kind":"lift","difficulty":null,"name":"Schwarzmooslift","aerialway":"t-bar","osm":"way/23362771"},"geometry":{"type":"LineString","coordinates":[[11.02072,47.22126],[11.01167,47.22786]]}},{"type":"Feature","properties":{"kind":"lift","difficulty":null,"name":"Sonnenlift","aerialway":"t-bar","osm":"way/23362773"},"geometry":{"type":"LineString","coordinates":[[11.01128,47.21176],[11.01428,47.21544]]}},{"type":"Feature","properties":{"kind":"lift","difficulty":null,"name":"DreiSeenBahn","aerialway":"chair_lift","osm":"way/23362775"},"geometry":{"type":"LineString","coordinates":[[11.01516,47.21175],[11.03923,47.20494]]}},{"type":"Feature","properties":{"kind":"lift","difficulty":null,"name":"Alpenrosenlift","aerialway":"t-bar","osm":"way/23362777"},"geometry":{"type":"LineString","coordinates":[[11.01497,47.21112],[11.01303,47.2035]]}},{"type":"Feature","properties":{"kind":"lift","difficulty":null,"name":"HoheMutBahn","aerialway":"chair_lift","osm":"way/23362778"},"geometry":{"type":"LineString","coordinates":[[11.01204,47.21127],[11.01222,47.2008]]}},{"type":"Feature","properties":{"kind":"lift","difficulty":null,"name":"KaiserBahn","aerialway":"gondola","osm":"way/37126033"},"geometry":{"type":"LineString","coordinates":[[11.0107,47.21172],[11.01067,47.22597]]}},{"type":"Feature","properties":{"kind":"lift","difficulty":null,"name":"Wunderteppich","aerialway":"magic_carpet","osm":"way/446057873"},"geometry":{"type":"LineString","coordinates":[[11.02348,47.21436],[11.0227,47.21454]]}},{"type":"Feature","properties":{"kind":"lift","difficulty":null,"name":"GaisKogelBahn","aerialway":"chair_lift","osm":"way/823527287"},"geometry":{"type":"LineString","coordinates":[[11.03176,47.21648],[11.03894,47.20889]]}},{"type":"Feature","properties":{"kind":"lift","difficulty":null,"name":"KühTeppich","aerialway":"magic_carpet","osm":"way/1149651440"},"geometry":{"type":"LineString","coordinates":[[11.03035,47.21654],[11.02766,47.21635]]}},{"type":"Feature","properties":{"kind":"lift","difficulty":null,"name":null,"aerialway":"magic_carpet","osm":"way/1316808630"},"geometry":{"type":"LineString","coordinates":[[11.02427,47.21491],[11.02396,47.21498]]}}]}