{"type":"FeatureCollection","features":[{"type":"Feature","properties":{"kind":"lift","difficulty":null,"name":"Jöchelspitzbahn","aerialway":"gondola","osm":"way/30477553"},"geometry":{"type":"LineString","coordinates":[[10.38334,47.26773],[10.36505,47.27477]]}},{"type":"Feature","properties":{"kind":"lift","difficulty":null,"name":"Babylift Jöchelspitze","aerialway":"rope_tow","osm":"way/200680959"},"geometry":{"type":"LineString","coordinates":[[10.38522,47.26845],[10.38458,47.26848]]}},{"type":"Feature","properties":{"kind":"piste","difficulty":"intermediate","name":null,"aerialway":null,"osm":"way/200682987"},"geometry":{"type":"LineString","coordinates":[[10.3669,47.27468],[10.36717,47.27448],[10.36851,47.27426],[10.36952,47.27389],[10.37063,47.27298],[10.37273,47.2726],[10.37405,47.2725],[10.37427,47.27218],[10.37371,47.2716],[10.37372,47.27148],[10.37546,47.27076],[10.37568,47.27041],[10.37543,47.26992],[10.37489,47.2695],[10.37508,47.26863],[10.37557,47.26839],[10.37657,47.26821],[10.378,47.26863]]}},{"type":"Feature","properties":{"kind":"piste","difficulty":"easy","name":null,"aerialway":null,"osm":"way/554714932"},"geometry":{"type":"LineString","coordinates":[[10.36505,47.27477],[10.36499,47.27488],[10.36574,47.27494],[10.36684,47.27471],[10.36708,47.27429],[10.36674,47.27362],[10.36678,47.27332],[10.36713,47.27311],[10.36836,47.27323],[10.36859,47.27313],[10.3681,47.27218],[10.36904,47.27193],[10.36913,47.27169],[10.36894,47.27142],[10.36733,47.2703],[10.36724,47.27008],[10.36808,47.26895],[10.3685,47.26797],[10.36999,47.26714],[10.37076,47.26696],[10.37122,47.26704],[10.37237,47.26784],[10.37461,47.26866],[10.37561,47.26939],[10.37716,47.27001],[10.37841,47.27032],[10.37851,47.27024],[10.37772,47.26886],[10.37782,47.26868],[10.37971,47.26853],[10.38187,47.26883],[10.38298,47.26879],[10.3839,47.26849],[10.38386,47.2681],[10.38345,47.26792],[10.38334,47.26773]]}},{"type":"Feature","properties":{"kind":"piste","difficulty":"intermediate","name":null,"aerialway":null,"osm":"way/554714933"},"geometry":{"type":"LineString","coordinates":[[10.37567,47.27044],[10.37631,47.26997],[10.3769,47.26992]]}},{"type":"Feature","properties":{"kind":"piste","difficulty":"easy","name":null,"aerialway":null,"osm":"way/692345680"},"geometry":{"type":"LineString","coordinates":[[10.3661,47.2749],[10.36594,47.27442],[10.36612,47.27348],[10.36662,47.27317],[10.36713,47.27311]]}},{"type":"Feature","properties":{"kind":"piste","difficulty":"intermediate","name":null,"aerialway":null,"osm":"way/1102754290"},"geometry":{"type":"LineString","coordinates":[[10.36828,47.27322],[10.36951,47.27346],[10.3701,47.27338]]}},{"type":"Feature","properties":{"kind":"piste","difficulty":"easy","name":null,"aerialway":null,"osm":"way/1425922531"},"geometry":{"type":"LineString","coordinates":[[10.36707,47.27424],[10.36728,47.27353],[10.36759,47.2732],[10.36778,47.27317]]}},{"type":"Feature","properties":{"kind":"piste","difficulty":"intermediate","name":null,"aerialway":null,"osm":"way/1425922532"},"geometry":{"type":"LineString","coordinates":[[10.37395,47.26841],[10.37468,47.26856],[10.37557,47.26839]]}},{"type":"Feature","properties":{"kind":"piste","difficulty":"easy","name":null,"aerialway":null,"osm":"way/1426160148"},"geometry":{"type":"LineString","coordinates":[[10.36505,47.27477],[10.36464,47.27477]]}},{"type":"Feature","properties":{"kind":"piste","difficulty":"easy","name":null,"aerialway":null,"osm":"relation/19540875"},"geometry":{"type":"MultiLineString","coordinates":[[[10.36583,47.27433],[10.36593,47.27479],[10.36502,47.27486],[10.36477,47.27468],[10.36465,47.27476],[10.36469,47.2749],[10.36604,47.27507],[10.36725,47.2748],[10.36736,47.27447],[10.36716,47.27403],[10.36746,47.27359],[10.36775,47.2734],[10.36878,47.27326],[10.36836,47.27259],[10.36836,47.27237],[10.36943,47.27194],[10.36949,47.27165],[10.36821,47.27086],[10.36744,47.2702],[10.3687,47.26802],[10.37046,47.26713],[10.37102,47.26714],[10.37221,47.26793],[10.37486,47.26885],[10.37546,47.26937],[10.37632,47.2698],[10.37761,47.27024],[10.37853,47.2704],[10.37862,47.2703],[10.37801,47.26929],[10.37801,47.26882],[10.37904,47.2687],[10.38235,47.26899],[10.38464,47.26849],[10.3841,47.26825],[10.38413,47.26789],[10.3835,47.26791],[10.38346,47.26776],[10.38336,47.26784],[10.38368,47.26815],[10.38366,47.26849],[10.38275,47.26872],[10.37997,47.26835],[10.37773,47.26851],[10.37752,47.26862],[10.37745,47.26885],[10.37799,47.26945],[10.37837,47.27023],[10.37558,47.26932],[10.37471,47.26862],[10.37238,47.26768],[10.37143,47.26693],[10.37029,47.26683],[10.36817,47.26801],[10.36802,47.26879],[10.367,47.2701],[10.36706,47.27027],[10.3688,47.27148],[10.36881,47.27188],[10.36805,47.27185],[10.36769,47.27206],[10.36793,47.27242],[10.36847,47.27285],[10.3685,47.27308],[10.36715,47.2729],[10.36635,47.2732],[10.36601,47.27345],[10.36583,47.27433]],[[10.36621,47.27472],[10.36606,47.27451],[10.36612,47.2738],[10.36622,47.2735],[10.36656,47.27327],[10.36643,47.27353],[10.36667,47.27383],[10.36681,47.27441],[10.36621,47.27472]],[[10.36708,47.27389],[10.3669,47.27369],[10.36692,47.27346],[10.36726,47.27334],[10.36709,47.27349],[10.36708,47.27389]]]}},{"type":"Feature","properties":{"kind":"piste","difficulty":"intermediate","name":null,"aerialway":null,"osm":"relation/19540876"},"geometry":{"type":"MultiLineString","coordinates":[[[10.37516,47.26903],[10.37535,47.26869],[10.37598,47.26843],[10.37699,47.26844],[10.37746,47.26873],[10.37761,47.26856],[10.37799,47.26846],[10.3766,47.26801],[10.37521,47.26832],[10.37384,47.26827],[10.37471,47.26862],[10.37516,47.26903]],[[10.37586,47.27038],[10.37562,47.27082],[10.37428,47.27144],[10.37378,47.27155],[10.37433,47.27219],[10.37413,47.27261],[10.37214,47.27279],[10.3707,47.27308],[10.36969,47.27398],[10.36725,47.2748],[10.36736,47.27447],[10.36716,47.27403],[10.36776,47.2742],[10.36859,47.27412],[10.3697,47.27354],[10.36826,47.27337],[10.36879,47.27324],[10.36987,47.27338],[10.3706,47.27282],[10.37418,47.27231],[10.37422,47.27218],[10.37351,47.27146],[10.37421,47.27106],[10.37533,47.27069],[10.37559,47.27031],[10.3754,47.26994],[10.37487,47.26952],[10.37486,47.26885],[10.37508,47.26904],[10.37495,47.26955],[10.37533,47.26977],[10.3757,47.27021],[10.37632,47.2698],[10.37677,47.26997],[10.37586,47.27038]]]}}]}