{"type":"FeatureCollection","features":[{"type":"Feature","properties":{"kind":"lift","difficulty":null,"name":"Wildspitze","aerialway":"chair_lift","osm":"way/26950678"},"geometry":{"type":"LineString","coordinates":[[10.915,46.8602],[10.90425,46.86388]]}},{"type":"Feature","properties":{"kind":"lift","difficulty":null,"name":"Gampenlift","aerialway":"t-bar","osm":"way/48065824"},"geometry":{"type":"LineString","coordinates":[[10.91546,46.8597],[10.91735,46.85848]]}},{"type":"Feature","properties":{"kind":"lift","difficulty":null,"name":"Ochsenkopflift","aerialway":"t-bar","osm":"way/48066727"},"geometry":{"type":"LineString","coordinates":[[10.91166,46.85674],[10.91185,46.85294]]}},{"type":"Feature","properties":{"kind":"lift","difficulty":null,"name":"Wildes Mannle","aerialway":"chair_lift","osm":"way/48068253"},"geometry":{"type":"LineString","coordinates":[[10.90349,46.86342],[10.89282,46.86677]]}},{"type":"Feature","properties":{"kind":"piste","difficulty":"intermediate","name":null,"aerialway":null,"osm":"way/507947656"},"geometry":{"type":"LineString","coordinates":[[10.90447,46.86381],[10.90417,46.86382],[10.90397,46.86366],[10.90478,46.86358],[10.90557,46.86385],[10.90606,46.86415],[10.90689,46.86519],[10.90709,46.8652],[10.9072,46.86505],[10.90731,46.86389],[10.90663,46.86283],[10.90603,46.86215],[10.90852,46.8632],[10.90898,46.86369],[10.91101,46.86366],[10.91181,46.86416],[10.91239,46.86495],[10.91271,46.86486],[10.91301,46.86378],[10.91322,46.86383],[10.91389,46.8645],[10.91412,46.86449],[10.91439,46.86432],[10.91462,46.86385],[10.91477,46.8631],[10.91396,46.86156],[10.91354,46.86016],[10.91388,46.86003],[10.91454,46.86042],[10.91488,46.86035],[10.915,46.8602]]}},{"type":"Feature","properties":{"kind":"piste","difficulty":"intermediate","name":null,"aerialway":null,"osm":"way/507947676"},"geometry":{"type":"LineString","coordinates":[[10.89282,46.86677],[10.89274,46.86662],[10.89323,46.86641],[10.89515,46.86593],[10.898,46.86499],[10.89897,46.86476],[10.90066,46.86468],[10.90197,46.86436],[10.90397,46.86366],[10.90371,46.8634],[10.90349,46.86342]]}},{"type":"Feature","properties":{"kind":"piste","difficulty":"easy","name":null,"aerialway":null,"osm":"way/507947682"},"geometry":{"type":"LineString","coordinates":[[10.89323,46.86641],[10.8933,46.86606],[10.89298,46.86596],[10.892,46.866],[10.89007,46.86646],[10.8898,46.86637],[10.88978,46.86625],[10.88998,46.86602],[10.89176,46.86499],[10.89305,46.86449],[10.89682,46.86447],[10.89981,46.86478],[10.90104,46.86518],[10.90234,46.86609],[10.9023,46.8657],[10.90276,46.86496],[10.90353,46.86462],[10.90392,46.86465],[10.90371,46.86406]]}},{"type":"Feature","properties":{"kind":"piste","difficulty":"easy","name":null,"aerialway":null,"osm":"way/507947686"},"geometry":{"type":"LineString","coordinates":[[10.89282,46.86677],[10.89277,46.86685],[10.89295,46.86694],[10.89386,46.86704],[10.89474,46.86699],[10.89733,46.86723],[10.89779,46.86692],[10.89868,46.8657],[10.89994,46.86534],[10.90172,46.86529],[10.90237,46.86515],[10.90319,46.86473],[10.90397,46.86366]]}},{"type":"Feature","properties":{"kind":"piste","difficulty":"easy","name":"5a","aerialway":null,"osm":"way/507947690"},"geometry":{"type":"LineString","coordinates":[[10.91183,46.85325],[10.91149,46.85351],[10.91134,46.85561],[10.91141,46.85646],[10.91166,46.85674]]}},{"type":"Feature","properties":{"kind":"piste","difficulty":"easy","name":"5b","aerialway":null,"osm":"way/507947694"},"geometry":{"type":"LineString","coordinates":[[10.91183,46.85325],[10.91206,46.85331],[10.9122,46.85353],[10.91237,46.85405],[10.91228,46.85418],[10.91066,46.85454],[10.90939,46.85431],[10.90857,46.85437],[10.90973,46.85472],[10.91179,46.85612],[10.91144,46.85649]]}},{"type":"Feature","properties":{"kind":"piste","difficulty":"easy","name":"5","aerialway":null,"osm":"way/507947699"},"geometry":{"type":"LineString","coordinates":[[10.91228,46.85418],[10.91214,46.85442],[10.91209,46.85511],[10.91135,46.85582]]}},{"type":"Feature","properties":{"kind":"piste","difficulty":"easy","name":"4","aerialway":null,"osm":"way/507947702"},"geometry":{"type":"LineString","coordinates":[[10.91701,46.85871],[10.91618,46.85895],[10.91569,46.85931],[10.91546,46.8597]]}},{"type":"Feature","properties":{"kind":"piste","difficulty":"easy","name":"4","aerialway":null,"osm":"way/507947705"},"geometry":{"type":"LineString","coordinates":[[10.91701,46.85871],[10.91701,46.85894],[10.91688,46.85905],[10.91546,46.8597]]}},{"type":"Feature","properties":{"kind":"piste","difficulty":"easy","name":"4","aerialway":null,"osm":"way/507947709"},"geometry":{"type":"LineString","coordinates":[[10.91701,46.85871],[10.91724,46.85909],[10.91697,46.85955],[10.91546,46.8597]]}},{"type":"Feature","properties":{"kind":"piste","difficulty":"intermediate","name":null,"aerialway":null,"osm":"way/1270687448"},"geometry":{"type":"LineString","coordinates":[[10.90887,46.86359],[10.90932,46.86411],[10.91031,46.86472],[10.91068,46.86455],[10.91055,46.86363]]}},{"type":"Feature","properties":{"kind":"piste","difficulty":"intermediate","name":null,"aerialway":null,"osm":"way/1270687449"},"geometry":{"type":"LineString","coordinates":[[10.90905,46.86389],[10.90955,46.86455],[10.91088,46.86552],[10.91122,46.86558],[10.91068,46.86455]]}},{"type":"Feature","properties":{"kind":"piste","difficulty":"intermediate","name":null,"aerialway":null,"osm":"way/1270687450"},"geometry":{"type":"LineString","coordinates":[[10.89282,46.86677],[10.8931,46.86687],[10.89887,46.86509],[10.90066,46.86468]]}},{"type":"Feature","properties":{"kind":"piste","difficulty":"easy","name":null,"aerialway":null,"osm":"way/1270687451"},"geometry":{"type":"LineString","coordinates":[[10.89282,46.86677],[10.89251,46.86666],[10.89249,46.86651],[10.89272,46.8663],[10.89329,46.86614],[10.89419,46.86614]]}}]}