{"type":"FeatureCollection","features":[{"type":"Feature","properties":{"kind":"piste","difficulty":"easy","name":null,"aerialway":null,"osm":"way/1446954393"},"geometry":{"type":"LineString","coordinates":[[9.95071,47.37017],[9.95052,47.3698],[9.94953,47.36917],[9.94896,47.36885],[9.94863,47.36885]]}},{"type":"Feature","properties":{"kind":"piste","difficulty":"easy","name":null,"aerialway":null,"osm":"way/1446954394"},"geometry":{"type":"LineString","coordinates":[[9.95066,47.37011],[9.94862,47.36884],[9.94912,47.36887],[9.9504,47.36959],[9.95076,47.36988],[9.95079,47.3701],[9.95066,47.37011]]}},{"type":"Feature","properties":{"kind":"lift","difficulty":null,"name":"Hüttenlift","aerialway":"t-bar","osm":"way/901667777"},"geometry":{"type":"LineString","coordinates":[[9.94859,47.36883],[9.95091,47.37029]]}},{"type":"Feature","properties":{"kind":"lift","difficulty":null,"name":"Seilbahn Bezau","aerialway":"cable_car","osm":"way/9195709"},"geometry":{"type":"LineString","coordinates":[[9.92064,47.3855],[9.93721,47.39918]]}},{"type":"Feature","properties":{"kind":"lift","difficulty":null,"name":"Tellerlift Niederekopf","aerialway":"platter","osm":"way/143573395"},"geometry":{"type":"LineString","coordinates":[[9.9457,47.40081],[9.94536,47.39917]]}},{"type":"Feature","properties":{"kind":"lift","difficulty":null,"name":"Doppelschlepplifte Niederemulde","aerialway":"t-bar","osm":"way/143573396"},"geometry":{"type":"LineString","coordinates":[[9.93799,47.40155],[9.94702,47.40113]]}},{"type":"Feature","properties":{"kind":"lift","difficulty":null,"name":"Doppelschlepplifte Niederemulde","aerialway":"t-bar","osm":"way/337698254"},"geometry":{"type":"LineString","coordinates":[[9.93799,47.40151],[9.94702,47.40109]]}},{"type":"Feature","properties":{"kind":"piste","difficulty":"easy","name":"Mulde","aerialway":null,"osm":"way/426021677"},"geometry":{"type":"LineString","coordinates":[[9.94612,47.40104],[9.94168,47.40093],[9.93983,47.40126],[9.9382,47.40137],[9.93808,47.4015]]}},{"type":"Feature","properties":{"kind":"piste","difficulty":"easy","name":"Mulde","aerialway":null,"osm":"way/426021678"},"geometry":{"type":"LineString","coordinates":[[9.94629,47.40117],[9.94613,47.4013],[9.9438,47.40167],[9.94216,47.40157],[9.93933,47.40165],[9.93809,47.40154]]}},{"type":"Feature","properties":{"kind":"piste","difficulty":"advanced","name":"Niederekopf","aerialway":null,"osm":"way/426021685"},"geometry":{"type":"LineString","coordinates":[[9.94522,47.39926],[9.94362,47.3998],[9.94191,47.40093]]}},{"type":"Feature","properties":{"kind":"piste","difficulty":"easy","name":"Schiweg","aerialway":null,"osm":"way/426021686"},"geometry":{"type":"LineString","coordinates":[[9.94546,47.39965],[9.94502,47.39909],[9.94105,47.39872],[9.93956,47.39875],[9.93747,47.39924]]}},{"type":"Feature","properties":{"kind":"piste","difficulty":"easy","name":"Schiweg","aerialway":null,"osm":"way/426021687"},"geometry":{"type":"LineString","coordinates":[[9.93747,47.39924],[9.93903,47.39918],[9.94058,47.39959],[9.94166,47.40019],[9.94181,47.40061],[9.94168,47.40093]]}},{"type":"Feature","properties":{"kind":"piste","difficulty":"intermediate","name":"Niederekopf - Sonderdach","aerialway":null,"osm":"way/426021690"},"geometry":{"type":"LineString","coordinates":[[9.94502,47.39909],[9.94463,47.39862],[9.94423,47.39672],[9.94433,47.39436],[9.94382,47.39371],[9.94256,47.39287],[9.94218,47.39278],[9.93594,47.39301],[9.93557,47.39308],[9.93519,47.39344],[9.93433,47.39359],[9.9301,47.3932],[9.92979,47.39314],[9.92968,47.39297]]}},{"type":"Feature","properties":{"kind":"piste","difficulty":"intermediate","name":null,"aerialway":null,"osm":"way/1416895153"},"geometry":{"type":"LineString","coordinates":[[9.94613,47.4013],[9.94501,47.40206],[9.94353,47.40269],[9.9411,47.40317],[9.9392,47.40295],[9.9392,47.40284],[9.93998,47.40224],[9.93992,47.402],[9.93933,47.40165]]}},{"type":"Feature","properties":{"kind":"piste","difficulty":"easy","name":null,"aerialway":null,"osm":"way/1416895154"},"geometry":{"type":"LineString","coordinates":[[9.94412,47.40245],[9.94314,47.40227],[9.9412,47.40158]]}},{"type":"Feature","properties":{"kind":"piste","difficulty":"easy","name":null,"aerialway":null,"osm":"way/1456381396"},"geometry":{"type":"LineString","coordinates":[[9.93963,47.40305],[9.93957,47.40289],[9.94136,47.40217],[9.94155,47.40193],[9.94141,47.40165]]}},{"type":"Feature","properties":{"kind":"piste","difficulty":"intermediate","name":null,"aerialway":null,"osm":"way/1456381397"},"geometry":{"type":"LineString","coordinates":[[9.94563,47.40147],[9.94632,47.40138],[9.9452,47.4021],[9.94226,47.40304],[9.94061,47.40327],[9.93901,47.40296],[9.93967,47.40245],[9.93987,47.40211],[9.93975,47.40192],[9.93912,47.40171],[9.93973,47.40173],[9.94022,47.40213],[9.94015,47.40233],[9.93935,47.40289],[9.94086,47.403],[9.94343,47.40249],[9.94563,47.40147]]}},{"type":"Feature","properties":{"kind":"piste","difficulty":"easy","name":null,"aerialway":null,"osm":"way/1456381398"},"geometry":{"type":"LineString","coordinates":[[9.94376,47.40229],[9.94319,47.40221],[9.94155,47.40162],[9.94093,47.40164],[9.94327,47.40249],[9.94376,47.40229]]}},{"type":"Feature","properties":{"kind":"piste","difficulty":"easy","name":null,"aerialway":null,"osm":"way/1456381399"},"geometry":{"type":"LineString","coordinates":[[9.94632,47.40138],[9.94637,47.4012],[9.94482,47.40134],[9.94368,47.40159],[9.94201,47.40145],[9.93806,47.40156],[9.93839,47.40171],[9.94196,47.40159],[9.94388,47.40176],[9.94632,47.40138]]}},{"type":"Feature","properties":{"kind":"piste","difficulty":"easy","name":null,"aerialway":null,"osm":"way/1456381400"},"geometry":{"type":"LineString","coordinates":[[9.93962,47.4029],[9.94114,47.40235],[9.94157,47.40187],[9.9411,47.40231],[9.93962,47.4029]]}},{"type":"Feature","properties":{"kind":"piste","difficulty":"easy","name":null,"aerialway":null,"osm":"way/1456381401"},"geometry":{"type":"LineString","coordinates":[[9.94546,47.39969],[9.9453,47.39909],[9.94542,47.39907],[9.94552,47.39924],[9.94548,47.39969],[9.94571,47.39955],[9.94577,47.39931],[9.94564,47.39905],[9.94544,47.39896],[9.94477,47.3989],[9.94436,47.39906],[9.94012,47.39864],[9.93757,47.39912],[9.93714,47.3993],[9.93726,47.3994],[9.93876,47.39918],[9.94036,47.39953],[9.94159,47.40014],[9.94177,47.40048],[9.94157,47.40089],[9.94184,47.40087],[9.9418,47.40032],[9.94149,47.39999],[9.94077,47.39964],[9.93899,47.39916],[9.93779,47.39917],[9.94023,47.39871],[9.94486,47.39919],[9.94546,47.39969]]}},{"type":"Feature","properties":{"kind":"piste","difficulty":"easy","name":"Mulde","aerialway":null,"osm":"way/1456381402"},"geometry":{"type":"LineString","coordinates":[[9.94627,47.40112],[9.9457,47.40081]]}},{"type":"Feature","properties":{"kind":"piste","difficulty":"easy","name":null,"aerialway":null,"osm":"way/1456381403"},"geometry":{"type":"LineString","coordinates":[[9.94634,47.4011],[9.93805,47.40149],[9.93815,47.40123],[9.93947,47.4012],[9.94004,47.40103],[9.94234,47.40084],[9.94549,47.40097],[9.94585,47.40077],[9.94634,47.4011]]}},{"type":"Feature","properties":{"kind":"piste","difficulty":"easy","name":null,"aerialway":null,"osm":"way/1456381404"},"geometry":{"type":"LineString","coordinates":[[9.94157,47.40089],[9.93978,47.40054],[9.93878,47.40055],[9.93854,47.40067],[9.93853,47.40122],[9.93868,47.40122],[9.93863,47.40083],[9.93877,47.40075],[9.93985,47.4008],[9.94004,47.40089],[9.94004,47.40103],[9.94157,47.40089]]}},{"type":"Feature","properties":{"kind":"piste","difficulty":"easy","name":null,"aerialway":null,"osm":"way/1456381405"},"geometry":{"type":"LineString","coordinates":[[9.94139,47.40098],[9.9398,47.40071],[9.93875,47.40068],[9.9386,47.40075],[9.93863,47.40116],[9.93847,47.40135]]}},{"type":"Feature","properties":{"kind":"piste","difficulty":"advanced","name":null,"aerialway":null,"osm":"way/1456381406"},"geometry":{"type":"LineString","coordinates":[[9.94519,47.39938],[9.94381,47.39979],[9.94222,47.40082],[9.94184,47.40087],[9.9424,47.40029],[9.94334,47.39976],[9.94487,47.3992],[9.94519,47.39938]]}},{"type":"Feature","properties":{"kind":"piste","difficulty":"easy","name":null,"aerialway":null,"osm":"way/1456381407"},"geometry":{"type":"LineString","coordinates":[[9.94546,47.39965],[9.94567,47.39945],[9.94559,47.39913],[9.94536,47.39901],[9.94502,47.39909]]}}]}