{"type":"FeatureCollection","features":[{"type":"Feature","properties":{"kind":"piste","difficulty":"easy","name":null,"aerialway":null,"osm":"way/1073992765"},"geometry":{"type":"LineString","coordinates":[[12.35972,47.26983],[12.35992,47.27],[12.36003,47.27036],[12.36003,47.271],[12.35982,47.27156],[12.35869,47.27318]]}},{"type":"Feature","properties":{"kind":"piste","difficulty":"easy","name":null,"aerialway":null,"osm":"way/1073992766"},"geometry":{"type":"LineString","coordinates":[[12.35823,47.27171],[12.35831,47.27185],[12.35818,47.27244],[12.35803,47.27258]]}},{"type":"Feature","properties":{"kind":"piste","difficulty":"easy","name":null,"aerialway":null,"osm":"way/1073992767"},"geometry":{"type":"LineString","coordinates":[[12.35972,47.26983],[12.35946,47.26991],[12.35908,47.27034],[12.35831,47.27185],[12.35869,47.27318]]}},{"type":"Feature","properties":{"kind":"piste","difficulty":"easy","name":null,"aerialway":null,"osm":"way/1102899071"},"geometry":{"type":"LineString","coordinates":[[12.34244,47.27319],[12.34104,47.27271],[12.34104,47.27255],[12.34061,47.27255]]}},{"type":"Feature","properties":{"kind":"piste","difficulty":"easy","name":"14b-Talabfahrt Bramberg","aerialway":null,"osm":"way/1348957613"},"geometry":{"type":"LineString","coordinates":[[12.32972,47.27099],[12.33127,47.27182],[12.3321,47.27268],[12.3322,47.27263],[12.33186,47.27204],[12.33197,47.27192],[12.33276,47.27235],[12.33295,47.27272],[12.33322,47.27288],[12.33393,47.27291],[12.33471,47.27259],[12.33595,47.27264],[12.33719,47.27303],[12.33794,47.27341],[12.33927,47.27341],[12.34036,47.27397],[12.34212,47.27444],[12.34242,47.27398],[12.34243,47.27296],[12.34211,47.27199],[12.34221,47.27174]]}},{"type":"Feature","properties":{"kind":"piste","difficulty":"easy","name":null,"aerialway":null,"osm":"way/1472058497"},"geometry":{"type":"LineString","coordinates":[[12.34195,47.27434],[12.34211,47.27379],[12.34208,47.27332],[12.3411,47.27277],[12.34109,47.27266],[12.34204,47.27288],[12.34174,47.27239],[12.34208,47.27173],[12.34235,47.27178],[12.34231,47.27221],[12.34259,47.27287],[12.34259,47.27414],[12.34238,47.27455],[12.34194,47.27445],[12.34195,47.27434]]}},{"type":"Feature","properties":{"kind":"lift","difficulty":null,"name":"Wennsergletscher II","aerialway":"rope_tow","osm":"way/444905747"},"geometry":{"type":"LineString","coordinates":[[12.35803,47.27258],[12.35823,47.27171]]}},{"type":"Feature","properties":{"kind":"lift","difficulty":null,"name":"Wennsergletscher I","aerialway":"t-bar","osm":"way/462852026"},"geometry":{"type":"LineString","coordinates":[[12.35869,47.27318],[12.35981,47.26954]]}}]}