{"type":"FeatureCollection","features":[{"type":"Feature","properties":{"kind":"piste","difficulty":"easy","name":null,"aerialway":null,"osm":"way/24408651"},"geometry":{"type":"LineString","coordinates":[[13.09497,47.64941],[13.09496,47.64858],[13.09555,47.6477]]}},{"type":"Feature","properties":{"kind":"piste","difficulty":"easy","name":null,"aerialway":null,"osm":"way/24408652"},"geometry":{"type":"LineString","coordinates":[[13.09375,47.64725],[13.09395,47.64762],[13.09385,47.64835],[13.09497,47.64941]]}},{"type":"Feature","properties":{"kind":"piste","difficulty":"easy","name":null,"aerialway":null,"osm":"way/24408654"},"geometry":{"type":"LineString","coordinates":[[13.09584,47.64217],[13.09435,47.64397],[13.09359,47.64524],[13.09359,47.6466],[13.09375,47.64725]]}},{"type":"Feature","properties":{"kind":"piste","difficulty":"intermediate","name":null,"aerialway":null,"osm":"way/24749195"},"geometry":{"type":"LineString","coordinates":[[13.09555,47.6477],[13.09538,47.65054]]}},{"type":"Feature","properties":{"kind":"lift","difficulty":null,"name":"Großer Lift","aerialway":"t-bar","osm":"way/31520804"},"geometry":{"type":"LineString","coordinates":[[13.09674,47.63212],[13.09559,47.62827]]}},{"type":"Feature","properties":{"kind":"lift","difficulty":null,"name":"B Gipfel Lift","aerialway":"drag_lift","osm":"way/31536782"},"geometry":{"type":"LineString","coordinates":[[13.0937,47.63039],[13.0952,47.62796]]}},{"type":"Feature","properties":{"kind":"piste","difficulty":"intermediate","name":"2 Großer Lift Abfahrt","aerialway":null,"osm":"way/31544691"},"geometry":{"type":"LineString","coordinates":[[13.09569,47.62859],[13.09536,47.62889],[13.09573,47.63028],[13.0961,47.63113],[13.0962,47.63168],[13.09651,47.63211],[13.09674,47.63212]]}},{"type":"Feature","properties":{"kind":"piste","difficulty":"easy","name":null,"aerialway":null,"osm":"way/31544783"},"geometry":{"type":"LineString","coordinates":[[13.0952,47.62796],[13.09533,47.6281],[13.0952,47.62859],[13.09392,47.63033],[13.0948,47.63067],[13.0962,47.63168]]}},{"type":"Feature","properties":{"kind":"piste","difficulty":"easy","name":"Hauptabfahrt","aerialway":null,"osm":"way/31544828"},"geometry":{"type":"LineString","coordinates":[[13.09651,47.64019],[13.09621,47.64047],[13.09427,47.64072],[13.09044,47.64065],[13.08859,47.6403],[13.08636,47.64092],[13.08587,47.6412],[13.08396,47.64116],[13.08201,47.64168],[13.08097,47.64155],[13.08023,47.64164],[13.07991,47.64207],[13.07781,47.64315],[13.07639,47.64329],[13.07588,47.64351],[13.07514,47.64408],[13.07506,47.64492],[13.07525,47.64564],[13.0751,47.64583],[13.07354,47.6466],[13.07316,47.64756],[13.07254,47.64828],[13.07154,47.64885],[13.06989,47.649],[13.06876,47.64941],[13.06348,47.65042],[13.06195,47.6504],[13.05916,47.6497]]}},{"type":"Feature","properties":{"kind":"piste","difficulty":"easy","name":"3 Waldabfahrt","aerialway":null,"osm":"way/31544916"},"geometry":{"type":"LineString","coordinates":[[13.09579,47.63232],[13.09602,47.63235],[13.09613,47.63264],[13.09611,47.63354],[13.09545,47.63505],[13.09529,47.63522],[13.09498,47.63521]]}},{"type":"Feature","properties":{"kind":"lift","difficulty":null,"name":"C Waldlift","aerialway":"t-bar","osm":"way/31544936"},"geometry":{"type":"LineString","coordinates":[[13.09498,47.63521],[13.09591,47.63193]]}},{"type":"Feature","properties":{"kind":"lift","difficulty":null,"name":"Familien Lift","aerialway":"platter","osm":"way/31544986"},"geometry":{"type":"LineString","coordinates":[[13.09718,47.63444],[13.09702,47.63243]]}},{"type":"Feature","properties":{"kind":"lift","difficulty":null,"name":"Zinken","aerialway":"chair_lift","osm":"way/39725510"},"geometry":{"type":"LineString","coordinates":[[13.09234,47.65942],[13.0888,47.64941]]}},{"type":"Feature","properties":{"kind":"piste","difficulty":"intermediate","name":null,"aerialway":null,"osm":"way/39725512"},"geometry":{"type":"LineString","coordinates":[[13.08858,47.64945],[13.08892,47.64945],[13.08929,47.64864],[13.0883,47.64748]]}},{"type":"Feature","properties":{"kind":"lift","difficulty":null,"name":"Knappenlift","aerialway":"t-bar","osm":"way/143207859"},"geometry":{"type":"LineString","coordinates":[[13.09214,47.6595],[13.08897,47.65541]]}},{"type":"Feature","properties":{"kind":"lift","difficulty":null,"name":"Oberer Zinkenlift","aerialway":"t-bar","osm":"way/143207862"},"geometry":{"type":"LineString","coordinates":[[13.09115,47.65325],[13.09051,47.64926]]}},{"type":"Feature","properties":{"kind":"piste","difficulty":"advanced","name":null,"aerialway":null,"osm":"way/143208403"},"geometry":{"type":"LineString","coordinates":[[13.08858,47.64945],[13.08856,47.6497],[13.08881,47.65013],[13.09036,47.65175]]}},{"type":"Feature","properties":{"kind":"piste","difficulty":"easy","name":null,"aerialway":null,"osm":"way/143208404"},"geometry":{"type":"LineString","coordinates":[[13.08967,47.65818],[13.09063,47.6582],[13.09218,47.65801],[13.09294,47.65827],[13.09326,47.65868]]}},{"type":"Feature","properties":{"kind":"piste","difficulty":"intermediate","name":null,"aerialway":null,"osm":"way/143208406"},"geometry":{"type":"LineString","coordinates":[[13.09021,47.64756],[13.09375,47.64725]]}},{"type":"Feature","properties":{"kind":"piste","difficulty":"easy","name":null,"aerialway":null,"osm":"way/143208407"},"geometry":{"type":"LineString","coordinates":[[13.0886,47.65593],[13.08853,47.6569],[13.08913,47.65779],[13.08982,47.65827],[13.09085,47.65869],[13.09173,47.65931],[13.09234,47.65942]]}},{"type":"Feature","properties":{"kind":"piste","difficulty":"easy","name":null,"aerialway":null,"osm":"way/143208409"},"geometry":{"type":"LineString","coordinates":[[13.09173,47.65931],[13.09213,47.65947]]}},{"type":"Feature","properties":{"kind":"piste","difficulty":"intermediate","name":null,"aerialway":null,"osm":"way/143208411"},"geometry":{"type":"LineString","coordinates":[[13.09045,47.64974],[13.09048,47.65086],[13.09034,47.65297],[13.09014,47.65334],[13.09021,47.65349],[13.09154,47.65358],[13.09305,47.65445]]}},{"type":"Feature","properties":{"kind":"piste","difficulty":"intermediate","name":null,"aerialway":null,"osm":"way/143208412"},"geometry":{"type":"LineString","coordinates":[[13.08881,47.64945],[13.08858,47.64945]]}},{"type":"Feature","properties":{"kind":"piste","difficulty":"freeride","name":null,"aerialway":null,"osm":"way/143209196"},"geometry":{"type":"LineString","coordinates":[[13.09658,47.65731],[13.09646,47.65767],[13.09617,47.6578],[13.0943,47.65799]]}},{"type":"Feature","properties":{"kind":"piste","difficulty":"intermediate","name":null,"aerialway":null,"osm":"way/199402894"},"geometry":{"type":"LineString","coordinates":[[13.09366,47.65282],[13.09342,47.65318],[13.09305,47.65445]]}},{"type":"Feature","properties":{"kind":"piste","difficulty":"intermediate","name":null,"aerialway":null,"osm":"way/199402896"},"geometry":{"type":"LineString","coordinates":[[13.09538,47.65054],[13.09527,47.65079],[13.09441,47.65108],[13.09399,47.65172],[13.09366,47.65282]]}},{"type":"Feature","properties":{"kind":"piste","difficulty":"intermediate","name":null,"aerialway":null,"osm":"way/199402898"},"geometry":{"type":"LineString","coordinates":[[13.09375,47.64725],[13.09531,47.64734],[13.09555,47.6477]]}},{"type":"Feature","properties":{"kind":"piste","difficulty":"easy","name":null,"aerialway":null,"osm":"way/241759477"},"geometry":{"type":"LineString","coordinates":[[13.08888,47.64361],[13.08913,47.64304],[13.08913,47.64238],[13.08935,47.64196],[13.08968,47.64175],[13.09077,47.6415],[13.09096,47.64134]]}},{"type":"Feature","properties":{"kind":"piste","difficulty":"intermediate","name":null,"aerialway":null,"osm":"way/392292416"},"geometry":{"type":"LineString","coordinates":[[13.09058,47.64971],[13.09045,47.64974]]}},{"type":"Feature","properties":{"kind":"piste","difficulty":"intermediate","name":null,"aerialway":null,"osm":"way/392292465"},"geometry":{"type":"LineString","coordinates":[[13.09034,47.65297],[13.09053,47.6531],[13.09113,47.65312]]}},{"type":"Feature","properties":{"kind":"piste","difficulty":"easy","name":null,"aerialway":null,"osm":"way/561702272"},"geometry":{"type":"LineString","coordinates":[[13.09715,47.63948],[13.09731,47.63974]]}},{"type":"Feature","properties":{"kind":"piste","difficulty":"easy","name":null,"aerialway":null,"osm":"way/561702275"},"geometry":{"type":"LineString","coordinates":[[13.09731,47.63974],[13.09701,47.64054]]}},{"type":"Feature","properties":{"kind":"piste","difficulty":"freeride","name":null,"aerialway":null,"osm":"way/561702276"},"geometry":{"type":"LineString","coordinates":[[13.09305,47.65445],[13.09436,47.65573],[13.09523,47.65635],[13.09615,47.65663],[13.09658,47.65731]]}},{"type":"Feature","properties":{"kind":"piste","difficulty":"intermediate","name":null,"aerialway":null,"osm":"way/561702283"},"geometry":{"type":"LineString","coordinates":[[13.0883,47.64748],[13.08861,47.64747],[13.08943,47.64775]]}},{"type":"Feature","properties":{"kind":"piste","difficulty":"intermediate","name":null,"aerialway":null,"osm":"way/561702284"},"geometry":{"type":"LineString","coordinates":[[13.08943,47.64775],[13.09021,47.64756]]}},{"type":"Feature","properties":{"kind":"piste","difficulty":"easy","name":"Verbindungspiste Zinken-Mautstelle Roßfeld","aerialway":null,"osm":"way/561702285"},"geometry":{"type":"LineString","coordinates":[[13.09021,47.64756],[13.09026,47.64713]]}},{"type":"Feature","properties":{"kind":"piste","difficulty":"easy","name":"Hauptabfahrt","aerialway":null,"osm":"way/561702292"},"geometry":{"type":"LineString","coordinates":[[13.09702,47.63589],[13.09718,47.63611],[13.09765,47.63615],[13.09787,47.63653],[13.0977,47.63694],[13.09709,47.63766],[13.0973,47.63843],[13.0971,47.63902],[13.09715,47.63948]]}},{"type":"Feature","properties":{"kind":"piste","difficulty":"easy","name":"Hauptabfahrt","aerialway":null,"osm":"way/561702293"},"geometry":{"type":"LineString","coordinates":[[13.09715,47.63948],[13.09663,47.63991],[13.09651,47.64019]]}},{"type":"Feature","properties":{"kind":"piste","difficulty":"easy","name":"Verbindungspiste Zinken-Mautstelle Roßfeld","aerialway":null,"osm":"way/561702298"},"geometry":{"type":"LineString","coordinates":[[13.09026,47.64713],[13.09026,47.64692],[13.08952,47.6463],[13.0885,47.64471],[13.08851,47.64427],[13.08888,47.64361]]}},{"type":"Feature","properties":{"kind":"piste","difficulty":"intermediate","name":"2 Großer Lift Abfahrt","aerialway":null,"osm":"way/561702302"},"geometry":{"type":"LineString","coordinates":[[13.0952,47.62796],[13.09542,47.62814],[13.09551,47.62851],[13.09569,47.62859]]}},{"type":"Feature","properties":{"kind":"piste","difficulty":"easy","name":"3 Waldabfahrt","aerialway":null,"osm":"way/561702304"},"geometry":{"type":"LineString","coordinates":[[13.09642,47.63222],[13.09602,47.63235]]}},{"type":"Feature","properties":{"kind":"piste","difficulty":"advanced","name":"1a Alter Schlag","aerialway":null,"osm":"way/561702307"},"geometry":{"type":"LineString","coordinates":[[13.09702,47.63589],[13.09628,47.63648],[13.09619,47.63681],[13.09654,47.63849],[13.09597,47.63901],[13.0967,47.63986],[13.09684,47.64037],[13.09701,47.64054]]}},{"type":"Feature","properties":{"kind":"piste","difficulty":"easy","name":null,"aerialway":null,"osm":"way/561702309"},"geometry":{"type":"LineString","coordinates":[[13.09701,47.64054],[13.09584,47.64217]]}},{"type":"Feature","properties":{"kind":"piste","difficulty":"freeride","name":null,"aerialway":null,"osm":"way/561702314"},"geometry":{"type":"LineString","coordinates":[[13.0943,47.65799],[13.09355,47.65817],[13.09335,47.65832],[13.09326,47.65868]]}},{"type":"Feature","properties":{"kind":"piste","difficulty":"intermediate","name":null,"aerialway":null,"osm":"way/706671996"},"geometry":{"type":"LineString","coordinates":[[13.08943,47.64775],[13.08993,47.6482],[13.09035,47.64915],[13.09045,47.64974]]}},{"type":"Feature","properties":{"kind":"piste","difficulty":"easy","name":"1","aerialway":null,"osm":"way/759546634"},"geometry":{"type":"LineString","coordinates":[[13.0962,47.63168],[13.09626,47.63201],[13.09669,47.63256],[13.09644,47.63446],[13.09687,47.63473],[13.09702,47.63589]]}},{"type":"Feature","properties":{"kind":"piste","difficulty":"easy","name":null,"aerialway":null,"osm":"way/759546635"},"geometry":{"type":"LineString","coordinates":[[13.09702,47.63243],[13.09764,47.63415],[13.0973,47.63453],[13.09718,47.63444]]}},{"type":"Feature","properties":{"kind":"piste","difficulty":"easy","name":null,"aerialway":null,"osm":"way/783435540"},"geometry":{"type":"LineString","coordinates":[[13.07994,47.6625],[13.07949,47.66309],[13.07899,47.66444],[13.07922,47.66453]]}},{"type":"Feature","properties":{"kind":"lift","difficulty":null,"name":"Wildmooslift","aerialway":"t-bar","osm":"way/783435541"},"geometry":{"type":"LineString","coordinates":[[13.0792,47.66459],[13.07997,47.66241]]}},{"type":"Feature","properties":{"kind":"piste","difficulty":"intermediate","name":"2","aerialway":null,"osm":"way/788094261"},"geometry":{"type":"LineString","coordinates":[[13.09569,47.62859],[13.09642,47.63036],[13.09674,47.63212]]}},{"type":"Feature","properties":{"kind":"piste","difficulty":"easy","name":null,"aerialway":null,"osm":"way/788094262"},"geometry":{"type":"LineString","coordinates":[[13.09392,47.63033],[13.0937,47.63039]]}},{"type":"Feature","properties":{"kind":"piste","difficulty":"easy","name":"4","aerialway":null,"osm":"way/788094263"},"geometry":{"type":"LineString","coordinates":[[13.09702,47.63243],[13.09654,47.63343],[13.09681,47.63359],[13.0969,47.63437],[13.09718,47.63444]]}},{"type":"Feature","properties":{"kind":"piste","difficulty":"easy","name":"3a","aerialway":null,"osm":"way/788094264"},"geometry":{"type":"LineString","coordinates":[[13.09498,47.63521],[13.09524,47.63528],[13.09561,47.635],[13.09687,47.63473]]}},{"type":"Feature","properties":{"kind":"piste","difficulty":"easy","name":null,"aerialway":null,"osm":"way/788094266"},"geometry":{"type":"LineString","coordinates":[[13.09101,47.64066],[13.09016,47.64102],[13.08815,47.64085],[13.08752,47.64068]]}},{"type":"Feature","properties":{"kind":"piste","difficulty":"intermediate","name":null,"aerialway":null,"osm":"way/1150532337"},"geometry":{"type":"LineString","coordinates":[[13.09305,47.65445],[13.09298,47.65468],[13.0919,47.65527],[13.09112,47.65547],[13.09017,47.6555]]}},{"type":"Feature","properties":{"kind":"piste","difficulty":"intermediate","name":null,"aerialway":null,"osm":"way/1451616144"},"geometry":{"type":"LineString","coordinates":[[13.09017,47.6555],[13.08894,47.65534],[13.08864,47.6556],[13.0886,47.65593]]}}]}