{"type":"FeatureCollection","features":[{"type":"Feature","properties":{"kind":"lift","difficulty":null,"name":"Ehemaliger Kurzer Lift (stillgelegt)","aerialway":"platter","osm":"way/238900066"},"geometry":{"type":"LineString","coordinates":[[14.98302,47.2789],[14.98494,47.27769]]}},{"type":"Feature","properties":{"kind":"lift","difficulty":null,"name":"Ehemaliger Langer Lift (stillgelegt)","aerialway":"t-bar","osm":"way/238900075"},"geometry":{"type":"LineString","coordinates":[[14.98287,47.27899],[14.98027,47.27723]]}},{"type":"Feature","properties":{"kind":"piste","difficulty":"freeride","name":"Ehemalige Blaue Piste","aerialway":null,"osm":"way/1202405289"},"geometry":{"type":"LineString","coordinates":[[14.98027,47.27723],[14.9793,47.27838],[14.97921,47.27881],[14.97932,47.27895],[14.98114,47.27924],[14.98287,47.27899]]}},{"type":"Feature","properties":{"kind":"piste","difficulty":"freeride","name":"Ehemalige Rote Piste","aerialway":null,"osm":"way/1202405290"},"geometry":{"type":"LineString","coordinates":[[14.98015,47.27737],[14.98026,47.27779],[14.98058,47.2782],[14.98142,47.27875],[14.98204,47.27899],[14.98287,47.27899]]}},{"type":"Feature","properties":{"kind":"piste","difficulty":"freeride","name":"Ehemalige Blaue Piste","aerialway":null,"osm":"way/1202405292"},"geometry":{"type":"LineString","coordinates":[[14.98468,47.27786],[14.98439,47.27786],[14.98327,47.27851],[14.98302,47.2789]]}},{"type":"Feature","properties":{"kind":"piste","difficulty":"freeride","name":"Ehemalige Schwarze Piste","aerialway":null,"osm":"way/1202405293"},"geometry":{"type":"LineString","coordinates":[[14.98052,47.2774],[14.98161,47.27747],[14.98215,47.27771],[14.9831,47.27878]]}}]}