{"type":"FeatureCollection","features":[{"type":"Feature","properties":{"kind":"piste","difficulty":"easy","name":null,"aerialway":null,"osm":"way/419790702"},"geometry":{"type":"LineString","coordinates":[[12.04302,47.42775],[12.04304,47.428],[12.04196,47.42827],[12.04031,47.42837],[12.04026,47.42812]]}},{"type":"Feature","properties":{"kind":"piste","difficulty":"easy","name":null,"aerialway":null,"osm":"way/419790703"},"geometry":{"type":"LineString","coordinates":[[12.04302,47.42775],[12.04286,47.4276],[12.04156,47.42769],[12.04065,47.42784],[12.04026,47.42812]]}},{"type":"Feature","properties":{"kind":"piste","difficulty":"intermediate","name":null,"aerialway":null,"osm":"way/419790704"},"geometry":{"type":"LineString","coordinates":[[12.04361,47.42588],[12.04313,47.42639],[12.04134,47.42712],[12.04019,47.42734],[12.0394,47.42712]]}},{"type":"Feature","properties":{"kind":"piste","difficulty":"freeride","name":"Skiroute 28 Mühltal","aerialway":null,"osm":"way/1424461605"},"geometry":{"type":"LineString","coordinates":[[12.03013,47.41184],[12.03018,47.41325],[12.02989,47.41455],[12.02966,47.41713],[12.03001,47.41738],[12.02994,47.41802],[12.0302,47.41816],[12.03013,47.41862],[12.02935,47.41996],[12.02946,47.42082],[12.02888,47.42152],[12.02849,47.42227],[12.02985,47.42269],[12.0308,47.42257],[12.03109,47.42266]]}},{"type":"Feature","properties":{"kind":"piste","difficulty":"easy","name":null,"aerialway":null,"osm":"way/1462561612"},"geometry":{"type":"LineString","coordinates":[[12.04134,47.42712],[12.04065,47.42784]]}},{"type":"Feature","properties":{"kind":"piste","difficulty":"easy","name":null,"aerialway":null,"osm":"way/1462561613"},"geometry":{"type":"LineString","coordinates":[[12.04286,47.4276],[12.04134,47.42712]]}},{"type":"Feature","properties":{"kind":"piste","difficulty":"easy","name":null,"aerialway":null,"osm":"way/1462561614"},"geometry":{"type":"LineString","coordinates":[[12.04299,47.42783],[12.04314,47.42775],[12.04323,47.42799],[12.04312,47.42818],[12.04256,47.42841],[12.04058,47.42858],[12.04023,47.42841],[12.04015,47.42818],[12.04211,47.42803],[12.04299,47.42783]]}},{"type":"Feature","properties":{"kind":"piste","difficulty":"easy","name":null,"aerialway":null,"osm":"way/1462561615"},"geometry":{"type":"LineString","coordinates":[[12.04228,47.42819],[12.0422,47.42765]]}},{"type":"Feature","properties":{"kind":"piste","difficulty":"easy","name":null,"aerialway":null,"osm":"way/1462561616"},"geometry":{"type":"LineString","coordinates":[[12.04298,47.42777],[12.04314,47.42775],[12.04287,47.42744],[12.04231,47.42749],[12.04045,47.4278],[12.04012,47.42808],[12.04015,47.42818],[12.04298,47.42777]]}},{"type":"Feature","properties":{"kind":"piste","difficulty":"easy","name":null,"aerialway":null,"osm":"way/1462561617"},"geometry":{"type":"LineString","coordinates":[[12.0422,47.42801],[12.04216,47.42787],[12.04233,47.42785],[12.04235,47.42796],[12.0422,47.42801]]}},{"type":"Feature","properties":{"kind":"lift","difficulty":null,"name":"Riedmannlft II","aerialway":"t-bar","osm":"way/305890304"},"geometry":{"type":"LineString","coordinates":[[12.0394,47.42712],[12.04349,47.42593]]}},{"type":"Feature","properties":{"kind":"lift","difficulty":null,"name":"Riedmannlift I","aerialway":"platter","osm":"way/305890445"},"geometry":{"type":"LineString","coordinates":[[12.04026,47.42812],[12.04343,47.42769]]}}]}