{"type":"FeatureCollection","features":[{"type":"Feature","properties":{"kind":"lift","difficulty":null,"name":"Göslerlift","aerialway":"t-bar","osm":"way/51378826"},"geometry":{"type":"LineString","coordinates":[[15.00785,46.83842],[15.01422,46.83536]]}},{"type":"Feature","properties":{"kind":"lift","difficulty":null,"name":"Schneelochlift","aerialway":"t-bar","osm":"way/51378852"},"geometry":{"type":"LineString","coordinates":[[15.00865,46.82691],[14.99985,46.82939]]}},{"type":"Feature","properties":{"kind":"lift","difficulty":null,"name":"Brandrückenlift II","aerialway":"t-bar","osm":"way/51378862"},"geometry":{"type":"LineString","coordinates":[[15.00678,46.83757],[15.00095,46.82937]]}},{"type":"Feature","properties":{"kind":"lift","difficulty":null,"name":"Brandrückenlift I","aerialway":"t-bar","osm":"way/51378882"},"geometry":{"type":"LineString","coordinates":[[15.00684,46.83754],[15.00162,46.83021]]}},{"type":"Feature","properties":{"kind":"lift","difficulty":null,"name":"Weinofenlift II","aerialway":"t-bar","osm":"way/51378934"},"geometry":{"type":"LineString","coordinates":[[15.01219,46.83964],[15.01408,46.8355]]}},{"type":"Feature","properties":{"kind":"lift","difficulty":null,"name":"Weinofenlift I","aerialway":"t-bar","osm":"way/51378940"},"geometry":{"type":"LineString","coordinates":[[15.0123,46.83958],[15.01455,46.83558]]}},{"type":"Feature","properties":{"kind":"lift","difficulty":null,"name":"Zauberteppich","aerialway":"magic_carpet","osm":"way/51378957"},"geometry":{"type":"LineString","coordinates":[[15.01355,46.84004],[15.01488,46.83873]]}},{"type":"Feature","properties":{"kind":"lift","difficulty":null,"name":"Babylift","aerialway":"rope_tow","osm":"way/51378966"},"geometry":{"type":"LineString","coordinates":[[15.01218,46.83939],[15.01229,46.83849]]}},{"type":"Feature","properties":{"kind":"piste","difficulty":"advanced","name":"Schneeloch II","aerialway":null,"osm":"way/51379317"},"geometry":{"type":"LineString","coordinates":[[15.00063,46.82918],[15.00026,46.82898],[15.0012,46.82813],[15.00444,46.82726]]}},{"type":"Feature","properties":{"kind":"piste","difficulty":"intermediate","name":"Waldabfahrt","aerialway":null,"osm":"way/51379334"},"geometry":{"type":"LineString","coordinates":[[15.00063,46.82918],[15.00064,46.8293],[15.001,46.82934],[15.00274,46.83067],[15.00524,46.83171],[15.00718,46.83224],[15.00805,46.83234],[15.00929,46.83407],[15.00929,46.83503],[15.00918,46.83628],[15.0077,46.83702]]}},{"type":"Feature","properties":{"kind":"piste","difficulty":"advanced","name":"Schneeloch I","aerialway":null,"osm":"way/51379359"},"geometry":{"type":"LineString","coordinates":[[15.0013,46.82992],[15.00128,46.82981],[15.00144,46.82974],[15.00259,46.82972],[15.00329,46.82955],[15.0049,46.82868]]}},{"type":"Feature","properties":{"kind":"piste","difficulty":"intermediate","name":null,"aerialway":null,"osm":"way/51379363"},"geometry":{"type":"LineString","coordinates":[[15.00209,46.83084],[15.00207,46.83073],[15.00254,46.83057]]}},{"type":"Feature","properties":{"kind":"piste","difficulty":"intermediate","name":"Rennstrecke II","aerialway":null,"osm":"way/51379396"},"geometry":{"type":"LineString","coordinates":[[15.0013,46.82992],[15.00109,46.8299],[15.0009,46.83038],[15.00095,46.83071],[15.00249,46.83503],[15.00321,46.83575],[15.00532,46.83721],[15.00593,46.83713]]}},{"type":"Feature","properties":{"kind":"piste","difficulty":"intermediate","name":"Rennstrecke I","aerialway":null,"osm":"way/51379411"},"geometry":{"type":"LineString","coordinates":[[15.00108,46.83],[15.0017,46.83078],[15.00212,46.83155],[15.00225,46.83218],[15.00364,46.83492],[15.00593,46.83713],[15.00669,46.83771],[15.00678,46.83757]]}},{"type":"Feature","properties":{"kind":"piste","difficulty":"easy","name":"Göslerlift II","aerialway":null,"osm":"way/51379670"},"geometry":{"type":"LineString","coordinates":[[15.00918,46.83628],[15.00938,46.83651],[15.00934,46.83674],[15.00771,46.83814],[15.00775,46.83846],[15.00785,46.83842]]}},{"type":"Feature","properties":{"kind":"piste","difficulty":"intermediate","name":"Pabstwiesn","aerialway":null,"osm":"way/51379682"},"geometry":{"type":"LineString","coordinates":[[15.01334,46.83576],[15.01347,46.83562],[15.01341,46.83547],[15.0123,46.83532],[15.00918,46.83628]]}},{"type":"Feature","properties":{"kind":"piste","difficulty":"easy","name":"Verbindung Göslerhütte","aerialway":null,"osm":"way/51379737"},"geometry":{"type":"LineString","coordinates":[[15.00805,46.83234],[15.01021,46.83284],[15.01091,46.83311],[15.01147,46.83354],[15.01186,46.8342],[15.012,46.83508],[15.01179,46.83543]]}},{"type":"Feature","properties":{"kind":"piste","difficulty":"intermediate","name":"Göslerlift I","aerialway":null,"osm":"way/51379756"},"geometry":{"type":"LineString","coordinates":[[15.0137,46.83586],[15.01335,46.83625],[15.01265,46.83663],[15.01217,46.83726]]}},{"type":"Feature","properties":{"kind":"piste","difficulty":"easy","name":"Weinofen","aerialway":null,"osm":"way/51379762"},"geometry":{"type":"LineString","coordinates":[[15.01451,46.83626],[15.01441,46.83716],[15.01416,46.83778],[15.01353,46.83868],[15.0134,46.83924],[15.01296,46.83993],[15.01263,46.83999],[15.01241,46.83978]]}},{"type":"Feature","properties":{"kind":"piste","difficulty":"easy","name":null,"aerialway":null,"osm":"way/51379770"},"geometry":{"type":"LineString","coordinates":[[15.0123,46.83975],[15.0123,46.83958]]}},{"type":"Feature","properties":{"kind":"piste","difficulty":"easy","name":"Parkplatz","aerialway":null,"osm":"way/51380402"},"geometry":{"type":"LineString","coordinates":[[15.01434,46.83597],[15.01503,46.83732],[15.01526,46.83752],[15.01528,46.83819],[15.01565,46.83879],[15.01577,46.83952],[15.01431,46.8402],[15.01336,46.8402],[15.01263,46.83999]]}},{"type":"Feature","properties":{"kind":"piste","difficulty":"easy","name":"Tellerlift","aerialway":null,"osm":"way/51380575"},"geometry":{"type":"LineString","coordinates":[[15.01488,46.83873],[15.01408,46.83882],[15.0134,46.83924],[15.01338,46.83982],[15.01355,46.84004]]}},{"type":"Feature","properties":{"kind":"piste","difficulty":"intermediate","name":"Schneeloch I","aerialway":null,"osm":"way/51380685"},"geometry":{"type":"LineString","coordinates":[[15.0049,46.82868],[15.00873,46.82707]]}},{"type":"Feature","properties":{"kind":"piste","difficulty":"intermediate","name":"Schneeloch II","aerialway":null,"osm":"way/51380686"},"geometry":{"type":"LineString","coordinates":[[15.00444,46.82726],[15.00551,46.82718],[15.00639,46.82658],[15.00783,46.82649],[15.00848,46.82663],[15.00886,46.82686],[15.00887,46.82705],[15.00873,46.82707],[15.00865,46.82691]]}},{"type":"Feature","properties":{"kind":"piste","difficulty":"novice","name":"Babylift","aerialway":null,"osm":"way/51380689"},"geometry":{"type":"LineString","coordinates":[[15.01229,46.83849],[15.01212,46.83866],[15.01207,46.83929],[15.01218,46.83939]]}},{"type":"Feature","properties":{"kind":"piste","difficulty":"easy","name":"Göslerlift I","aerialway":null,"osm":"way/51380759"},"geometry":{"type":"LineString","coordinates":[[15.01217,46.83726],[15.01166,46.83759],[15.00826,46.83863],[15.00775,46.83846]]}},{"type":"Feature","properties":{"kind":"piste","difficulty":"easy","name":null,"aerialway":null,"osm":"way/51380988"},"geometry":{"type":"LineString","coordinates":[[15.01334,46.83576],[15.01443,46.83612]]}},{"type":"Feature","properties":{"kind":"piste","difficulty":"intermediate","name":"Standardabf. I","aerialway":null,"osm":"way/51381012"},"geometry":{"type":"LineString","coordinates":[[15.00219,46.83067],[15.00481,46.83392],[15.00601,46.8351],[15.00755,46.83636],[15.0077,46.83702],[15.00714,46.8376],[15.00684,46.83754]]}},{"type":"Feature","properties":{"kind":"piste","difficulty":"intermediate","name":"Verbindung Göslerlift","aerialway":null,"osm":"way/319449635"},"geometry":{"type":"LineString","coordinates":[[15.00709,46.83762],[15.00782,46.83753],[15.00771,46.83814]]}},{"type":"Feature","properties":{"kind":"piste","difficulty":"intermediate","name":null,"aerialway":null,"osm":"way/319449672"},"geometry":{"type":"LineString","coordinates":[[15.00669,46.83771],[15.00709,46.83762]]}},{"type":"Feature","properties":{"kind":"piste","difficulty":"intermediate","name":"Standardabf. II","aerialway":null,"osm":"way/319466147"},"geometry":{"type":"LineString","coordinates":[[15.0013,46.82992],[15.00308,46.83098],[15.00532,46.83197],[15.00634,46.83371],[15.00658,46.83447],[15.00668,46.83563]]}},{"type":"Feature","properties":{"kind":"piste","difficulty":"easy","name":"Verbindung Göslerhütte","aerialway":null,"osm":"way/319574920"},"geometry":{"type":"LineString","coordinates":[[15.01179,46.83543],[15.01166,46.83577],[15.01178,46.8364],[15.01217,46.83726],[15.01241,46.83827],[15.01212,46.8397],[15.01241,46.83978],[15.01219,46.83964]]}},{"type":"Feature","properties":{"kind":"piste","difficulty":"easy","name":null,"aerialway":null,"osm":"way/477261170"},"geometry":{"type":"LineString","coordinates":[[15.0037,46.83609],[15.00487,46.8363]]}},{"type":"Feature","properties":{"kind":"piste","difficulty":"novice","name":null,"aerialway":null,"osm":"way/1357872751"},"geometry":{"type":"LineString","coordinates":[[15.01488,46.83873],[15.01498,46.83883],[15.01374,46.84003],[15.01355,46.84004]]}}]}