{"type":"FeatureCollection","features":[{"type":"Feature","properties":{"kind":"lift","difficulty":null,"name":"3 SL Hintersee","aerialway":"chair_lift","osm":"way/23555289"},"geometry":{"type":"LineString","coordinates":[[13.27344,47.72423],[13.25413,47.71681]]}},{"type":"Feature","properties":{"kind":"lift","difficulty":null,"name":"2 SL Spielbergalmlift","aerialway":"chair_lift","osm":"way/30881100"},"geometry":{"type":"LineString","coordinates":[[13.21696,47.70281],[13.22006,47.72351]]}},{"type":"Feature","properties":{"kind":"lift","difficulty":null,"name":"Spielbergalm Übungslift","aerialway":"platter","osm":"way/30881179"},"geometry":{"type":"LineString","coordinates":[[13.22107,47.72228],[13.22296,47.72472]]}},{"type":"Feature","properties":{"kind":"lift","difficulty":null,"name":"Wieserhörndllift","aerialway":"t-bar","osm":"way/30881180"},"geometry":{"type":"LineString","coordinates":[[13.22578,47.7184],[13.23249,47.72699]]}},{"type":"Feature","properties":{"kind":"lift","difficulty":null,"name":"Latschenalmbahn","aerialway":"chair_lift","osm":"way/30881232"},"geometry":{"type":"LineString","coordinates":[[13.23445,47.7154],[13.23276,47.72526]]}},{"type":"Feature","properties":{"kind":"lift","difficulty":null,"name":"Anzenbergalmlift","aerialway":"t-bar","osm":"way/30881292"},"geometry":{"type":"LineString","coordinates":[[13.25261,47.71603],[13.24364,47.72319]]}},{"type":"Feature","properties":{"kind":"lift","difficulty":null,"name":"Kurvenlift","aerialway":"t-bar","osm":"way/30881403"},"geometry":{"type":"LineString","coordinates":[[13.22184,47.70359],[13.2244,47.70704],[13.24483,47.71455]]}},{"type":"Feature","properties":{"kind":"piste","difficulty":"intermediate","name":"Anzenbergalm","aerialway":null,"osm":"way/30883578"},"geometry":{"type":"LineString","coordinates":[[13.24399,47.72292],[13.24417,47.72298],[13.24621,47.72164],[13.24779,47.72132],[13.24821,47.72083],[13.24907,47.72035],[13.25155,47.71977],[13.25249,47.71923],[13.2542,47.71735]]}},{"type":"Feature","properties":{"kind":"piste","difficulty":"advanced","name":"Tal-Hintersee Steilhang","aerialway":null,"osm":"way/30883579"},"geometry":{"type":"LineString","coordinates":[[13.2542,47.71735],[13.25489,47.717],[13.25518,47.717],[13.25565,47.7173],[13.25605,47.71797],[13.25636,47.71802]]}},{"type":"Feature","properties":{"kind":"piste","difficulty":"intermediate","name":"Umfahrung Steilhang","aerialway":null,"osm":"way/30883581"},"geometry":{"type":"LineString","coordinates":[[13.25636,47.71802],[13.25693,47.71604],[13.25745,47.71543],[13.25805,47.71499],[13.26109,47.71563],[13.25927,47.71591],[13.25902,47.71634],[13.25916,47.7167]]}},{"type":"Feature","properties":{"kind":"piste","difficulty":"easy","name":"Anzenbergalm","aerialway":null,"osm":"way/30883745"},"geometry":{"type":"LineString","coordinates":[[13.24454,47.72097],[13.24351,47.71919],[13.24345,47.71796],[13.24354,47.71742],[13.24429,47.71665],[13.24561,47.71688],[13.24675,47.71648]]}},{"type":"Feature","properties":{"kind":"piste","difficulty":"easy","name":"Latschenalmlift-Süd","aerialway":null,"osm":"way/30883789"},"geometry":{"type":"LineString","coordinates":[[13.24333,47.71458],[13.24413,47.71452],[13.24422,47.71442],[13.2441,47.71428]]}},{"type":"Feature","properties":{"kind":"piste","difficulty":"easy","name":"Latschenalmlift-Süd","aerialway":null,"osm":"way/30883791"},"geometry":{"type":"LineString","coordinates":[[13.24333,47.71458],[13.24304,47.71485],[13.24314,47.71512],[13.24377,47.71579],[13.24389,47.71616],[13.24339,47.717],[13.24354,47.71742]]}},{"type":"Feature","properties":{"kind":"piste","difficulty":"intermediate","name":"Latschenalmlift-Mitte","aerialway":null,"osm":"way/30885451"},"geometry":{"type":"LineString","coordinates":[[13.23214,47.72657],[13.2327,47.7262],[13.2351,47.72346],[13.23642,47.72273],[13.23732,47.72183],[13.23762,47.72127],[13.23453,47.7185],[13.23436,47.71747]]}},{"type":"Feature","properties":{"kind":"piste","difficulty":"intermediate","name":"Latschenhang","aerialway":null,"osm":"way/30885454"},"geometry":{"type":"LineString","coordinates":[[13.24399,47.72292],[13.24313,47.72236],[13.23762,47.72127]]}},{"type":"Feature","properties":{"kind":"piste","difficulty":"easy","name":"Latschenalmlift-West","aerialway":null,"osm":"way/30886522"},"geometry":{"type":"LineString","coordinates":[[13.23276,47.72526],[13.23182,47.72493],[13.22977,47.72249],[13.22913,47.72132],[13.22907,47.72025],[13.22945,47.71925],[13.23436,47.71747],[13.23438,47.71683],[13.23398,47.71537],[13.23445,47.7154]]}},{"type":"Feature","properties":{"kind":"piste","difficulty":"easy","name":"Tal-Gaissau","aerialway":null,"osm":"way/30886642"},"geometry":{"type":"LineString","coordinates":[[13.22635,47.72319],[13.22562,47.72365],[13.22516,47.72377],[13.22403,47.72371]]}},{"type":"Feature","properties":{"kind":"piste","difficulty":"easy","name":"Spielberg","aerialway":null,"osm":"way/30886663"},"geometry":{"type":"LineString","coordinates":[[13.22005,47.72339],[13.22009,47.72357],[13.22047,47.72337],[13.22082,47.72298],[13.22111,47.72234]]}},{"type":"Feature","properties":{"kind":"piste","difficulty":"easy","name":"Spielberg","aerialway":null,"osm":"way/30886664"},"geometry":{"type":"LineString","coordinates":[[13.22047,47.72337],[13.22049,47.7229]]}},{"type":"Feature","properties":{"kind":"piste","difficulty":"intermediate","name":"Wieserhörndl West","aerialway":null,"osm":"way/30886827"},"geometry":{"type":"LineString","coordinates":[[13.23214,47.72657],[13.23182,47.72647],[13.23106,47.72546],[13.22997,47.72446],[13.22635,47.72319]]}},{"type":"Feature","properties":{"kind":"piste","difficulty":"easy","name":"Skiweg-Kurvenlift","aerialway":null,"osm":"way/30901631"},"geometry":{"type":"LineString","coordinates":[[13.23398,47.71537],[13.23355,47.71424],[13.23319,47.71372],[13.23248,47.71328],[13.23158,47.71228],[13.2314,47.7116],[13.2316,47.71114],[13.23157,47.7109],[13.23056,47.71003],[13.22933,47.70927],[13.22887,47.7088],[13.22855,47.70832],[13.22882,47.70781],[13.22876,47.70768],[13.22769,47.70748]]}},{"type":"Feature","properties":{"kind":"piste","difficulty":"easy","name":"Kurvenlift","aerialway":null,"osm":"way/30901701"},"geometry":{"type":"LineString","coordinates":[[13.2441,47.71428],[13.24417,47.71419],[13.24356,47.71387],[13.24181,47.71314],[13.24041,47.71036],[13.23952,47.70957],[13.23713,47.70847],[13.23601,47.70834],[13.23523,47.70907],[13.23469,47.70904],[13.23387,47.70873],[13.23219,47.70734],[13.23158,47.70708],[13.23052,47.7071],[13.22658,47.70757],[13.22483,47.70683],[13.224,47.70592],[13.22358,47.70492],[13.22283,47.70411],[13.22238,47.70365],[13.22207,47.70357],[13.2219,47.70367]]}},{"type":"Feature","properties":{"kind":"piste","difficulty":"easy","name":"Tal-Gaissau","aerialway":null,"osm":"way/146898960"},"geometry":{"type":"LineString","coordinates":[[13.21903,47.71774],[13.21825,47.71421],[13.21699,47.71215],[13.21673,47.71079],[13.2161,47.7097],[13.21588,47.70854],[13.21687,47.70594],[13.21652,47.70328]]}},{"type":"Feature","properties":{"kind":"piste","difficulty":"easy","name":"Skiweg-Wieserhörndl","aerialway":null,"osm":"way/199406606"},"geometry":{"type":"LineString","coordinates":[[13.22292,47.72466],[13.22378,47.72415],[13.22422,47.72338],[13.22536,47.7223],[13.22567,47.72143],[13.2256,47.71948],[13.22581,47.71905],[13.22636,47.71864],[13.22612,47.71829],[13.22584,47.71849]]}},{"type":"Feature","properties":{"kind":"piste","difficulty":"easy","name":"Spielberg","aerialway":null,"osm":"way/199406609"},"geometry":{"type":"LineString","coordinates":[[13.22049,47.7229],[13.21963,47.72203],[13.21954,47.72153]]}},{"type":"Feature","properties":{"kind":"piste","difficulty":"easy","name":"Spielberg","aerialway":null,"osm":"way/199406612"},"geometry":{"type":"LineString","coordinates":[[13.22271,47.72467],[13.22082,47.72298],[13.22049,47.7229]]}},{"type":"Feature","properties":{"kind":"piste","difficulty":"easy","name":"Anzenberg","aerialway":null,"osm":"way/318126876"},"geometry":{"type":"LineString","coordinates":[[13.24399,47.72292],[13.24454,47.72097]]}},{"type":"Feature","properties":{"kind":"piste","difficulty":"easy","name":"Latschenalmlift-Süd","aerialway":null,"osm":"way/318126877"},"geometry":{"type":"LineString","coordinates":[[13.24454,47.72097],[13.24297,47.71974],[13.24085,47.71736],[13.23931,47.71603],[13.23852,47.71576],[13.23608,47.7157],[13.23445,47.7154]]}},{"type":"Feature","properties":{"kind":"piste","difficulty":"intermediate","name":"Anzenberg","aerialway":null,"osm":"way/318126878"},"geometry":{"type":"LineString","coordinates":[[13.24454,47.72097],[13.24675,47.71648]]}},{"type":"Feature","properties":{"kind":"piste","difficulty":"intermediate","name":"Anzenberg","aerialway":null,"osm":"way/392127207"},"geometry":{"type":"LineString","coordinates":[[13.24377,47.71579],[13.24451,47.71564],[13.24528,47.71585],[13.24589,47.7163],[13.24675,47.71648]]}},{"type":"Feature","properties":{"kind":"piste","difficulty":"easy","name":"Anzenbergalm","aerialway":null,"osm":"way/392127211"},"geometry":{"type":"LineString","coordinates":[[13.24675,47.71648],[13.25032,47.71588],[13.25246,47.71594],[13.2525,47.71611]]}},{"type":"Feature","properties":{"kind":"piste","difficulty":"easy","name":"Latschenalmlift-Süd","aerialway":null,"osm":"way/392127212"},"geometry":{"type":"LineString","coordinates":[[13.24354,47.71742],[13.24227,47.71839],[13.24217,47.7188]]}},{"type":"Feature","properties":{"kind":"piste","difficulty":"intermediate","name":"Latschenalmlift-Mitte","aerialway":null,"osm":"way/392129238"},"geometry":{"type":"LineString","coordinates":[[13.23276,47.72526],[13.23353,47.72521]]}},{"type":"Feature","properties":{"kind":"piste","difficulty":"intermediate","name":"Anzenbergalm","aerialway":null,"osm":"way/392129241"},"geometry":{"type":"LineString","coordinates":[[13.25385,47.71671],[13.25413,47.71681]]}},{"type":"Feature","properties":{"kind":"piste","difficulty":"advanced","name":"Tal-Hintersee Steilhang","aerialway":null,"osm":"way/392129242"},"geometry":{"type":"LineString","coordinates":[[13.25385,47.71671],[13.25444,47.71669],[13.25518,47.717]]}},{"type":"Feature","properties":{"kind":"piste","difficulty":"intermediate","name":"Funslope","aerialway":null,"osm":"way/392133377"},"geometry":{"type":"LineString","coordinates":[[13.23453,47.7185],[13.23468,47.71835],[13.23637,47.71838],[13.23674,47.71803],[13.23629,47.71743],[13.23629,47.71713],[13.23646,47.71682],[13.2362,47.71643],[13.23637,47.71592],[13.23608,47.7157]]}},{"type":"Feature","properties":{"kind":"piste","difficulty":"easy","name":"Latschenalmlift-West","aerialway":null,"osm":"way/392133379"},"geometry":{"type":"LineString","coordinates":[[13.23214,47.72657],[13.23219,47.72596],[13.23182,47.72493]]}},{"type":"Feature","properties":{"kind":"piste","difficulty":"easy","name":"Wieserhörndl","aerialway":null,"osm":"way/392133381"},"geometry":{"type":"LineString","coordinates":[[13.22913,47.72132],[13.22743,47.71988],[13.22636,47.71864]]}},{"type":"Feature","properties":{"kind":"lift","difficulty":null,"name":"Anzenbergalm Übungslift","aerialway":"rope_tow","osm":"way/392135442"},"geometry":{"type":"LineString","coordinates":[[13.25218,47.71546],[13.25062,47.71484]]}},{"type":"Feature","properties":{"kind":"piste","difficulty":"easy","name":null,"aerialway":null,"osm":"way/392136949"},"geometry":{"type":"LineString","coordinates":[[13.25062,47.71484],[13.25065,47.71512],[13.2513,47.71554],[13.25176,47.71559],[13.25218,47.71546]]}},{"type":"Feature","properties":{"kind":"piste","difficulty":"easy","name":"Spielberg","aerialway":null,"osm":"way/392139345"},"geometry":{"type":"LineString","coordinates":[[13.22292,47.72466],[13.22271,47.72467]]}},{"type":"Feature","properties":{"kind":"piste","difficulty":"easy","name":"Tal-Gaissau","aerialway":null,"osm":"way/762431310"},"geometry":{"type":"LineString","coordinates":[[13.22977,47.72249],[13.22803,47.72269],[13.22635,47.72319]]}},{"type":"Feature","properties":{"kind":"piste","difficulty":"intermediate","name":"Wieserhörndl West","aerialway":null,"osm":"way/762431311"},"geometry":{"type":"LineString","coordinates":[[13.22635,47.72319],[13.22567,47.72143]]}},{"type":"Feature","properties":{"kind":"piste","difficulty":"easy","name":"Tal-Gaissau","aerialway":null,"osm":"way/762431315"},"geometry":{"type":"LineString","coordinates":[[13.22403,47.72371],[13.22238,47.7231],[13.22109,47.72214],[13.21954,47.72153],[13.21919,47.71981],[13.21903,47.71774]]}},{"type":"Feature","properties":{"kind":"piste","difficulty":"intermediate","name":"Anzenbergalm","aerialway":null,"osm":"way/899922320"},"geometry":{"type":"LineString","coordinates":[[13.2542,47.71735],[13.25385,47.71671],[13.25296,47.71593],[13.25274,47.71587],[13.2525,47.71611]]}},{"type":"Feature","properties":{"kind":"piste","difficulty":"advanced","name":"Tal-Hintersee Steilhang","aerialway":null,"osm":"way/899922321"},"geometry":{"type":"LineString","coordinates":[[13.25636,47.71802],[13.25676,47.7179],[13.25726,47.71685],[13.25756,47.71664],[13.25801,47.71651],[13.25916,47.7167]]}},{"type":"Feature","properties":{"kind":"piste","difficulty":"intermediate","name":"Umfahrung Steilhang","aerialway":null,"osm":"way/899922322"},"geometry":{"type":"LineString","coordinates":[[13.2525,47.71611],[13.25271,47.71585],[13.25377,47.71536],[13.25424,47.71538],[13.25559,47.71576],[13.25579,47.71615],[13.25587,47.71743],[13.25602,47.7178],[13.25636,47.71802]]}},{"type":"Feature","properties":{"kind":"piste","difficulty":"intermediate","name":"Samiwald","aerialway":null,"osm":"way/965764084"},"geometry":{"type":"LineString","coordinates":[[13.25209,47.71946],[13.25213,47.71927]]}},{"type":"Feature","properties":{"kind":"piste","difficulty":"intermediate","name":"Funslope","aerialway":null,"osm":"way/965764085"},"geometry":{"type":"LineString","coordinates":[[13.25362,47.71742],[13.2542,47.71735]]}},{"type":"Feature","properties":{"kind":"piste","difficulty":"intermediate","name":"Samiwald","aerialway":null,"osm":"way/965764087"},"geometry":{"type":"LineString","coordinates":[[13.25213,47.71927],[13.25128,47.71935],[13.24961,47.71877],[13.25023,47.71872],[13.2505,47.71851],[13.25133,47.71848],[13.25241,47.71777],[13.25362,47.71742]]}},{"type":"Feature","properties":{"kind":"piste","difficulty":"easy","name":"Skiweg","aerialway":null,"osm":"way/1013564814"},"geometry":{"type":"LineString","coordinates":[[13.22636,47.71864],[13.22764,47.71826],[13.22945,47.71847],[13.22992,47.71841],[13.23114,47.71864]]}},{"type":"Feature","properties":{"kind":"piste","difficulty":"easy","name":"Umfahrung Steilhang","aerialway":null,"osm":"way/1013564815"},"geometry":{"type":"LineString","coordinates":[[13.24434,47.72162],[13.24512,47.72125],[13.24533,47.72103],[13.24572,47.72112],[13.24601,47.7215],[13.24645,47.72158]]}},{"type":"Feature","properties":{"kind":"piste","difficulty":"easy","name":"Umfahrung Steilhang","aerialway":null,"osm":"way/1013564816"},"geometry":{"type":"LineString","coordinates":[[13.24434,47.72162],[13.24367,47.72158],[13.2428,47.72128],[13.24213,47.72121],[13.2401,47.72198],[13.23937,47.72264],[13.23822,47.72271],[13.23644,47.72237],[13.23451,47.72179],[13.23331,47.72128],[13.23238,47.72108],[13.23115,47.72054],[13.23052,47.72046],[13.22937,47.71946]]}},{"type":"Feature","properties":{"kind":"piste","difficulty":"intermediate","name":"Tal-Hintersee","aerialway":null,"osm":"way/1020042136"},"geometry":{"type":"LineString","coordinates":[[13.25916,47.7167],[13.2608,47.71798],[13.26184,47.71844],[13.26418,47.71996],[13.26593,47.72085]]}}]}