{"type":"FeatureCollection","features":[{"type":"Feature","properties":{"kind":"piste","difficulty":"intermediate","name":"Piste 1","aerialway":null,"osm":"way/47512365"},"geometry":{"type":"LineString","coordinates":[[12.61698,46.71995],[12.61728,46.72082],[12.61747,46.72094],[12.61791,46.72045],[12.61805,46.72054],[12.61821,46.72128],[12.61842,46.72126],[12.61891,46.72049],[12.61911,46.72045],[12.6197,46.72142],[12.62016,46.72129],[12.62068,46.72037],[12.621,46.72025],[12.62122,46.72038],[12.62138,46.72073],[12.62173,46.7208],[12.62254,46.72],[12.62268,46.71963],[12.62297,46.7195],[12.62345,46.71977],[12.62369,46.72054],[12.6238,46.72185],[12.62297,46.72342],[12.62244,46.72477],[12.62064,46.72592],[12.6186,46.72744],[12.61833,46.72777],[12.61828,46.72866],[12.61777,46.72968],[12.61774,46.73057],[12.61764,46.72996],[12.61792,46.72896],[12.61818,46.72861],[12.61814,46.72775],[12.61869,46.72716],[12.61926,46.72687],[12.62232,46.72463],[12.62366,46.7216],[12.62364,46.72108],[12.62334,46.71988],[12.62298,46.71967],[12.62184,46.72084],[12.6215,46.72093],[12.62114,46.72072],[12.6211,46.72043],[12.62092,46.72042],[12.62015,46.72144],[12.61963,46.72152],[12.61933,46.72121],[12.61903,46.72058],[12.61841,46.72139],[12.61813,46.72136],[12.61797,46.72068],[12.61748,46.72109],[12.61723,46.72096],[12.61688,46.71999],[12.61698,46.71995]]}},{"type":"Feature","properties":{"kind":"lift","difficulty":null,"name":"Golzentippbahn","aerialway":"gondola","osm":"way/47512369"},"geometry":{"type":"LineString","coordinates":[[12.61825,46.71048],[12.62345,46.72385]]}},{"type":"Feature","properties":{"kind":"lift","difficulty":null,"name":"Glamplift","aerialway":"t-bar","osm":"way/47512382"},"geometry":{"type":"LineString","coordinates":[[12.62346,46.72603],[12.61697,46.73169]]}},{"type":"Feature","properties":{"kind":"piste","difficulty":"intermediate","name":"Piste 3","aerialway":null,"osm":"way/47512383"},"geometry":{"type":"LineString","coordinates":[[12.61784,46.73086],[12.61769,46.73073],[12.61782,46.73032],[12.61827,46.7298],[12.61917,46.72912],[12.61992,46.72825],[12.62002,46.72781],[12.62087,46.72663],[12.62246,46.72589],[12.62324,46.72586],[12.62275,46.72594],[12.62091,46.72681],[12.6199,46.72851],[12.61921,46.72927],[12.61803,46.73022],[12.61784,46.73057],[12.61784,46.73086]]}},{"type":"Feature","properties":{"kind":"piste","difficulty":"easy","name":"Piste 4","aerialway":null,"osm":"way/47512384"},"geometry":{"type":"LineString","coordinates":[[12.62273,46.72629],[12.62245,46.72677],[12.62288,46.72768],[12.62262,46.72996],[12.62209,46.73027],[12.62062,46.73066],[12.61798,46.73092],[12.61849,46.73072],[12.61986,46.73061],[12.62082,46.73029],[12.6218,46.73015],[12.62227,46.72973],[12.62227,46.72818],[12.6224,46.72726],[12.6223,46.72677],[12.62274,46.72598],[12.62324,46.72586],[12.62273,46.72629]]}},{"type":"Feature","properties":{"kind":"lift","difficulty":null,"name":"Bloaslift","aerialway":"t-bar","osm":"way/317897147"},"geometry":{"type":"LineString","coordinates":[[12.62947,46.72457],[12.62271,46.72426]]}},{"type":"Feature","properties":{"kind":"lift","difficulty":null,"name":"Himbeergollift","aerialway":"t-bar","osm":"way/317897160"},"geometry":{"type":"LineString","coordinates":[[12.61047,46.7096],[12.61133,46.71316]]}},{"type":"Feature","properties":{"kind":"lift","difficulty":null,"name":"Stubenlift","aerialway":"t-bar","osm":"way/317897164"},"geometry":{"type":"LineString","coordinates":[[12.60994,46.71253],[12.61676,46.71996]]}},{"type":"Feature","properties":{"kind":"piste","difficulty":"advanced","name":"Piste 6","aerialway":null,"osm":"way/659877075"},"geometry":{"type":"LineString","coordinates":[[12.62403,46.72476],[12.6247,46.72497],[12.62851,46.72497],[12.62919,46.72482],[12.62947,46.72457]]}},{"type":"Feature","properties":{"kind":"piste","difficulty":"easy","name":null,"aerialway":null,"osm":"way/659877076"},"geometry":{"type":"LineString","coordinates":[[12.61785,46.73093],[12.62045,46.73055],[12.62219,46.73005],[12.62249,46.7295],[12.62256,46.72735],[12.62237,46.72681],[12.62281,46.72608],[12.62321,46.72585],[12.62346,46.72603]]}},{"type":"Feature","properties":{"kind":"piste","difficulty":"intermediate","name":null,"aerialway":null,"osm":"way/659877077"},"geometry":{"type":"LineString","coordinates":[[12.61785,46.73093],[12.6177,46.72983],[12.61823,46.72855],[12.61824,46.72772],[12.62223,46.72482],[12.62263,46.72423]]}},{"type":"Feature","properties":{"kind":"piste","difficulty":"intermediate","name":null,"aerialway":null,"osm":"way/659877078"},"geometry":{"type":"LineString","coordinates":[[12.61785,46.73042],[12.61981,46.72847],[12.62101,46.72663],[12.62277,46.72588],[12.62321,46.72585]]}},{"type":"Feature","properties":{"kind":"piste","difficulty":"intermediate","name":"Dorfabfahrt","aerialway":null,"osm":"way/659877079"},"geometry":{"type":"LineString","coordinates":[[12.62263,46.72423],[12.62294,46.72329],[12.62374,46.72177],[12.62355,46.72026],[12.62329,46.7198],[12.62294,46.7196],[12.6218,46.7208],[12.62142,46.72084],[12.62121,46.72067],[12.62118,46.72044],[12.621,46.72032],[12.62078,46.72041],[12.62017,46.72135],[12.61973,46.72145],[12.6194,46.72119],[12.61902,46.72054],[12.61841,46.72132],[12.61816,46.72129],[12.61795,46.72064],[12.61742,46.72098],[12.61728,46.72094],[12.61691,46.71992]]}},{"type":"Feature","properties":{"kind":"piste","difficulty":"easy","name":null,"aerialway":null,"osm":"way/659877080"},"geometry":{"type":"LineString","coordinates":[[12.61122,46.71269],[12.61069,46.71257],[12.60995,46.70989],[12.61049,46.70969]]}},{"type":"Feature","properties":{"kind":"piste","difficulty":"easy","name":null,"aerialway":null,"osm":"way/659877081"},"geometry":{"type":"LineString","coordinates":[[12.61122,46.71269],[12.61138,46.71253],[12.61147,46.71207],[12.61108,46.7108],[12.6108,46.71021],[12.61003,46.70983]]}},{"type":"Feature","properties":{"kind":"piste","difficulty":"easy","name":null,"aerialway":null,"osm":"way/659877082"},"geometry":{"type":"LineString","coordinates":[[12.61135,46.71374],[12.61067,46.71294],[12.60994,46.71253]]}},{"type":"Feature","properties":{"kind":"piste","difficulty":"easy","name":"Dorfabfahrt","aerialway":null,"osm":"way/659877083"},"geometry":{"type":"LineString","coordinates":[[12.61691,46.71992],[12.61604,46.71859],[12.61507,46.71806],[12.61304,46.71514],[12.61135,46.71374],[12.61171,46.71306],[12.61312,46.71255],[12.61367,46.71205],[12.61825,46.71048]]}},{"type":"Feature","properties":{"kind":"piste","difficulty":"easy","name":"Piste 1","aerialway":null,"osm":"way/659877084"},"geometry":{"type":"LineString","coordinates":[[12.61698,46.71995],[12.61688,46.71999],[12.61628,46.719],[12.61589,46.71861],[12.61499,46.71807],[12.61407,46.7167],[12.61243,46.71468],[12.61128,46.71383],[12.61133,46.71344],[12.61162,46.71304],[12.61301,46.71253],[12.61365,46.712],[12.61461,46.7116],[12.61683,46.71096],[12.61803,46.71038],[12.61792,46.71062],[12.61684,46.71107],[12.6137,46.71208],[12.61307,46.71264],[12.6118,46.71308],[12.61139,46.71373],[12.61268,46.7146],[12.61365,46.71564],[12.61507,46.71799],[12.61601,46.71848],[12.61698,46.71995]]}},{"type":"Feature","properties":{"kind":"piste","difficulty":"easy","name":null,"aerialway":null,"osm":"way/904876110"},"geometry":{"type":"LineString","coordinates":[[12.61135,46.71374],[12.61069,46.71257]]}},{"type":"Feature","properties":{"kind":"piste","difficulty":"easy","name":null,"aerialway":null,"osm":"way/904876111"},"geometry":{"type":"LineString","coordinates":[[12.61122,46.71269],[12.61267,46.71268]]}},{"type":"Feature","properties":{"kind":"piste","difficulty":"novice","name":null,"aerialway":null,"osm":"way/904876112"},"geometry":{"type":"LineString","coordinates":[[12.62334,46.72397],[12.62358,46.72417],[12.6237,46.72449],[12.62321,46.72585]]}},{"type":"Feature","properties":{"kind":"piste","difficulty":"intermediate","name":"Ralsabfahrt","aerialway":null,"osm":"way/904876113"},"geometry":{"type":"LineString","coordinates":[[12.62481,46.71963],[12.62513,46.71915],[12.62527,46.71855],[12.62634,46.71757],[12.62656,46.71708],[12.62721,46.71684],[12.62751,46.71645],[12.62754,46.716],[12.62731,46.71529],[12.62741,46.71488],[12.629,46.71436],[12.62958,46.71405],[12.62966,46.71361],[12.62932,46.71315],[12.62933,46.7127],[12.62951,46.71229],[12.63017,46.71123],[12.63116,46.7105],[12.63207,46.70928]]}},{"type":"Feature","properties":{"kind":"piste","difficulty":"easy","name":null,"aerialway":null,"osm":"way/904876115"},"geometry":{"type":"LineString","coordinates":[[12.62481,46.71963],[12.62427,46.71954],[12.62339,46.71992]]}},{"type":"Feature","properties":{"kind":"piste","difficulty":"novice","name":"Verbindung zu Weiler","aerialway":null,"osm":"way/1037752884"},"geometry":{"type":"LineString","coordinates":[[12.61003,46.70983],[12.61017,46.70953],[12.6106,46.70931]]}},{"type":"Feature","properties":{"kind":"piste","difficulty":"novice","name":"Verbindung zu Weiler","aerialway":null,"osm":"way/1037755642"},"geometry":{"type":"LineString","coordinates":[[12.6106,46.70931],[12.61104,46.70913],[12.61142,46.70842]]}},{"type":"Feature","properties":{"kind":"piste","difficulty":"easy","name":"Ralsabfahrt","aerialway":null,"osm":"way/1037764856"},"geometry":{"type":"LineString","coordinates":[[12.62358,46.72417],[12.62369,46.72408],[12.62345,46.72357],[12.62333,46.72271],[12.62442,46.7215],[12.62478,46.72056],[12.62481,46.71963]]}},{"type":"Feature","properties":{"kind":"piste","difficulty":"intermediate","name":"Piste 6","aerialway":null,"osm":"way/1037771305"},"geometry":{"type":"LineString","coordinates":[[12.62306,46.72428],[12.62315,46.72448],[12.62403,46.72476]]}},{"type":"Feature","properties":{"kind":"piste","difficulty":"easy","name":"Verbindung Conny-Alm","aerialway":null,"osm":"way/1037772348"},"geometry":{"type":"LineString","coordinates":[[12.62321,46.72585],[12.62403,46.72476]]}},{"type":"Feature","properties":{"kind":"piste","difficulty":"easy","name":null,"aerialway":null,"osm":"way/1037772925"},"geometry":{"type":"LineString","coordinates":[[12.62365,46.72436],[12.62403,46.72476]]}},{"type":"Feature","properties":{"kind":"piste","difficulty":"intermediate","name":null,"aerialway":null,"osm":"way/1037777721"},"geometry":{"type":"LineString","coordinates":[[12.62238,46.72467],[12.62334,46.72455]]}},{"type":"Feature","properties":{"kind":"piste","difficulty":"easy","name":null,"aerialway":null,"osm":"way/1037779583"},"geometry":{"type":"LineString","coordinates":[[12.62306,46.72428],[12.62334,46.72397],[12.62294,46.72329]]}},{"type":"Feature","properties":{"kind":"piste","difficulty":"easy","name":null,"aerialway":null,"osm":"way/1054820340"},"geometry":{"type":"LineString","coordinates":[[12.61069,46.71257],[12.61008,46.7126]]}},{"type":"Feature","properties":{"kind":"piste","difficulty":"novice","name":"Golzentipp","aerialway":null,"osm":"relation/19967173"},"geometry":{"type":"MultiLineString","coordinates":[[[12.63207,46.70928],[12.63128,46.70923],[12.63096,46.70936],[12.6281,46.70953],[12.62758,46.70995],[12.62718,46.70989],[12.62639,46.71003],[12.62582,46.70992],[12.62559,46.71006],[12.62511,46.71006],[12.62482,46.71026],[12.62416,46.71027],[12.62377,46.7105],[12.62324,46.71042],[12.62159,46.71082]],[[12.62159,46.71082],[12.62005,46.71102]],[[12.62005,46.71102],[12.61937,46.71084],[12.61835,46.71083],[12.61811,46.71077],[12.61798,46.71052]]]}}]}