{"type":"FeatureCollection","features":[{"type":"Feature","properties":{"kind":"piste","difficulty":"easy","name":"Zufahrt Sonnalpin","aerialway":null,"osm":"way/48040591"},"geometry":{"type":"LineString","coordinates":[[10.97513,47.41082],[10.97599,47.41165],[10.97965,47.41281],[10.9793,47.4131],[10.9794,47.41343],[10.9797,47.41368],[10.98088,47.41407]]}},{"type":"Feature","properties":{"kind":"lift","difficulty":null,"name":"Skischullift Ehrwald","aerialway":"t-bar","osm":"way/48479533"},"geometry":{"type":"LineString","coordinates":[[10.92425,47.39887],[10.92819,47.39835]]}},{"type":"Feature","properties":{"kind":"lift","difficulty":null,"name":"Sonnenhangbahn Sunracer","aerialway":"chair_lift","osm":"way/48479534"},"geometry":{"type":"LineString","coordinates":[[10.92444,47.39854],[10.94151,47.40257]]}},{"type":"Feature","properties":{"kind":"piste","difficulty":"easy","name":"Hirschsprung","aerialway":null,"osm":"way/95068928"},"geometry":{"type":"LineString","coordinates":[[10.94001,47.4035],[10.93905,47.40435],[10.93864,47.40496],[10.9373,47.40641],[10.93637,47.40694],[10.93581,47.40802],[10.93528,47.40865],[10.93344,47.40979]]}},{"type":"Feature","properties":{"kind":"piste","difficulty":"easy","name":"Bärengrubenabfahrt","aerialway":null,"osm":"way/95068929"},"geometry":{"type":"LineString","coordinates":[[10.94867,47.4069],[10.94844,47.40742],[10.94868,47.40812],[10.94812,47.40876],[10.94775,47.40955],[10.94709,47.4096],[10.94622,47.40916],[10.94589,47.40893],[10.94595,47.40842],[10.94554,47.4081]]}},{"type":"Feature","properties":{"kind":"piste","difficulty":"advanced","name":"Wettersteinabfahrt","aerialway":null,"osm":"way/95068930"},"geometry":{"type":"LineString","coordinates":[[10.94864,47.40706],[10.94753,47.40669],[10.94699,47.40665],[10.94458,47.40701],[10.94153,47.40699]]}},{"type":"Feature","properties":{"kind":"piste","difficulty":"advanced","name":"Racing S","aerialway":null,"osm":"way/95068933"},"geometry":{"type":"LineString","coordinates":[[10.94805,47.40684],[10.94764,47.40632],[10.94624,47.40613],[10.94529,47.40542],[10.94469,47.40524],[10.9443,47.40537],[10.94373,47.40609],[10.94322,47.40609],[10.94259,47.40588],[10.94166,47.40536],[10.94068,47.40427]]}},{"type":"Feature","properties":{"kind":"piste","difficulty":"intermediate","name":"Weißlähn","aerialway":null,"osm":"way/95068934"},"geometry":{"type":"LineString","coordinates":[[10.94678,47.40952],[10.94626,47.40956],[10.94533,47.41036],[10.94301,47.41125],[10.94227,47.41167],[10.94179,47.41212]]}},{"type":"Feature","properties":{"kind":"piste","difficulty":"easy","name":"Panoramaabfahrt","aerialway":null,"osm":"way/95068935"},"geometry":{"type":"LineString","coordinates":[[10.94554,47.4081],[10.94442,47.40842],[10.94368,47.40832],[10.9423,47.40928],[10.94187,47.40986],[10.94161,47.41149],[10.94179,47.41212],[10.94028,47.41367]]}},{"type":"Feature","properties":{"kind":"lift","difficulty":null,"name":"Tiroler Zugspitzbahn","aerialway":"cable_car","osm":"way/124074408"},"geometry":{"type":"LineString","coordinates":[[10.94284,47.4265],[10.98408,47.42142]]}},{"type":"Feature","properties":{"kind":"lift","difficulty":null,"name":"Wettersteinbahn","aerialway":"chair_lift","osm":"way/150432510"},"geometry":{"type":"LineString","coordinates":[[10.92898,47.4071],[10.94867,47.4069]]}},{"type":"Feature","properties":{"kind":"piste","difficulty":"advanced","name":"Wettersteinabfahrt","aerialway":null,"osm":"way/177965676"},"geometry":{"type":"LineString","coordinates":[[10.94153,47.40699],[10.93966,47.40675],[10.93839,47.40673],[10.92992,47.40701],[10.92896,47.40695],[10.92898,47.4071]]}},{"type":"Feature","properties":{"kind":"piste","difficulty":"easy","name":"Dorfabfahrt","aerialway":null,"osm":"way/179480624"},"geometry":{"type":"LineString","coordinates":[[10.93838,47.41127],[10.93783,47.41079],[10.93685,47.40829],[10.93632,47.40764],[10.93524,47.40683]]}},{"type":"Feature","properties":{"kind":"piste","difficulty":"freeride","name":"Neue Welt Abfahrt","aerialway":null,"osm":"way/236052089"},"geometry":{"type":"LineString","coordinates":[[10.94753,47.39322],[10.94714,47.39267],[10.94545,47.39167],[10.94381,47.39148],[10.94343,47.39161],[10.94239,47.39159],[10.94175,47.39144],[10.94008,47.39076],[10.93952,47.39068],[10.9386,47.38974],[10.93575,47.38933]]}},{"type":"Feature","properties":{"kind":"piste","difficulty":"unknown","name":"Neue Welt Abfahrt","aerialway":null,"osm":"way/236052091"},"geometry":{"type":"LineString","coordinates":[[10.96879,47.41144],[10.96848,47.41071],[10.96752,47.41001],[10.96704,47.40885],[10.96668,47.40861],[10.96669,47.40815],[10.96716,47.40774],[10.96714,47.40704],[10.96595,47.40557],[10.96473,47.40457],[10.96435,47.40441]]}},{"type":"Feature","properties":{"kind":"piste","difficulty":"unknown","name":"Neue Welt Abfahrt","aerialway":null,"osm":"way/236055882"},"geometry":{"type":"LineString","coordinates":[[10.96413,47.40376],[10.96228,47.40246],[10.96134,47.40218],[10.95992,47.40142],[10.9581,47.40082],[10.95563,47.40033],[10.95379,47.40026],[10.9517,47.39954],[10.95002,47.39841],[10.94857,47.39773],[10.94831,47.39742],[10.94814,47.39674],[10.94726,47.39613],[10.94712,47.39548],[10.94629,47.39488],[10.94715,47.39402],[10.94753,47.39322]]}},{"type":"Feature","properties":{"kind":"lift","difficulty":null,"name":"Weisses Tal","aerialway":"t-bar","osm":"way/317500353"},"geometry":{"type":"LineString","coordinates":[[10.98999,47.40975],[10.97402,47.41051]]}},{"type":"Feature","properties":{"kind":"piste","difficulty":"intermediate","name":"Oberes weißes Tal","aerialway":null,"osm":"way/317501901"},"geometry":{"type":"LineString","coordinates":[[10.97514,47.41046],[10.97593,47.41063],[10.97805,47.41061],[10.97966,47.41044],[10.98079,47.4107],[10.9818,47.41142]]}},{"type":"Feature","properties":{"kind":"piste","difficulty":"easy","name":null,"aerialway":null,"osm":"way/317502673"},"geometry":{"type":"LineString","coordinates":[[10.97514,47.41046],[10.97513,47.41082]]}},{"type":"Feature","properties":{"kind":"piste","difficulty":"intermediate","name":"Riffelabfahrt","aerialway":null,"osm":"way/317559856"},"geometry":{"type":"LineString","coordinates":[[10.98631,47.43411],[10.98511,47.43314],[10.98213,47.43245],[10.98093,47.43297],[10.97941,47.4333],[10.97859,47.43385],[10.97844,47.43425],[10.97903,47.43525],[10.9791,47.43572],[10.98048,47.43782],[10.98041,47.43919],[10.98006,47.43996],[10.97971,47.4403],[10.97867,47.44084],[10.97812,47.44127],[10.97795,47.44159],[10.97807,47.44227],[10.97834,47.44275],[10.97924,47.44343],[10.97966,47.44368],[10.98059,47.44394],[10.98056,47.4449],[10.98079,47.4456],[10.98218,47.44713],[10.98239,47.44816],[10.9827,47.44869],[10.9841,47.45006],[10.9849,47.45067],[10.9865,47.45116],[10.98744,47.45222],[10.98829,47.45289],[10.98942,47.45318],[10.99064,47.45422],[10.99181,47.4544],[10.99265,47.4549],[10.99273,47.45506],[10.99264,47.45546],[10.99317,47.45628],[10.99276,47.45638],[10.99255,47.45677],[10.99217,47.45659]]}},{"type":"Feature","properties":{"kind":"piste","difficulty":"easy","name":"Familienabfahrt","aerialway":null,"osm":"way/396610681"},"geometry":{"type":"LineString","coordinates":[[10.94151,47.40257],[10.94144,47.40276],[10.94125,47.40281],[10.93999,47.40285],[10.93893,47.40275],[10.93783,47.40248],[10.93587,47.40235],[10.93453,47.4024],[10.93235,47.40204],[10.93152,47.40152],[10.93045,47.39981],[10.92907,47.39906],[10.92873,47.39865],[10.92821,47.39831],[10.92787,47.39826]]}},{"type":"Feature","properties":{"kind":"piste","difficulty":"easy","name":"Sonnenhang","aerialway":null,"osm":"way/396610682"},"geometry":{"type":"LineString","coordinates":[[10.94086,47.40279],[10.93931,47.40216],[10.93266,47.40063],[10.93045,47.39981]]}},{"type":"Feature","properties":{"kind":"piste","difficulty":"easy","name":"Dorfabfahrt","aerialway":null,"osm":"way/396610683"},"geometry":{"type":"LineString","coordinates":[[10.93524,47.40683],[10.93473,47.4064],[10.93434,47.40457],[10.93358,47.40384],[10.93328,47.40335],[10.93298,47.40214],[10.93294,47.40146],[10.93266,47.40063]]}},{"type":"Feature","properties":{"kind":"piste","difficulty":"easy","name":"Lähngrubenschuss","aerialway":null,"osm":"way/396610684"},"geometry":{"type":"LineString","coordinates":[[10.94255,47.40911],[10.94229,47.40845],[10.94168,47.40796],[10.94153,47.40699]]}},{"type":"Feature","properties":{"kind":"piste","difficulty":"easy","name":"Lähngrubenschuss","aerialway":null,"osm":"way/396610685"},"geometry":{"type":"LineString","coordinates":[[10.94153,47.40699],[10.94117,47.406],[10.94048,47.40533],[10.94068,47.40427]]}},{"type":"Feature","properties":{"kind":"lift","difficulty":null,"name":"Seilbahn Zugspitze","aerialway":"cable_car","osm":"way/547665876"},"geometry":{"type":"LineString","coordinates":[[10.98546,47.42132],[10.99217,47.45659]]}},{"type":"Feature","properties":{"kind":"piste","difficulty":"easy","name":null,"aerialway":null,"osm":"way/629029433"},"geometry":{"type":"LineString","coordinates":[[10.93807,47.40253],[10.93756,47.40221],[10.93763,47.40176]]}},{"type":"Feature","properties":{"kind":"piste","difficulty":"intermediate","name":"Oberes weißes Tal","aerialway":null,"osm":"way/1137822013"},"geometry":{"type":"LineString","coordinates":[[10.9751,47.41074],[10.9773,47.41067],[10.97803,47.41079],[10.97972,47.41065],[10.98178,47.41125],[10.98082,47.41053],[10.98005,47.41032],[10.97507,47.41048],[10.9751,47.41074]]}},{"type":"Feature","properties":{"kind":"piste","difficulty":"easy","name":"Hansebrandboden","aerialway":null,"osm":"way/1241461907"},"geometry":{"type":"LineString","coordinates":[[10.93838,47.41127],[10.93756,47.41101],[10.93557,47.41099],[10.93457,47.41061],[10.93217,47.40895],[10.93083,47.40862],[10.93032,47.4079],[10.92992,47.40701]]}},{"type":"Feature","properties":{"kind":"piste","difficulty":"easy","name":"Hirschsprung","aerialway":null,"osm":"way/1241461908"},"geometry":{"type":"LineString","coordinates":[[10.94001,47.40244],[10.94,47.40305]]}},{"type":"Feature","properties":{"kind":"piste","difficulty":"easy","name":"Hirschsprung","aerialway":null,"osm":"way/1241461909"},"geometry":{"type":"LineString","coordinates":[[10.94,47.40305],[10.94001,47.4035]]}},{"type":"Feature","properties":{"kind":"piste","difficulty":"easy","name":"Hirschsprung","aerialway":null,"osm":"way/1241461910"},"geometry":{"type":"LineString","coordinates":[[10.94,47.40305],[10.93972,47.40283]]}},{"type":"Feature","properties":{"kind":"piste","difficulty":"easy","name":"Lähngrubenschuss","aerialway":null,"osm":"way/1241461911"},"geometry":{"type":"LineString","coordinates":[[10.94068,47.40427],[10.94001,47.4035]]}},{"type":"Feature","properties":{"kind":"piste","difficulty":"intermediate","name":"Brückenabfahrt","aerialway":null,"osm":"way/1241461912"},"geometry":{"type":"LineString","coordinates":[[10.94558,47.40685],[10.94529,47.4071],[10.94554,47.4081]]}},{"type":"Feature","properties":{"kind":"piste","difficulty":"easy","name":"Waldabfahrt","aerialway":null,"osm":"way/1241461913"},"geometry":{"type":"LineString","coordinates":[[10.94603,47.406],[10.94607,47.4058],[10.94677,47.40558],[10.94647,47.40537],[10.94636,47.4051],[10.94451,47.40506],[10.944,47.40605],[10.94397,47.40639],[10.94381,47.40661],[10.94346,47.40674],[10.94311,47.40726],[10.94291,47.4089]]}},{"type":"Feature","properties":{"kind":"piste","difficulty":"easy","name":"Confetti-Piste","aerialway":null,"osm":"way/1241461914"},"geometry":{"type":"LineString","coordinates":[[10.92819,47.39835],[10.92787,47.39826]]}},{"type":"Feature","properties":{"kind":"piste","difficulty":"easy","name":"Confetti-Piste","aerialway":null,"osm":"way/1241461915"},"geometry":{"type":"LineString","coordinates":[[10.92787,47.39826],[10.92566,47.39851],[10.92444,47.39836],[10.92426,47.39851],[10.92444,47.39854]]}},{"type":"Feature","properties":{"kind":"piste","difficulty":"easy","name":"Confetti-Piste","aerialway":null,"osm":"way/1241461916"},"geometry":{"type":"LineString","coordinates":[[10.92475,47.39869],[10.9241,47.39876],[10.92409,47.39889],[10.92425,47.39887]]}},{"type":"Feature","properties":{"kind":"piste","difficulty":"easy","name":"Confetti-Piste","aerialway":null,"osm":"way/1241461917"},"geometry":{"type":"LineString","coordinates":[[10.92566,47.39851],[10.92475,47.39869],[10.92436,47.3986]]}},{"type":"Feature","properties":{"kind":"piste","difficulty":"easy","name":null,"aerialway":null,"osm":"way/1241461918"},"geometry":{"type":"LineString","coordinates":[[10.94028,47.41367],[10.93985,47.41346],[10.9389,47.41184],[10.93838,47.41127]]}}]}