{"type":"FeatureCollection","features":[{"type":"Feature","properties":{"kind":"piste","difficulty":"intermediate","name":"S1 - Talabfahrt Stranach","aerialway":null,"osm":"way/31800159"},"geometry":{"type":"LineString","coordinates":[[13.61186,47.06352],[13.61194,47.06422],[13.61469,47.06969],[13.61507,47.07219],[13.61708,47.07829],[13.61726,47.08083],[13.61684,47.08247],[13.61707,47.08255],[13.61748,47.08239],[13.6184,47.0824],[13.61913,47.08224],[13.61923,47.08237],[13.61868,47.08347],[13.61899,47.08392],[13.62138,47.08465],[13.62613,47.08537],[13.627,47.08569],[13.62769,47.08612],[13.62944,47.08647],[13.6302,47.08714],[13.63179,47.0876],[13.63313,47.08775],[13.63572,47.08926],[13.63779,47.08975],[13.63811,47.09013]]}},{"type":"Feature","properties":{"kind":"piste","difficulty":"intermediate","name":"10 - Petersbründl-Trainingspiste","aerialway":null,"osm":"way/205222004"},"geometry":{"type":"LineString","coordinates":[[13.62425,47.08493],[13.62407,47.08542],[13.62499,47.08738],[13.62499,47.0884],[13.62515,47.08887],[13.62546,47.08925],[13.62646,47.0899],[13.6271,47.09016],[13.62729,47.09011]]}},{"type":"Feature","properties":{"kind":"lift","difficulty":null,"name":"Petersbründllift","aerialway":"t-bar","osm":"way/197167399"},"geometry":{"type":"LineString","coordinates":[[13.62729,47.09011],[13.62397,47.08446]]}}]}