{"type":"FeatureCollection","features":[{"type":"Feature","properties":{"kind":"lift","difficulty":null,"name":"Babylift","aerialway":"rope_tow","osm":"way/47934047"},"geometry":{"type":"LineString","coordinates":[[11.79252,47.51134],[11.79365,47.51212]]}},{"type":"Feature","properties":{"kind":"lift","difficulty":null,"name":"Rofanlift II","aerialway":"t-bar","osm":"way/47934052"},"geometry":{"type":"LineString","coordinates":[[11.79235,47.51065],[11.78767,47.50478]]}},{"type":"Feature","properties":{"kind":"piste","difficulty":"novice","name":"Babylift","aerialway":null,"osm":"way/47955584"},"geometry":{"type":"LineString","coordinates":[[11.79365,47.51212],[11.79329,47.51203],[11.7926,47.51157],[11.79252,47.51134]]}},{"type":"Feature","properties":{"kind":"lift","difficulty":null,"name":"Rofanlift I","aerialway":"t-bar","osm":"way/127731847"},"geometry":{"type":"LineString","coordinates":[[11.79352,47.51691],[11.79198,47.51325]]}},{"type":"Feature","properties":{"kind":"piste","difficulty":"easy","name":null,"aerialway":null,"osm":"way/417399320"},"geometry":{"type":"LineString","coordinates":[[11.788,47.5052],[11.78778,47.50574],[11.78787,47.50634],[11.78914,47.50871],[11.78999,47.50944],[11.79078,47.50978],[11.79205,47.51063],[11.79235,47.51065]]}},{"type":"Feature","properties":{"kind":"piste","difficulty":"easy","name":null,"aerialway":null,"osm":"way/417399322"},"geometry":{"type":"LineString","coordinates":[[11.79215,47.51365],[11.79257,47.51368],[11.79271,47.51389],[11.79352,47.51691]]}},{"type":"Feature","properties":{"kind":"piste","difficulty":"easy","name":null,"aerialway":null,"osm":"way/417399325"},"geometry":{"type":"LineString","coordinates":[[11.79215,47.51365],[11.79196,47.51381],[11.79183,47.51423],[11.7922,47.51553],[11.79352,47.51691]]}},{"type":"Feature","properties":{"kind":"piste","difficulty":"easy","name":null,"aerialway":null,"osm":"way/1070936372"},"geometry":{"type":"LineString","coordinates":[[11.79329,47.51203],[11.79297,47.51215],[11.79236,47.51286],[11.79238,47.51321],[11.79263,47.51373]]}}]}