{"type":"FeatureCollection","features":[{"type":"Feature","properties":{"kind":"lift","difficulty":null,"name":"Thurntaler I","aerialway":"gondola","osm":"way/26600291"},"geometry":{"type":"LineString","coordinates":[[12.43322,46.75062],[12.41207,46.76333]]}},{"type":"Feature","properties":{"kind":"lift","difficulty":null,"name":"Sesselbahn Gadein","aerialway":"chair_lift","osm":"way/52923476"},"geometry":{"type":"LineString","coordinates":[[12.40141,46.77095],[12.38875,46.77179]]}},{"type":"Feature","properties":{"kind":"lift","difficulty":null,"name":"Thurntaler","aerialway":"chair_lift","osm":"way/52929802"},"geometry":{"type":"LineString","coordinates":[[12.40717,46.77606],[12.3831,46.77452]]}},{"type":"Feature","properties":{"kind":"piste","difficulty":"intermediate","name":null,"aerialway":null,"osm":"way/105556061"},"geometry":{"type":"LineString","coordinates":[[12.3831,46.77452],[12.38284,46.77449],[12.38288,46.77438],[12.38381,46.77387],[12.38593,46.77343],[12.38813,46.77264],[12.38831,46.77246],[12.38861,46.77158],[12.38966,46.77084],[12.39019,46.76997],[12.3925,46.76897],[12.39321,46.76962],[12.39676,46.77085],[12.39772,46.77096],[12.39899,46.77085],[12.39977,46.77124],[12.40145,46.77107],[12.40155,46.77093]]}},{"type":"Feature","properties":{"kind":"piste","difficulty":"intermediate","name":null,"aerialway":null,"osm":"way/105556122"},"geometry":{"type":"LineString","coordinates":[[12.3925,46.76897],[12.39461,46.76848],[12.39508,46.76904],[12.39556,46.77009],[12.39641,46.77049],[12.39731,46.77064],[12.39861,46.77059],[12.39941,46.77035],[12.40135,46.77082],[12.40155,46.77093],[12.40141,46.77095]]}},{"type":"Feature","properties":{"kind":"piste","difficulty":"intermediate","name":null,"aerialway":null,"osm":"way/105556305"},"geometry":{"type":"LineString","coordinates":[[12.40395,46.76581],[12.40471,46.76556],[12.40709,46.76533],[12.40837,46.76449],[12.41026,46.7635],[12.41152,46.76316],[12.41281,46.76311],[12.41368,46.76258],[12.41539,46.76375],[12.41596,46.7637]]}},{"type":"Feature","properties":{"kind":"lift","difficulty":null,"name":"Ausservillgraten","aerialway":"chair_lift","osm":"way/105556596"},"geometry":{"type":"LineString","coordinates":[[12.42147,46.78242],[12.39847,46.7765]]}},{"type":"Feature","properties":{"kind":"piste","difficulty":"advanced","name":"1a","aerialway":null,"osm":"way/110918217"},"geometry":{"type":"LineString","coordinates":[[12.39461,46.76848],[12.39632,46.76839],[12.39734,46.76819],[12.398,46.76782],[12.40045,46.76568],[12.40287,46.76587],[12.40395,46.76581]]}},{"type":"Feature","properties":{"kind":"piste","difficulty":"intermediate","name":null,"aerialway":null,"osm":"way/122491814"},"geometry":{"type":"LineString","coordinates":[[12.41818,46.7609],[12.41819,46.76052],[12.41796,46.75989],[12.41813,46.75965],[12.41873,46.75963],[12.41986,46.76052],[12.42089,46.76031],[12.42128,46.76006],[12.42136,46.75934],[12.42198,46.75888],[12.42226,46.75835],[12.42493,46.75698],[12.42668,46.75668],[12.4279,46.7573],[12.42817,46.75722],[12.42797,46.75631],[12.4288,46.75578],[12.42981,46.75536],[12.43116,46.75524],[12.43158,46.755],[12.43175,46.75433],[12.4331,46.75332],[12.43413,46.75233],[12.43413,46.75215],[12.43254,46.75093],[12.43341,46.75048],[12.43354,46.75067],[12.43322,46.75062]]}},{"type":"Feature","properties":{"kind":"piste","difficulty":"intermediate","name":null,"aerialway":null,"osm":"way/122491816"},"geometry":{"type":"LineString","coordinates":[[12.41596,46.7637],[12.41617,46.76366],[12.41668,46.76313],[12.41778,46.76176],[12.41818,46.7609]]}},{"type":"Feature","properties":{"kind":"piste","difficulty":"intermediate","name":null,"aerialway":null,"osm":"way/126514223"},"geometry":{"type":"LineString","coordinates":[[12.39435,46.77453],[12.39586,46.77428],[12.39767,46.77462],[12.39915,46.77456],[12.40313,46.77405],[12.40415,46.77437],[12.40624,46.77607],[12.40718,46.77658]]}},{"type":"Feature","properties":{"kind":"piste","difficulty":"intermediate","name":null,"aerialway":null,"osm":"way/126514225"},"geometry":{"type":"LineString","coordinates":[[12.38335,46.77526],[12.38369,46.77529],[12.38512,46.77481],[12.39153,46.77519],[12.39437,46.77646],[12.39737,46.77737],[12.39917,46.77775],[12.40024,46.77764],[12.40135,46.77868],[12.40197,46.77886],[12.40263,46.77884],[12.40301,46.77863],[12.40372,46.77766],[12.40466,46.77694],[12.40526,46.77623],[12.40594,46.7758],[12.40725,46.77595],[12.40737,46.77606],[12.40717,46.77606]]}},{"type":"Feature","properties":{"kind":"piste","difficulty":"intermediate","name":null,"aerialway":null,"osm":"way/126514228"},"geometry":{"type":"LineString","coordinates":[[12.38284,46.77449],[12.38327,46.77488],[12.3834,46.77588],[12.38404,46.77623],[12.38531,46.77615],[12.38603,46.77591],[12.38774,46.7749]]}},{"type":"Feature","properties":{"kind":"lift","difficulty":null,"name":"Gadein","aerialway":"t-bar","osm":"way/141041958"},"geometry":{"type":"LineString","coordinates":[[12.39881,46.77121],[12.39337,46.77157]]}},{"type":"Feature","properties":{"kind":"lift","difficulty":null,"name":null,"aerialway":"j-bar","osm":"way/141041964"},"geometry":{"type":"LineString","coordinates":[[12.39879,46.77132],[12.3978,46.77136]]}},{"type":"Feature","properties":{"kind":"piste","difficulty":"easy","name":null,"aerialway":null,"osm":"way/309131135"},"geometry":{"type":"LineString","coordinates":[[12.38893,46.77139],[12.39033,46.77194],[12.39173,46.77276],[12.39242,46.77267],[12.39466,46.77194],[12.39548,46.77201],[12.39672,46.77248],[12.3972,46.77246],[12.39846,46.77197],[12.39884,46.77164],[12.39913,46.77092],[12.39957,46.77083],[12.39939,46.7711]]}},{"type":"Feature","properties":{"kind":"piste","difficulty":"easy","name":null,"aerialway":null,"osm":"way/309131136"},"geometry":{"type":"LineString","coordinates":[[12.39153,46.77519],[12.39435,46.77453]]}},{"type":"Feature","properties":{"kind":"piste","difficulty":"intermediate","name":null,"aerialway":null,"osm":"way/309131137"},"geometry":{"type":"LineString","coordinates":[[12.40415,46.77437],[12.40582,46.77415],[12.4082,46.77437],[12.40995,46.77435],[12.4105,46.77472],[12.41055,46.77559],[12.41041,46.77583],[12.41108,46.77632],[12.41442,46.77685],[12.41665,46.77761],[12.41836,46.77847],[12.41853,46.7787],[12.41849,46.77933],[12.41823,46.77995],[12.41837,46.78047],[12.41882,46.78074],[12.42103,46.78149],[12.42164,46.78208],[12.42166,46.78242],[12.42147,46.78242]]}},{"type":"Feature","properties":{"kind":"piste","difficulty":"easy","name":null,"aerialway":null,"osm":"way/309131139"},"geometry":{"type":"LineString","coordinates":[[12.40718,46.77658],[12.40662,46.77846],[12.4077,46.7792],[12.40801,46.77918],[12.40837,46.77889],[12.40897,46.77799],[12.41108,46.77632]]}},{"type":"Feature","properties":{"kind":"piste","difficulty":"easy","name":null,"aerialway":null,"osm":"way/326334423"},"geometry":{"type":"LineString","coordinates":[[12.39237,46.77497],[12.39246,46.77456],[12.39339,46.77364],[12.39365,46.77224]]}},{"type":"Feature","properties":{"kind":"piste","difficulty":"intermediate","name":null,"aerialway":null,"osm":"way/326334424"},"geometry":{"type":"LineString","coordinates":[[12.38325,46.77426],[12.38327,46.77488]]}},{"type":"Feature","properties":{"kind":"piste","difficulty":"intermediate","name":null,"aerialway":null,"osm":"way/326334425"},"geometry":{"type":"LineString","coordinates":[[12.39884,46.77164],[12.39936,46.77173],[12.39968,46.77165],[12.40009,46.77123]]}},{"type":"Feature","properties":{"kind":"piste","difficulty":"intermediate","name":null,"aerialway":null,"osm":"way/326334426"},"geometry":{"type":"LineString","coordinates":[[12.39968,46.77165],[12.40027,46.77221],[12.40171,46.77285],[12.40218,46.77325]]}},{"type":"Feature","properties":{"kind":"piste","difficulty":"intermediate","name":null,"aerialway":null,"osm":"way/326334427"},"geometry":{"type":"LineString","coordinates":[[12.40218,46.77325],[12.40313,46.77405]]}},{"type":"Feature","properties":{"kind":"piste","difficulty":"easy","name":null,"aerialway":null,"osm":"way/1037421734"},"geometry":{"type":"LineString","coordinates":[[12.38494,46.77617],[12.38635,46.77657],[12.38607,46.77566],[12.38612,46.77535],[12.38571,46.77498],[12.38571,46.77483]]}},{"type":"Feature","properties":{"kind":"piste","difficulty":"easy","name":null,"aerialway":null,"osm":"way/1037436907"},"geometry":{"type":"LineString","coordinates":[[12.39409,46.77152],[12.39429,46.77176],[12.39664,46.77303],[12.39821,46.77346],[12.399,46.77351]]}},{"type":"Feature","properties":{"kind":"piste","difficulty":"easy","name":null,"aerialway":null,"osm":"way/1037437296"},"geometry":{"type":"LineString","coordinates":[[12.39847,46.7765],[12.39813,46.77642],[12.39788,46.77677],[12.39891,46.77709],[12.39993,46.77696],[12.40007,46.77675],[12.39975,46.77548],[12.39928,46.77498],[12.39915,46.77456],[12.399,46.77351],[12.39917,46.77282],[12.3988,46.7719],[12.39881,46.77121]]}},{"type":"Feature","properties":{"kind":"piste","difficulty":"easy","name":null,"aerialway":null,"osm":"way/1037437705"},"geometry":{"type":"LineString","coordinates":[[12.40009,46.77123],[12.40059,46.77075],[12.40073,46.77009],[12.40135,46.76992],[12.40266,46.76908],[12.40342,46.767],[12.40393,46.76617],[12.40395,46.76581]]}},{"type":"Feature","properties":{"kind":"piste","difficulty":"easy","name":null,"aerialway":null,"osm":"way/1037438295"},"geometry":{"type":"LineString","coordinates":[[12.40395,46.76581],[12.40393,46.76495],[12.4041,46.76469],[12.40471,46.76441],[12.40536,46.76456],[12.40476,46.76502],[12.40532,46.76525],[12.40581,46.76607],[12.40561,46.76758],[12.40578,46.76865],[12.40569,46.76918],[12.40542,46.76964],[12.40549,46.76981],[12.40568,46.76977],[12.4062,46.76888],[12.40651,46.76805],[12.40721,46.76745],[12.40742,46.76746],[12.40704,46.76913],[12.40718,46.76946],[12.40711,46.7699],[12.4068,46.77079],[12.40697,46.77085],[12.40761,46.76995],[12.40796,46.76916],[12.40887,46.76872],[12.40928,46.76829],[12.40951,46.76782],[12.40941,46.76687],[12.40958,46.76604],[12.41174,46.76371],[12.41154,46.76361],[12.41159,46.76353],[12.41207,46.76315],[12.41207,46.76333]]}},{"type":"Feature","properties":{"kind":"piste","difficulty":"intermediate","name":null,"aerialway":null,"osm":"way/1037438574"},"geometry":{"type":"LineString","coordinates":[[12.39941,46.77035],[12.40076,46.77007]]}},{"type":"Feature","properties":{"kind":"piste","difficulty":"easy","name":null,"aerialway":null,"osm":"way/1037439517"},"geometry":{"type":"LineString","coordinates":[[12.39173,46.77276],[12.39267,46.77367],[12.39435,46.77453]]}},{"type":"Feature","properties":{"kind":"piste","difficulty":"intermediate","name":null,"aerialway":null,"osm":"way/1037439518"},"geometry":{"type":"LineString","coordinates":[[12.3884,46.77223],[12.39173,46.77276]]}},{"type":"Feature","properties":{"kind":"piste","difficulty":"easy","name":null,"aerialway":null,"osm":"way/1037439744"},"geometry":{"type":"LineString","coordinates":[[12.39237,46.77497],[12.39582,46.77564],[12.39644,46.77585],[12.39788,46.77677]]}},{"type":"Feature","properties":{"kind":"piste","difficulty":"intermediate","name":null,"aerialway":null,"osm":"way/1055653782"},"geometry":{"type":"LineString","coordinates":[[12.38875,46.77179],[12.38853,46.77177]]}},{"type":"Feature","properties":{"kind":"piste","difficulty":"intermediate","name":null,"aerialway":null,"osm":"way/1125636536"},"geometry":{"type":"LineString","coordinates":[[12.39891,46.77709],[12.40024,46.77764]]}},{"type":"Feature","properties":{"kind":"piste","difficulty":"advanced","name":"Skiroute Außervillgraten","aerialway":null,"osm":"way/1246935797"},"geometry":{"type":"LineString","coordinates":[[12.42172,46.78225],[12.42204,46.78277],[12.42318,46.78319],[12.42438,46.78326],[12.42528,46.78355],[12.42602,46.78398],[12.42674,46.78486],[12.42754,46.7849]]}},{"type":"Feature","properties":{"kind":"piste","difficulty":"advanced","name":"Skiroute Außervillgraten","aerialway":null,"osm":"way/1246935798"},"geometry":{"type":"LineString","coordinates":[[12.42754,46.7849],[12.42777,46.78482],[12.42839,46.78499]]}},{"type":"Feature","properties":{"kind":"piste","difficulty":"easy","name":null,"aerialway":null,"osm":"way/1246935807"},"geometry":{"type":"LineString","coordinates":[[12.40737,46.77606],[12.40743,46.77623],[12.40718,46.77658]]}},{"type":"Feature","properties":{"kind":"piste","difficulty":"easy","name":null,"aerialway":null,"osm":"way/1246935808"},"geometry":{"type":"LineString","coordinates":[[12.41174,46.76371],[12.41252,46.76314]]}},{"type":"Feature","properties":{"kind":"lift","difficulty":null,"name":null,"aerialway":"magic_carpet","osm":"way/1424772637"},"geometry":{"type":"LineString","coordinates":[[12.42051,46.74461],[12.42154,46.74455]]}},{"type":"Feature","properties":{"kind":"lift","difficulty":null,"name":"Thurntaler II","aerialway":"gondola","osm":"way/1527662909"},"geometry":{"type":"LineString","coordinates":[[12.41207,46.76333],[12.39957,46.77083]]}}]}