{"type":"FeatureCollection","features":[{"type":"Feature","properties":{"kind":"lift","difficulty":null,"name":"Sulzberger Dorflift","aerialway":"drag_lift","osm":"way/165293902"},"geometry":{"type":"LineString","coordinates":[[9.90842,47.52222],[9.90972,47.52073]]}},{"type":"Feature","properties":{"kind":"piste","difficulty":"easy","name":null,"aerialway":null,"osm":"way/666513410"},"geometry":{"type":"LineString","coordinates":[[9.90972,47.52073],[9.90917,47.52098],[9.9085,47.52165],[9.90835,47.52188],[9.90842,47.52222]]}},{"type":"Feature","properties":{"kind":"piste","difficulty":"easy","name":null,"aerialway":null,"osm":"way/1442989884"},"geometry":{"type":"LineString","coordinates":[[9.90972,47.52073],[9.91082,47.52153],[9.91074,47.52181],[9.9093,47.52244],[9.90842,47.52216]]}},{"type":"Feature","properties":{"kind":"piste","difficulty":"easy","name":null,"aerialway":null,"osm":"way/1442989885"},"geometry":{"type":"LineString","coordinates":[[9.90987,47.52086],[9.90989,47.52127],[9.90975,47.52158],[9.9084,47.5221]]}}]}