{"type":"FeatureCollection","features":[{"type":"Feature","properties":{"kind":"lift","difficulty":null,"name":null,"aerialway":"drag_lift","osm":"way/30093024"},"geometry":{"type":"LineString","coordinates":[[14.27564,48.55918],[14.2694,48.55959]]}},{"type":"Feature","properties":{"kind":"piste","difficulty":"easy","name":null,"aerialway":null,"osm":"way/57130533"},"geometry":{"type":"LineString","coordinates":[[14.26914,48.55937],[14.26904,48.55948],[14.26925,48.55967],[14.26992,48.55979],[14.27406,48.55979],[14.27619,48.55959],[14.28098,48.55857],[14.28395,48.5562],[14.28533,48.55351],[14.28507,48.55341]]}},{"type":"Feature","properties":{"kind":"piste","difficulty":"intermediate","name":null,"aerialway":null,"osm":"way/57130539"},"geometry":{"type":"LineString","coordinates":[[14.26914,48.55937],[14.26896,48.5594],[14.26895,48.55918],[14.26942,48.55881],[14.27035,48.55819],[14.27098,48.55793],[14.27604,48.55757],[14.27871,48.55695],[14.27985,48.55655],[14.28444,48.55441],[14.2852,48.55374]]}},{"type":"Feature","properties":{"kind":"piste","difficulty":"intermediate","name":null,"aerialway":null,"osm":"way/57130541"},"geometry":{"type":"LineString","coordinates":[[14.2737,48.55777],[14.28398,48.55397],[14.28525,48.55363]]}},{"type":"Feature","properties":{"kind":"lift","difficulty":null,"name":"Sternstein Express","aerialway":"mixed_lift","osm":"way/91226821"},"geometry":{"type":"LineString","coordinates":[[14.28475,48.55352],[14.2694,48.55926]]}},{"type":"Feature","properties":{"kind":"lift","difficulty":null,"name":null,"aerialway":"magic_carpet","osm":"way/211097050"},"geometry":{"type":"LineString","coordinates":[[14.28508,48.55416],[14.28435,48.55565]]}},{"type":"Feature","properties":{"kind":"piste","difficulty":"easy","name":null,"aerialway":null,"osm":"way/211097052"},"geometry":{"type":"LineString","coordinates":[[14.28435,48.55565],[14.28502,48.55481],[14.28516,48.5544],[14.28508,48.55416]]}},{"type":"Feature","properties":{"kind":"piste","difficulty":"intermediate","name":null,"aerialway":null,"osm":"way/211097053"},"geometry":{"type":"LineString","coordinates":[[14.27019,48.55954],[14.27024,48.55964],[14.27245,48.55962],[14.27546,48.55932],[14.27548,48.55919]]}}]}