{"type":"FeatureCollection","features":[{"type":"Feature","properties":{"kind":"piste","difficulty":"intermediate","name":null,"aerialway":null,"osm":"way/30730279"},"geometry":{"type":"LineString","coordinates":[[12.57259,47.61006],[12.57316,47.6107],[12.57304,47.61113],[12.5747,47.61307],[12.57574,47.61459],[12.57731,47.61567],[12.58059,47.62025],[12.5823,47.62202],[12.58386,47.6233],[12.58389,47.6236],[12.58375,47.62361]]}},{"type":"Feature","properties":{"kind":"piste","difficulty":"easy","name":null,"aerialway":null,"osm":"way/30730288"},"geometry":{"type":"LineString","coordinates":[[12.57677,47.61899],[12.57975,47.6216]]}},{"type":"Feature","properties":{"kind":"piste","difficulty":"easy","name":null,"aerialway":null,"osm":"way/30730291"},"geometry":{"type":"LineString","coordinates":[[12.57154,47.61744],[12.57282,47.61736],[12.57376,47.61862],[12.57575,47.62024],[12.57793,47.62151],[12.57975,47.6216],[12.58231,47.62336],[12.58329,47.62375],[12.58379,47.62366],[12.58371,47.62388],[12.58443,47.62478],[12.5859,47.62539],[12.58606,47.62577]]}},{"type":"Feature","properties":{"kind":"piste","difficulty":"intermediate","name":null,"aerialway":null,"osm":"way/30730688"},"geometry":{"type":"LineString","coordinates":[[12.57416,47.62914],[12.57525,47.62959],[12.57759,47.62942]]}},{"type":"Feature","properties":{"kind":"piste","difficulty":"intermediate","name":null,"aerialway":null,"osm":"way/30730695"},"geometry":{"type":"LineString","coordinates":[[12.57954,47.61884],[12.58177,47.61927],[12.58208,47.61996],[12.58353,47.62151],[12.58437,47.62217],[12.58521,47.62226]]}},{"type":"Feature","properties":{"kind":"piste","difficulty":"intermediate","name":null,"aerialway":null,"osm":"way/30730698"},"geometry":{"type":"LineString","coordinates":[[12.58014,47.60584],[12.5806,47.6051],[12.58144,47.60518],[12.58305,47.60699],[12.58436,47.60813],[12.58426,47.60884],[12.58361,47.6093],[12.58245,47.60988],[12.58024,47.61026],[12.58069,47.61044],[12.5817,47.61218],[12.58132,47.61344],[12.58135,47.61399]]}},{"type":"Feature","properties":{"kind":"piste","difficulty":"intermediate","name":null,"aerialway":null,"osm":"way/30730699"},"geometry":{"type":"LineString","coordinates":[[12.57259,47.61006],[12.57467,47.61042],[12.57508,47.61173],[12.5747,47.61307]]}},{"type":"Feature","properties":{"kind":"piste","difficulty":"intermediate","name":null,"aerialway":null,"osm":"way/30730701"},"geometry":{"type":"LineString","coordinates":[[12.57731,47.61567],[12.57874,47.61659]]}},{"type":"Feature","properties":{"kind":"piste","difficulty":"easy","name":null,"aerialway":null,"osm":"way/47330720"},"geometry":{"type":"LineString","coordinates":[[12.57205,47.61012],[12.572,47.61091],[12.57141,47.61142]]}},{"type":"Feature","properties":{"kind":"piste","difficulty":"easy","name":null,"aerialway":null,"osm":"way/47330721"},"geometry":{"type":"LineString","coordinates":[[12.57416,47.62914],[12.57406,47.6295],[12.5739,47.6295],[12.57353,47.62863],[12.57276,47.62755]]}},{"type":"Feature","properties":{"kind":"piste","difficulty":"easy","name":null,"aerialway":null,"osm":"way/47330722"},"geometry":{"type":"LineString","coordinates":[[12.56466,47.61542],[12.5654,47.61731],[12.56525,47.61852],[12.56531,47.61919],[12.56583,47.62058],[12.56594,47.62184],[12.56558,47.62245]]}},{"type":"Feature","properties":{"kind":"piste","difficulty":"intermediate","name":null,"aerialway":null,"osm":"way/47330723"},"geometry":{"type":"LineString","coordinates":[[12.58135,47.61399],[12.58094,47.61483],[12.58096,47.61567],[12.57889,47.61606],[12.57865,47.61747]]}},{"type":"Feature","properties":{"kind":"piste","difficulty":"easy","name":"Scheiblberg","aerialway":null,"osm":"way/47330724"},"geometry":{"type":"LineString","coordinates":[[12.57557,47.6328],[12.57581,47.6331],[12.57751,47.63412],[12.57813,47.63479],[12.57823,47.63595],[12.57863,47.63764],[12.57973,47.6395],[12.5801,47.64082]]}},{"type":"Feature","properties":{"kind":"piste","difficulty":"easy","name":null,"aerialway":null,"osm":"way/47330725"},"geometry":{"type":"LineString","coordinates":[[12.57979,47.62664],[12.58092,47.62647],[12.58126,47.6262],[12.58255,47.62441],[12.58327,47.62384],[12.58379,47.62366]]}},{"type":"Feature","properties":{"kind":"piste","difficulty":"easy","name":null,"aerialway":null,"osm":"way/47330726"},"geometry":{"type":"LineString","coordinates":[[12.57276,47.62755],[12.57381,47.62704],[12.5747,47.62643],[12.5759,47.62617],[12.57806,47.62621],[12.57979,47.62664]]}},{"type":"Feature","properties":{"kind":"piste","difficulty":"easy","name":"Zigeunerberg","aerialway":null,"osm":"way/47330728"},"geometry":{"type":"LineString","coordinates":[[12.57917,47.64523],[12.57016,47.64912],[12.56981,47.64907],[12.56979,47.64887]]}},{"type":"Feature","properties":{"kind":"piste","difficulty":"easy","name":null,"aerialway":null,"osm":"way/51739242"},"geometry":{"type":"LineString","coordinates":[[12.57759,47.62942],[12.57795,47.62942],[12.57843,47.62964],[12.57898,47.6306],[12.58066,47.63275],[12.58085,47.63401],[12.58157,47.63601],[12.58144,47.63835],[12.58074,47.64016],[12.5801,47.64082]]}},{"type":"Feature","properties":{"kind":"piste","difficulty":"easy","name":"Skiweg","aerialway":null,"osm":"way/51739243"},"geometry":{"type":"LineString","coordinates":[[12.57872,47.64025],[12.57562,47.63826],[12.57394,47.63759],[12.57073,47.63426]]}},{"type":"Feature","properties":{"kind":"piste","difficulty":"intermediate","name":"Scheiblberg","aerialway":null,"osm":"way/51739244"},"geometry":{"type":"LineString","coordinates":[[12.57783,47.63446],[12.57745,47.63592],[12.57756,47.63648],[12.57863,47.63764]]}},{"type":"Feature","properties":{"kind":"piste","difficulty":"intermediate","name":null,"aerialway":null,"osm":"way/51739246"},"geometry":{"type":"LineString","coordinates":[[12.58353,47.62151],[12.58342,47.62294]]}},{"type":"Feature","properties":{"kind":"piste","difficulty":"intermediate","name":null,"aerialway":null,"osm":"way/51739247"},"geometry":{"type":"LineString","coordinates":[[12.58096,47.61567],[12.58136,47.61596],[12.58123,47.61772],[12.58177,47.61927]]}},{"type":"Feature","properties":{"kind":"piste","difficulty":"easy","name":null,"aerialway":null,"osm":"way/51739248"},"geometry":{"type":"LineString","coordinates":[[12.57527,47.63286],[12.57557,47.6328],[12.57573,47.63255],[12.57599,47.63133],[12.57759,47.62942]]}},{"type":"Feature","properties":{"kind":"piste","difficulty":"easy","name":"Roßalmabfahrt","aerialway":null,"osm":"way/51739251"},"geometry":{"type":"LineString","coordinates":[[12.57888,47.64305],[12.57951,47.64362],[12.57917,47.64523],[12.57855,47.65],[12.579,47.65233],[12.57971,47.65467],[12.58007,47.65491],[12.58015,47.6546],[12.5805,47.65452],[12.58048,47.65439],[12.58024,47.65433]]}},{"type":"Feature","properties":{"kind":"piste","difficulty":"easy","name":null,"aerialway":null,"osm":"way/54568301"},"geometry":{"type":"LineString","coordinates":[[12.57003,47.61415],[12.57083,47.6152],[12.57098,47.61582],[12.57055,47.61704],[12.57056,47.61729],[12.57094,47.6178],[12.5709,47.61894],[12.57055,47.61938],[12.57028,47.61944],[12.57001,47.61947],[12.56983,47.61935],[12.56967,47.61854],[12.5693,47.61788],[12.56746,47.61668],[12.56574,47.61488],[12.56536,47.6148]]}},{"type":"Feature","properties":{"kind":"piste","difficulty":"intermediate","name":null,"aerialway":null,"osm":"way/54568303"},"geometry":{"type":"LineString","coordinates":[[12.57003,47.61415],[12.56972,47.61416],[12.56897,47.61314],[12.56895,47.61246],[12.56871,47.61147],[12.56821,47.61114],[12.56779,47.6112],[12.56763,47.61149],[12.56682,47.61206],[12.5666,47.61255],[12.56601,47.61289],[12.56602,47.61378],[12.56584,47.61449],[12.56536,47.6148]]}},{"type":"Feature","properties":{"kind":"piste","difficulty":"intermediate","name":null,"aerialway":null,"osm":"way/54568305"},"geometry":{"type":"LineString","coordinates":[[12.57139,47.61279],[12.57297,47.61444]]}},{"type":"Feature","properties":{"kind":"piste","difficulty":"intermediate","name":null,"aerialway":null,"osm":"way/54568306"},"geometry":{"type":"LineString","coordinates":[[12.5751,47.60909],[12.5744,47.60905],[12.57374,47.60954],[12.57215,47.61007]]}},{"type":"Feature","properties":{"kind":"piste","difficulty":"easy","name":null,"aerialway":null,"osm":"way/54568307"},"geometry":{"type":"LineString","coordinates":[[12.57071,47.61123],[12.57141,47.61142]]}},{"type":"Feature","properties":{"kind":"piste","difficulty":"easy","name":null,"aerialway":null,"osm":"way/54568308"},"geometry":{"type":"LineString","coordinates":[[12.57141,47.61142],[12.57005,47.61216],[12.57114,47.61222],[12.57136,47.61233],[12.57151,47.6126],[12.57139,47.61279],[12.57016,47.61348],[12.56998,47.61377],[12.57003,47.61415]]}},{"type":"Feature","properties":{"kind":"piste","difficulty":"easy","name":null,"aerialway":null,"osm":"way/54568309"},"geometry":{"type":"LineString","coordinates":[[12.5709,47.61894],[12.5712,47.62215],[12.57225,47.62391],[12.57441,47.62499],[12.57546,47.62627],[12.57774,47.62852],[12.57843,47.62965]]}},{"type":"Feature","properties":{"kind":"piste","difficulty":"easy","name":null,"aerialway":null,"osm":"way/73902073"},"geometry":{"type":"LineString","coordinates":[[12.56437,47.62446],[12.56411,47.62565],[12.5642,47.62731],[12.56446,47.62765],[12.56437,47.62897],[12.56382,47.62987],[12.56371,47.63043]]}},{"type":"Feature","properties":{"kind":"piste","difficulty":"freeride","name":"Schwarzlofer-Forststraße","aerialway":null,"osm":"way/158454043"},"geometry":{"type":"LineString","coordinates":[[12.56825,47.64675],[12.567,47.64619],[12.56679,47.64594],[12.56672,47.64542],[12.56658,47.64531],[12.56518,47.64506],[12.56414,47.64526],[12.56333,47.64497],[12.56187,47.6449],[12.55866,47.64556],[12.55728,47.64625],[12.55539,47.64637],[12.5543,47.64619],[12.55331,47.64623],[12.54852,47.64749],[12.54719,47.64848],[12.546,47.64884],[12.54559,47.64918],[12.54565,47.65],[12.54516,47.65064],[12.54497,47.65138],[12.54465,47.65199],[12.54466,47.65257],[12.54492,47.65366],[12.54355,47.65549],[12.54277,47.65609]]}},{"type":"Feature","properties":{"kind":"piste","difficulty":"easy","name":null,"aerialway":null,"osm":"way/204798505"},"geometry":{"type":"LineString","coordinates":[[12.57016,47.64912],[12.56947,47.64918]]}},{"type":"Feature","properties":{"kind":"piste","difficulty":"freeride","name":null,"aerialway":null,"osm":"way/362799830"},"geometry":{"type":"LineString","coordinates":[[12.57181,47.65212],[12.57172,47.65173],[12.57145,47.65135],[12.57007,47.65009],[12.56947,47.64918]]}},{"type":"Feature","properties":{"kind":"piste","difficulty":"easy","name":null,"aerialway":null,"osm":"way/424811629"},"geometry":{"type":"LineString","coordinates":[[12.57462,47.63076],[12.57545,47.63175],[12.57568,47.63243]]}},{"type":"Feature","properties":{"kind":"piste","difficulty":"advanced","name":"Nordhang-Abfahrt","aerialway":null,"osm":"way/444711819"},"geometry":{"type":"LineString","coordinates":[[12.57927,47.61354],[12.57826,47.61377],[12.57811,47.61409],[12.57802,47.61498],[12.57825,47.61623]]}},{"type":"Feature","properties":{"kind":"piste","difficulty":"easy","name":null,"aerialway":null,"osm":"way/499407362"},"geometry":{"type":"LineString","coordinates":[[12.56371,47.63043],[12.56403,47.63037]]}},{"type":"Feature","properties":{"kind":"piste","difficulty":"freeride","name":"Skiabfahrt nach Seegatterl Parkplatz","aerialway":null,"osm":"way/545023630"},"geometry":{"type":"LineString","coordinates":[[12.57502,47.65317],[12.57429,47.65318],[12.57311,47.65295],[12.57181,47.65212]]}},{"type":"Feature","properties":{"kind":"piste","difficulty":"intermediate","name":null,"aerialway":null,"osm":"way/554844627"},"geometry":{"type":"LineString","coordinates":[[12.56642,47.62553],[12.56459,47.62681],[12.56427,47.62725]]}},{"type":"Feature","properties":{"kind":"piste","difficulty":"easy","name":null,"aerialway":null,"osm":"way/554844628"},"geometry":{"type":"LineString","coordinates":[[12.56457,47.62407],[12.56473,47.62435]]}},{"type":"Feature","properties":{"kind":"piste","difficulty":"advanced","name":null,"aerialway":null,"osm":"way/554844629"},"geometry":{"type":"LineString","coordinates":[[12.57214,47.62748],[12.57191,47.62731],[12.57158,47.62645],[12.57053,47.62644],[12.56904,47.62589]]}},{"type":"Feature","properties":{"kind":"piste","difficulty":"intermediate","name":null,"aerialway":null,"osm":"way/559425391"},"geometry":{"type":"LineString","coordinates":[[12.57297,47.61444],[12.57424,47.61467],[12.57574,47.61459]]}},{"type":"Feature","properties":{"kind":"piste","difficulty":"easy","name":null,"aerialway":null,"osm":"way/559425394"},"geometry":{"type":"LineString","coordinates":[[12.57083,47.6152],[12.57182,47.61563],[12.57261,47.61632],[12.57282,47.61736]]}},{"type":"Feature","properties":{"kind":"piste","difficulty":"easy","name":null,"aerialway":null,"osm":"way/559425396"},"geometry":{"type":"LineString","coordinates":[[12.57282,47.61736],[12.57486,47.6176]]}},{"type":"Feature","properties":{"kind":"piste","difficulty":"unknown","name":null,"aerialway":null,"osm":"way/559425400"},"geometry":{"type":"LineString","coordinates":[[12.57793,47.62151],[12.57992,47.623],[12.58176,47.62398],[12.58606,47.62577]]}},{"type":"Feature","properties":{"kind":"piste","difficulty":"freeride","name":"Nordhang-Abfahrt","aerialway":null,"osm":"way/559425425"},"geometry":{"type":"LineString","coordinates":[[12.58016,47.60646],[12.58042,47.60647],[12.5808,47.60772],[12.58054,47.6083],[12.57963,47.60918],[12.57946,47.60992],[12.58024,47.61026]]}},{"type":"Feature","properties":{"kind":"piste","difficulty":"unknown","name":null,"aerialway":null,"osm":"way/559425436"},"geometry":{"type":"LineString","coordinates":[[12.57182,47.61742],[12.57344,47.61819]]}},{"type":"Feature","properties":{"kind":"piste","difficulty":"intermediate","name":null,"aerialway":null,"osm":"way/559425442"},"geometry":{"type":"LineString","coordinates":[[12.57447,47.6289],[12.57416,47.62914]]}},{"type":"Feature","properties":{"kind":"piste","difficulty":"unknown","name":null,"aerialway":null,"osm":"way/559425443"},"geometry":{"type":"LineString","coordinates":[[12.57239,47.62766],[12.57276,47.62755]]}},{"type":"Feature","properties":{"kind":"piste","difficulty":"freeride","name":null,"aerialway":null,"osm":"way/660412356"},"geometry":{"type":"LineString","coordinates":[[12.56947,47.64918],[12.56938,47.64799],[12.56842,47.64709],[12.56825,47.64675]]}},{"type":"Feature","properties":{"kind":"piste","difficulty":"intermediate","name":"Skiabfahrt nach Seegatterl Parkplatz","aerialway":null,"osm":"way/671103354"},"geometry":{"type":"LineString","coordinates":[[12.57606,47.65311],[12.57502,47.65317]]}},{"type":"Feature","properties":{"kind":"piste","difficulty":"easy","name":null,"aerialway":null,"osm":"way/759899174"},"geometry":{"type":"LineString","coordinates":[[12.56558,47.62245],[12.56489,47.62377]]}},{"type":"Feature","properties":{"kind":"piste","difficulty":"easy","name":null,"aerialway":null,"osm":"way/759899175"},"geometry":{"type":"LineString","coordinates":[[12.56489,47.62377],[12.56449,47.62416],[12.56437,47.62446]]}},{"type":"Feature","properties":{"kind":"piste","difficulty":"easy","name":null,"aerialway":null,"osm":"way/759899177"},"geometry":{"type":"LineString","coordinates":[[12.56359,47.61996],[12.56516,47.62127],[12.56558,47.62245]]}},{"type":"Feature","properties":{"kind":"piste","difficulty":"easy","name":null,"aerialway":null,"osm":"way/759899178"},"geometry":{"type":"LineString","coordinates":[[12.56057,47.61613],[12.56145,47.6172],[12.56154,47.61773],[12.56199,47.61857],[12.56359,47.61996]]}},{"type":"Feature","properties":{"kind":"piste","difficulty":"easy","name":null,"aerialway":null,"osm":"way/832022451"},"geometry":{"type":"LineString","coordinates":[[12.57568,47.63243],[12.57557,47.6328]]}},{"type":"Feature","properties":{"kind":"piste","difficulty":"easy","name":null,"aerialway":null,"osm":"way/832022453"},"geometry":{"type":"LineString","coordinates":[[12.57397,47.62954],[12.57398,47.62956]]}},{"type":"Feature","properties":{"kind":"piste","difficulty":"easy","name":null,"aerialway":null,"osm":"way/832022454"},"geometry":{"type":"LineString","coordinates":[[12.57398,47.62956],[12.57462,47.63076]]}},{"type":"Feature","properties":{"kind":"piste","difficulty":"easy","name":"Skiweg","aerialway":null,"osm":"way/832022456"},"geometry":{"type":"LineString","coordinates":[[12.56597,47.63229],[12.5658,47.63221]]}},{"type":"Feature","properties":{"kind":"piste","difficulty":"easy","name":"Skiweg","aerialway":null,"osm":"way/832022457"},"geometry":{"type":"LineString","coordinates":[[12.5658,47.63221],[12.56503,47.63163],[12.56403,47.63037]]}},{"type":"Feature","properties":{"kind":"piste","difficulty":"easy","name":"Skiweg","aerialway":null,"osm":"way/832022458"},"geometry":{"type":"LineString","coordinates":[[12.5801,47.64082],[12.57906,47.64048],[12.57872,47.64025]]}},{"type":"Feature","properties":{"kind":"piste","difficulty":"easy","name":"Roßalmabfahrt","aerialway":null,"osm":"way/1066221218"},"geometry":{"type":"LineString","coordinates":[[12.57984,47.64194],[12.57951,47.64362]]}},{"type":"Feature","properties":{"kind":"piste","difficulty":"easy","name":"Roßalmabfahrt","aerialway":null,"osm":"way/1066221219"},"geometry":{"type":"LineString","coordinates":[[12.57888,47.64305],[12.57781,47.64322],[12.57762,47.64315]]}},{"type":"Feature","properties":{"kind":"piste","difficulty":"easy","name":"Roßalmabfahrt","aerialway":null,"osm":"way/1066221220"},"geometry":{"type":"LineString","coordinates":[[12.5801,47.64082],[12.57984,47.64194],[12.57938,47.64245],[12.57835,47.64311]]}},{"type":"Feature","properties":{"kind":"piste","difficulty":"easy","name":null,"aerialway":null,"osm":"way/1066221221"},"geometry":{"type":"LineString","coordinates":[[12.58074,47.64051],[12.58035,47.64057]]}},{"type":"Feature","properties":{"kind":"piste","difficulty":"easy","name":"Roßalmabfahrt","aerialway":null,"osm":"way/1139533724"},"geometry":{"type":"LineString","coordinates":[[12.58009,47.65467],[12.58007,47.65445]]}},{"type":"Feature","properties":{"kind":"piste","difficulty":"advanced","name":null,"aerialway":null,"osm":"way/1354281102"},"geometry":{"type":"LineString","coordinates":[[12.57198,47.62351],[12.57153,47.62485],[12.57158,47.62645]]}},{"type":"Feature","properties":{"kind":"piste","difficulty":"intermediate","name":null,"aerialway":null,"osm":"way/1354281103"},"geometry":{"type":"LineString","coordinates":[[12.58135,47.61399],[12.58317,47.61639],[12.58325,47.61778],[12.58521,47.62226]]}},{"type":"Feature","properties":{"kind":"piste","difficulty":"intermediate","name":null,"aerialway":null,"osm":"way/1354281104"},"geometry":{"type":"LineString","coordinates":[[12.57198,47.62351],[12.57038,47.62429],[12.56948,47.62578],[12.56904,47.62589],[12.56559,47.6254],[12.56482,47.62475],[12.56473,47.62435]]}},{"type":"Feature","properties":{"kind":"piste","difficulty":"easy","name":null,"aerialway":null,"osm":"way/1354281105"},"geometry":{"type":"LineString","coordinates":[[12.57759,47.62942],[12.57813,47.62766],[12.57847,47.62711],[12.57892,47.6268],[12.5797,47.62664],[12.58081,47.62665],[12.58597,47.62615],[12.58606,47.62577]]}},{"type":"Feature","properties":{"kind":"piste","difficulty":"easy","name":null,"aerialway":null,"osm":"way/1354281106"},"geometry":{"type":"LineString","coordinates":[[12.56536,47.6148],[12.56466,47.61542],[12.56434,47.61647],[12.56386,47.61712],[12.56208,47.61702],[12.5617,47.61671],[12.56135,47.61617],[12.56075,47.61601],[12.56057,47.61613]]}},{"type":"Feature","properties":{"kind":"piste","difficulty":"intermediate","name":null,"aerialway":null,"osm":"way/1354281107"},"geometry":{"type":"LineString","coordinates":[[12.57276,47.62755],[12.57172,47.62753],[12.57146,47.62783],[12.57138,47.62822],[12.57147,47.62839],[12.57132,47.62885],[12.57072,47.62937],[12.57021,47.62955],[12.56985,47.62957],[12.56787,47.62882],[12.56693,47.62891],[12.56403,47.63037]]}},{"type":"Feature","properties":{"kind":"piste","difficulty":"intermediate","name":null,"aerialway":null,"osm":"way/1354281108"},"geometry":{"type":"LineString","coordinates":[[12.58417,47.61973],[12.58297,47.62038],[12.58284,47.62077]]}},{"type":"Feature","properties":{"kind":"piste","difficulty":"easy","name":null,"aerialway":null,"osm":"way/1354281109"},"geometry":{"type":"LineString","coordinates":[[12.57297,47.61444],[12.57362,47.61559],[12.57409,47.61607],[12.57486,47.6176],[12.57677,47.61899]]}},{"type":"Feature","properties":{"kind":"piste","difficulty":"easy","name":null,"aerialway":null,"osm":"way/1354281110"},"geometry":{"type":"LineString","coordinates":[[12.57835,47.64311],[12.57792,47.64343],[12.57752,47.64396],[12.57681,47.64628]]}},{"type":"Feature","properties":{"kind":"piste","difficulty":"intermediate","name":null,"aerialway":null,"osm":"way/1354281966"},"geometry":{"type":"LineString","coordinates":[[12.57488,47.61244],[12.57565,47.6136],[12.57696,47.61508],[12.57731,47.61567]]}},{"type":"Feature","properties":{"kind":"piste","difficulty":"advanced","name":"Nordhang-Abfahrt","aerialway":null,"osm":"way/1354283537"},"geometry":{"type":"LineString","coordinates":[[12.58024,47.61026],[12.57963,47.61059],[12.57953,47.61094],[12.57906,47.61652]]}},{"type":"Feature","properties":{"kind":"piste","difficulty":"intermediate","name":null,"aerialway":null,"osm":"way/1354284074"},"geometry":{"type":"LineString","coordinates":[[12.57158,47.62645],[12.57102,47.62694],[12.57052,47.62844],[12.57072,47.62937]]}},{"type":"Feature","properties":{"kind":"piste","difficulty":"freeride","name":null,"aerialway":null,"osm":"way/1354284075"},"geometry":{"type":"LineString","coordinates":[[12.57317,47.62814],[12.57151,47.62897],[12.57085,47.62974],[12.56973,47.63007],[12.56838,47.63017],[12.56749,47.6305],[12.56689,47.63091],[12.56583,47.63116],[12.56475,47.63116]]}},{"type":"Feature","properties":{"kind":"piste","difficulty":"intermediate","name":null,"aerialway":null,"osm":"way/1359076494"},"geometry":{"type":"LineString","coordinates":[[12.57927,47.61354],[12.58094,47.61483]]}},{"type":"Feature","properties":{"kind":"piste","difficulty":"easy","name":null,"aerialway":null,"osm":"way/1359076495"},"geometry":{"type":"LineString","coordinates":[[12.57429,47.61641],[12.57452,47.61726],[12.57424,47.61818],[12.57431,47.61908]]}},{"type":"Feature","properties":{"kind":"piste","difficulty":"easy","name":"Skiweg","aerialway":null,"osm":"way/1389082287"},"geometry":{"type":"LineString","coordinates":[[12.57073,47.63426],[12.56932,47.63387],[12.56842,47.63296],[12.56797,47.63281],[12.56707,47.63287],[12.56597,47.63229]]}},{"type":"Feature","properties":{"kind":"lift","difficulty":null,"name":"Steinplattenbahn","aerialway":"chair_lift","osm":"way/22888187"},"geometry":{"type":"LineString","coordinates":[[12.58364,47.62345],[12.57235,47.61025]]}},{"type":"Feature","properties":{"kind":"lift","difficulty":null,"name":"Plattenkogelbahn","aerialway":"chair_lift","osm":"way/23229701"},"geometry":{"type":"LineString","coordinates":[[12.57937,47.61655],[12.58017,47.60659]]}},{"type":"Feature","properties":{"kind":"lift","difficulty":null,"name":"Mösernbahn","aerialway":"chair_lift","osm":"way/23229703"},"geometry":{"type":"LineString","coordinates":[[12.58646,47.62557],[12.57447,47.6289]]}},{"type":"Feature","properties":{"kind":"lift","difficulty":null,"name":"Kapellenbahn","aerialway":"chair_lift","osm":"way/23229704"},"geometry":{"type":"LineString","coordinates":[[12.58573,47.62588],[12.57158,47.61764]]}},{"type":"Feature","properties":{"kind":"lift","difficulty":null,"name":"Schwarzloferbahn","aerialway":"chair_lift","osm":"way/23229705"},"geometry":{"type":"LineString","coordinates":[[12.56427,47.63039],[12.57239,47.62766]]}},{"type":"Feature","properties":{"kind":"lift","difficulty":null,"name":"Scheiblbergbahn","aerialway":"chair_lift","osm":"way/47330719"},"geometry":{"type":"LineString","coordinates":[[12.57762,47.64315],[12.57527,47.63286]]}},{"type":"Feature","properties":{"kind":"lift","difficulty":null,"name":"Kurvenlift","aerialway":"t-bar","osm":"way/47330727"},"geometry":{"type":"LineString","coordinates":[[12.56979,47.64887],[12.57626,47.64594],[12.57916,47.64274]]}},{"type":"Feature","properties":{"kind":"lift","difficulty":null,"name":null,"aerialway":"magic_carpet","osm":"way/51445007"},"geometry":{"type":"LineString","coordinates":[[12.58117,47.65508],[12.58221,47.6556]]}},{"type":"Feature","properties":{"kind":"lift","difficulty":null,"name":"Gondelbahn Seegatterl","aerialway":"gondola","osm":"way/157595353"},"geometry":{"type":"LineString","coordinates":[[12.58088,47.655],[12.54114,47.65745]]}},{"type":"Feature","properties":{"kind":"lift","difficulty":null,"name":"Bäreckbahn","aerialway":"chair_lift","osm":"way/158454008"},"geometry":{"type":"LineString","coordinates":[[12.58541,47.62216],[12.58043,47.60624]]}},{"type":"Feature","properties":{"kind":"lift","difficulty":null,"name":"Roßalmbahn","aerialway":"chair_lift","osm":"way/158454039"},"geometry":{"type":"LineString","coordinates":[[12.58007,47.65445],[12.5805,47.64002]]}},{"type":"Feature","properties":{"kind":"lift","difficulty":null,"name":"Kammerkör","aerialway":"chair_lift","osm":"way/323203509"},"geometry":{"type":"LineString","coordinates":[[12.56489,47.62425],[12.57154,47.61091]]}},{"type":"Feature","properties":{"kind":"lift","difficulty":null,"name":"Roßalmlift","aerialway":"t-bar","osm":"way/349666118"},"geometry":{"type":"LineString","coordinates":[[12.58024,47.65443],[12.58074,47.64043]]}},{"type":"Feature","properties":{"kind":"lift","difficulty":null,"name":null,"aerialway":"rope_tow","osm":"way/852434003"},"geometry":{"type":"LineString","coordinates":[[12.57955,47.6546],[12.57902,47.65356]]}}]}