{"type":"FeatureCollection","features":[{"type":"Feature","properties":{"kind":"lift","difficulty":null,"name":"Skilift Eberschwang","aerialway":"t-bar","osm":"way/254467396"},"geometry":{"type":"LineString","coordinates":[[13.60016,48.14391],[13.6024,48.13902]]}},{"type":"Feature","properties":{"kind":"piste","difficulty":"easy","name":"Gasserl","aerialway":null,"osm":"way/393863926"},"geometry":{"type":"LineString","coordinates":[[13.6024,48.13902],[13.6029,48.13945],[13.60304,48.1401],[13.60212,48.14293],[13.60131,48.14363],[13.60016,48.14391]]}},{"type":"Feature","properties":{"kind":"piste","difficulty":"intermediate","name":"Lifthang","aerialway":null,"osm":"way/393863937"},"geometry":{"type":"LineString","coordinates":[[13.6024,48.13902],[13.60247,48.13933],[13.60173,48.14082],[13.60064,48.14354],[13.60048,48.14382],[13.60016,48.14391]]}},{"type":"Feature","properties":{"kind":"piste","difficulty":"intermediate","name":"Steilhang","aerialway":null,"osm":"way/393863940"},"geometry":{"type":"LineString","coordinates":[[13.60247,48.13933],[13.6026,48.13978],[13.60228,48.14056],[13.60251,48.14149],[13.60107,48.14256]]}},{"type":"Feature","properties":{"kind":"lift","difficulty":null,"name":null,"aerialway":"magic_carpet","osm":"way/393869821"},"geometry":{"type":"LineString","coordinates":[[13.60024,48.14409],[13.60119,48.14398]]}},{"type":"Feature","properties":{"kind":"piste","difficulty":"novice","name":"Übungshang","aerialway":null,"osm":"way/1256041396"},"geometry":{"type":"LineString","coordinates":[[13.60119,48.14398],[13.60113,48.14383],[13.60029,48.14393],[13.60024,48.14409]]}},{"type":"Feature","properties":{"kind":"piste","difficulty":"novice","name":null,"aerialway":null,"osm":"way/1256041397"},"geometry":{"type":"LineString","coordinates":[[13.60113,48.14383],[13.60016,48.14391]]}}]}