{"type":"FeatureCollection","features":[{"type":"Feature","properties":{"kind":"lift","difficulty":null,"name":"Schlepplift Gaiberg I","aerialway":"drag_lift","osm":"way/124118791"},"geometry":{"type":"LineString","coordinates":[[15.29348,47.62404],[15.28591,47.62371]]}},{"type":"Feature","properties":{"kind":"lift","difficulty":null,"name":"Schlepplift Gaiberg II","aerialway":"drag_lift","osm":"way/222469778"},"geometry":{"type":"LineString","coordinates":[[15.28498,47.62413],[15.28696,47.62107]]}},{"type":"Feature","properties":{"kind":"piste","difficulty":"advanced","name":"Schi-Piste","aerialway":null,"osm":"way/240017941"},"geometry":{"type":"LineString","coordinates":[[15.28696,47.62107],[15.28673,47.62107],[15.28615,47.62192],[15.28531,47.62263],[15.28486,47.62415]]}},{"type":"Feature","properties":{"kind":"piste","difficulty":"intermediate","name":"Schi-Piste","aerialway":null,"osm":"way/240018191"},"geometry":{"type":"LineString","coordinates":[[15.28696,47.62107],[15.28806,47.62095],[15.28894,47.62114],[15.29021,47.62121],[15.29128,47.62081],[15.29278,47.62099],[15.29312,47.62154],[15.29308,47.6218],[15.29252,47.6226],[15.2919,47.62306],[15.29258,47.62371],[15.29348,47.62404]]}},{"type":"Feature","properties":{"kind":"piste","difficulty":"intermediate","name":null,"aerialway":null,"osm":"way/240018240"},"geometry":{"type":"LineString","coordinates":[[15.2919,47.62306],[15.29033,47.62413],[15.28997,47.62484],[15.2892,47.62478],[15.28692,47.62412],[15.28617,47.62403],[15.28591,47.62371]]}},{"type":"Feature","properties":{"kind":"piste","difficulty":"intermediate","name":null,"aerialway":null,"osm":"way/240018241"},"geometry":{"type":"LineString","coordinates":[[15.2849,47.62413],[15.28617,47.62403]]}},{"type":"Feature","properties":{"kind":"piste","difficulty":"intermediate","name":"Schi-Piste","aerialway":null,"osm":"way/240018242"},"geometry":{"type":"LineString","coordinates":[[15.28997,47.62484],[15.29126,47.62539],[15.29181,47.6253],[15.29246,47.62504],[15.29348,47.62404]]}},{"type":"Feature","properties":{"kind":"piste","difficulty":"easy","name":"Schi-Piste","aerialway":null,"osm":"way/240018795"},"geometry":{"type":"LineString","coordinates":[[15.28602,47.62561],[15.286,47.62643],[15.28587,47.62665],[15.28544,47.62685],[15.28523,47.62746],[15.28542,47.6277],[15.28581,47.6273],[15.28705,47.62716],[15.28913,47.62623],[15.29048,47.62617],[15.29115,47.6263],[15.29218,47.62565],[15.29239,47.62528]]}},{"type":"Feature","properties":{"kind":"piste","difficulty":"easy","name":"Schi-Piste","aerialway":null,"osm":"way/240018798"},"geometry":{"type":"LineString","coordinates":[[15.28602,47.62561],[15.28644,47.62544],[15.28787,47.62524],[15.29011,47.62562],[15.29168,47.62567],[15.29239,47.62528]]}},{"type":"Feature","properties":{"kind":"piste","difficulty":"easy","name":"Schi-Piste","aerialway":null,"osm":"way/1112702719"},"geometry":{"type":"LineString","coordinates":[[15.29188,47.62085],[15.29093,47.62202],[15.28941,47.6229],[15.28778,47.62295],[15.28508,47.62341],[15.28465,47.62396],[15.28521,47.62425],[15.28555,47.62425],[15.28559,47.62467],[15.28602,47.62561]]}},{"type":"Feature","properties":{"kind":"piste","difficulty":"easy","name":"Schi-Piste","aerialway":null,"osm":"way/1112702720"},"geometry":{"type":"LineString","coordinates":[[15.29239,47.62528],[15.29332,47.62448],[15.29348,47.62404]]}}]}