{"type":"FeatureCollection","features":[{"type":"Feature","properties":{"kind":"piste","difficulty":"easy","name":"ÜL Hintermoos","aerialway":null,"osm":"way/30802288"},"geometry":{"type":"LineString","coordinates":[[12.94499,47.38174],[12.94392,47.38276],[12.94214,47.38383],[12.94185,47.3839],[12.94167,47.38378]]}},{"type":"Feature","properties":{"kind":"piste","difficulty":"intermediate","name":"Schwarzeckalmabfahrt","aerialway":null,"osm":"way/30802292"},"geometry":{"type":"LineString","coordinates":[[12.9298,47.37199],[12.92968,47.3718],[12.92924,47.37198],[12.9284,47.37394],[12.92715,47.3757],[12.92705,47.37604],[12.92723,47.37625],[12.92762,47.3764],[12.92857,47.37622],[12.9293,47.37639],[12.93025,47.37725],[12.93144,47.37808],[12.9331,47.37988],[12.93567,47.38221],[12.93691,47.38303],[12.93718,47.38348],[12.93738,47.38516],[12.93786,47.38618]]}},{"type":"Feature","properties":{"kind":"piste","difficulty":"intermediate","name":"Ahornabfahrt","aerialway":null,"osm":"way/30802293"},"geometry":{"type":"LineString","coordinates":[[12.93506,47.37256],[12.93525,47.37241],[12.93656,47.37274],[12.93804,47.37346],[12.93864,47.37393],[12.93827,47.37479],[12.93792,47.37795],[12.93817,47.37867],[12.93914,47.37965],[12.9401,47.38029],[12.94222,47.38009],[12.94339,47.3806],[12.9435,47.38165],[12.9431,47.38234],[12.94198,47.38349],[12.94153,47.38379],[12.94122,47.38382],[12.94097,47.38442]]}},{"type":"Feature","properties":{"kind":"piste","difficulty":"easy","name":"ÜL Hintermoos","aerialway":null,"osm":"way/30802294"},"geometry":{"type":"LineString","coordinates":[[12.94286,47.38263],[12.9423,47.38374]]}},{"type":"Feature","properties":{"kind":"piste","difficulty":"advanced","name":"Steile Viererabfahrt","aerialway":null,"osm":"way/30804001"},"geometry":{"type":"LineString","coordinates":[[12.92668,47.3624],[12.92618,47.36371],[12.92456,47.3648],[12.92386,47.36631],[12.92293,47.36765],[12.92212,47.36819],[12.92109,47.3694],[12.91971,47.36991]]}},{"type":"Feature","properties":{"kind":"piste","difficulty":"intermediate","name":"Karliftabfahrt a","aerialway":null,"osm":"way/30804306"},"geometry":{"type":"LineString","coordinates":[[12.91127,47.36779],[12.91284,47.36689],[12.91312,47.36689]]}},{"type":"Feature","properties":{"kind":"piste","difficulty":"easy","name":"Schönanger","aerialway":null,"osm":"way/30804307"},"geometry":{"type":"LineString","coordinates":[[12.91244,47.37191],[12.91246,47.37181],[12.91276,47.37176]]}},{"type":"Feature","properties":{"kind":"piste","difficulty":"easy","name":"Familienabfahrt Aberg","aerialway":null,"osm":"way/30833083"},"geometry":{"type":"LineString","coordinates":[[12.92036,47.35716],[12.92296,47.35766],[12.92383,47.35793],[12.92479,47.35853],[12.92633,47.36053],[12.92642,47.36199],[12.92659,47.36231],[12.92709,47.36283],[12.92847,47.36369],[12.92943,47.36413],[12.92975,47.36448],[12.92995,47.36515],[12.92965,47.36602],[12.92985,47.36625],[12.93108,47.36681],[12.9316,47.36728],[12.93198,47.36821],[12.9319,47.36886]]}},{"type":"Feature","properties":{"kind":"piste","difficulty":"easy","name":"Schönanger","aerialway":null,"osm":"way/30833196"},"geometry":{"type":"LineString","coordinates":[[12.91233,47.37151],[12.91295,47.37185],[12.91294,47.37208],[12.91195,47.37357],[12.91281,47.37622],[12.91321,47.37843]]}},{"type":"Feature","properties":{"kind":"piste","difficulty":"easy","name":"Familienabfahrt Aberg","aerialway":null,"osm":"way/30833288"},"geometry":{"type":"LineString","coordinates":[[12.9152,47.37177],[12.91532,47.37146],[12.9158,47.3714],[12.91655,47.37163]]}},{"type":"Feature","properties":{"kind":"piste","difficulty":"advanced","name":"Schreinerlochabfahrt","aerialway":null,"osm":"way/30833366"},"geometry":{"type":"LineString","coordinates":[[12.92641,47.3618],[12.92409,47.36211],[12.92286,47.36251],[12.92249,47.3628],[12.92229,47.36343],[12.92145,47.365],[12.92096,47.36542],[12.91951,47.36605]]}},{"type":"Feature","properties":{"kind":"piste","difficulty":"intermediate","name":"Karlift Nr.23 Oberer Teil","aerialway":null,"osm":"way/30833421"},"geometry":{"type":"LineString","coordinates":[[12.91183,47.36524],[12.91331,47.36453],[12.91408,47.36395],[12.91469,47.36377],[12.91537,47.36378],[12.91562,47.36396],[12.91581,47.36459],[12.91616,47.36506],[12.9169,47.36561],[12.91753,47.36572],[12.91928,47.36549],[12.91977,47.36571],[12.91951,47.36605]]}},{"type":"Feature","properties":{"kind":"piste","difficulty":"easy","name":"Sonnleitenabfahrt","aerialway":null,"osm":"way/30953922"},"geometry":{"type":"LineString","coordinates":[[12.96944,47.41631],[12.96933,47.41628],[12.96931,47.41315],[12.96971,47.41216],[12.9703,47.41179],[12.97254,47.41142],[12.9752,47.41173],[12.97624,47.41162],[12.97723,47.41102],[12.97766,47.41121]]}},{"type":"Feature","properties":{"kind":"piste","difficulty":"intermediate","name":"Sonnleitenabfahrt","aerialway":null,"osm":"way/30954147"},"geometry":{"type":"LineString","coordinates":[[12.96944,47.41631],[12.96939,47.41605],[12.96957,47.41592],[12.97015,47.41605],[12.97216,47.41482],[12.97312,47.4147],[12.97419,47.41436],[12.97457,47.41398],[12.97481,47.4135],[12.97651,47.41223],[12.97624,47.41162]]}},{"type":"Feature","properties":{"kind":"piste","difficulty":"easy","name":"Faschingabfahrt","aerialway":null,"osm":"way/31061146"},"geometry":{"type":"LineString","coordinates":[[12.98332,47.40711],[12.98195,47.40727],[12.97875,47.40824],[12.97856,47.40844]]}},{"type":"Feature","properties":{"kind":"piste","difficulty":"easy","name":"Faschingabfahrt","aerialway":null,"osm":"way/31061148"},"geometry":{"type":"LineString","coordinates":[[12.98341,47.40713],[12.98271,47.40764],[12.98049,47.40827],[12.97882,47.40855],[12.9786,47.40848]]}},{"type":"Feature","properties":{"kind":"piste","difficulty":"intermediate","name":"Familienabfahrt Zachhofalm","aerialway":null,"osm":"way/32003140"},"geometry":{"type":"LineString","coordinates":[[13.03271,47.37474],[13.03315,47.37441],[13.03375,47.37439],[13.03421,47.37459],[13.03443,47.37485],[13.03449,47.37529],[13.03374,47.37678],[13.03353,47.37815],[13.03303,47.37859],[13.03403,47.37874],[13.03499,47.37853],[13.03575,47.37853],[13.03632,47.37886],[13.03651,47.37927],[13.03651,47.37975],[13.03495,47.38233],[13.03412,47.3846],[13.03388,47.38583],[13.03267,47.38803],[13.03253,47.38815],[13.03224,47.38801]]}},{"type":"Feature","properties":{"kind":"piste","difficulty":"easy","name":"Zachhof Babylift","aerialway":null,"osm":"way/32003256"},"geometry":{"type":"LineString","coordinates":[[13.01385,47.38359],[13.01277,47.38449],[13.01224,47.38515],[13.01214,47.38548]]}},{"type":"Feature","properties":{"kind":"piste","difficulty":"easy","name":"Kings Corner","aerialway":null,"osm":"way/32015826"},"geometry":{"type":"LineString","coordinates":[[13.04797,47.37803],[13.04826,47.37799],[13.05295,47.37885],[13.05332,47.3792],[13.05387,47.37943]]}},{"type":"Feature","properties":{"kind":"piste","difficulty":"easy","name":"Kings Corner","aerialway":null,"osm":"way/32015851"},"geometry":{"type":"LineString","coordinates":[[13.05856,47.37996],[13.06037,47.3803],[13.06171,47.38087]]}},{"type":"Feature","properties":{"kind":"piste","difficulty":"intermediate","name":"Familienabfahrt Hinterthal","aerialway":null,"osm":"way/32016313"},"geometry":{"type":"LineString","coordinates":[[12.98672,47.39079],[12.98661,47.39105],[12.98492,47.39189]]}},{"type":"Feature","properties":{"kind":"piste","difficulty":"intermediate","name":"Familienabfahrt Hinterthal/Hintermoosabfahrt","aerialway":null,"osm":"way/32019053"},"geometry":{"type":"LineString","coordinates":[[12.9842,47.38988],[12.98189,47.39224]]}},{"type":"Feature","properties":{"kind":"piste","difficulty":"advanced","name":"Hochmaisabfahrt","aerialway":null,"osm":"way/100703760"},"geometry":{"type":"LineString","coordinates":[[12.975,47.39867],[12.9737,47.39955],[12.97335,47.40012],[12.97405,47.40232],[12.97395,47.40303],[12.97252,47.40488],[12.97198,47.40538],[12.97151,47.4055]]}},{"type":"Feature","properties":{"kind":"piste","difficulty":"intermediate","name":"Dacheggabfahrten","aerialway":null,"osm":"way/100703761"},"geometry":{"type":"LineString","coordinates":[[13.04112,47.38374],[13.03932,47.38389],[13.03809,47.38431],[13.03727,47.385],[13.03687,47.38655]]}},{"type":"Feature","properties":{"kind":"piste","difficulty":"intermediate","name":"Familienabfahrt Hinterthal","aerialway":null,"osm":"way/100703766"},"geometry":{"type":"LineString","coordinates":[[12.98471,47.38996],[12.98452,47.38978],[12.9842,47.38988],[12.98504,47.39111],[12.98506,47.39155],[12.98492,47.39189],[12.98364,47.39247],[12.98239,47.39253],[12.98149,47.39273],[12.98055,47.39387],[12.9793,47.39461],[12.97737,47.39656],[12.97697,47.39712],[12.97565,47.39833],[12.975,47.39867],[12.97642,47.39893],[12.9776,47.3988],[12.97793,47.39889],[12.97759,47.39958],[12.97762,47.39997],[12.97737,47.40045],[12.97692,47.4009],[12.97563,47.40172],[12.97429,47.40332],[12.97402,47.40387],[12.9746,47.40514],[12.97446,47.40561],[12.97368,47.40573],[12.97151,47.4055]]}},{"type":"Feature","properties":{"kind":"piste","difficulty":"easy","name":"Kings Corner","aerialway":null,"osm":"way/100703769"},"geometry":{"type":"LineString","coordinates":[[13.06462,47.38186],[13.06542,47.38186],[13.06841,47.38261],[13.06962,47.38244],[13.07013,47.38253],[13.07053,47.38272],[13.0709,47.3831],[13.07104,47.38353],[13.071,47.38405],[13.07129,47.38459]]}},{"type":"Feature","properties":{"kind":"piste","difficulty":"intermediate","name":"Hintermoosabfahrt","aerialway":null,"osm":"way/100703771"},"geometry":{"type":"LineString","coordinates":[[12.98438,47.39219],[12.98163,47.39223],[12.98104,47.39206],[12.98091,47.39189],[12.98092,47.39148],[12.98059,47.39041],[12.97987,47.39009],[12.97936,47.38952],[12.9785,47.38932],[12.97761,47.38872],[12.9773,47.38814],[12.97654,47.38753],[12.97465,47.38709],[12.97377,47.38656],[12.97291,47.38633],[12.97164,47.38541],[12.97065,47.38505],[12.96633,47.38486],[12.96523,47.38461],[12.96293,47.38435],[12.96173,47.38445],[12.96043,47.38499],[12.95778,47.38571],[12.95581,47.38579],[12.95408,47.38556],[12.95277,47.38555],[12.95136,47.38564],[12.94883,47.38606],[12.94781,47.38669],[12.94575,47.38732],[12.93911,47.38727],[12.93857,47.38718],[12.93838,47.38704],[12.93882,47.3871]]}},{"type":"Feature","properties":{"kind":"piste","difficulty":"easy","name":"Abfahrt Wastlhöhe","aerialway":null,"osm":"way/124425941"},"geometry":{"type":"LineString","coordinates":[[13.03216,47.3749],[13.03061,47.37485],[13.02851,47.37505],[13.02664,47.375],[13.02544,47.37479],[13.02471,47.37428]]}},{"type":"Feature","properties":{"kind":"piste","difficulty":"easy","name":"Abfahrt Wastlhöhe","aerialway":null,"osm":"way/124908343"},"geometry":{"type":"LineString","coordinates":[[13.02179,47.37332],[13.02005,47.37319],[13.0182,47.37287],[13.01695,47.37253],[13.01715,47.37226]]}},{"type":"Feature","properties":{"kind":"piste","difficulty":"intermediate","name":"Dacheggabfahrten","aerialway":null,"osm":"way/144068770"},"geometry":{"type":"LineString","coordinates":[[13.0478,47.3795],[13.04731,47.3797],[13.04643,47.37955],[13.04534,47.37962],[13.04439,47.37994],[13.04408,47.38108],[13.0442,47.38181],[13.04413,47.38225],[13.04387,47.38257],[13.04083,47.38452],[13.03687,47.38655],[13.03449,47.38811],[13.03341,47.38864],[13.03376,47.38898],[13.0339,47.38894]]}},{"type":"Feature","properties":{"kind":"piste","difficulty":"easy","name":"Kings Corner","aerialway":null,"osm":"way/144068771"},"geometry":{"type":"LineString","coordinates":[[13.04731,47.3797],[13.04781,47.37966]]}},{"type":"Feature","properties":{"kind":"piste","difficulty":"easy","name":"Kings Corner","aerialway":null,"osm":"way/144068772"},"geometry":{"type":"LineString","coordinates":[[13.04731,47.3797],[13.04745,47.37934]]}},{"type":"Feature","properties":{"kind":"piste","difficulty":"intermediate","name":"Dacheggabfahrten","aerialway":null,"osm":"way/144071220"},"geometry":{"type":"LineString","coordinates":[[13.04217,47.38365],[13.04112,47.38374]]}},{"type":"Feature","properties":{"kind":"piste","difficulty":"intermediate","name":"Dacheggabfahrten","aerialway":null,"osm":"way/144071223"},"geometry":{"type":"LineString","coordinates":[[13.03341,47.38864],[13.03259,47.38847],[13.03224,47.38801]]}},{"type":"Feature","properties":{"kind":"piste","difficulty":"easy","name":"Skibrücke Gabühel - Bürglalm","aerialway":null,"osm":"way/144071224"},"geometry":{"type":"LineString","coordinates":[[13.00389,47.38445],[13.00442,47.38418]]}},{"type":"Feature","properties":{"kind":"piste","difficulty":"intermediate","name":"Familienabfahrt Zachhofalm","aerialway":null,"osm":"way/144071225"},"geometry":{"type":"LineString","coordinates":[[13.03267,47.38803],[13.03286,47.38857],[13.03349,47.38881]]}},{"type":"Feature","properties":{"kind":"piste","difficulty":"advanced","name":"Trassenabfahrt Zachhofalm","aerialway":null,"osm":"way/144071229"},"geometry":{"type":"LineString","coordinates":[[13.03232,47.37778],[13.03045,47.37864]]}},{"type":"Feature","properties":{"kind":"piste","difficulty":"easy","name":"Skiweg Wastlhöhe","aerialway":null,"osm":"way/144071230"},"geometry":{"type":"LineString","coordinates":[[13.01638,47.37264],[13.0164,47.37294],[13.01676,47.37346],[13.01747,47.37413],[13.01766,47.37463],[13.01862,47.3756],[13.01959,47.37601],[13.02056,47.37605],[13.02183,47.37637],[13.02286,47.37758],[13.02297,47.37868],[13.02331,47.37967],[13.02367,47.37979],[13.02462,47.37971],[13.02543,47.37982],[13.02536,47.37992],[13.02466,47.37993],[13.02322,47.38061],[13.02176,47.38057],[13.02083,47.38028],[13.02048,47.37993],[13.02025,47.37907]]}},{"type":"Feature","properties":{"kind":"piste","difficulty":"easy","name":"Abfahrt Wastlhöhe","aerialway":null,"osm":"way/144071233"},"geometry":{"type":"LineString","coordinates":[[13.02094,47.37445],[13.02136,47.37467],[13.02251,47.37482],[13.02334,47.37523],[13.02426,47.37596],[13.02486,47.37666],[13.02583,47.37729],[13.02687,47.37761],[13.02843,47.37776]]}},{"type":"Feature","properties":{"kind":"piste","difficulty":"intermediate","name":"Gabühel","aerialway":null,"osm":"way/144077783"},"geometry":{"type":"LineString","coordinates":[[12.99048,47.39115],[12.9906,47.39111]]}},{"type":"Feature","properties":{"kind":"piste","difficulty":"intermediate","name":"Gabühel","aerialway":null,"osm":"way/144077785"},"geometry":{"type":"LineString","coordinates":[[12.98651,47.39106],[12.99048,47.39115]]}},{"type":"Feature","properties":{"kind":"piste","difficulty":"intermediate","name":"Gabühel","aerialway":null,"osm":"way/144077787"},"geometry":{"type":"LineString","coordinates":[[12.9906,47.39111],[12.99219,47.3912],[12.99279,47.39111],[12.99324,47.39088],[12.99371,47.39],[12.99342,47.38876],[12.99369,47.38837],[12.99429,47.38793],[12.9955,47.38725],[12.99647,47.38701],[12.9995,47.38674],[13.00108,47.38644],[13.00148,47.38628],[13.0016,47.38606],[13.0008,47.38545],[13.00077,47.38531],[13.00108,47.38505],[13.00265,47.38426],[13.00352,47.38416],[13.00372,47.38442],[13.00389,47.38445]]}},{"type":"Feature","properties":{"kind":"piste","difficulty":"intermediate","name":"Karliftabfahrt b","aerialway":null,"osm":"way/144083276"},"geometry":{"type":"LineString","coordinates":[[12.91892,47.36663],[12.91783,47.36744],[12.91586,47.36844],[12.91489,47.36938],[12.9135,47.37028],[12.91198,47.37189],[12.9116,47.37315],[12.91195,47.37357],[12.91172,47.37388],[12.91098,47.37396]]}},{"type":"Feature","properties":{"kind":"piste","difficulty":"intermediate","name":"Karliftabfahrt b","aerialway":null,"osm":"way/144083284"},"geometry":{"type":"LineString","coordinates":[[12.91732,47.36771],[12.91659,47.36945],[12.91603,47.37028],[12.91601,47.37074],[12.91622,47.37145]]}},{"type":"Feature","properties":{"kind":"piste","difficulty":"intermediate","name":"Karliftabfahrt b","aerialway":null,"osm":"way/144083286"},"geometry":{"type":"LineString","coordinates":[[12.91926,47.36639],[12.91892,47.36663]]}},{"type":"Feature","properties":{"kind":"piste","difficulty":"intermediate","name":"Ahornabfahrt","aerialway":null,"osm":"way/144083288"},"geometry":{"type":"LineString","coordinates":[[12.9298,47.37199],[12.92991,47.37189],[12.9304,47.37203]]}},{"type":"Feature","properties":{"kind":"piste","difficulty":"intermediate","name":"Ahornabfahrt","aerialway":null,"osm":"way/144083311"},"geometry":{"type":"LineString","coordinates":[[12.93807,47.37816],[12.94105,47.37915],[12.94222,47.38009]]}},{"type":"Feature","properties":{"kind":"piste","difficulty":"intermediate","name":"Ahornabfahrt","aerialway":null,"osm":"way/144083322"},"geometry":{"type":"LineString","coordinates":[[12.938,47.37806],[12.93737,47.37883],[12.93637,47.37918],[12.93585,47.3792],[12.93463,47.38129]]}},{"type":"Feature","properties":{"kind":"piste","difficulty":"intermediate","name":"Schwarzeckalmabfahrt","aerialway":null,"osm":"way/144083334"},"geometry":{"type":"LineString","coordinates":[[12.93786,47.38618],[12.93818,47.38675]]}},{"type":"Feature","properties":{"kind":"piste","difficulty":"intermediate","name":"Schwarzeckabfahrt","aerialway":null,"osm":"way/144083336"},"geometry":{"type":"LineString","coordinates":[[12.93818,47.38675],[12.93838,47.38704]]}},{"type":"Feature","properties":{"kind":"piste","difficulty":"easy","name":null,"aerialway":null,"osm":"way/170152653"},"geometry":{"type":"LineString","coordinates":[[13.06202,47.38567],[13.06541,47.38579],[13.06725,47.38535],[13.06903,47.38566],[13.06933,47.38555],[13.06981,47.38502],[13.07009,47.3849],[13.07162,47.38484]]}},{"type":"Feature","properties":{"kind":"piste","difficulty":"easy","name":"Skiweg Bürglalm","aerialway":null,"osm":"way/194107975"},"geometry":{"type":"LineString","coordinates":[[13.01214,47.38548],[13.01167,47.385],[13.01034,47.38463],[13.00952,47.38418],[13.00754,47.38385],[13.00631,47.38345]]}},{"type":"Feature","properties":{"kind":"piste","difficulty":"easy","name":"Bürglalmabfahrt","aerialway":null,"osm":"way/198950324"},"geometry":{"type":"LineString","coordinates":[[13.00631,47.38345],[13.00604,47.38362]]}},{"type":"Feature","properties":{"kind":"piste","difficulty":"easy","name":"Skiweg Zachhof Babylift","aerialway":null,"osm":"way/199398073"},"geometry":{"type":"LineString","coordinates":[[13.0099,47.38152],[13.01029,47.38156],[13.01097,47.38234],[13.01194,47.38286],[13.01232,47.38331],[13.01201,47.38459],[13.01224,47.38515]]}},{"type":"Feature","properties":{"kind":"piste","difficulty":"easy","name":"ÜL Liebenau","aerialway":null,"osm":"way/199398077"},"geometry":{"type":"LineString","coordinates":[[13.03119,47.38591],[13.03036,47.38618],[13.02943,47.38679],[13.02818,47.38839],[13.02831,47.38854]]}},{"type":"Feature","properties":{"kind":"piste","difficulty":"easy","name":"ÜL Liebenau","aerialway":null,"osm":"way/199398079"},"geometry":{"type":"LineString","coordinates":[[13.03119,47.38591],[13.03154,47.3866],[13.03018,47.38764],[13.02967,47.38815],[13.02941,47.38861],[13.02887,47.38873],[13.02831,47.38854]]}},{"type":"Feature","properties":{"kind":"piste","difficulty":"intermediate","name":"Familienabfahrt Hinterthal","aerialway":null,"osm":"way/199398082"},"geometry":{"type":"LineString","coordinates":[[12.98189,47.39224],[12.98149,47.39273]]}},{"type":"Feature","properties":{"kind":"piste","difficulty":"easy","name":"ÜL Liebenau","aerialway":null,"osm":"way/199398084"},"geometry":{"type":"LineString","coordinates":[[13.03205,47.38617],[13.03152,47.38639],[13.0322,47.3866]]}},{"type":"Feature","properties":{"kind":"piste","difficulty":"easy","name":"Simmerllift Familienabfahrt","aerialway":null,"osm":"way/313603198"},"geometry":{"type":"LineString","coordinates":[[12.91306,47.4028],[12.91282,47.40342],[12.91094,47.40507],[12.91053,47.40584],[12.90978,47.40656],[12.90913,47.40677],[12.90864,47.40661]]}},{"type":"Feature","properties":{"kind":"piste","difficulty":"easy","name":"Nordabfahrt","aerialway":null,"osm":"way/328749303"},"geometry":{"type":"LineString","coordinates":[[12.9141,47.40075],[12.91503,47.40122],[12.91556,47.40134],[12.91625,47.40142],[12.91734,47.40129]]}},{"type":"Feature","properties":{"kind":"piste","difficulty":"intermediate","name":"Steilhangabfahrt","aerialway":null,"osm":"way/400648424"},"geometry":{"type":"LineString","coordinates":[[12.91627,47.40026],[12.91471,47.40061],[12.91238,47.40053],[12.91127,47.40087],[12.91001,47.40159],[12.91019,47.40219],[12.90932,47.40374],[12.90802,47.40459],[12.90745,47.40521],[12.90678,47.40558],[12.90636,47.40634]]}},{"type":"Feature","properties":{"kind":"piste","difficulty":"easy","name":"Nordabfahrt","aerialway":null,"osm":"way/401107084"},"geometry":{"type":"LineString","coordinates":[[12.91761,47.40124],[12.91848,47.40107],[12.91903,47.40151],[12.91936,47.40234],[12.91901,47.40297],[12.91857,47.40339],[12.91714,47.40397],[12.91625,47.40501]]}},{"type":"Feature","properties":{"kind":"piste","difficulty":"easy","name":"Simmerlift Familienabfahrt","aerialway":null,"osm":"way/401693266"},"geometry":{"type":"LineString","coordinates":[[12.90913,47.40677],[12.90872,47.40682],[12.90697,47.40635],[12.90632,47.40636]]}},{"type":"Feature","properties":{"kind":"piste","difficulty":"easy","name":"Simmerllift Familienabfahrt","aerialway":null,"osm":"way/401693267"},"geometry":{"type":"LineString","coordinates":[[12.91306,47.4028],[12.91372,47.40342],[12.91414,47.40553],[12.91416,47.40658],[12.91359,47.40731],[12.91247,47.40767],[12.91067,47.40773],[12.90971,47.40724],[12.90913,47.40677]]}},{"type":"Feature","properties":{"kind":"piste","difficulty":"easy","name":null,"aerialway":null,"osm":"way/434028324"},"geometry":{"type":"LineString","coordinates":[[13.06432,47.3834],[13.06393,47.3843],[13.06359,47.38444],[13.06285,47.38525],[13.06202,47.38567]]}},{"type":"Feature","properties":{"kind":"piste","difficulty":"intermediate","name":"Bürglalmabfahrt","aerialway":null,"osm":"way/441832138"},"geometry":{"type":"LineString","coordinates":[[13.02196,47.37342],[13.02029,47.37359],[13.01872,47.37436],[13.01793,47.37493],[13.01763,47.37545],[13.01621,47.37667],[13.01587,47.3776],[13.0156,47.37789],[13.01329,47.37901],[13.01059,47.38053],[13.0099,47.38152],[13.00874,47.38165],[13.00631,47.38345]]}},{"type":"Feature","properties":{"kind":"piste","difficulty":"unknown","name":null,"aerialway":null,"osm":"way/444400024"},"geometry":{"type":"LineString","coordinates":[[13.01679,47.37227],[13.01715,47.37183]]}},{"type":"Feature","properties":{"kind":"piste","difficulty":"intermediate","name":"Schreinerabfahrt","aerialway":null,"osm":"way/445007680"},"geometry":{"type":"LineString","coordinates":[[12.92041,47.35722],[12.92043,47.35744],[12.92067,47.35754],[12.92232,47.3579],[12.9231,47.35828],[12.92377,47.35888],[12.92592,47.3615],[12.92641,47.3618]]}},{"type":"Feature","properties":{"kind":"piste","difficulty":"intermediate","name":"Natrunschleppliftabfahrt","aerialway":null,"osm":"way/445012879"},"geometry":{"type":"LineString","coordinates":[[12.90796,47.40465],[12.90712,47.40479],[12.90484,47.40432],[12.90428,47.40401]]}},{"type":"Feature","properties":{"kind":"piste","difficulty":"intermediate","name":"Steilhangabfahrt","aerialway":null,"osm":"way/445013331"},"geometry":{"type":"LineString","coordinates":[[12.91306,47.4028],[12.91157,47.4027],[12.9105,47.40285],[12.91005,47.40309],[12.90938,47.40402],[12.90896,47.40535],[12.90846,47.40601],[12.90841,47.40628],[12.90864,47.40661]]}},{"type":"Feature","properties":{"kind":"piste","difficulty":"intermediate","name":"Hinterreit II rechte Abfahrt","aerialway":null,"osm":"way/445015358"},"geometry":{"type":"LineString","coordinates":[[12.88587,47.395],[12.88553,47.39534],[12.88546,47.39623],[12.88578,47.39802],[12.88631,47.40313],[12.88667,47.4035]]}},{"type":"Feature","properties":{"kind":"piste","difficulty":"intermediate","name":"Hinterreit II rechte Abfahrt","aerialway":null,"osm":"way/445015359"},"geometry":{"type":"LineString","coordinates":[[12.88631,47.40313],[12.88642,47.40365],[12.88692,47.40407]]}},{"type":"Feature","properties":{"kind":"piste","difficulty":"easy","name":null,"aerialway":null,"osm":"way/445015361"},"geometry":{"type":"LineString","coordinates":[[12.88667,47.4035],[12.88699,47.40307]]}},{"type":"Feature","properties":{"kind":"piste","difficulty":"easy","name":"Hinterreit I linke Abfahrt","aerialway":null,"osm":"way/445015362"},"geometry":{"type":"LineString","coordinates":[[12.88713,47.39784],[12.88794,47.39849],[12.88878,47.40028],[12.88914,47.4028],[12.89098,47.40447],[12.89131,47.40642],[12.89102,47.40704],[12.89041,47.40741],[12.88958,47.40776],[12.88767,47.40821]]}},{"type":"Feature","properties":{"kind":"piste","difficulty":"intermediate","name":"Hinterreit II linke Abfahrt","aerialway":null,"osm":"way/445015363"},"geometry":{"type":"LineString","coordinates":[[12.88587,47.395],[12.88626,47.39536],[12.88643,47.39594],[12.88646,47.39797],[12.88688,47.39852]]}},{"type":"Feature","properties":{"kind":"piste","difficulty":"intermediate","name":"Karliftabfahrt b","aerialway":null,"osm":"way/449244219"},"geometry":{"type":"LineString","coordinates":[[12.91951,47.36605],[12.91926,47.36639],[12.91939,47.36686],[12.91929,47.3674],[12.91906,47.36779],[12.91909,47.36851],[12.9186,47.36965],[12.91825,47.37011]]}},{"type":"Feature","properties":{"kind":"piste","difficulty":"intermediate","name":"Schwarzeckabfahrt","aerialway":null,"osm":"way/449244221"},"geometry":{"type":"LineString","coordinates":[[12.93838,47.38704],[12.93844,47.38689]]}},{"type":"Feature","properties":{"kind":"piste","difficulty":"advanced","name":"Steile Viererabfahrt","aerialway":null,"osm":"way/449328003"},"geometry":{"type":"LineString","coordinates":[[12.92386,47.36631],[12.92354,47.36636],[12.92291,47.36609],[12.92225,47.36609],[12.92135,47.36563],[12.92027,47.3657]]}},{"type":"Feature","properties":{"kind":"piste","difficulty":"intermediate","name":"Natrunschleppliftabfahrt","aerialway":null,"osm":"way/449331273"},"geometry":{"type":"LineString","coordinates":[[12.90941,47.4011],[12.91001,47.40159]]}},{"type":"Feature","properties":{"kind":"piste","difficulty":"intermediate","name":"Natrunschleppliftabfahrt","aerialway":null,"osm":"way/449331274"},"geometry":{"type":"LineString","coordinates":[[12.91001,47.40159],[12.90614,47.40346],[12.90428,47.40401]]}},{"type":"Feature","properties":{"kind":"piste","difficulty":"easy","name":"Skiweg Bürglalm","aerialway":null,"osm":"way/449339324"},"geometry":{"type":"LineString","coordinates":[[13.01224,47.38515],[13.01167,47.385]]}},{"type":"Feature","properties":{"kind":"piste","difficulty":"easy","name":"Simmerllift Familienabfahrt","aerialway":null,"osm":"way/449356368"},"geometry":{"type":"LineString","coordinates":[[12.90971,47.40598],[12.91009,47.40625]]}},{"type":"Feature","properties":{"kind":"piste","difficulty":"easy","name":"Skiweg Natrun","aerialway":null,"osm":"way/449356370"},"geometry":{"type":"LineString","coordinates":[[12.91385,47.40398],[12.91625,47.40501],[12.91605,47.40571],[12.9154,47.40616],[12.91416,47.40658]]}},{"type":"Feature","properties":{"kind":"piste","difficulty":"easy","name":"Familienabfahrt Aberg","aerialway":null,"osm":"way/449362412"},"geometry":{"type":"LineString","coordinates":[[12.9144,47.37455],[12.91433,47.37525],[12.91449,47.376],[12.91451,47.3774],[12.91386,47.37804],[12.91321,47.37843],[12.91286,47.38001],[12.91194,47.38179],[12.91181,47.38231],[12.91194,47.38264],[12.91135,47.38268]]}},{"type":"Feature","properties":{"kind":"piste","difficulty":"intermediate","name":"Dacheggabfahrten","aerialway":null,"osm":"way/449364676"},"geometry":{"type":"LineString","coordinates":[[13.04728,47.37996],[13.04731,47.3797]]}},{"type":"Feature","properties":{"kind":"piste","difficulty":"easy","name":"Abfahrt Wastlhöhe","aerialway":null,"osm":"way/449526201"},"geometry":{"type":"LineString","coordinates":[[13.03135,47.37487],[13.03116,47.37472],[13.03012,47.37471],[13.02936,47.37449],[13.0264,47.37447],[13.02433,47.37386],[13.02196,47.37342]]}},{"type":"Feature","properties":{"kind":"piste","difficulty":"easy","name":"Zachhof Babylift","aerialway":null,"osm":"way/449528447"},"geometry":{"type":"LineString","coordinates":[[13.01412,47.38345],[13.01385,47.38359]]}},{"type":"Feature","properties":{"kind":"piste","difficulty":"intermediate","name":"Dacheggabfahrten","aerialway":null,"osm":"way/452692729"},"geometry":{"type":"LineString","coordinates":[[13.04408,47.38108],[13.0437,47.38164],[13.04316,47.38206],[13.04176,47.38281],[13.04112,47.38374]]}},{"type":"Feature","properties":{"kind":"piste","difficulty":"advanced","name":"Trassenabfahrt Zachhofalm","aerialway":null,"osm":"way/452696660"},"geometry":{"type":"LineString","coordinates":[[13.03235,47.37478],[13.03223,47.37736],[13.03232,47.37778],[13.03303,47.37859],[13.03195,47.38091],[13.03188,47.38432],[13.03205,47.38617],[13.03267,47.38803]]}},{"type":"Feature","properties":{"kind":"piste","difficulty":"intermediate","name":"Dacheggabfahrten","aerialway":null,"osm":"way/455034161"},"geometry":{"type":"LineString","coordinates":[[13.04112,47.38374],[13.04103,47.3844]]}},{"type":"Feature","properties":{"kind":"piste","difficulty":"easy","name":"Familienabfahrt Aberg","aerialway":null,"osm":"way/455036722"},"geometry":{"type":"LineString","coordinates":[[12.91194,47.38264],[12.91135,47.38268]]}},{"type":"Feature","properties":{"kind":"piste","difficulty":"intermediate","name":"Gabühel","aerialway":null,"osm":"way/456994203"},"geometry":{"type":"LineString","coordinates":[[12.98472,47.38971],[12.98484,47.39007]]}},{"type":"Feature","properties":{"kind":"piste","difficulty":"easy","name":"Hinterreit I rechte Abfahrt","aerialway":null,"osm":"way/456994204"},"geometry":{"type":"LineString","coordinates":[[12.88713,47.39784],[12.88688,47.39852],[12.88692,47.40407],[12.88718,47.406],[12.88712,47.40761],[12.88767,47.40821]]}},{"type":"Feature","properties":{"kind":"piste","difficulty":"easy","name":"Abfahrt Wastlhöhe","aerialway":null,"osm":"way/501645897"},"geometry":{"type":"LineString","coordinates":[[13.02196,47.37342],[13.02179,47.37332]]}},{"type":"Feature","properties":{"kind":"piste","difficulty":"intermediate","name":"Bürglalmabfahrt","aerialway":null,"osm":"way/501645898"},"geometry":{"type":"LineString","coordinates":[[13.022,47.3738],[13.02196,47.37342]]}},{"type":"Feature","properties":{"kind":"piste","difficulty":"easy","name":"Familienabfahrt Aberg","aerialway":null,"osm":"way/549232335"},"geometry":{"type":"LineString","coordinates":[[12.91214,47.38128],[12.9112,47.38177],[12.91034,47.38299],[12.90899,47.38423],[12.90875,47.38484],[12.90895,47.38608],[12.90889,47.38655],[12.90846,47.38725],[12.90647,47.38874],[12.90644,47.389],[12.90661,47.38925],[12.907,47.38945],[12.90846,47.3897],[12.90864,47.38984],[12.90895,47.38974]]}},{"type":"Feature","properties":{"kind":"piste","difficulty":"easy","name":null,"aerialway":null,"osm":"way/576077971"},"geometry":{"type":"LineString","coordinates":[[12.91233,47.37151],[12.91313,47.37173],[12.91532,47.37146]]}},{"type":"Feature","properties":{"kind":"piste","difficulty":"easy","name":"Familienabfahrt Aberg","aerialway":null,"osm":"way/634231825"},"geometry":{"type":"LineString","coordinates":[[12.9291,47.37023],[12.92803,47.3698],[12.92494,47.3696],[12.92419,47.36961],[12.92081,47.37012],[12.91971,47.36991],[12.91906,47.36992],[12.91825,47.37011],[12.91748,47.37051],[12.9169,47.37098],[12.91655,47.37163],[12.91685,47.37178],[12.91697,47.37162]]}},{"type":"Feature","properties":{"kind":"piste","difficulty":"easy","name":"Bürglalmabfahrt","aerialway":null,"osm":"way/663122734"},"geometry":{"type":"LineString","coordinates":[[13.00616,47.38379],[13.00566,47.38408]]}},{"type":"Feature","properties":{"kind":"piste","difficulty":"easy","name":"Bürglalmabfahrt","aerialway":null,"osm":"way/663122737"},"geometry":{"type":"LineString","coordinates":[[13.0052,47.38409],[13.0052,47.38398],[13.00563,47.38398]]}},{"type":"Feature","properties":{"kind":"piste","difficulty":"easy","name":"Simmerlift Familienabfahrt","aerialway":null,"osm":"way/671082148"},"geometry":{"type":"LineString","coordinates":[[12.90632,47.40636],[12.90625,47.40633]]}},{"type":"Feature","properties":{"kind":"piste","difficulty":"easy","name":"Sonnbergabfahrt","aerialway":null,"osm":"way/671093342"},"geometry":{"type":"LineString","coordinates":[[12.92041,47.398],[12.92071,47.3982],[12.92075,47.39802],[12.92046,47.39756],[12.9161,47.39546],[12.91416,47.39427],[12.91189,47.39253],[12.91047,47.39116],[12.90963,47.39053]]}},{"type":"Feature","properties":{"kind":"piste","difficulty":"easy","name":"Sonnbergabfahrt","aerialway":null,"osm":"way/671093343"},"geometry":{"type":"LineString","coordinates":[[12.90864,47.38984],[12.90911,47.39]]}},{"type":"Feature","properties":{"kind":"piste","difficulty":"easy","name":"Skibrücke Sonnberg - Aberg","aerialway":null,"osm":"way/671093345"},"geometry":{"type":"LineString","coordinates":[[12.90963,47.39053],[12.90864,47.38984]]}},{"type":"Feature","properties":{"kind":"piste","difficulty":"easy","name":"Nordabfahrt","aerialway":null,"osm":"way/671104654"},"geometry":{"type":"LineString","coordinates":[[12.91734,47.40129],[12.91761,47.40124]]}},{"type":"Feature","properties":{"kind":"piste","difficulty":"advanced","name":"Nordabfahrt","aerialway":null,"osm":"way/671104655"},"geometry":{"type":"LineString","coordinates":[[12.91627,47.40026],[12.9174,47.40079],[12.91761,47.40124]]}},{"type":"Feature","properties":{"kind":"piste","difficulty":"easy","name":"Nordabfahrt","aerialway":null,"osm":"way/671104657"},"geometry":{"type":"LineString","coordinates":[[12.91627,47.40026],[12.9141,47.40075]]}},{"type":"Feature","properties":{"kind":"piste","difficulty":"easy","name":"Nordabfahrt","aerialway":null,"osm":"way/671104658"},"geometry":{"type":"LineString","coordinates":[[12.92077,47.39844],[12.92088,47.39839],[12.92071,47.3982],[12.91791,47.39926],[12.91647,47.39995],[12.91627,47.40026]]}},{"type":"Feature","properties":{"kind":"piste","difficulty":"unknown","name":"Gabühel","aerialway":null,"osm":"way/698596832"},"geometry":{"type":"LineString","coordinates":[[13.00469,47.38423],[13.00472,47.38451]]}},{"type":"Feature","properties":{"kind":"piste","difficulty":"intermediate","name":"Karliftabfahrt a","aerialway":null,"osm":"way/706161047"},"geometry":{"type":"LineString","coordinates":[[12.91312,47.36689],[12.91319,47.36754],[12.91355,47.36826],[12.91426,47.36899],[12.91489,47.36938]]}},{"type":"Feature","properties":{"kind":"piste","difficulty":"intermediate","name":"Karliftabfahrt a","aerialway":null,"osm":"way/706161048"},"geometry":{"type":"LineString","coordinates":[[12.91183,47.36524],[12.9115,47.36541],[12.9111,47.36633],[12.91101,47.36745],[12.91111,47.36773],[12.91127,47.36779]]}},{"type":"Feature","properties":{"kind":"piste","difficulty":"easy","name":"Familienabfahrt Aberg","aerialway":null,"osm":"way/706161050"},"geometry":{"type":"LineString","coordinates":[[12.91655,47.37163],[12.91634,47.37206],[12.9153,47.37268]]}},{"type":"Feature","properties":{"kind":"piste","difficulty":"easy","name":"Familienabfahrt Aberg","aerialway":null,"osm":"way/706161051"},"geometry":{"type":"LineString","coordinates":[[12.91494,47.37287],[12.91479,47.37303],[12.91483,47.37363],[12.91441,47.37419],[12.9144,47.37455]]}},{"type":"Feature","properties":{"kind":"piste","difficulty":"easy","name":"Familienabfahrt Aberg","aerialway":null,"osm":"way/706161053"},"geometry":{"type":"LineString","coordinates":[[12.9153,47.37268],[12.91494,47.37287]]}},{"type":"Feature","properties":{"kind":"piste","difficulty":"easy","name":"Skiweg Wastlhöhe","aerialway":null,"osm":"way/706439913"},"geometry":{"type":"LineString","coordinates":[[13.01483,47.38241],[13.01441,47.38275],[13.01441,47.38296],[13.01489,47.38384],[13.01461,47.3842],[13.01303,47.38516],[13.01189,47.38521]]}},{"type":"Feature","properties":{"kind":"piste","difficulty":"easy","name":"Abfahrt Wastlhöhe","aerialway":null,"osm":"way/706439917"},"geometry":{"type":"LineString","coordinates":[[13.03226,47.37486],[13.03216,47.3749]]}},{"type":"Feature","properties":{"kind":"piste","difficulty":"easy","name":"Abfahrt Wastlhöhe","aerialway":null,"osm":"way/706439918"},"geometry":{"type":"LineString","coordinates":[[13.03256,47.37464],[13.03226,47.37486]]}},{"type":"Feature","properties":{"kind":"piste","difficulty":"easy","name":"Kings Corner","aerialway":null,"osm":"way/706439920"},"geometry":{"type":"LineString","coordinates":[[13.04745,47.37934],[13.04738,47.37868],[13.04801,47.37822],[13.04797,47.37803]]}},{"type":"Feature","properties":{"kind":"piste","difficulty":"easy","name":null,"aerialway":null,"osm":"way/706439923"},"geometry":{"type":"LineString","coordinates":[[13.06461,47.38256],[13.06732,47.38361],[13.07329,47.38512]]}},{"type":"Feature","properties":{"kind":"piste","difficulty":"easy","name":null,"aerialway":null,"osm":"way/706439924"},"geometry":{"type":"LineString","coordinates":[[13.04781,47.37966],[13.05122,47.37983],[13.05387,47.37943]]}},{"type":"Feature","properties":{"kind":"piste","difficulty":"easy","name":"Familienabfahrt Aberg","aerialway":null,"osm":"way/726782236"},"geometry":{"type":"LineString","coordinates":[[12.9319,47.36886],[12.93089,47.37067]]}},{"type":"Feature","properties":{"kind":"piste","difficulty":"easy","name":"Kings Corner","aerialway":null,"osm":"way/774530695"},"geometry":{"type":"LineString","coordinates":[[13.06269,47.38141],[13.06343,47.38202]]}},{"type":"Feature","properties":{"kind":"piste","difficulty":"easy","name":null,"aerialway":null,"osm":"way/774530697"},"geometry":{"type":"LineString","coordinates":[[13.06461,47.38256],[13.06489,47.38317],[13.06432,47.3834]]}},{"type":"Feature","properties":{"kind":"piste","difficulty":"easy","name":null,"aerialway":null,"osm":"way/774530708"},"geometry":{"type":"LineString","coordinates":[[13.0478,47.3795],[13.04781,47.37966]]}},{"type":"Feature","properties":{"kind":"piste","difficulty":"easy","name":null,"aerialway":null,"osm":"way/774530709"},"geometry":{"type":"LineString","coordinates":[[13.05387,47.37943],[13.05477,47.37941],[13.05704,47.37965],[13.05856,47.37996]]}},{"type":"Feature","properties":{"kind":"piste","difficulty":"easy","name":"Kings Corner","aerialway":null,"osm":"way/774530710"},"geometry":{"type":"LineString","coordinates":[[13.06157,47.38001],[13.06362,47.38067],[13.06462,47.38186]]}},{"type":"Feature","properties":{"kind":"piste","difficulty":"easy","name":null,"aerialway":null,"osm":"way/774530713"},"geometry":{"type":"LineString","coordinates":[[13.06343,47.38202],[13.06461,47.38256]]}},{"type":"Feature","properties":{"kind":"piste","difficulty":"easy","name":"Kings Corner","aerialway":null,"osm":"way/774530714"},"geometry":{"type":"LineString","coordinates":[[13.06343,47.38202],[13.06462,47.38186]]}},{"type":"Feature","properties":{"kind":"piste","difficulty":"easy","name":"Kings Corner","aerialway":null,"osm":"way/774530715"},"geometry":{"type":"LineString","coordinates":[[13.06462,47.38186],[13.06461,47.38256]]}},{"type":"Feature","properties":{"kind":"piste","difficulty":"easy","name":"Kings Corner","aerialway":null,"osm":"way/774530719"},"geometry":{"type":"LineString","coordinates":[[13.0478,47.3795],[13.04745,47.37934]]}},{"type":"Feature","properties":{"kind":"piste","difficulty":"easy","name":null,"aerialway":null,"osm":"way/774530740"},"geometry":{"type":"LineString","coordinates":[[13.06202,47.38567],[13.06051,47.38637],[13.05943,47.38753],[13.05893,47.38841],[13.05812,47.38884]]}},{"type":"Feature","properties":{"kind":"piste","difficulty":"easy","name":null,"aerialway":null,"osm":"way/774530741"},"geometry":{"type":"LineString","coordinates":[[13.05812,47.38884],[13.05789,47.38904],[13.05731,47.39041]]}},{"type":"Feature","properties":{"kind":"piste","difficulty":"easy","name":"Kings Corner","aerialway":null,"osm":"way/774530742"},"geometry":{"type":"LineString","coordinates":[[13.05704,47.37965],[13.05836,47.37944],[13.06157,47.38001]]}},{"type":"Feature","properties":{"kind":"piste","difficulty":"intermediate","name":"Ahornabfahrt","aerialway":null,"osm":"way/831215022"},"geometry":{"type":"LineString","coordinates":[[12.94097,47.38442],[12.94087,47.38451]]}},{"type":"Feature","properties":{"kind":"piste","difficulty":"intermediate","name":"Ahornabfahrt","aerialway":null,"osm":"way/831215023"},"geometry":{"type":"LineString","coordinates":[[12.94087,47.38451],[12.94074,47.38493],[12.93966,47.38556],[12.9378,47.38611]]}},{"type":"Feature","properties":{"kind":"piste","difficulty":"intermediate","name":"Ahornabfahrt","aerialway":null,"osm":"way/831216258"},"geometry":{"type":"LineString","coordinates":[[12.93508,47.37355],[12.93518,47.37311],[12.93506,47.37256]]}},{"type":"Feature","properties":{"kind":"piste","difficulty":"intermediate","name":"Ahornabfahrt","aerialway":null,"osm":"way/831216259"},"geometry":{"type":"LineString","coordinates":[[12.93034,47.37137],[12.93031,47.37184],[12.93052,47.37213],[12.93196,47.37224],[12.93298,47.37271],[12.93401,47.37357],[12.93441,47.3737],[12.93508,47.37355]]}},{"type":"Feature","properties":{"kind":"piste","difficulty":"easy","name":"Familienabfahrt Aberg","aerialway":null,"osm":"way/833354423"},"geometry":{"type":"LineString","coordinates":[[12.93089,47.37067],[12.93078,47.37097],[12.93008,47.37167],[12.92968,47.3718],[12.92926,47.37165]]}},{"type":"Feature","properties":{"kind":"piste","difficulty":"easy","name":"Familienabfahrt Aberg","aerialway":null,"osm":"way/833356242"},"geometry":{"type":"LineString","coordinates":[[12.92926,47.37165],[12.9291,47.37023]]}},{"type":"Feature","properties":{"kind":"piste","difficulty":"easy","name":"Skiweg Wastlhöhe","aerialway":null,"osm":"way/909409864"},"geometry":{"type":"LineString","coordinates":[[13.01217,47.37992],[13.01282,47.3804],[13.01433,47.38111],[13.01427,47.3812],[13.01357,47.3811],[13.01344,47.38119],[13.01422,47.38143],[13.01492,47.38135],[13.01478,47.38223],[13.01511,47.38309]]}},{"type":"Feature","properties":{"kind":"piste","difficulty":"easy","name":"Kings Corner","aerialway":null,"osm":"way/984807915"},"geometry":{"type":"LineString","coordinates":[[13.06171,47.38087],[13.06244,47.38138],[13.06269,47.38141]]}},{"type":"Feature","properties":{"kind":"piste","difficulty":"intermediate","name":"Gabühel","aerialway":null,"osm":"way/1205405494"},"geometry":{"type":"LineString","coordinates":[[12.98471,47.38996],[12.98484,47.39007]]}},{"type":"Feature","properties":{"kind":"piste","difficulty":"intermediate","name":"Bürglalmabfahrt","aerialway":null,"osm":"way/1205413362"},"geometry":{"type":"LineString","coordinates":[[13.0219,47.3739],[13.022,47.3738]]}},{"type":"Feature","properties":{"kind":"piste","difficulty":"easy","name":"Abfahrt Wastlhöhe","aerialway":null,"osm":"way/1205416415"},"geometry":{"type":"LineString","coordinates":[[13.02471,47.37428],[13.02258,47.37395],[13.02196,47.37342]]}},{"type":"Feature","properties":{"kind":"piste","difficulty":"easy","name":"Abfahrt Wastlhöhe","aerialway":null,"osm":"way/1205416417"},"geometry":{"type":"LineString","coordinates":[[13.03074,47.38127],[13.03146,47.38143],[13.03221,47.38143],[13.0337,47.38116]]}},{"type":"Feature","properties":{"kind":"piste","difficulty":"easy","name":"Abfahrt Wastlhöhe","aerialway":null,"osm":"way/1205416418"},"geometry":{"type":"LineString","coordinates":[[13.0337,47.38116],[13.03414,47.38106],[13.03499,47.38052],[13.03533,47.38045],[13.03587,47.38072]]}},{"type":"Feature","properties":{"kind":"piste","difficulty":"easy","name":"Abfahrt Wastlhöhe","aerialway":null,"osm":"way/1205421070"},"geometry":{"type":"LineString","coordinates":[[13.03271,47.37474],[13.03256,47.37464]]}},{"type":"Feature","properties":{"kind":"piste","difficulty":"easy","name":"Skiweg Wastlhöhe","aerialway":null,"osm":"way/1205421071"},"geometry":{"type":"LineString","coordinates":[[13.02025,47.37907],[13.02002,47.37855],[13.01908,47.37827],[13.0151,47.37867],[13.01247,47.3783],[13.0121,47.37805],[13.01207,47.37758],[13.0117,47.37713]]}},{"type":"Feature","properties":{"kind":"piste","difficulty":"easy","name":"Abfahrt Wastlhöhe","aerialway":null,"osm":"way/1205421082"},"geometry":{"type":"LineString","coordinates":[[13.03008,47.38048],[13.03074,47.38127]]}},{"type":"Feature","properties":{"kind":"piste","difficulty":"easy","name":"Bürglalmabfahrt","aerialway":null,"osm":"way/1205431470"},"geometry":{"type":"LineString","coordinates":[[13.00604,47.38362],[13.00616,47.38379]]}},{"type":"Feature","properties":{"kind":"piste","difficulty":"unknown","name":"Gabühel","aerialway":null,"osm":"way/1205431471"},"geometry":{"type":"LineString","coordinates":[[13.00472,47.38451],[13.00476,47.38459]]}},{"type":"Feature","properties":{"kind":"piste","difficulty":"easy","name":"Bürglalmabfahrt","aerialway":null,"osm":"way/1205431477"},"geometry":{"type":"LineString","coordinates":[[13.00536,47.38407],[13.0052,47.38409]]}},{"type":"Feature","properties":{"kind":"piste","difficulty":"easy","name":"Abfahrt Wastlhöhe","aerialway":null,"osm":"way/1206791635"},"geometry":{"type":"LineString","coordinates":[[13.02843,47.37776],[13.02946,47.37794],[13.03045,47.37864],[13.03055,47.37907],[13.03008,47.38048]]}},{"type":"Feature","properties":{"kind":"piste","difficulty":"unknown","name":null,"aerialway":null,"osm":"way/1207006292"},"geometry":{"type":"LineString","coordinates":[[13.01715,47.37183],[13.01771,47.37121],[13.01783,47.37076],[13.01839,47.36977],[13.01833,47.36915],[13.01803,47.36852]]}},{"type":"Feature","properties":{"kind":"piste","difficulty":"unknown","name":null,"aerialway":null,"osm":"way/1207006293"},"geometry":{"type":"LineString","coordinates":[[13.01694,47.37244],[13.01679,47.37227]]}},{"type":"Feature","properties":{"kind":"piste","difficulty":"easy","name":"Abfahrt Wastlhöhe","aerialway":null,"osm":"way/1207428662"},"geometry":{"type":"LineString","coordinates":[[13.02029,47.37359],[13.02051,47.37406],[13.02094,47.37445]]}},{"type":"Feature","properties":{"kind":"piste","difficulty":"easy","name":"Skiweg Wastlhöhe","aerialway":null,"osm":"way/1207724889"},"geometry":{"type":"LineString","coordinates":[[13.0182,47.37287],[13.01798,47.37323],[13.01812,47.37344],[13.01803,47.37351]]}},{"type":"Feature","properties":{"kind":"piste","difficulty":"easy","name":"Skiweg Wastlhöhe","aerialway":null,"osm":"way/1283288642"},"geometry":{"type":"LineString","coordinates":[[13.01644,47.37262],[13.01638,47.37264]]}},{"type":"Feature","properties":{"kind":"piste","difficulty":"easy","name":"Skiweg Wastlhöhe","aerialway":null,"osm":"way/1283288643"},"geometry":{"type":"LineString","coordinates":[[13.01722,47.37308],[13.01679,47.37293],[13.01644,47.37262]]}},{"type":"Feature","properties":{"kind":"piste","difficulty":"easy","name":"Skiweg Wastlhöhe","aerialway":null,"osm":"way/1283293337"},"geometry":{"type":"LineString","coordinates":[[13.01118,47.37836],[13.01122,47.37862],[13.01173,47.37946],[13.01217,47.37992]]}},{"type":"Feature","properties":{"kind":"piste","difficulty":"easy","name":"Skiweg Wastlhöhe","aerialway":null,"osm":"way/1283293338"},"geometry":{"type":"LineString","coordinates":[[13.0117,47.37713],[13.01154,47.3772],[13.01151,47.37763],[13.01118,47.37836]]}},{"type":"Feature","properties":{"kind":"piste","difficulty":"easy","name":"Skiweg Wastlhöhe","aerialway":null,"osm":"way/1283535844"},"geometry":{"type":"LineString","coordinates":[[13.01803,47.37351],[13.01722,47.37308]]}},{"type":"Feature","properties":{"kind":"piste","difficulty":"unknown","name":"Gabühel","aerialway":null,"osm":"way/1287086047"},"geometry":{"type":"LineString","coordinates":[[13.00442,47.38418],[13.00469,47.38423]]}},{"type":"Feature","properties":{"kind":"piste","difficulty":"easy","name":"Bürglalmabfahrt","aerialway":null,"osm":"way/1287086049"},"geometry":{"type":"LineString","coordinates":[[13.00566,47.38408],[13.00536,47.38407]]}},{"type":"Feature","properties":{"kind":"piste","difficulty":"intermediate","name":"Gabühel","aerialway":null,"osm":"way/1418304381"},"geometry":{"type":"LineString","coordinates":[[12.98484,47.39007],[12.98505,47.39044],[12.98585,47.39079]]}},{"type":"Feature","properties":{"kind":"piste","difficulty":"intermediate","name":"Gabühel","aerialway":null,"osm":"way/1418304382"},"geometry":{"type":"LineString","coordinates":[[12.98585,47.39079],[12.98651,47.39106]]}},{"type":"Feature","properties":{"kind":"piste","difficulty":"easy","name":null,"aerialway":null,"osm":"way/1551922196"},"geometry":{"type":"LineString","coordinates":[[12.97966,47.40795],[12.97695,47.40692],[12.97605,47.40599],[12.97506,47.40564],[12.97446,47.40561]]}},{"type":"Feature","properties":{"kind":"piste","difficulty":"easy","name":null,"aerialway":null,"osm":"way/1551922197"},"geometry":{"type":"LineString","coordinates":[[12.97828,47.40737],[12.97875,47.40824]]}},{"type":"Feature","properties":{"kind":"lift","difficulty":null,"name":"Schwarzeckalm","aerialway":"chair_lift","osm":"way/30783674"},"geometry":{"type":"LineString","coordinates":[[12.93844,47.38689],[12.9298,47.37199]]}},{"type":"Feature","properties":{"kind":"lift","difficulty":null,"name":"Karlift","aerialway":"t-bar","osm":"way/30783676"},"geometry":{"type":"LineString","coordinates":[[12.91098,47.37396],[12.91186,47.36475]]}},{"type":"Feature","properties":{"kind":"lift","difficulty":null,"name":"Schönanger","aerialway":"chair_lift","osm":"way/30783677"},"geometry":{"type":"LineString","coordinates":[[12.9112,47.38264],[12.91244,47.37191]]}},{"type":"Feature","properties":{"kind":"lift","difficulty":null,"name":"Abergalm","aerialway":"chair_lift","osm":"way/30783679"},"geometry":{"type":"LineString","coordinates":[[12.91697,47.37162],[12.91987,47.35724]]}},{"type":"Feature","properties":{"kind":"lift","difficulty":null,"name":"Wastlhöhelift","aerialway":"t-bar","osm":"way/30783685"},"geometry":{"type":"LineString","coordinates":[[13.01715,47.37226],[13.02969,47.3746]]}},{"type":"Feature","properties":{"kind":"lift","difficulty":null,"name":"Zachhofalm","aerialway":"chair_lift","osm":"way/30783686"},"geometry":{"type":"LineString","coordinates":[[13.03224,47.38801],[13.03271,47.37474]]}},{"type":"Feature","properties":{"kind":"lift","difficulty":null,"name":"Dachegg","aerialway":"chair_lift","osm":"way/30783688"},"geometry":{"type":"LineString","coordinates":[[13.0339,47.38894],[13.04728,47.37996]]}},{"type":"Feature","properties":{"kind":"lift","difficulty":null,"name":"Abergbahn","aerialway":"gondola","osm":"way/30833227"},"geometry":{"type":"LineString","coordinates":[[12.90895,47.38974],[12.9152,47.37177]]}},{"type":"Feature","properties":{"kind":"lift","difficulty":null,"name":"Sonnleitenlift","aerialway":"t-bar","osm":"way/30953921"},"geometry":{"type":"LineString","coordinates":[[12.97766,47.41121],[12.96874,47.41674]]}},{"type":"Feature","properties":{"kind":"lift","difficulty":null,"name":"Faschinglift 1","aerialway":"t-bar","osm":"way/31061145"},"geometry":{"type":"LineString","coordinates":[[12.97856,47.40844],[12.98332,47.40711]]}},{"type":"Feature","properties":{"kind":"lift","difficulty":null,"name":"Faschinglift 2","aerialway":"platter","osm":"way/31061147"},"geometry":{"type":"LineString","coordinates":[[12.9786,47.40848],[12.98341,47.40713]]}},{"type":"Feature","properties":{"kind":"lift","difficulty":null,"name":"Kings Cab","aerialway":"gondola","osm":"way/31990610"},"geometry":{"type":"LineString","coordinates":[[13.07322,47.38544],[13.0478,47.3795]]}},{"type":"Feature","properties":{"kind":"lift","difficulty":null,"name":"Zachhof Babylift","aerialway":"t-bar","osm":"way/32003247"},"geometry":{"type":"LineString","coordinates":[[13.01214,47.38548],[13.01412,47.38345]]}},{"type":"Feature","properties":{"kind":"lift","difficulty":null,"name":"Bürglalm","aerialway":"chair_lift","osm":"way/124904830"},"geometry":{"type":"LineString","coordinates":[[13.00563,47.38398],[13.0219,47.3739]]}},{"type":"Feature","properties":{"kind":"lift","difficulty":null,"name":"Natrunlift","aerialway":"t-bar","osm":"way/130292318"},"geometry":{"type":"LineString","coordinates":[[12.90426,47.40399],[12.90982,47.40089]]}},{"type":"Feature","properties":{"kind":"lift","difficulty":null,"name":"Hochmais","aerialway":"chair_lift","osm":"way/144064175"},"geometry":{"type":"LineString","coordinates":[[12.97136,47.40544],[12.98471,47.38996]]}},{"type":"Feature","properties":{"kind":"lift","difficulty":null,"name":"Übungslift Hintermoos","aerialway":"platter","osm":"way/144083280"},"geometry":{"type":"LineString","coordinates":[[12.94167,47.38378],[12.94499,47.38174]]}},{"type":"Feature","properties":{"kind":"lift","difficulty":null,"name":"Hinterreitlift I","aerialway":"t-bar","osm":"way/144089171"},"geometry":{"type":"LineString","coordinates":[[12.88767,47.40821],[12.88713,47.39784]]}},{"type":"Feature","properties":{"kind":"lift","difficulty":null,"name":"Hinterreitlift II","aerialway":"t-bar","osm":"way/144089180"},"geometry":{"type":"LineString","coordinates":[[12.88667,47.4035],[12.88583,47.39459]]}},{"type":"Feature","properties":{"kind":"lift","difficulty":null,"name":"Simmerllift","aerialway":"t-bar","osm":"way/144089183"},"geometry":{"type":"LineString","coordinates":[[12.90864,47.40661],[12.9134,47.40253]]}},{"type":"Feature","properties":{"kind":"lift","difficulty":null,"name":"Liebenaulift","aerialway":"t-bar","osm":"way/144089191"},"geometry":{"type":"LineString","coordinates":[[13.02831,47.38854],[13.03119,47.38591]]}},{"type":"Feature","properties":{"kind":"lift","difficulty":null,"name":"SINALCObahn","aerialway":"gondola","osm":"way/449244220"},"geometry":{"type":"LineString","coordinates":[[12.93882,47.3871],[12.98434,47.38969]]}},{"type":"Feature","properties":{"kind":"lift","difficulty":null,"name":"Babylift Natrun","aerialway":"rope_tow","osm":"way/449356369"},"geometry":{"type":"LineString","coordinates":[[12.90887,47.40661],[12.90971,47.40598]]}},{"type":"Feature","properties":{"kind":"lift","difficulty":null,"name":"Natrunbahn","aerialway":"gondola","osm":"way/671082149"},"geometry":{"type":"LineString","coordinates":[[12.90625,47.40633],[12.92077,47.39844]]}},{"type":"Feature","properties":{"kind":"lift","difficulty":null,"name":"Sonnbergbahn","aerialway":"gondola","osm":"way/671087942"},"geometry":{"type":"LineString","coordinates":[[12.92041,47.398],[12.91577,47.39482],[12.90911,47.39]]}},{"type":"Feature","properties":{"kind":"lift","difficulty":null,"name":"Gabühelbahn","aerialway":"gondola","osm":"way/698595419"},"geometry":{"type":"LineString","coordinates":[[13.00476,47.38459],[12.98672,47.39079]]}},{"type":"Feature","properties":{"kind":"lift","difficulty":null,"name":"Tellerlift Natrun","aerialway":"platter","osm":"way/1147675688"},"geometry":{"type":"LineString","coordinates":[[12.90419,47.40456],[12.90707,47.40494]]}}]}