{"type":"FeatureCollection","features":[{"type":"Feature","properties":{"kind":"piste","difficulty":"intermediate","name":"42","aerialway":null,"osm":"way/30752540"},"geometry":{"type":"LineString","coordinates":[[11.07121,46.90397],[11.07153,46.90405],[11.07141,46.9042],[11.06924,46.90465],[11.06698,46.90566],[11.06523,46.90597],[11.06424,46.90647]]}},{"type":"Feature","properties":{"kind":"piste","difficulty":"easy","name":null,"aerialway":null,"osm":"way/30752541"},"geometry":{"type":"LineString","coordinates":[[11.06924,46.90465],[11.06833,46.90436],[11.06825,46.90394],[11.06752,46.90305],[11.06647,46.90241],[11.06521,46.9019],[11.06415,46.90166],[11.06321,46.90085],[11.06242,46.89998],[11.06229,46.89949],[11.06268,46.89871],[11.06266,46.89807],[11.0625,46.89783],[11.062,46.89783],[11.06113,46.89836]]}},{"type":"Feature","properties":{"kind":"piste","difficulty":"easy","name":"41","aerialway":null,"osm":"way/30752542"},"geometry":{"type":"LineString","coordinates":[[11.06528,46.89985],[11.06527,46.90033],[11.06492,46.90084],[11.06488,46.90111],[11.06509,46.9031],[11.06558,46.90399],[11.06539,46.90525],[11.06449,46.90612],[11.0637,46.90744],[11.0632,46.90791],[11.06257,46.90905]]}},{"type":"Feature","properties":{"kind":"piste","difficulty":"intermediate","name":null,"aerialway":null,"osm":"way/30752545"},"geometry":{"type":"LineString","coordinates":[[11.05659,46.89632],[11.0532,46.89565],[11.05272,46.89579],[11.05263,46.89602],[11.05298,46.89647],[11.05282,46.8977],[11.05246,46.89782],[11.05208,46.89757]]}},{"type":"Feature","properties":{"kind":"piste","difficulty":"easy","name":"32","aerialway":null,"osm":"way/30752546"},"geometry":{"type":"LineString","coordinates":[[11.05625,46.89326],[11.05635,46.89419],[11.05616,46.89568],[11.05658,46.89611],[11.05657,46.89661],[11.05649,46.89712],[11.05586,46.89791],[11.05557,46.89928]]}},{"type":"Feature","properties":{"kind":"piste","difficulty":"easy","name":null,"aerialway":null,"osm":"way/30752548"},"geometry":{"type":"LineString","coordinates":[[11.06039,46.89819],[11.05982,46.8986],[11.05926,46.90006],[11.05891,46.90132],[11.059,46.90232],[11.05886,46.90332],[11.05572,46.90529],[11.05528,46.90618],[11.0551,46.90759],[11.0548,46.90804],[11.05429,46.90841]]}},{"type":"Feature","properties":{"kind":"piste","difficulty":"easy","name":null,"aerialway":null,"osm":"way/30752550"},"geometry":{"type":"LineString","coordinates":[[11.06113,46.89836],[11.06083,46.89843],[11.05999,46.8978],[11.05987,46.89682],[11.05916,46.89602],[11.05824,46.89535],[11.05724,46.89413],[11.05709,46.89357],[11.05668,46.89331],[11.05625,46.89326]]}},{"type":"Feature","properties":{"kind":"piste","difficulty":"easy","name":null,"aerialway":null,"osm":"way/31142093"},"geometry":{"type":"LineString","coordinates":[[11.06508,46.89984],[11.06532,46.8997],[11.06508,46.89872],[11.0652,46.89822],[11.0649,46.89743],[11.06394,46.8964],[11.06351,46.89614],[11.06307,46.89614]]}},{"type":"Feature","properties":{"kind":"piste","difficulty":"intermediate","name":null,"aerialway":null,"osm":"way/91611266"},"geometry":{"type":"LineString","coordinates":[[11.04788,46.89756],[11.04775,46.89777],[11.0477,46.8988],[11.04693,46.90107],[11.04657,46.90123],[11.046,46.90069],[11.04587,46.90072],[11.04567,46.90132],[11.04549,46.90137],[11.04516,46.90121],[11.04424,46.89935],[11.04393,46.89928],[11.043,46.90035],[11.04268,46.90051],[11.04246,46.90044],[11.04175,46.8993],[11.04113,46.89929],[11.04096,46.89918],[11.04085,46.8983],[11.04064,46.89786],[11.04074,46.8978]]}},{"type":"Feature","properties":{"kind":"piste","difficulty":"intermediate","name":null,"aerialway":null,"osm":"way/91611267"},"geometry":{"type":"LineString","coordinates":[[11.04828,46.89726],[11.04788,46.89756]]}},{"type":"Feature","properties":{"kind":"piste","difficulty":"easy","name":null,"aerialway":null,"osm":"way/95137645"},"geometry":{"type":"LineString","coordinates":[[11.05916,46.90901],[11.05711,46.90851],[11.05478,46.90838],[11.05315,46.90853],[11.05294,46.90902],[11.0531,46.90932],[11.05329,46.90928]]}},{"type":"Feature","properties":{"kind":"piste","difficulty":"intermediate","name":null,"aerialway":null,"osm":"way/95137657"},"geometry":{"type":"LineString","coordinates":[[11.06307,46.90903],[11.05916,46.90901]]}},{"type":"Feature","properties":{"kind":"piste","difficulty":"easy","name":null,"aerialway":null,"osm":"way/95137664"},"geometry":{"type":"LineString","coordinates":[[11.07412,46.88668],[11.07447,46.88725],[11.07148,46.89028],[11.06916,46.89156],[11.06565,46.89249],[11.06482,46.89388],[11.06483,46.89427],[11.06431,46.89513],[11.06307,46.89614],[11.06113,46.89836]]}},{"type":"Feature","properties":{"kind":"piste","difficulty":"easy","name":"32","aerialway":null,"osm":"way/95137671"},"geometry":{"type":"LineString","coordinates":[[11.05557,46.89928],[11.0552,46.90002]]}},{"type":"Feature","properties":{"kind":"piste","difficulty":"advanced","name":"34","aerialway":null,"osm":"way/95137674"},"geometry":{"type":"LineString","coordinates":[[11.06508,46.89984],[11.06523,46.89976],[11.06522,46.89953],[11.06434,46.89917],[11.06343,46.89901],[11.06255,46.89899],[11.05952,46.89954],[11.05557,46.89928]]}},{"type":"Feature","properties":{"kind":"piste","difficulty":"easy","name":null,"aerialway":null,"osm":"way/95137693"},"geometry":{"type":"LineString","coordinates":[[11.06305,46.9083],[11.06317,46.90894],[11.06203,46.9101],[11.06081,46.9109],[11.05973,46.91128]]}},{"type":"Feature","properties":{"kind":"piste","difficulty":"easy","name":null,"aerialway":null,"osm":"way/95137695"},"geometry":{"type":"LineString","coordinates":[[11.06257,46.90905],[11.06092,46.91044],[11.05963,46.9113],[11.05953,46.91121],[11.05978,46.91077],[11.05991,46.90959],[11.05969,46.90929],[11.05916,46.90901]]}},{"type":"Feature","properties":{"kind":"piste","difficulty":"easy","name":"32","aerialway":null,"osm":"way/148747883"},"geometry":{"type":"LineString","coordinates":[[11.0552,46.90002],[11.05485,46.90079],[11.05462,46.9009],[11.05323,46.9002],[11.05173,46.89988],[11.05173,46.89971]]}},{"type":"Feature","properties":{"kind":"piste","difficulty":"easy","name":null,"aerialway":null,"osm":"way/148747887"},"geometry":{"type":"LineString","coordinates":[[11.05687,46.90196],[11.05627,46.90123],[11.05573,46.90092],[11.05542,46.90042]]}},{"type":"Feature","properties":{"kind":"piste","difficulty":"easy","name":null,"aerialway":null,"osm":"way/148747890"},"geometry":{"type":"LineString","coordinates":[[11.05861,46.9035],[11.05827,46.90354],[11.05804,46.90338],[11.05777,46.90286],[11.05741,46.90258]]}},{"type":"Feature","properties":{"kind":"piste","difficulty":"easy","name":null,"aerialway":null,"osm":"way/148747891"},"geometry":{"type":"LineString","coordinates":[[11.05462,46.9009],[11.05281,46.90148],[11.0519,46.90202]]}},{"type":"Feature","properties":{"kind":"piste","difficulty":"easy","name":null,"aerialway":null,"osm":"way/148747897"},"geometry":{"type":"LineString","coordinates":[[11.05753,46.90323],[11.05736,46.90249],[11.05687,46.90196],[11.05659,46.90186],[11.05411,46.90231],[11.0519,46.90202]]}},{"type":"Feature","properties":{"kind":"piste","difficulty":"easy","name":null,"aerialway":null,"osm":"way/148749730"},"geometry":{"type":"LineString","coordinates":[[11.05289,46.90217],[11.05255,46.90195],[11.05243,46.90167],[11.05261,46.90129],[11.05322,46.90061],[11.05323,46.9002],[11.05309,46.89979],[11.05222,46.89886]]}},{"type":"Feature","properties":{"kind":"piste","difficulty":"easy","name":null,"aerialway":null,"osm":"way/148752550"},"geometry":{"type":"LineString","coordinates":[[11.06192,46.8975],[11.06123,46.89788],[11.06057,46.89805],[11.06029,46.898]]}},{"type":"Feature","properties":{"kind":"piste","difficulty":"easy","name":null,"aerialway":null,"osm":"way/148752551"},"geometry":{"type":"LineString","coordinates":[[11.06119,46.89864],[11.06103,46.89871],[11.06092,46.8986],[11.06057,46.89775]]}},{"type":"Feature","properties":{"kind":"piste","difficulty":"easy","name":"38","aerialway":null,"osm":"way/400066573"},"geometry":{"type":"LineString","coordinates":[[11.0711,46.90426],[11.06985,46.9041],[11.06885,46.90456]]}},{"type":"Feature","properties":{"kind":"piste","difficulty":"easy","name":null,"aerialway":null,"osm":"way/489337443"},"geometry":{"type":"LineString","coordinates":[[11.05208,46.89892],[11.05195,46.89923]]}},{"type":"Feature","properties":{"kind":"piste","difficulty":"easy","name":null,"aerialway":null,"osm":"way/508236924"},"geometry":{"type":"LineString","coordinates":[[11.05753,46.90323],[11.05733,46.90421]]}},{"type":"Feature","properties":{"kind":"piste","difficulty":"easy","name":"37","aerialway":null,"osm":"way/508236925"},"geometry":{"type":"LineString","coordinates":[[11.0519,46.90202],[11.052,46.90221]]}},{"type":"Feature","properties":{"kind":"piste","difficulty":"easy","name":"35","aerialway":null,"osm":"way/508236926"},"geometry":{"type":"LineString","coordinates":[[11.06516,46.90058],[11.06462,46.90071],[11.06298,46.90059]]}},{"type":"Feature","properties":{"kind":"piste","difficulty":"advanced","name":null,"aerialway":null,"osm":"way/508236927"},"geometry":{"type":"LineString","coordinates":[[11.06298,46.90059],[11.06188,46.90048],[11.06133,46.90066],[11.0605,46.90068],[11.05667,46.90039],[11.05575,46.90046],[11.05323,46.9002]]}},{"type":"Feature","properties":{"kind":"piste","difficulty":"easy","name":null,"aerialway":null,"osm":"way/508236929"},"geometry":{"type":"LineString","coordinates":[[11.05557,46.89928],[11.05275,46.89889],[11.05208,46.89892]]}},{"type":"Feature","properties":{"kind":"piste","difficulty":"intermediate","name":null,"aerialway":null,"osm":"way/508236930"},"geometry":{"type":"LineString","coordinates":[[11.05222,46.89886],[11.0523,46.89841],[11.05208,46.89757]]}},{"type":"Feature","properties":{"kind":"piste","difficulty":"advanced","name":null,"aerialway":null,"osm":"way/508236931"},"geometry":{"type":"LineString","coordinates":[[11.05095,46.89063],[11.04935,46.89102],[11.04607,46.89305],[11.04545,46.89315],[11.04514,46.89305],[11.04503,46.89287],[11.04512,46.89284]]}},{"type":"Feature","properties":{"kind":"piste","difficulty":"easy","name":null,"aerialway":null,"osm":"way/508236932"},"geometry":{"type":"LineString","coordinates":[[11.05095,46.89063],[11.05012,46.89175]]}},{"type":"Feature","properties":{"kind":"piste","difficulty":"easy","name":null,"aerialway":null,"osm":"way/508236934"},"geometry":{"type":"LineString","coordinates":[[11.05712,46.89181],[11.05665,46.89177],[11.0554,46.8913],[11.05439,46.89039],[11.05322,46.88973],[11.05253,46.88916],[11.05229,46.88876],[11.05202,46.88866],[11.05167,46.8888],[11.05137,46.88934],[11.05095,46.89063]]}},{"type":"Feature","properties":{"kind":"piste","difficulty":"intermediate","name":null,"aerialway":null,"osm":"way/577551825"},"geometry":{"type":"LineString","coordinates":[[11.05208,46.89757],[11.05144,46.89729],[11.05017,46.89707],[11.04828,46.89726]]}},{"type":"Feature","properties":{"kind":"piste","difficulty":"easy","name":"43","aerialway":null,"osm":"way/638176461"},"geometry":{"type":"LineString","coordinates":[[11.07792,46.90431],[11.07813,46.90448],[11.07799,46.90496],[11.07742,46.90575],[11.07713,46.90595],[11.07518,46.90669],[11.07351,46.90692],[11.07242,46.90733],[11.07144,46.90791],[11.07116,46.90892],[11.07079,46.90948],[11.07085,46.91062],[11.07041,46.91159],[11.07018,46.91146],[11.06977,46.91083],[11.06609,46.90935],[11.06541,46.90856],[11.06474,46.90806],[11.06436,46.9075],[11.0637,46.90744]]}},{"type":"Feature","properties":{"kind":"piste","difficulty":"intermediate","name":"44","aerialway":null,"osm":"way/638176462"},"geometry":{"type":"LineString","coordinates":[[11.07124,46.90842],[11.06518,46.90836]]}},{"type":"Feature","properties":{"kind":"piste","difficulty":"intermediate","name":null,"aerialway":null,"osm":"way/1149155802"},"geometry":{"type":"LineString","coordinates":[[11.05017,46.89707],[11.04879,46.89686]]}},{"type":"Feature","properties":{"kind":"piste","difficulty":"intermediate","name":null,"aerialway":null,"osm":"way/1149155804"},"geometry":{"type":"LineString","coordinates":[[11.04879,46.89686],[11.04828,46.89726]]}},{"type":"Feature","properties":{"kind":"piste","difficulty":"advanced","name":"Weltcuphang","aerialway":null,"osm":"way/1434030877"},"geometry":{"type":"LineString","coordinates":[[11.06518,46.90836],[11.06419,46.90872],[11.06174,46.90877],[11.05864,46.90846],[11.0573,46.908],[11.05538,46.9079],[11.05309,46.90826],[11.05308,46.90858]]}},{"type":"Feature","properties":{"kind":"piste","difficulty":"advanced","name":null,"aerialway":null,"osm":"way/1552087275"},"geometry":{"type":"LineString","coordinates":[[11.05007,46.89176],[11.04886,46.89211],[11.04756,46.89273],[11.04624,46.89295]]}},{"type":"Feature","properties":{"kind":"lift","difficulty":null,"name":"Top-Express Obergurgl-Hochgurgl","aerialway":"gondola","osm":"way/23431381"},"geometry":{"type":"LineString","coordinates":[[11.03977,46.86853],[11.06057,46.89775]]}},{"type":"Feature","properties":{"kind":"lift","difficulty":null,"name":"Top Wurmkoglbahn I","aerialway":"chair_lift","osm":"way/23431382"},"geometry":{"type":"LineString","coordinates":[[11.06095,46.89818],[11.07904,46.88466]]}},{"type":"Feature","properties":{"kind":"lift","difficulty":null,"name":"Top Schermer 3000","aerialway":"gondola","osm":"way/23431384"},"geometry":{"type":"LineString","coordinates":[[11.06119,46.89864],[11.08286,46.89079]]}},{"type":"Feature","properties":{"kind":"lift","difficulty":null,"name":"Große Karbahn","aerialway":"chair_lift","osm":"way/23431385"},"geometry":{"type":"LineString","coordinates":[[11.05173,46.89971],[11.06508,46.89984]]}},{"type":"Feature","properties":{"kind":"lift","difficulty":null,"name":"Hochgurglbahn I","aerialway":"gondola","osm":"way/30752537"},"geometry":{"type":"LineString","coordinates":[[11.04074,46.8978],[11.05195,46.89923]]}},{"type":"Feature","properties":{"kind":"lift","difficulty":null,"name":"Hochgurglbahn II","aerialway":"gondola","osm":"way/30752538"},"geometry":{"type":"LineString","coordinates":[[11.05195,46.89923],[11.07379,46.8867]]}},{"type":"Feature","properties":{"kind":"lift","difficulty":null,"name":"Vorderer Wurmkogllift I","aerialway":"t-bar","osm":"way/30752539"},"geometry":{"type":"LineString","coordinates":[[11.04512,46.89284],[11.06388,46.88877]]}},{"type":"Feature","properties":{"kind":"lift","difficulty":null,"name":"Kirchenkarbahn I","aerialway":"gondola","osm":"way/154159139"},"geometry":{"type":"LineString","coordinates":[[11.05329,46.90928],[11.07121,46.90397]]}},{"type":"Feature","properties":{"kind":"lift","difficulty":null,"name":"Krumpwasserlift","aerialway":"t-bar","osm":"way/154159147"},"geometry":{"type":"LineString","coordinates":[[11.05184,46.90218],[11.0584,46.90338]]}}]}