{"type":"FeatureCollection","features":[{"type":"Feature","properties":{"kind":"lift","difficulty":null,"name":"Hochfichtbahn","aerialway":"chair_lift","osm":"way/30078716"},"geometry":{"type":"LineString","coordinates":[[13.89943,48.73633],[13.92047,48.73691]]}},{"type":"Feature","properties":{"kind":"lift","difficulty":null,"name":"Rehberglift I","aerialway":"drag_lift","osm":"way/30078720"},"geometry":{"type":"LineString","coordinates":[[13.88519,48.73869],[13.89884,48.74372]]}},{"type":"Feature","properties":{"kind":"piste","difficulty":"easy","name":"6 Rehbergabfahrt","aerialway":null,"osm":"way/30078722"},"geometry":{"type":"LineString","coordinates":[[13.89885,48.74364],[13.89872,48.7434],[13.89596,48.74218],[13.8935,48.74148],[13.88602,48.73872],[13.88543,48.73854],[13.88508,48.73862]]}},{"type":"Feature","properties":{"kind":"lift","difficulty":null,"name":"Schwarzenbergbahn","aerialway":"chair_lift","osm":"way/30078725"},"geometry":{"type":"LineString","coordinates":[[13.85554,48.73394],[13.86976,48.73662]]}},{"type":"Feature","properties":{"kind":"piste","difficulty":"easy","name":"1 Stierwiesenabfahrt (Familienabfahrt)","aerialway":null,"osm":"way/30079113"},"geometry":{"type":"LineString","coordinates":[[13.92047,48.73691],[13.92063,48.73682],[13.91883,48.73615],[13.91709,48.73488],[13.91562,48.73444],[13.91467,48.73346],[13.91376,48.73277],[13.9128,48.73173],[13.91248,48.73116],[13.91167,48.73084],[13.91071,48.73094],[13.91024,48.73122],[13.90694,48.73422],[13.90639,48.73459],[13.90469,48.73409],[13.90361,48.73486],[13.90317,48.73538],[13.90216,48.73599],[13.90064,48.73601],[13.90034,48.73648],[13.90019,48.73702],[13.89931,48.73642]]}},{"type":"Feature","properties":{"kind":"piste","difficulty":"intermediate","name":"1a Stierwiesenabfahrt","aerialway":null,"osm":"way/30079114"},"geometry":{"type":"LineString","coordinates":[[13.90924,48.73208],[13.90693,48.73259],[13.90448,48.73243],[13.90386,48.7326],[13.90112,48.73448],[13.90075,48.73522],[13.90064,48.73601]]}},{"type":"Feature","properties":{"kind":"piste","difficulty":"easy","name":"5 Wenzelwiese","aerialway":null,"osm":"way/30079117"},"geometry":{"type":"LineString","coordinates":[[13.89674,48.74199],[13.89651,48.74182],[13.89681,48.74134],[13.89828,48.74093],[13.89935,48.73987],[13.8994,48.73914],[13.89975,48.73868],[13.89952,48.73815]]}},{"type":"Feature","properties":{"kind":"piste","difficulty":"intermediate","name":"8 Zwieselbergabfahrt (Familienabfahrt)","aerialway":null,"osm":"way/30079119"},"geometry":{"type":"LineString","coordinates":[[13.86976,48.73662],[13.87041,48.73678],[13.87147,48.736],[13.87202,48.73584],[13.87545,48.73593],[13.87925,48.73477],[13.88079,48.7348],[13.88161,48.73511],[13.88302,48.73628],[13.88463,48.73683],[13.8852,48.7373],[13.88507,48.73834],[13.8858,48.73832]]}},{"type":"Feature","properties":{"kind":"piste","difficulty":"intermediate","name":"7 Zwieselbergabfahrt FIS","aerialway":null,"osm":"way/30079120"},"geometry":{"type":"LineString","coordinates":[[13.86976,48.73662],[13.87041,48.73678],[13.87043,48.73705],[13.87077,48.73755],[13.87125,48.73782],[13.87701,48.73923],[13.87732,48.73946],[13.87884,48.74001],[13.88367,48.73956],[13.88376,48.73938],[13.88508,48.73862]]}},{"type":"Feature","properties":{"kind":"piste","difficulty":"easy","name":"9 Schwarzenbergabfahrt","aerialway":null,"osm":"way/30079121"},"geometry":{"type":"LineString","coordinates":[[13.87043,48.73705],[13.86977,48.73748],[13.86947,48.73817],[13.86915,48.73821],[13.86619,48.73644],[13.86525,48.73602],[13.86322,48.73572],[13.86165,48.73571],[13.85926,48.73489],[13.857,48.7343],[13.85626,48.73382],[13.85537,48.73383]]}},{"type":"Feature","properties":{"kind":"piste","difficulty":"intermediate","name":"2 Standardabfahrt","aerialway":null,"osm":"way/49449237"},"geometry":{"type":"LineString","coordinates":[[13.91934,48.73638],[13.91865,48.73655],[13.91771,48.73724],[13.91664,48.7375],[13.91429,48.73837],[13.9136,48.73842],[13.91192,48.73793],[13.91057,48.73771],[13.90808,48.7377],[13.90639,48.73741],[13.90406,48.738],[13.90194,48.7381],[13.9008,48.73801]]}},{"type":"Feature","properties":{"kind":"piste","difficulty":"intermediate","name":"2 Standardabfahrt","aerialway":null,"osm":"way/95697223"},"geometry":{"type":"LineString","coordinates":[[13.9008,48.73801],[13.90055,48.73783],[13.9001,48.73703]]}},{"type":"Feature","properties":{"kind":"piste","difficulty":"intermediate","name":"Connector","aerialway":null,"osm":"way/95697225"},"geometry":{"type":"LineString","coordinates":[[13.9008,48.73801],[13.8998,48.7383],[13.89952,48.73815]]}},{"type":"Feature","properties":{"kind":"piste","difficulty":"intermediate","name":"4 Reischlbergabfahrt","aerialway":null,"osm":"way/96995801"},"geometry":{"type":"LineString","coordinates":[[13.90521,48.74882],[13.90413,48.74865],[13.90335,48.74836],[13.90287,48.74726],[13.90168,48.74626],[13.90136,48.74561],[13.90037,48.74474],[13.89976,48.74367],[13.89911,48.74304],[13.89898,48.74273]]}},{"type":"Feature","properties":{"kind":"lift","difficulty":null,"name":"Reischlbergbahn II","aerialway":"gondola","osm":"way/96995804"},"geometry":{"type":"LineString","coordinates":[[13.89704,48.74188],[13.90506,48.74919]]}},{"type":"Feature","properties":{"kind":"piste","difficulty":"easy","name":"3 Hochwaldabfahrt","aerialway":null,"osm":"way/96995807"},"geometry":{"type":"LineString","coordinates":[[13.90506,48.74919],[13.90539,48.74921],[13.90521,48.74882],[13.90626,48.74798],[13.90729,48.74676],[13.90729,48.74636],[13.90553,48.7454],[13.9039,48.7439],[13.9034,48.74297],[13.90293,48.74242],[13.90284,48.74214],[13.90293,48.74094],[13.90271,48.74021],[13.90111,48.73913],[13.90035,48.73845],[13.89952,48.73815]]}},{"type":"Feature","properties":{"kind":"lift","difficulty":null,"name":"Rehberglift II","aerialway":"drag_lift","osm":"way/253084230"},"geometry":{"type":"LineString","coordinates":[[13.88514,48.73872],[13.8988,48.74377]]}},{"type":"Feature","properties":{"kind":"piste","difficulty":"intermediate","name":"Zwieselberg FIS","aerialway":null,"osm":"way/253084556"},"geometry":{"type":"LineString","coordinates":[[13.88508,48.73862],[13.8854,48.73835],[13.8858,48.73832]]}},{"type":"Feature","properties":{"kind":"lift","difficulty":null,"name":"Zwieselbergbahn","aerialway":"chair_lift","osm":"way/253084640"},"geometry":{"type":"LineString","coordinates":[[13.88585,48.73843],[13.87086,48.73679]]}},{"type":"Feature","properties":{"kind":"lift","difficulty":null,"name":"Reischa Junior Park","aerialway":"magic_carpet","osm":"way/253476271"},"geometry":{"type":"LineString","coordinates":[[13.89638,48.74196],[13.89847,48.7428]]}},{"type":"Feature","properties":{"kind":"lift","difficulty":null,"name":"Fichtl Kids Park","aerialway":"magic_carpet","osm":"way/253477987"},"geometry":{"type":"LineString","coordinates":[[13.89868,48.73795],[13.8977,48.73763]]}},{"type":"Feature","properties":{"kind":"piste","difficulty":"intermediate","name":"10 Krumauer-Skiroute","aerialway":null,"osm":"way/307129248"},"geometry":{"type":"LineString","coordinates":[[13.91624,48.73977],[13.91459,48.74059],[13.91339,48.7409],[13.91177,48.74098],[13.90861,48.74162],[13.90761,48.74187],[13.90497,48.74292],[13.89975,48.743],[13.89937,48.74294],[13.89914,48.74274]]}},{"type":"Feature","properties":{"kind":"piste","difficulty":"intermediate","name":"2a Schönbergabfahrt","aerialway":null,"osm":"way/307129249"},"geometry":{"type":"LineString","coordinates":[[13.92061,48.73688],[13.92029,48.73766],[13.92023,48.73883],[13.91978,48.73939],[13.9194,48.73955],[13.9182,48.73975],[13.9175,48.73962],[13.91624,48.73977],[13.91484,48.7387],[13.9136,48.73842]]}},{"type":"Feature","properties":{"kind":"piste","difficulty":"intermediate","name":"7b Zwieselweg","aerialway":null,"osm":"way/307129250"},"geometry":{"type":"LineString","coordinates":[[13.8763,48.7391],[13.87712,48.73906],[13.87752,48.73892],[13.8799,48.73723],[13.88083,48.73623],[13.88163,48.73561],[13.88226,48.73562]]}},{"type":"Feature","properties":{"kind":"piste","difficulty":"intermediate","name":"11 Zwieselberg-Skiroute","aerialway":null,"osm":"way/307129394"},"geometry":{"type":"LineString","coordinates":[[13.87041,48.73678],[13.87796,48.73758]]}},{"type":"Feature","properties":{"kind":"piste","difficulty":"easy","name":"5 Wenzelwiese","aerialway":null,"osm":"way/464083573"},"geometry":{"type":"LineString","coordinates":[[13.89884,48.74372],[13.89903,48.74239],[13.89845,48.74078]]}},{"type":"Feature","properties":{"kind":"piste","difficulty":"advanced","name":"7a Zwieselbergabfahrt FIS","aerialway":null,"osm":"way/1334614150"},"geometry":{"type":"LineString","coordinates":[[13.87804,48.73968],[13.87933,48.73972],[13.88093,48.73951],[13.88376,48.73938]]}},{"type":"Feature","properties":{"kind":"piste","difficulty":"easy","name":"Comic Slalom","aerialway":null,"osm":"way/1334614151"},"geometry":{"type":"LineString","coordinates":[[13.89764,48.74067],[13.89836,48.73944]]}},{"type":"Feature","properties":{"kind":"piste","difficulty":"intermediate","name":"10 Krumauer-Skiroute","aerialway":null,"osm":"way/1371048320"},"geometry":{"type":"LineString","coordinates":[[13.89914,48.74274],[13.89903,48.74239]]}},{"type":"Feature","properties":{"kind":"lift","difficulty":null,"name":"Reischlbergbahn I","aerialway":"gondola","osm":"way/1525596204"},"geometry":{"type":"LineString","coordinates":[[13.89894,48.73808],[13.89704,48.74188]]}},{"type":"Feature","properties":{"kind":"piste","difficulty":"easy","name":"Krummauer","aerialway":null,"osm":"relation/2783486"},"geometry":{"type":"MultiLineString","coordinates":[[[13.91122,48.74102],[13.90835,48.74166]],[[13.90835,48.74166],[13.90734,48.74195],[13.9053,48.74284],[13.9047,48.74296],[13.89975,48.743],[13.89937,48.74294],[13.89914,48.74274]]]}}]}