{"type":"FeatureCollection","features":[{"type":"Feature","properties":{"kind":"piste","difficulty":"easy","name":null,"aerialway":null,"osm":"way/127161293"},"geometry":{"type":"LineString","coordinates":[[12.63072,47.66529],[12.6316,47.66507],[12.63298,47.665],[12.63364,47.66475],[12.63493,47.66487],[12.6356,47.6648],[12.63635,47.66407]]}},{"type":"Feature","properties":{"kind":"piste","difficulty":"easy","name":null,"aerialway":null,"osm":"way/419948897"},"geometry":{"type":"LineString","coordinates":[[12.61277,47.66766],[12.61257,47.66742],[12.61263,47.66714],[12.61333,47.66659],[12.61431,47.66547],[12.61484,47.6653],[12.62052,47.66443],[12.62539,47.66479],[12.62684,47.66474],[12.6273,47.66525],[12.62978,47.66535]]}},{"type":"Feature","properties":{"kind":"piste","difficulty":"easy","name":null,"aerialway":null,"osm":"way/419948901"},"geometry":{"type":"LineString","coordinates":[[12.63158,47.66454],[12.63018,47.66496],[12.62992,47.6651],[12.62978,47.66535]]}},{"type":"Feature","properties":{"kind":"piste","difficulty":"intermediate","name":null,"aerialway":null,"osm":"way/419948907"},"geometry":{"type":"LineString","coordinates":[[12.62684,47.66474],[12.62744,47.66457],[12.6284,47.66403],[12.63241,47.66314],[12.63426,47.66301],[12.63443,47.6631],[12.63425,47.6631]]}},{"type":"Feature","properties":{"kind":"piste","difficulty":"easy","name":null,"aerialway":null,"osm":"way/419948909"},"geometry":{"type":"LineString","coordinates":[[12.62744,47.66457],[12.63033,47.66447],[12.63117,47.66426]]}},{"type":"Feature","properties":{"kind":"piste","difficulty":"easy","name":null,"aerialway":null,"osm":"way/419948913"},"geometry":{"type":"LineString","coordinates":[[12.63158,47.66454],[12.63117,47.66426],[12.63432,47.66346],[12.63534,47.66328],[12.63682,47.66347],[12.63861,47.66292],[12.64067,47.66216],[12.64129,47.66175],[12.64152,47.66147],[12.64161,47.66093],[12.6435,47.66077]]}},{"type":"Feature","properties":{"kind":"piste","difficulty":"easy","name":null,"aerialway":null,"osm":"way/419948917"},"geometry":{"type":"LineString","coordinates":[[12.64161,47.66093],[12.64211,47.66104],[12.64251,47.6617],[12.64306,47.66217],[12.64387,47.66238],[12.64949,47.66207]]}},{"type":"Feature","properties":{"kind":"piste","difficulty":"intermediate","name":null,"aerialway":null,"osm":"way/419948920"},"geometry":{"type":"LineString","coordinates":[[12.63435,47.66387],[12.63493,47.6639],[12.64387,47.66238]]}},{"type":"Feature","properties":{"kind":"piste","difficulty":"advanced","name":null,"aerialway":null,"osm":"way/558826797"},"geometry":{"type":"LineString","coordinates":[[12.61277,47.66766],[12.61361,47.66827],[12.61436,47.66742],[12.61522,47.66696],[12.61774,47.66628],[12.62005,47.66591],[12.62196,47.6657],[12.62672,47.66565],[12.62978,47.66535]]}},{"type":"Feature","properties":{"kind":"piste","difficulty":"easy","name":null,"aerialway":null,"osm":"way/665686323"},"geometry":{"type":"LineString","coordinates":[[12.64129,47.66175],[12.64251,47.6617]]}},{"type":"Feature","properties":{"kind":"piste","difficulty":"easy","name":null,"aerialway":null,"osm":"way/665686324"},"geometry":{"type":"LineString","coordinates":[[12.63432,47.66346],[12.63448,47.66316],[12.63425,47.6631]]}},{"type":"Feature","properties":{"kind":"piste","difficulty":"easy","name":null,"aerialway":null,"osm":"way/1025470222"},"geometry":{"type":"LineString","coordinates":[[12.63837,47.66045],[12.63967,47.65978],[12.64023,47.65965],[12.64255,47.66071],[12.6435,47.66077]]}},{"type":"Feature","properties":{"kind":"piste","difficulty":"easy","name":null,"aerialway":null,"osm":"way/1025470223"},"geometry":{"type":"LineString","coordinates":[[12.63897,47.66121],[12.63817,47.66114],[12.63806,47.66103],[12.63837,47.66045]]}},{"type":"Feature","properties":{"kind":"piste","difficulty":"easy","name":null,"aerialway":null,"osm":"way/1025470224"},"geometry":{"type":"LineString","coordinates":[[12.63906,47.66143],[12.63897,47.66121]]}},{"type":"Feature","properties":{"kind":"piste","difficulty":"easy","name":null,"aerialway":null,"osm":"way/1025470225"},"geometry":{"type":"LineString","coordinates":[[12.6435,47.66077],[12.64459,47.66085],[12.64949,47.66207],[12.64973,47.66233]]}},{"type":"Feature","properties":{"kind":"piste","difficulty":"intermediate","name":null,"aerialway":null,"osm":"way/1025470226"},"geometry":{"type":"LineString","coordinates":[[12.63534,47.66328],[12.63755,47.6625],[12.63906,47.66143],[12.63993,47.66107],[12.64161,47.66093]]}},{"type":"Feature","properties":{"kind":"piste","difficulty":"easy","name":null,"aerialway":null,"osm":"way/1025470227"},"geometry":{"type":"LineString","coordinates":[[12.63771,47.6632],[12.63983,47.6631]]}},{"type":"Feature","properties":{"kind":"piste","difficulty":"intermediate","name":null,"aerialway":null,"osm":"way/1025470228"},"geometry":{"type":"LineString","coordinates":[[12.63331,47.66371],[12.63435,47.66387],[12.63526,47.66422],[12.63769,47.66387],[12.63846,47.66333]]}},{"type":"Feature","properties":{"kind":"piste","difficulty":"easy","name":null,"aerialway":null,"osm":"way/1025470231"},"geometry":{"type":"LineString","coordinates":[[12.62978,47.66535],[12.63072,47.66529]]}},{"type":"Feature","properties":{"kind":"lift","difficulty":null,"name":"Dürrnbachhorn Nostalgie-Sesselbahn","aerialway":"chair_lift","osm":"way/25725684"},"geometry":{"type":"LineString","coordinates":[[12.58415,47.65973],[12.60227,47.67012]]}},{"type":"Feature","properties":{"kind":"lift","difficulty":null,"name":"Wildalmlift","aerialway":"t-bar","osm":"way/38717381"},"geometry":{"type":"LineString","coordinates":[[12.64979,47.66236],[12.64588,47.66247],[12.63071,47.66466]]}},{"type":"Feature","properties":{"kind":"lift","difficulty":null,"name":"Sattelkurvenlift","aerialway":"t-bar","osm":"way/204800681"},"geometry":{"type":"LineString","coordinates":[[12.62978,47.66535],[12.62043,47.66461],[12.61465,47.66559],[12.61249,47.66799]]}},{"type":"Feature","properties":{"kind":"lift","difficulty":null,"name":"Gimplinglift","aerialway":"platter","osm":"way/419948904"},"geometry":{"type":"LineString","coordinates":[[12.63435,47.66307],[12.62744,47.66457]]}},{"type":"Feature","properties":{"kind":"lift","difficulty":null,"name":"Hammerlfeldlift","aerialway":"rope_tow","osm":"way/463559503"},"geometry":{"type":"LineString","coordinates":[[12.6505,47.66297],[12.64895,47.66338]]}}]}