{"type":"FeatureCollection","features":[{"type":"Feature","properties":{"kind":"lift","difficulty":null,"name":"Sohmsberg Schlepplift","aerialway":"drag_lift","osm":"way/31728716"},"geometry":{"type":"LineString","coordinates":[[9.83865,47.45014],[9.84601,47.44492]]}},{"type":"Feature","properties":{"kind":"lift","difficulty":null,"name":"Zipfellift 2.0","aerialway":"platter","osm":"way/31728851"},"geometry":{"type":"LineString","coordinates":[[9.83707,47.45042],[9.83901,47.44854]]}},{"type":"Feature","properties":{"kind":"piste","difficulty":"easy","name":null,"aerialway":null,"osm":"way/1441849363"},"geometry":{"type":"LineString","coordinates":[[9.84544,47.44533],[9.84562,47.4454],[9.8455,47.44558],[9.84402,47.44651],[9.8439,47.44678],[9.84397,47.44733],[9.84385,47.4475],[9.83936,47.45035],[9.83876,47.45028],[9.83865,47.45014]]}},{"type":"Feature","properties":{"kind":"piste","difficulty":"easy","name":null,"aerialway":null,"osm":"way/1441849364"},"geometry":{"type":"LineString","coordinates":[[9.84393,47.44664],[9.84187,47.44798],[9.83974,47.45003]]}},{"type":"Feature","properties":{"kind":"piste","difficulty":"easy","name":null,"aerialway":null,"osm":"way/1441849365"},"geometry":{"type":"LineString","coordinates":[[9.83881,47.44873],[9.83908,47.44888],[9.83902,47.44914],[9.83817,47.4499],[9.83793,47.45028],[9.83753,47.45045],[9.83709,47.45039]]}},{"type":"Feature","properties":{"kind":"piste","difficulty":"easy","name":null,"aerialway":null,"osm":"way/1443568357"},"geometry":{"type":"LineString","coordinates":[[9.83876,47.45028],[9.83798,47.45021]]}},{"type":"Feature","properties":{"kind":"piste","difficulty":"easy","name":null,"aerialway":null,"osm":"way/1464448068"},"geometry":{"type":"LineString","coordinates":[[9.84544,47.44534],[9.84557,47.44525],[9.8457,47.44534],[9.8457,47.44557],[9.84486,47.44598],[9.84409,47.44664],[9.844,47.44686],[9.84415,47.44734],[9.84405,47.44752],[9.84295,47.44827],[9.84123,47.4492],[9.84099,47.44949],[9.83982,47.45024],[9.83937,47.4504],[9.8387,47.45028],[9.83928,47.45026],[9.84095,47.44902],[9.8415,47.44883],[9.8436,47.44752],[9.8438,47.44731],[9.84369,47.44684],[9.84379,47.44653],[9.84544,47.44534]]}},{"type":"Feature","properties":{"kind":"piste","difficulty":"easy","name":null,"aerialway":null,"osm":"way/1464448069"},"geometry":{"type":"LineString","coordinates":[[9.84371,47.447],[9.84274,47.44744],[9.8421,47.44789],[9.84097,47.44901],[9.83961,47.45001],[9.84019,47.44928],[9.84168,47.44803],[9.84385,47.44649],[9.84371,47.447]]}},{"type":"Feature","properties":{"kind":"piste","difficulty":"easy","name":null,"aerialway":null,"osm":"way/1464448070"},"geometry":{"type":"LineString","coordinates":[[9.83889,47.44868],[9.83921,47.44886],[9.83926,47.4493],[9.83898,47.44974],[9.83855,47.45006],[9.8387,47.45028],[9.83824,47.4503],[9.83763,47.45055],[9.83714,47.45048],[9.83809,47.4498],[9.83889,47.44868]]}},{"type":"Feature","properties":{"kind":"piste","difficulty":"intermediate","name":null,"aerialway":null,"osm":"way/1476661200"},"geometry":{"type":"LineString","coordinates":[[9.84432,47.44625],[9.84299,47.44648],[9.84252,47.44575],[9.84073,47.44548],[9.84067,47.44567],[9.84081,47.44596],[9.84054,47.44654],[9.84029,47.44768],[9.839,47.44915]]}}]}