{"type":"FeatureCollection","features":[{"type":"Feature","properties":{"kind":"lift","difficulty":null,"name":"Flying Mozart II","aerialway":"gondola","osm":"way/199103987"},"geometry":{"type":"LineString","coordinates":[[13.32097,47.32994],[13.34729,47.3254]]}},{"type":"Feature","properties":{"kind":"piste","difficulty":"advanced","name":"Steilhang Mulde - Top Liner","aerialway":null,"osm":"way/23659563"},"geometry":{"type":"LineString","coordinates":[[13.34756,47.31557],[13.34784,47.31566],[13.34824,47.31621],[13.3478,47.31821],[13.34671,47.32075],[13.34597,47.32122]]}},{"type":"Feature","properties":{"kind":"piste","difficulty":"intermediate","name":"Kammabfahrt","aerialway":null,"osm":"way/23659564"},"geometry":{"type":"LineString","coordinates":[[13.34756,47.31557],[13.34611,47.31461],[13.3459,47.31461],[13.34552,47.31516],[13.34585,47.31694],[13.34577,47.31717],[13.34478,47.31814],[13.34421,47.31932],[13.34414,47.3198],[13.34378,47.32037],[13.34444,47.32026],[13.34458,47.32036],[13.34459,47.32115],[13.34528,47.32195]]}},{"type":"Feature","properties":{"kind":"piste","difficulty":"intermediate","name":"Kogelalmabfahrt","aerialway":null,"osm":"way/23659566"},"geometry":{"type":"LineString","coordinates":[[13.34425,47.32179],[13.34423,47.3219]]}},{"type":"Feature","properties":{"kind":"piste","difficulty":"intermediate","name":"Kogelalmabfahrt","aerialway":null,"osm":"way/23659567"},"geometry":{"type":"LineString","coordinates":[[13.34686,47.32556],[13.34715,47.3257],[13.34713,47.32589],[13.34626,47.32585],[13.34561,47.32525],[13.34543,47.32492],[13.34545,47.32409],[13.34527,47.32355],[13.34585,47.32262],[13.34585,47.32233],[13.34567,47.32206],[13.34511,47.32193],[13.34462,47.32199],[13.34422,47.32176],[13.34402,47.32178]]}},{"type":"Feature","properties":{"kind":"piste","difficulty":"intermediate","name":"Kogelalmabfahrt","aerialway":null,"osm":"way/23659568"},"geometry":{"type":"LineString","coordinates":[[13.34729,47.3254],[13.34751,47.32548],[13.34715,47.3257]]}},{"type":"Feature","properties":{"kind":"piste","difficulty":"intermediate","name":"Abfahrt Flying Mozart","aerialway":null,"osm":"way/23659569"},"geometry":{"type":"LineString","coordinates":[[13.34626,47.32585],[13.34419,47.32606],[13.34365,47.32592],[13.34241,47.3261],[13.34193,47.32628],[13.34086,47.32706],[13.34012,47.32725],[13.33811,47.32745],[13.33747,47.32763],[13.3363,47.3283],[13.33564,47.32848],[13.3348,47.32841],[13.33329,47.3278],[13.33176,47.32739],[13.32968,47.32736],[13.3282,47.32766],[13.32632,47.3287],[13.32425,47.32929]]}},{"type":"Feature","properties":{"kind":"piste","difficulty":"intermediate","name":"Abfahrt Flying Mozart","aerialway":null,"osm":"way/23659570"},"geometry":{"type":"LineString","coordinates":[[13.34419,47.32606],[13.34399,47.32626],[13.34171,47.32646]]}},{"type":"Feature","properties":{"kind":"piste","difficulty":"intermediate","name":"starjet 3","aerialway":null,"osm":"way/23660079"},"geometry":{"type":"LineString","coordinates":[[13.34713,47.32589],[13.34768,47.32627]]}},{"type":"Feature","properties":{"kind":"piste","difficulty":"intermediate","name":"Abfahrt \"Rote 8er\"","aerialway":null,"osm":"way/23660081"},"geometry":{"type":"LineString","coordinates":[[13.34713,47.32589],[13.34694,47.32615],[13.34697,47.32631],[13.34798,47.32797],[13.34774,47.32843],[13.34687,47.32825],[13.34658,47.3284]]}},{"type":"Feature","properties":{"kind":"piste","difficulty":"intermediate","name":"spacejet 3","aerialway":null,"osm":"way/23660083"},"geometry":{"type":"LineString","coordinates":[[13.34798,47.32797],[13.34836,47.32784],[13.34872,47.32788],[13.34931,47.32839],[13.34994,47.32956]]}},{"type":"Feature","properties":{"kind":"piste","difficulty":"intermediate","name":"Abfahrt \"Rote 8er\"","aerialway":null,"osm":"way/23660085"},"geometry":{"type":"LineString","coordinates":[[13.34675,47.32855],[13.34725,47.32868],[13.34786,47.32939],[13.34768,47.32996],[13.34725,47.33036],[13.34626,47.3307]]}},{"type":"Feature","properties":{"kind":"piste","difficulty":"intermediate","name":"starjet 3","aerialway":null,"osm":"way/23660099"},"geometry":{"type":"LineString","coordinates":[[13.34796,47.3253],[13.34766,47.32533],[13.34768,47.32627],[13.34839,47.32707],[13.34872,47.32788],[13.34946,47.32768],[13.35015,47.32774],[13.3505,47.32808],[13.35097,47.32891],[13.35172,47.32944],[13.35313,47.32976],[13.35476,47.33044],[13.35532,47.33085],[13.35555,47.33139],[13.35662,47.3323],[13.35931,47.33333],[13.35928,47.33314],[13.35899,47.33294]]}},{"type":"Feature","properties":{"kind":"piste","difficulty":"intermediate","name":"starjet 3","aerialway":null,"osm":"way/23660104"},"geometry":{"type":"LineString","coordinates":[[13.35276,47.33013],[13.35344,47.32988]]}},{"type":"Feature","properties":{"kind":"piste","difficulty":"easy","name":"Skiweg Top Liner","aerialway":null,"osm":"way/30754021"},"geometry":{"type":"LineString","coordinates":[[13.34658,47.3284],[13.34521,47.32737],[13.34419,47.32606],[13.34349,47.32565],[13.34336,47.32537],[13.34392,47.32451],[13.34474,47.32385],[13.3448,47.32347],[13.34512,47.32319],[13.34541,47.32245],[13.34528,47.32195]]}},{"type":"Feature","properties":{"kind":"piste","difficulty":"intermediate","name":"Abfahrt Flying Mozart","aerialway":null,"osm":"way/30754022"},"geometry":{"type":"LineString","coordinates":[[13.34574,47.32783],[13.3453,47.32801],[13.34475,47.32799],[13.34392,47.32744],[13.34205,47.32728],[13.34173,47.32713],[13.34095,47.32653],[13.34071,47.32566],[13.34069,47.3247],[13.34,47.32526],[13.33948,47.32629],[13.33858,47.32682],[13.33811,47.32745]]}},{"type":"Feature","properties":{"kind":"piste","difficulty":"intermediate","name":"Abfahrt Flying Mozart","aerialway":null,"osm":"way/49152305"},"geometry":{"type":"LineString","coordinates":[[13.34528,47.32195],[13.34509,47.32228],[13.34461,47.32256],[13.3444,47.32302],[13.3436,47.32367],[13.34175,47.32419],[13.34069,47.3247]]}},{"type":"Feature","properties":{"kind":"piste","difficulty":"advanced","name":"Giftabfahrt","aerialway":null,"osm":"way/199093045"},"geometry":{"type":"LineString","coordinates":[[13.34766,47.32533],[13.34773,47.32499],[13.34742,47.32354],[13.34708,47.32285],[13.34636,47.32215],[13.34567,47.32206]]}},{"type":"Feature","properties":{"kind":"piste","difficulty":"intermediate","name":"starjet 3","aerialway":null,"osm":"way/199093064"},"geometry":{"type":"LineString","coordinates":[[13.34765,47.32579],[13.34713,47.32589]]}},{"type":"Feature","properties":{"kind":"piste","difficulty":"advanced","name":"Steilhang Mulde - Top Liner","aerialway":null,"osm":"way/199093084"},"geometry":{"type":"LineString","coordinates":[[13.34777,47.31829],[13.34632,47.3185],[13.34588,47.31878],[13.34553,47.31957],[13.34569,47.32024],[13.34601,47.32075],[13.34597,47.32122],[13.34528,47.32195]]}},{"type":"Feature","properties":{"kind":"piste","difficulty":"easy","name":null,"aerialway":null,"osm":"way/449531282"},"geometry":{"type":"LineString","coordinates":[[13.35287,47.33021],[13.35276,47.33013]]}},{"type":"Feature","properties":{"kind":"piste","difficulty":"intermediate","name":"spacejet 3","aerialway":null,"osm":"way/449533028"},"geometry":{"type":"LineString","coordinates":[[13.34814,47.32811],[13.34798,47.32797]]}},{"type":"Feature","properties":{"kind":"piste","difficulty":"easy","name":"starjet 2","aerialway":null,"osm":"way/449723268"},"geometry":{"type":"LineString","coordinates":[[13.35276,47.33013],[13.35271,47.33055],[13.35291,47.33069],[13.35515,47.33071]]}},{"type":"Feature","properties":{"kind":"piste","difficulty":"intermediate","name":"Abfahrt \"Rote 8er\"","aerialway":null,"osm":"way/675267281"},"geometry":{"type":"LineString","coordinates":[[13.34675,47.32855],[13.34658,47.3284]]}},{"type":"Feature","properties":{"kind":"lift","difficulty":null,"name":"Starjet 3","aerialway":"chair_lift","osm":"way/23149613"},"geometry":{"type":"LineString","coordinates":[[13.35899,47.33294],[13.34796,47.3253]]}},{"type":"Feature","properties":{"kind":"lift","difficulty":null,"name":"Kogelalmbahn","aerialway":"cable_car","osm":"way/23659561"},"geometry":{"type":"LineString","coordinates":[[13.34423,47.3219],[13.34686,47.32556]]}},{"type":"Feature","properties":{"kind":"lift","difficulty":null,"name":"Top Liner","aerialway":"chair_lift","osm":"way/23659562"},"geometry":{"type":"LineString","coordinates":[[13.34402,47.32178],[13.34756,47.31557]]}}]}