{"type":"FeatureCollection","features":[{"type":"Feature","properties":{"kind":"piste","difficulty":"easy","name":"Patschied","aerialway":null,"osm":"way/1451458876"},"geometry":{"type":"LineString","coordinates":[[10.58469,47.11074],[10.58643,47.11091],[10.59006,47.11153],[10.59148,47.11189],[10.59167,47.11205]]}},{"type":"Feature","properties":{"kind":"lift","difficulty":null,"name":"Patschied","aerialway":"platter","osm":"way/1451458875"},"geometry":{"type":"LineString","coordinates":[[10.59167,47.11205],[10.58469,47.11074]]}},{"type":"Feature","properties":{"kind":"lift","difficulty":null,"name":"Venetseilbahn","aerialway":"cable_car","osm":"way/29445752"},"geometry":{"type":"LineString","coordinates":[[10.58573,47.15361],[10.62589,47.14655]]}},{"type":"Feature","properties":{"kind":"lift","difficulty":null,"name":"DSB Venet Süd","aerialway":"chair_lift","osm":"way/29445848"},"geometry":{"type":"LineString","coordinates":[[10.63319,47.13091],[10.62618,47.14565]]}},{"type":"Feature","properties":{"kind":"lift","difficulty":null,"name":"Weinbergbahn","aerialway":"chair_lift","osm":"way/29445990"},"geometry":{"type":"LineString","coordinates":[[10.62209,47.15609],[10.62663,47.14622]]}},{"type":"Feature","properties":{"kind":"lift","difficulty":null,"name":"Hüttenlift","aerialway":"t-bar","osm":"way/29446480"},"geometry":{"type":"LineString","coordinates":[[10.61204,47.15309],[10.62049,47.15227]]}},{"type":"Feature","properties":{"kind":"lift","difficulty":null,"name":"Rifenalbahn","aerialway":"chair_lift","osm":"way/29446482"},"geometry":{"type":"LineString","coordinates":[[10.6003,47.1642],[10.62042,47.15271]]}},{"type":"Feature","properties":{"kind":"piste","difficulty":"intermediate","name":null,"aerialway":null,"osm":"way/29461804"},"geometry":{"type":"LineString","coordinates":[[10.62798,47.14227],[10.62939,47.14154]]}},{"type":"Feature","properties":{"kind":"piste","difficulty":"intermediate","name":null,"aerialway":null,"osm":"way/29461899"},"geometry":{"type":"LineString","coordinates":[[10.62153,47.14395],[10.62189,47.14366],[10.62386,47.14319],[10.62459,47.14285],[10.6256,47.14201],[10.62827,47.14228],[10.63095,47.14191],[10.63305,47.14247],[10.63427,47.14247],[10.63559,47.14215],[10.63607,47.14187],[10.63529,47.14135],[10.63468,47.14065],[10.63554,47.13891],[10.63667,47.13764],[10.6373,47.13635],[10.63694,47.13577],[10.63564,47.13477],[10.6352,47.13379],[10.63502,47.13199],[10.63328,47.13094]]}},{"type":"Feature","properties":{"kind":"piste","difficulty":"intermediate","name":null,"aerialway":null,"osm":"way/29461901"},"geometry":{"type":"LineString","coordinates":[[10.63305,47.14247],[10.63411,47.14072],[10.63468,47.14065]]}},{"type":"Feature","properties":{"kind":"piste","difficulty":"intermediate","name":null,"aerialway":null,"osm":"way/29461902"},"geometry":{"type":"LineString","coordinates":[[10.63488,47.14088],[10.63579,47.14034],[10.63533,47.13968]]}},{"type":"Feature","properties":{"kind":"piste","difficulty":"intermediate","name":null,"aerialway":null,"osm":"way/29462137"},"geometry":{"type":"LineString","coordinates":[[10.62011,47.1523],[10.62,47.15244],[10.61929,47.1525],[10.61849,47.15195],[10.61842,47.15171],[10.617,47.15053],[10.6171,47.15013],[10.61669,47.1495],[10.61549,47.14855],[10.61539,47.1489],[10.61449,47.14922],[10.61373,47.1499],[10.61373,47.15113],[10.61327,47.1519],[10.61268,47.15237],[10.61238,47.15295],[10.6124,47.15315],[10.61217,47.15331],[10.61217,47.15307]]}},{"type":"Feature","properties":{"kind":"lift","difficulty":null,"name":"Panoramalift","aerialway":"platter","osm":"way/131115508"},"geometry":{"type":"LineString","coordinates":[[10.62788,47.14737],[10.62664,47.14563]]}},{"type":"Feature","properties":{"kind":"piste","difficulty":"intermediate","name":null,"aerialway":null,"osm":"way/131298214"},"geometry":{"type":"LineString","coordinates":[[10.62042,47.15271],[10.62069,47.15267],[10.62087,47.15347],[10.62164,47.15452],[10.62144,47.15482],[10.62195,47.15564],[10.61928,47.15521],[10.61887,47.15525],[10.61836,47.15558],[10.617,47.15537],[10.61429,47.15374],[10.61217,47.15331]]}},{"type":"Feature","properties":{"kind":"lift","difficulty":null,"name":"Riefenlift","aerialway":"platter","osm":"way/155141607"},"geometry":{"type":"LineString","coordinates":[[10.58852,47.15308],[10.59004,47.15121]]}},{"type":"Feature","properties":{"kind":"lift","difficulty":null,"name":"Zauberteppich","aerialway":"magic_carpet","osm":"way/303431524"},"geometry":{"type":"LineString","coordinates":[[10.62704,47.1457],[10.6274,47.14561]]}},{"type":"Feature","properties":{"kind":"piste","difficulty":"novice","name":null,"aerialway":null,"osm":"way/303431526"},"geometry":{"type":"LineString","coordinates":[[10.6274,47.14561],[10.62707,47.14573]]}},{"type":"Feature","properties":{"kind":"piste","difficulty":"easy","name":null,"aerialway":null,"osm":"way/303431527"},"geometry":{"type":"LineString","coordinates":[[10.6268,47.14586],[10.62685,47.14611],[10.62766,47.14732],[10.62788,47.14737]]}},{"type":"Feature","properties":{"kind":"piste","difficulty":"intermediate","name":null,"aerialway":null,"osm":"way/303431528"},"geometry":{"type":"LineString","coordinates":[[10.63188,47.15013],[10.62995,47.15117],[10.62876,47.15221],[10.62731,47.15309],[10.62659,47.15392],[10.62659,47.15407],[10.62547,47.15422],[10.62279,47.15385],[10.61929,47.1525],[10.61853,47.15293],[10.61687,47.153],[10.61592,47.15334],[10.61555,47.15365],[10.61567,47.1551],[10.61558,47.15526],[10.61539,47.15538],[10.61448,47.15507],[10.61445,47.15531],[10.61592,47.1571],[10.61733,47.15826],[10.61719,47.15863],[10.61483,47.15872],[10.61443,47.15862],[10.61392,47.15936],[10.61344,47.15956],[10.61064,47.15857],[10.60905,47.15771],[10.60752,47.15787],[10.607,47.15823],[10.60686,47.15865],[10.60778,47.16017],[10.60834,47.16051],[10.60834,47.16089],[10.60958,47.16219],[10.60808,47.16221],[10.60872,47.16253],[10.60903,47.16301],[10.60849,47.16322],[10.60858,47.16336],[10.60658,47.16265],[10.60623,47.16298],[10.60635,47.16349],[10.60495,47.16402],[10.60426,47.16389],[10.60362,47.16394],[10.60214,47.16357],[10.60044,47.16432],[10.6003,47.1642]]}},{"type":"Feature","properties":{"kind":"piste","difficulty":"intermediate","name":null,"aerialway":null,"osm":"way/303431529"},"geometry":{"type":"LineString","coordinates":[[10.62659,47.15407],[10.62673,47.15438],[10.62638,47.1549],[10.62425,47.15494],[10.62195,47.15564],[10.62194,47.15608],[10.62209,47.15609]]}},{"type":"Feature","properties":{"kind":"piste","difficulty":"easy","name":null,"aerialway":null,"osm":"way/303431530"},"geometry":{"type":"LineString","coordinates":[[10.59003,47.15148],[10.58975,47.15189],[10.58985,47.15268],[10.58952,47.15287],[10.58855,47.15309]]}},{"type":"Feature","properties":{"kind":"piste","difficulty":"intermediate","name":null,"aerialway":null,"osm":"way/303598090"},"geometry":{"type":"LineString","coordinates":[[10.6267,47.14615],[10.6277,47.14607],[10.6298,47.1468],[10.63106,47.14697],[10.63256,47.1477],[10.63188,47.15013],[10.63195,47.15159],[10.62876,47.15221]]}},{"type":"Feature","properties":{"kind":"piste","difficulty":"easy","name":null,"aerialway":null,"osm":"way/303598093"},"geometry":{"type":"LineString","coordinates":[[10.6267,47.14615],[10.62644,47.1461]]}},{"type":"Feature","properties":{"kind":"piste","difficulty":"advanced","name":null,"aerialway":null,"osm":"way/303598094"},"geometry":{"type":"LineString","coordinates":[[10.62809,47.14817],[10.62849,47.14944],[10.62949,47.15027],[10.62995,47.15117]]}},{"type":"Feature","properties":{"kind":"piste","difficulty":"easy","name":null,"aerialway":null,"osm":"way/303598095"},"geometry":{"type":"LineString","coordinates":[[10.62624,47.14553],[10.62604,47.14571]]}},{"type":"Feature","properties":{"kind":"piste","difficulty":"intermediate","name":null,"aerialway":null,"osm":"way/303598096"},"geometry":{"type":"LineString","coordinates":[[10.62058,47.15261],[10.62031,47.15241],[10.62,47.15244]]}},{"type":"Feature","properties":{"kind":"piste","difficulty":"intermediate","name":null,"aerialway":null,"osm":"way/303598097"},"geometry":{"type":"LineString","coordinates":[[10.61929,47.1525],[10.61809,47.15274],[10.61666,47.15282],[10.61362,47.15357]]}},{"type":"Feature","properties":{"kind":"piste","difficulty":"intermediate","name":null,"aerialway":null,"osm":"way/303598098"},"geometry":{"type":"LineString","coordinates":[[10.62611,47.14566],[10.62625,47.14583],[10.62707,47.14573]]}},{"type":"Feature","properties":{"kind":"piste","difficulty":"novice","name":null,"aerialway":null,"osm":"way/1274714937"},"geometry":{"type":"LineString","coordinates":[[10.62707,47.14573],[10.62704,47.1457]]}},{"type":"Feature","properties":{"kind":"piste","difficulty":"intermediate","name":null,"aerialway":null,"osm":"way/1274714938"},"geometry":{"type":"LineString","coordinates":[[10.62707,47.14573],[10.62739,47.14608]]}},{"type":"Feature","properties":{"kind":"piste","difficulty":"intermediate","name":null,"aerialway":null,"osm":"way/1274714939"},"geometry":{"type":"LineString","coordinates":[[10.62663,47.14622],[10.6267,47.14615]]}},{"type":"Feature","properties":{"kind":"piste","difficulty":"intermediate","name":null,"aerialway":null,"osm":"way/1274714948"},"geometry":{"type":"LineString","coordinates":[[10.6267,47.14615],[10.62688,47.14626],[10.62701,47.14698],[10.62809,47.14817],[10.63219,47.14901]]}},{"type":"Feature","properties":{"kind":"piste","difficulty":"easy","name":"Panorama-Abfahrt","aerialway":null,"osm":"relation/14300057"},"geometry":{"type":"MultiLineString","coordinates":[[[10.62644,47.14608],[10.62587,47.14566],[10.625,47.14595],[10.62465,47.14587],[10.62415,47.14549],[10.62385,47.14568],[10.62351,47.14568],[10.6232,47.14554],[10.62296,47.14525]],[[10.6263,47.14661],[10.6263,47.14629],[10.62644,47.14608]],[[10.62589,47.14655],[10.62619,47.14652],[10.6263,47.14629]],[[10.63088,47.13371],[10.63128,47.13339]],[[10.62435,47.14206],[10.6256,47.14201]],[[10.63257,47.13059],[10.6331,47.13093]],[[10.61846,47.13938],[10.62117,47.13859],[10.62288,47.13765],[10.62339,47.13703],[10.62445,47.13636],[10.62572,47.13509],[10.62609,47.13487],[10.62662,47.13403],[10.62713,47.13358],[10.62789,47.13333],[10.62927,47.13328],[10.63076,47.13364],[10.63163,47.13413],[10.63139,47.13352],[10.63104,47.13314],[10.6289,47.13166],[10.62804,47.13139],[10.62694,47.1314],[10.62645,47.1318],[10.62514,47.13222],[10.62379,47.13197],[10.62332,47.13204],[10.62328,47.13196],[10.62401,47.1315],[10.62475,47.13122],[10.62511,47.13081],[10.62582,47.13033],[10.6283,47.12935],[10.62975,47.12926],[10.63137,47.12968],[10.63198,47.12999],[10.63257,47.13059]],[[10.63085,47.14164],[10.63048,47.14111],[10.63011,47.14088],[10.62891,47.14051],[10.62766,47.13904],[10.62721,47.13882],[10.62733,47.13849],[10.6269,47.13836],[10.62595,47.13863],[10.62564,47.13839],[10.62491,47.13889],[10.62418,47.13915],[10.6239,47.13922],[10.62356,47.139],[10.62285,47.13908],[10.62209,47.13954],[10.61846,47.13938]],[[10.62197,47.14471],[10.62066,47.1442],[10.62025,47.14389],[10.62023,47.14368],[10.62086,47.14314],[10.62161,47.14316],[10.62334,47.14286],[10.62435,47.14206],[10.62524,47.14182],[10.62704,47.14159],[10.62913,47.14151],[10.62939,47.14154],[10.62965,47.14177],[10.63046,47.14171],[10.63083,47.1418],[10.63085,47.14164]],[[10.63095,47.14191],[10.63085,47.14164]],[[10.62296,47.14525],[10.62197,47.14471]]]}}]}