{"type":"FeatureCollection","features":[{"type":"Feature","properties":{"kind":"lift","difficulty":null,"name":"Auberglift","aerialway":"t-bar","osm":"way/267664514"},"geometry":{"type":"LineString","coordinates":[[14.75139,47.89679],[14.75315,47.89283]]}},{"type":"Feature","properties":{"kind":"lift","difficulty":null,"name":"Aulift","aerialway":"t-bar","osm":"way/267672189"},"geometry":{"type":"LineString","coordinates":[[14.75547,47.89909],[14.75597,47.89396]]}},{"type":"Feature","properties":{"kind":"piste","difficulty":"easy","name":"Auwiese","aerialway":null,"osm":"way/267673297"},"geometry":{"type":"LineString","coordinates":[[14.75594,47.89427],[14.75569,47.89439],[14.75552,47.89497],[14.7552,47.89749],[14.75528,47.899],[14.75547,47.89909]]}},{"type":"Feature","properties":{"kind":"piste","difficulty":"easy","name":"Schi Schul Schlauch","aerialway":null,"osm":"way/267694866"},"geometry":{"type":"LineString","coordinates":[[14.75407,47.89572],[14.75391,47.89661],[14.754,47.89719],[14.75468,47.89844],[14.75528,47.899]]}},{"type":"Feature","properties":{"kind":"piste","difficulty":"intermediate","name":"ESV Hang","aerialway":null,"osm":"way/267694867"},"geometry":{"type":"LineString","coordinates":[[14.75342,47.89317],[14.75339,47.89348],[14.75295,47.89412],[14.75188,47.89657],[14.75139,47.89679]]}},{"type":"Feature","properties":{"kind":"piste","difficulty":"intermediate","name":"Max Hang","aerialway":null,"osm":"way/267694868"},"geometry":{"type":"LineString","coordinates":[[14.75306,47.89302],[14.75273,47.89323],[14.75231,47.89432],[14.75148,47.89588],[14.75125,47.89674],[14.75139,47.89679]]}},{"type":"Feature","properties":{"kind":"lift","difficulty":null,"name":"Babylift","aerialway":"rope_tow","osm":"way/267704399"},"geometry":{"type":"LineString","coordinates":[[14.75385,47.89895],[14.75293,47.89807]]}},{"type":"Feature","properties":{"kind":"piste","difficulty":"easy","name":"Schi Schul Schlauch","aerialway":null,"osm":"way/1137654300"},"geometry":{"type":"LineString","coordinates":[[14.75594,47.89427],[14.7546,47.89435],[14.75437,47.89454],[14.75407,47.89572],[14.75188,47.89657]]}},{"type":"Feature","properties":{"kind":"piste","difficulty":"easy","name":"ESV Hang","aerialway":null,"osm":"way/1137654301"},"geometry":{"type":"LineString","coordinates":[[14.75306,47.89302],[14.75406,47.8934]]}},{"type":"Feature","properties":{"kind":"piste","difficulty":"easy","name":"FIS Piste Anna","aerialway":null,"osm":"way/1137654303"},"geometry":{"type":"LineString","coordinates":[[14.75406,47.8934],[14.75437,47.89454]]}}]}