{"type":"FeatureCollection","features":[{"type":"Feature","properties":{"kind":"piste","difficulty":"easy","name":"Talabfahrt","aerialway":null,"osm":"way/28734176"},"geometry":{"type":"LineString","coordinates":[[14.16755,47.67906],[14.16741,47.67899],[14.16718,47.67919],[14.16691,47.67923],[14.16549,47.67918],[14.16246,47.68034]]}},{"type":"Feature","properties":{"kind":"piste","difficulty":"intermediate","name":"Piste Finale","aerialway":null,"osm":"way/28734198"},"geometry":{"type":"LineString","coordinates":[[14.16027,47.69689],[14.16042,47.69888],[14.15998,47.69967],[14.15934,47.7003]]}},{"type":"Feature","properties":{"kind":"piste","difficulty":"advanced","name":"Weltcupabfahrt Hannes Trinkl","aerialway":null,"osm":"way/28734201"},"geometry":{"type":"LineString","coordinates":[[14.16549,47.67918],[14.16546,47.68153],[14.16571,47.68194],[14.1682,47.6835],[14.16789,47.68487],[14.16788,47.68612],[14.16679,47.68764],[14.16682,47.68794],[14.16704,47.68817],[14.16785,47.68861],[14.16797,47.68907],[14.16745,47.69012],[14.16642,47.69152],[14.16647,47.6924]]}},{"type":"Feature","properties":{"kind":"piste","difficulty":"advanced","name":"Weltcupabfahrt Hannes Trinkl","aerialway":null,"osm":"way/28734202"},"geometry":{"type":"LineString","coordinates":[[14.16422,47.67961],[14.16493,47.67989],[14.16548,47.68035]]}},{"type":"Feature","properties":{"kind":"piste","difficulty":"easy","name":null,"aerialway":null,"osm":"way/28734203"},"geometry":{"type":"LineString","coordinates":[[14.16755,47.67906],[14.16754,47.67862],[14.16645,47.67662]]}},{"type":"Feature","properties":{"kind":"piste","difficulty":"easy","name":null,"aerialway":null,"osm":"way/28734205"},"geometry":{"type":"LineString","coordinates":[[14.16645,47.67662],[14.16667,47.67639]]}},{"type":"Feature","properties":{"kind":"piste","difficulty":"easy","name":null,"aerialway":null,"osm":"way/28734206"},"geometry":{"type":"LineString","coordinates":[[14.17537,47.66716],[14.17509,47.66695]]}},{"type":"Feature","properties":{"kind":"piste","difficulty":"advanced","name":"Hösskogelabfahrt","aerialway":null,"osm":"way/28734207"},"geometry":{"type":"LineString","coordinates":[[14.17537,47.66716],[14.17534,47.66696],[14.17551,47.66702],[14.17657,47.66855],[14.17652,47.66901],[14.17596,47.66998],[14.17582,47.67058],[14.17589,47.67185],[14.17652,47.67307]]}},{"type":"Feature","properties":{"kind":"piste","difficulty":"intermediate","name":"Hösskogelabfahrt","aerialway":null,"osm":"way/28734210"},"geometry":{"type":"LineString","coordinates":[[14.17652,47.67307],[14.17699,47.67424],[14.17706,47.67499],[14.17659,47.67587],[14.17578,47.67698],[14.1756,47.67765],[14.17511,47.67855],[14.17474,47.67846],[14.17481,47.67808]]}},{"type":"Feature","properties":{"kind":"piste","difficulty":"intermediate","name":null,"aerialway":null,"osm":"way/28734212"},"geometry":{"type":"LineString","coordinates":[[14.17052,47.67009],[14.17106,47.67023],[14.17104,47.67111],[14.17075,47.67146]]}},{"type":"Feature","properties":{"kind":"piste","difficulty":"easy","name":"Lärchenhangpiste","aerialway":null,"osm":"way/28734213"},"geometry":{"type":"LineString","coordinates":[[14.17106,47.67023],[14.17242,47.67117],[14.17415,47.67196],[14.17075,47.67146],[14.16961,47.67388],[14.16953,47.67453],[14.16871,47.67619],[14.16826,47.67652],[14.16783,47.67665],[14.16686,47.67672],[14.16645,47.67662]]}},{"type":"Feature","properties":{"kind":"piste","difficulty":"intermediate","name":"Talabfahrt","aerialway":null,"osm":"way/28734214"},"geometry":{"type":"LineString","coordinates":[[14.17415,47.67196],[14.17785,47.67366],[14.17845,47.67426],[14.17946,47.67563],[14.1804,47.67782],[14.18118,47.67831],[14.18167,47.67904],[14.18236,47.67947],[14.18249,47.6797],[14.18219,47.67996],[14.18219,47.68018],[14.18237,47.68043],[14.18353,47.681],[14.18362,47.68208],[14.18339,47.6824],[14.18126,47.68361],[14.17497,47.68421],[14.1716,47.68515],[14.17006,47.68583],[14.16943,47.68643],[14.16908,47.68654],[14.16777,47.68641]]}},{"type":"Feature","properties":{"kind":"piste","difficulty":"advanced","name":"Inferno Piste","aerialway":null,"osm":"way/28734215"},"geometry":{"type":"LineString","coordinates":[[14.17582,47.67058],[14.17415,47.67196],[14.17221,47.67463],[14.1703,47.67571],[14.16871,47.67619]]}},{"type":"Feature","properties":{"kind":"piste","difficulty":"intermediate","name":"Ahornabfahrt","aerialway":null,"osm":"way/28734218"},"geometry":{"type":"LineString","coordinates":[[14.17052,47.67009],[14.16982,47.67002],[14.16838,47.67017]]}},{"type":"Feature","properties":{"kind":"piste","difficulty":"easy","name":null,"aerialway":null,"osm":"way/28734220"},"geometry":{"type":"LineString","coordinates":[[14.166,47.67502],[14.1655,47.67572],[14.16645,47.67662]]}},{"type":"Feature","properties":{"kind":"piste","difficulty":"easy","name":null,"aerialway":null,"osm":"way/28734221"},"geometry":{"type":"LineString","coordinates":[[14.16617,47.67639],[14.16595,47.67667]]}},{"type":"Feature","properties":{"kind":"piste","difficulty":"easy","name":null,"aerialway":null,"osm":"way/28734222"},"geometry":{"type":"LineString","coordinates":[[14.166,47.67502],[14.16566,47.67487],[14.16573,47.67468]]}},{"type":"Feature","properties":{"kind":"piste","difficulty":"easy","name":null,"aerialway":null,"osm":"way/28734223"},"geometry":{"type":"LineString","coordinates":[[14.16582,47.67495],[14.16553,47.67472],[14.1656,47.67467]]}},{"type":"Feature","properties":{"kind":"piste","difficulty":"easy","name":null,"aerialway":null,"osm":"way/28734224"},"geometry":{"type":"LineString","coordinates":[[14.16838,47.67644],[14.16822,47.67623]]}},{"type":"Feature","properties":{"kind":"piste","difficulty":"easy","name":null,"aerialway":null,"osm":"way/28734225"},"geometry":{"type":"LineString","coordinates":[[14.16826,47.67652],[14.16814,47.67632]]}},{"type":"Feature","properties":{"kind":"piste","difficulty":"easy","name":null,"aerialway":null,"osm":"way/28734226"},"geometry":{"type":"LineString","coordinates":[[14.1655,47.67572],[14.16636,47.67569],[14.16761,47.67609],[14.16811,47.67642]]}},{"type":"Feature","properties":{"kind":"piste","difficulty":"easy","name":"Schulliftabfahrt","aerialway":null,"osm":"way/28734227"},"geometry":{"type":"LineString","coordinates":[[14.16891,47.67184],[14.16854,47.67185],[14.16786,47.67621]]}},{"type":"Feature","properties":{"kind":"piste","difficulty":"easy","name":null,"aerialway":null,"osm":"way/28734228"},"geometry":{"type":"LineString","coordinates":[[14.16854,47.67185],[14.16778,47.6717]]}},{"type":"Feature","properties":{"kind":"piste","difficulty":"easy","name":null,"aerialway":null,"osm":"way/28734229"},"geometry":{"type":"LineString","coordinates":[[14.16786,47.67621],[14.16686,47.67672]]}},{"type":"Feature","properties":{"kind":"piste","difficulty":"easy","name":null,"aerialway":null,"osm":"way/28734230"},"geometry":{"type":"LineString","coordinates":[[14.16692,47.67444],[14.16806,47.67456]]}},{"type":"Feature","properties":{"kind":"piste","difficulty":"intermediate","name":"Hirschkogelabfahrt","aerialway":null,"osm":"way/28735025"},"geometry":{"type":"LineString","coordinates":[[14.16005,47.67339],[14.15916,47.67578],[14.15834,47.67866],[14.15771,47.67986],[14.15668,47.68108]]}},{"type":"Feature","properties":{"kind":"piste","difficulty":"easy","name":"Familienabfahrt","aerialway":null,"osm":"way/28735026"},"geometry":{"type":"LineString","coordinates":[[14.17509,47.66695],[14.17462,47.66628],[14.17409,47.66589],[14.17309,47.66557],[14.17149,47.66565],[14.17011,47.66501],[14.16949,47.66502],[14.16759,47.66608],[14.1658,47.66602],[14.16342,47.66663],[14.15976,47.66702],[14.15998,47.66732],[14.16005,47.66789],[14.15977,47.66815],[14.15966,47.6685],[14.16005,47.67042],[14.16007,47.67186],[14.16023,47.67248],[14.15999,47.67377],[14.16012,47.67413],[14.1608,47.67496],[14.16223,47.67633],[14.16246,47.67632],[14.16219,47.67709],[14.16241,47.67875],[14.16269,47.67954],[14.16249,47.68025]]}},{"type":"Feature","properties":{"kind":"piste","difficulty":"intermediate","name":"Ahornabfahrt","aerialway":null,"osm":"way/28735032"},"geometry":{"type":"LineString","coordinates":[[14.16767,47.66999],[14.16838,47.67017]]}},{"type":"Feature","properties":{"kind":"piste","difficulty":"easy","name":null,"aerialway":null,"osm":"way/28735033"},"geometry":{"type":"LineString","coordinates":[[14.1687,47.66687],[14.16775,47.66652],[14.16554,47.66606]]}},{"type":"Feature","properties":{"kind":"piste","difficulty":"advanced","name":"Wertungsabfahrt","aerialway":null,"osm":"way/28735034"},"geometry":{"type":"LineString","coordinates":[[14.16836,47.66605],[14.16542,47.66845],[14.16467,47.66952],[14.1646,47.67006],[14.16479,47.67076],[14.16509,47.67116],[14.16522,47.67208],[14.16506,47.67273],[14.16447,47.67396]]}},{"type":"Feature","properties":{"kind":"piste","difficulty":"intermediate","name":"Almabfahrt","aerialway":null,"osm":"way/28735040"},"geometry":{"type":"LineString","coordinates":[[14.16527,47.66704],[14.1642,47.66797],[14.16382,47.66815],[14.16282,47.66817],[14.16285,47.6693],[14.16328,47.67084],[14.16463,47.67433],[14.1655,47.67572]]}},{"type":"Feature","properties":{"kind":"piste","difficulty":"easy","name":null,"aerialway":null,"osm":"way/28735041"},"geometry":{"type":"LineString","coordinates":[[14.15998,47.66732],[14.16083,47.66745],[14.16143,47.66773]]}},{"type":"Feature","properties":{"kind":"piste","difficulty":"easy","name":null,"aerialway":null,"osm":"way/28735042"},"geometry":{"type":"LineString","coordinates":[[14.16442,47.66779],[14.16282,47.66765],[14.16005,47.66789]]}},{"type":"Feature","properties":{"kind":"piste","difficulty":"intermediate","name":null,"aerialway":null,"osm":"way/28735043"},"geometry":{"type":"LineString","coordinates":[[14.16082,47.6705],[14.16052,47.67118],[14.16023,47.67248]]}},{"type":"Feature","properties":{"kind":"piste","difficulty":"easy","name":null,"aerialway":null,"osm":"way/28735044"},"geometry":{"type":"LineString","coordinates":[[14.16246,47.67632],[14.16246,47.67574],[14.16315,47.6749],[14.16407,47.67489],[14.16492,47.6751]]}},{"type":"Feature","properties":{"kind":"piste","difficulty":"intermediate","name":"Sonnkogelabfahrt","aerialway":null,"osm":"way/28735045"},"geometry":{"type":"LineString","coordinates":[[14.16236,47.67664],[14.16611,47.67699],[14.16595,47.67667]]}},{"type":"Feature","properties":{"kind":"piste","difficulty":"easy","name":null,"aerialway":null,"osm":"way/28735046"},"geometry":{"type":"LineString","coordinates":[[14.16611,47.67699],[14.16645,47.67662]]}},{"type":"Feature","properties":{"kind":"piste","difficulty":"easy","name":null,"aerialway":null,"osm":"way/28735048"},"geometry":{"type":"LineString","coordinates":[[14.16282,47.66817],[14.16005,47.66789]]}},{"type":"Feature","properties":{"kind":"piste","difficulty":"easy","name":null,"aerialway":null,"osm":"way/28735049"},"geometry":{"type":"LineString","coordinates":[[14.15981,47.66922],[14.16117,47.66933]]}},{"type":"Feature","properties":{"kind":"piste","difficulty":"intermediate","name":"Standardabfahrt","aerialway":null,"osm":"way/28735341"},"geometry":{"type":"LineString","coordinates":[[14.17486,47.66672],[14.17353,47.66634],[14.17038,47.66652],[14.16873,47.66604],[14.16759,47.66608],[14.1667,47.66626],[14.16527,47.66704],[14.16143,47.66746],[14.16134,47.6686],[14.16082,47.6705],[14.16133,47.67135],[14.16177,47.67246],[14.16359,47.67426]]}},{"type":"Feature","properties":{"kind":"piste","difficulty":"easy","name":null,"aerialway":null,"osm":"way/28735342"},"geometry":{"type":"LineString","coordinates":[[14.17347,47.66568],[14.16969,47.66599]]}},{"type":"Feature","properties":{"kind":"piste","difficulty":"intermediate","name":"Farnau","aerialway":null,"osm":"way/38423767"},"geometry":{"type":"LineString","coordinates":[[14.16609,47.69238],[14.16239,47.69199]]}},{"type":"Feature","properties":{"kind":"piste","difficulty":"easy","name":null,"aerialway":null,"osm":"way/47087932"},"geometry":{"type":"LineString","coordinates":[[14.17305,47.66109],[14.17234,47.66186],[14.17124,47.66357],[14.16949,47.66502]]}},{"type":"Feature","properties":{"kind":"piste","difficulty":"easy","name":null,"aerialway":null,"osm":"way/47088397"},"geometry":{"type":"LineString","coordinates":[[14.17721,47.65495],[14.17595,47.65695],[14.17367,47.65878],[14.17329,47.65937],[14.173,47.66029],[14.17294,47.66087],[14.17305,47.66109]]}},{"type":"Feature","properties":{"kind":"piste","difficulty":"easy","name":null,"aerialway":null,"osm":"way/47088398"},"geometry":{"type":"LineString","coordinates":[[14.17309,47.66557],[14.17198,47.66514],[14.17124,47.66357]]}},{"type":"Feature","properties":{"kind":"piste","difficulty":"easy","name":null,"aerialway":null,"osm":"way/47088399"},"geometry":{"type":"LineString","coordinates":[[14.17347,47.66099],[14.17305,47.66109]]}},{"type":"Feature","properties":{"kind":"piste","difficulty":"easy","name":null,"aerialway":null,"osm":"way/47088400"},"geometry":{"type":"LineString","coordinates":[[14.17347,47.66099],[14.17506,47.66052],[14.17598,47.66038],[14.17667,47.66046]]}},{"type":"Feature","properties":{"kind":"piste","difficulty":"easy","name":null,"aerialway":null,"osm":"way/49029532"},"geometry":{"type":"LineString","coordinates":[[14.17595,47.65695],[14.17535,47.65883],[14.17557,47.65964],[14.17592,47.66015],[14.17667,47.66046]]}},{"type":"Feature","properties":{"kind":"piste","difficulty":"easy","name":null,"aerialway":null,"osm":"way/49029539"},"geometry":{"type":"LineString","coordinates":[[14.16645,47.67662],[14.16595,47.67667]]}},{"type":"Feature","properties":{"kind":"piste","difficulty":"easy","name":null,"aerialway":null,"osm":"way/49029541"},"geometry":{"type":"LineString","coordinates":[[14.17495,47.66712],[14.17509,47.66695],[14.17534,47.66696]]}},{"type":"Feature","properties":{"kind":"piste","difficulty":"easy","name":null,"aerialway":null,"osm":"way/49029546"},"geometry":{"type":"LineString","coordinates":[[14.15934,47.7003],[14.15923,47.70048],[14.15872,47.70072]]}},{"type":"Feature","properties":{"kind":"piste","difficulty":"intermediate","name":null,"aerialway":null,"osm":"way/49681886"},"geometry":{"type":"LineString","coordinates":[[14.16133,47.67135],[14.16393,47.67265]]}},{"type":"Feature","properties":{"kind":"piste","difficulty":"intermediate","name":"Ahornabfahrt","aerialway":null,"osm":"way/97415774"},"geometry":{"type":"LineString","coordinates":[[14.16838,47.67017],[14.16792,47.671],[14.16692,47.67444],[14.166,47.67502]]}},{"type":"Feature","properties":{"kind":"piste","difficulty":"easy","name":null,"aerialway":null,"osm":"way/97415779"},"geometry":{"type":"LineString","coordinates":[[14.1672,47.67809],[14.1679,47.67737],[14.16793,47.67696],[14.16826,47.67652]]}},{"type":"Feature","properties":{"kind":"piste","difficulty":"easy","name":null,"aerialway":null,"osm":"way/97415792"},"geometry":{"type":"LineString","coordinates":[[14.17149,47.66565],[14.16898,47.66609]]}},{"type":"Feature","properties":{"kind":"piste","difficulty":"freeride","name":"Route Riesenschneise","aerialway":null,"osm":"way/97415797"},"geometry":{"type":"LineString","coordinates":[[14.17163,47.6665],[14.17053,47.66757],[14.1693,47.66843],[14.1689,47.66967],[14.16838,47.67017]]}},{"type":"Feature","properties":{"kind":"piste","difficulty":"easy","name":null,"aerialway":null,"osm":"way/466976341"},"geometry":{"type":"LineString","coordinates":[[14.16249,47.68025],[14.16246,47.68034]]}},{"type":"Feature","properties":{"kind":"piste","difficulty":"easy","name":"Skiweg zur Weltcupabfahrt","aerialway":null,"osm":"way/466976342"},"geometry":{"type":"LineString","coordinates":[[14.16241,47.67875],[14.16422,47.67961]]}},{"type":"Feature","properties":{"kind":"piste","difficulty":"easy","name":null,"aerialway":null,"osm":"way/466976343"},"geometry":{"type":"LineString","coordinates":[[14.17075,47.67146],[14.16928,47.67125],[14.16787,47.67127]]}},{"type":"Feature","properties":{"kind":"piste","difficulty":"easy","name":null,"aerialway":null,"osm":"way/466976344"},"geometry":{"type":"LineString","coordinates":[[14.16491,47.67471],[14.16585,47.67496]]}},{"type":"Feature","properties":{"kind":"piste","difficulty":"intermediate","name":null,"aerialway":null,"osm":"way/466976345"},"geometry":{"type":"LineString","coordinates":[[14.1804,47.67782],[14.17965,47.67849],[14.17816,47.67868],[14.17511,47.67855]]}},{"type":"Feature","properties":{"kind":"piste","difficulty":"easy","name":null,"aerialway":null,"osm":"way/466976346"},"geometry":{"type":"LineString","coordinates":[[14.16079,47.66723],[14.16143,47.66746]]}},{"type":"Feature","properties":{"kind":"piste","difficulty":"easy","name":"Carvingpiste","aerialway":null,"osm":"way/466976347"},"geometry":{"type":"LineString","coordinates":[[14.16076,47.66734],[14.16079,47.66723],[14.16054,47.66722],[14.16071,47.66756],[14.16005,47.67339]]}},{"type":"Feature","properties":{"kind":"piste","difficulty":"easy","name":"Familienabfahrt","aerialway":null,"osm":"way/466976348"},"geometry":{"type":"LineString","coordinates":[[14.16005,47.67339],[14.16092,47.67396],[14.16163,47.67414],[14.16359,47.67426],[14.16492,47.6751],[14.1655,47.67572]]}},{"type":"Feature","properties":{"kind":"piste","difficulty":"intermediate","name":"Sonnkogelabfahrt","aerialway":null,"osm":"way/466976349"},"geometry":{"type":"LineString","coordinates":[[14.16246,47.67632],[14.16617,47.67639]]}},{"type":"Feature","properties":{"kind":"piste","difficulty":"easy","name":null,"aerialway":null,"osm":"way/571635738"},"geometry":{"type":"LineString","coordinates":[[14.17404,47.6608],[14.17434,47.66124],[14.1744,47.6617],[14.17362,47.66284],[14.17274,47.66323],[14.17124,47.66357]]}},{"type":"Feature","properties":{"kind":"piste","difficulty":"easy","name":"Familienabfahrt","aerialway":null,"osm":"way/571637046"},"geometry":{"type":"LineString","coordinates":[[14.16005,47.66789],[14.15679,47.66848],[14.15676,47.66868],[14.16003,47.67089]]}},{"type":"Feature","properties":{"kind":"piste","difficulty":"intermediate","name":"Talabfahrt","aerialway":null,"osm":"way/1182112307"},"geometry":{"type":"LineString","coordinates":[[14.16099,47.68984],[14.16101,47.6901],[14.16142,47.69043],[14.16439,47.69146],[14.16453,47.69156],[14.16449,47.6917],[14.16231,47.692],[14.16165,47.69223],[14.16129,47.69253],[14.16094,47.69475],[14.16105,47.69562],[14.16027,47.69689],[14.15871,47.69779],[14.15657,47.69847],[14.15607,47.69891],[14.15611,47.6991]]}},{"type":"Feature","properties":{"kind":"piste","difficulty":"intermediate","name":"Talabfahrt","aerialway":null,"osm":"way/1182112308"},"geometry":{"type":"LineString","coordinates":[[14.15668,47.68108],[14.15562,47.68168],[14.15534,47.68198],[14.15536,47.68219],[14.15592,47.68255],[14.15609,47.68281],[14.15599,47.68306],[14.15565,47.68328],[14.15478,47.6833],[14.15466,47.68336],[14.15469,47.68363],[14.15698,47.68552],[14.15715,47.68689],[14.15733,47.6873],[14.15834,47.6879],[14.15981,47.68847],[14.16137,47.68882]]}},{"type":"Feature","properties":{"kind":"piste","difficulty":"intermediate","name":"Talabfahrt","aerialway":null,"osm":"way/1182112309"},"geometry":{"type":"LineString","coordinates":[[14.16137,47.68882],[14.16422,47.68998],[14.16099,47.68984]]}},{"type":"Feature","properties":{"kind":"piste","difficulty":"intermediate","name":"Talabfahrt","aerialway":null,"osm":"way/1182112310"},"geometry":{"type":"LineString","coordinates":[[14.16137,47.68882],[14.16099,47.68984]]}},{"type":"Feature","properties":{"kind":"piste","difficulty":"easy","name":"Talabfahrt, Familienabfahrt","aerialway":null,"osm":"way/1182112311"},"geometry":{"type":"LineString","coordinates":[[14.16246,47.68034],[14.16154,47.68089],[14.16079,47.68103],[14.15962,47.68107],[14.15774,47.68092],[14.15668,47.68108]]}},{"type":"Feature","properties":{"kind":"piste","difficulty":"easy","name":null,"aerialway":null,"osm":"way/1182112312"},"geometry":{"type":"LineString","coordinates":[[14.15668,47.68108],[14.15642,47.6814],[14.15638,47.6818]]}},{"type":"Feature","properties":{"kind":"piste","difficulty":"easy","name":null,"aerialway":null,"osm":"way/1182112313"},"geometry":{"type":"LineString","coordinates":[[14.15934,47.7003],[14.1585,47.7002],[14.15784,47.69985],[14.15653,47.69954]]}},{"type":"Feature","properties":{"kind":"piste","difficulty":"intermediate","name":"Piste Finale","aerialway":null,"osm":"way/1182112314"},"geometry":{"type":"LineString","coordinates":[[14.15934,47.7003],[14.15921,47.70072]]}},{"type":"Feature","properties":{"kind":"piste","difficulty":"intermediate","name":"Weltcupabfahrt Hannes Trinkl","aerialway":null,"osm":"way/1182112315"},"geometry":{"type":"LineString","coordinates":[[14.16434,47.69985],[14.16399,47.70057]]}},{"type":"Feature","properties":{"kind":"piste","difficulty":"intermediate","name":"Weltcupabfahrt Hannes Trinkl","aerialway":null,"osm":"way/1182112317"},"geometry":{"type":"LineString","coordinates":[[14.16647,47.6924],[14.1663,47.69295],[14.16511,47.69438],[14.16395,47.6972],[14.16434,47.69985]]}},{"type":"Feature","properties":{"kind":"piste","difficulty":"intermediate","name":"Talabfahrt","aerialway":null,"osm":"way/1182112318"},"geometry":{"type":"LineString","coordinates":[[14.16697,47.68732],[14.16656,47.68759],[14.16589,47.68747],[14.16432,47.68753],[14.1627,47.6873],[14.15917,47.68749],[14.15755,47.68745]]}},{"type":"Feature","properties":{"kind":"piste","difficulty":"easy","name":null,"aerialway":null,"osm":"way/1320710396"},"geometry":{"type":"LineString","coordinates":[[14.1674,47.67876],[14.16745,47.67904]]}},{"type":"Feature","properties":{"kind":"piste","difficulty":"easy","name":null,"aerialway":null,"osm":"way/1356943708"},"geometry":{"type":"LineString","coordinates":[[14.16424,47.69873],[14.16258,47.6999]]}},{"type":"Feature","properties":{"kind":"piste","difficulty":"easy","name":null,"aerialway":null,"osm":"way/1356943709"},"geometry":{"type":"LineString","coordinates":[[14.16258,47.6999],[14.16266,47.70025],[14.16242,47.70088],[14.16203,47.70114],[14.16093,47.70101],[14.15973,47.70035],[14.15934,47.7003]]}},{"type":"Feature","properties":{"kind":"piste","difficulty":"intermediate","name":null,"aerialway":null,"osm":"way/1366278381"},"geometry":{"type":"LineString","coordinates":[[14.16439,47.69146],[14.16494,47.69172]]}},{"type":"Feature","properties":{"kind":"piste","difficulty":"intermediate","name":"Farnau","aerialway":null,"osm":"way/1366278382"},"geometry":{"type":"LineString","coordinates":[[14.16494,47.69172],[14.16566,47.69209]]}},{"type":"Feature","properties":{"kind":"piste","difficulty":"intermediate","name":"Farnau","aerialway":null,"osm":"way/1366278383"},"geometry":{"type":"LineString","coordinates":[[14.16566,47.69209],[14.16609,47.69238]]}},{"type":"Feature","properties":{"kind":"piste","difficulty":"intermediate","name":null,"aerialway":null,"osm":"way/1366278384"},"geometry":{"type":"LineString","coordinates":[[14.16609,47.69238],[14.16647,47.6924]]}},{"type":"Feature","properties":{"kind":"lift","difficulty":null,"name":"Höss-Express","aerialway":"chair_lift","osm":"way/26378061"},"geometry":{"type":"LineString","coordinates":[[14.16667,47.67639],[14.17495,47.66712]]}},{"type":"Feature","properties":{"kind":"lift","difficulty":null,"name":"2000er Lift","aerialway":"t-bar","osm":"way/26378066"},"geometry":{"type":"LineString","coordinates":[[14.17667,47.66046],[14.17721,47.65495]]}},{"type":"Feature","properties":{"kind":"lift","difficulty":null,"name":"Lärchenlift","aerialway":"t-bar","osm":"way/28734179"},"geometry":{"type":"LineString","coordinates":[[14.16822,47.67623],[14.17071,47.66963]]}},{"type":"Feature","properties":{"kind":"lift","difficulty":null,"name":"Schullift","aerialway":"t-bar","osm":"way/28734181"},"geometry":{"type":"LineString","coordinates":[[14.16814,47.67632],[14.16891,47.67184]]}},{"type":"Feature","properties":{"kind":"lift","difficulty":null,"name":"Almlift","aerialway":"t-bar","osm":"way/28734182"},"geometry":{"type":"LineString","coordinates":[[14.16571,47.67475],[14.16778,47.66954]]}},{"type":"Feature","properties":{"kind":"lift","difficulty":null,"name":"Hösslift","aerialway":"t-bar","osm":"way/28734184"},"geometry":{"type":"LineString","coordinates":[[14.16558,47.67473],[14.16892,47.66632]]}},{"type":"Feature","properties":{"kind":"lift","difficulty":null,"name":"Doppelsessellift Hösskogel","aerialway":"chair_lift","osm":"way/28734186"},"geometry":{"type":"LineString","coordinates":[[14.17481,47.67808],[14.17537,47.66716]]}},{"type":"Feature","properties":{"kind":"lift","difficulty":null,"name":"Hirschkogelbahn","aerialway":"gondola","osm":"way/28734187"},"geometry":{"type":"LineString","coordinates":[[14.15653,47.68184],[14.16076,47.66734]]}},{"type":"Feature","properties":{"kind":"lift","difficulty":null,"name":"Sonnkogellift","aerialway":"t-bar","osm":"way/28734188"},"geometry":{"type":"LineString","coordinates":[[14.16595,47.67667],[14.16203,47.67642]]}},{"type":"Feature","properties":{"kind":"lift","difficulty":null,"name":"Panoramalift","aerialway":"t-bar","osm":"way/47087566"},"geometry":{"type":"LineString","coordinates":[[14.17135,47.66366],[14.17347,47.66099]]}},{"type":"Feature","properties":{"kind":"lift","difficulty":null,"name":null,"aerialway":"magic_carpet","osm":"way/691750348"},"geometry":{"type":"LineString","coordinates":[[14.16514,47.67736],[14.16388,47.67726]]}},{"type":"Feature","properties":{"kind":"lift","difficulty":null,"name":null,"aerialway":"magic_carpet","osm":"way/691750351"},"geometry":{"type":"LineString","coordinates":[[14.16534,47.67777],[14.1638,47.67753]]}},{"type":"Feature","properties":{"kind":"lift","difficulty":null,"name":null,"aerialway":"magic_carpet","osm":"way/691750352"},"geometry":{"type":"LineString","coordinates":[[14.16577,47.67768],[14.16548,47.67805]]}},{"type":"Feature","properties":{"kind":"lift","difficulty":null,"name":null,"aerialway":"magic_carpet","osm":"way/691750354"},"geometry":{"type":"LineString","coordinates":[[14.16601,47.67773],[14.16588,47.67787]]}},{"type":"Feature","properties":{"kind":"lift","difficulty":null,"name":"Höss Förderband 1","aerialway":"magic_carpet","osm":"way/691750355"},"geometry":{"type":"LineString","coordinates":[[14.16631,47.67783],[14.16605,47.67852]]}},{"type":"Feature","properties":{"kind":"lift","difficulty":null,"name":"Hössbahn","aerialway":"gondola","osm":"way/1112074813"},"geometry":{"type":"LineString","coordinates":[[14.15847,47.70085],[14.16745,47.67916]]}},{"type":"Feature","properties":{"kind":"lift","difficulty":null,"name":"Höss Förderband 2","aerialway":"magic_carpet","osm":"way/1190043187"},"geometry":{"type":"LineString","coordinates":[[14.16632,47.67856],[14.16699,47.67864]]}},{"type":"Feature","properties":{"kind":"lift","difficulty":null,"name":"Höss Förderband 3","aerialway":"magic_carpet","osm":"way/1190043188"},"geometry":{"type":"LineString","coordinates":[[14.16709,47.67868],[14.1674,47.67876]]}},{"type":"Feature","properties":{"kind":"lift","difficulty":null,"name":null,"aerialway":"rope_tow","osm":"way/1366280030"},"geometry":{"type":"LineString","coordinates":[[14.16619,47.67795],[14.16601,47.67851]]}}]}