{"type":"FeatureCollection","features":[{"type":"Feature","properties":{"kind":"lift","difficulty":null,"name":"Hüttegglift","aerialway":"platter","osm":"way/28357771"},"geometry":{"type":"LineString","coordinates":[[11.67514,47.291],[11.69261,47.28859]]}},{"type":"Feature","properties":{"kind":"lift","difficulty":null,"name":"Schwannerlift","aerialway":"platter","osm":"way/28386646"},"geometry":{"type":"LineString","coordinates":[[11.67511,47.30182],[11.67878,47.29823]]}},{"type":"Feature","properties":{"kind":"piste","difficulty":"easy","name":null,"aerialway":null,"osm":"way/417721088"},"geometry":{"type":"LineString","coordinates":[[11.69211,47.28866],[11.69182,47.28855],[11.69084,47.28857],[11.68283,47.28972],[11.68124,47.28981],[11.678,47.2892],[11.67682,47.28931],[11.67582,47.28996],[11.67549,47.29048],[11.67537,47.29096]]}}]}