{"type":"FeatureCollection","features":[{"type":"Feature","properties":{"kind":"lift","difficulty":null,"name":"4er Sessellift","aerialway":"chair_lift","osm":"way/40214149"},"geometry":{"type":"LineString","coordinates":[[12.28794,47.63762],[12.28545,47.62807]]}},{"type":"Feature","properties":{"kind":"lift","difficulty":null,"name":"Kinderlift","aerialway":"drag_lift","osm":"way/48081357"},"geometry":{"type":"LineString","coordinates":[[12.28388,47.63814],[12.28384,47.63649]]}},{"type":"Feature","properties":{"kind":"lift","difficulty":null,"name":"Ötzlift","aerialway":"t-bar","osm":"way/127525677"},"geometry":{"type":"LineString","coordinates":[[12.29069,47.63369],[12.28734,47.62793]]}},{"type":"Feature","properties":{"kind":"lift","difficulty":null,"name":"Riedalmlift","aerialway":"platter","osm":"way/205239005"},"geometry":{"type":"LineString","coordinates":[[12.27717,47.62769],[12.27354,47.62886]]}},{"type":"Feature","properties":{"kind":"piste","difficulty":"easy","name":null,"aerialway":null,"osm":"way/205239007"},"geometry":{"type":"LineString","coordinates":[[12.28473,47.62849],[12.28464,47.62883],[12.28547,47.62892]]}},{"type":"Feature","properties":{"kind":"piste","difficulty":"intermediate","name":null,"aerialway":null,"osm":"way/205239009"},"geometry":{"type":"LineString","coordinates":[[12.29024,47.63472],[12.29028,47.63485],[12.29008,47.63512],[12.28961,47.63519],[12.2896,47.63583],[12.28924,47.63618],[12.28922,47.63656],[12.28877,47.63666],[12.28843,47.63705],[12.28821,47.63753],[12.28828,47.63787]]}},{"type":"Feature","properties":{"kind":"piste","difficulty":"easy","name":null,"aerialway":null,"osm":"way/205239011"},"geometry":{"type":"LineString","coordinates":[[12.28754,47.62826],[12.28675,47.62897]]}},{"type":"Feature","properties":{"kind":"piste","difficulty":"easy","name":null,"aerialway":null,"osm":"way/205239014"},"geometry":{"type":"LineString","coordinates":[[12.29106,47.63436],[12.29146,47.63476],[12.29055,47.63534],[12.29021,47.63535]]}},{"type":"Feature","properties":{"kind":"piste","difficulty":"easy","name":null,"aerialway":null,"osm":"way/205239411"},"geometry":{"type":"LineString","coordinates":[[12.29812,47.63767],[12.29903,47.63814],[12.29907,47.63831],[12.29766,47.63953],[12.29744,47.64011],[12.29718,47.64037],[12.2967,47.64059],[12.29609,47.64068],[12.29586,47.64116],[12.29547,47.64119]]}},{"type":"Feature","properties":{"kind":"piste","difficulty":"easy","name":null,"aerialway":null,"osm":"way/207148071"},"geometry":{"type":"LineString","coordinates":[[12.28547,47.62892],[12.28553,47.62926],[12.28682,47.62975],[12.28692,47.63069],[12.2878,47.63156],[12.29024,47.63472],[12.29109,47.63461]]}},{"type":"Feature","properties":{"kind":"piste","difficulty":"easy","name":null,"aerialway":null,"osm":"way/207148075"},"geometry":{"type":"LineString","coordinates":[[12.28675,47.62897],[12.28759,47.62939],[12.28804,47.62999],[12.28817,47.63036],[12.28808,47.63064],[12.28832,47.63108],[12.29009,47.63292],[12.29057,47.63373],[12.29063,47.63358]]}},{"type":"Feature","properties":{"kind":"piste","difficulty":"easy","name":null,"aerialway":null,"osm":"way/207149800"},"geometry":{"type":"LineString","coordinates":[[12.28545,47.62807],[12.28508,47.62813],[12.28473,47.62849],[12.28365,47.6281],[12.28267,47.6273],[12.28208,47.62716],[12.28097,47.62779],[12.27971,47.62774],[12.27824,47.62684],[12.2777,47.62694],[12.27717,47.62769]]}},{"type":"Feature","properties":{"kind":"lift","difficulty":null,"name":"Amberglift","aerialway":"t-bar","osm":"way/221455010"},"geometry":{"type":"LineString","coordinates":[[12.29522,47.64113],[12.2984,47.63735]]}},{"type":"Feature","properties":{"kind":"piste","difficulty":"easy","name":null,"aerialway":null,"osm":"way/414764107"},"geometry":{"type":"LineString","coordinates":[[12.28043,47.63032],[12.28048,47.63053],[12.28082,47.63083],[12.28193,47.63107],[12.28315,47.63217],[12.28361,47.63294],[12.28529,47.63336],[12.28578,47.63363],[12.28605,47.63402],[12.28721,47.63389],[12.28934,47.63422],[12.28988,47.63419]]}},{"type":"Feature","properties":{"kind":"piste","difficulty":"intermediate","name":null,"aerialway":null,"osm":"way/692621713"},"geometry":{"type":"LineString","coordinates":[[12.29109,47.63461],[12.29108,47.63482],[12.29021,47.63535],[12.29042,47.63556],[12.29052,47.63611],[12.29034,47.63666],[12.28952,47.63732],[12.28874,47.63774],[12.28808,47.63788],[12.28794,47.63762]]}},{"type":"Feature","properties":{"kind":"piste","difficulty":"easy","name":null,"aerialway":null,"osm":"way/699211787"},"geometry":{"type":"LineString","coordinates":[[12.27354,47.62886],[12.27519,47.6285],[12.27705,47.62785],[12.27724,47.62773],[12.27717,47.62769]]}},{"type":"Feature","properties":{"kind":"lift","difficulty":null,"name":"Aschinger-Alm-Lift","aerialway":"t-bar","osm":"way/777171485"},"geometry":{"type":"LineString","coordinates":[[12.26839,47.6328],[12.27043,47.62613]]}},{"type":"Feature","properties":{"kind":"piste","difficulty":"easy","name":null,"aerialway":null,"osm":"way/1071907901"},"geometry":{"type":"LineString","coordinates":[[12.29057,47.63373],[12.29104,47.6341],[12.29106,47.63436]]}},{"type":"Feature","properties":{"kind":"piste","difficulty":"easy","name":null,"aerialway":null,"osm":"way/1071907902"},"geometry":{"type":"LineString","coordinates":[[12.29106,47.63436],[12.29109,47.63461]]}},{"type":"Feature","properties":{"kind":"piste","difficulty":"easy","name":null,"aerialway":null,"osm":"way/1071907903"},"geometry":{"type":"LineString","coordinates":[[12.28547,47.62892],[12.28675,47.62897]]}},{"type":"Feature","properties":{"kind":"piste","difficulty":"easy","name":null,"aerialway":null,"osm":"way/1460739427"},"geometry":{"type":"LineString","coordinates":[[12.27354,47.62886],[12.27474,47.62942],[12.27543,47.62955],[12.27726,47.62963],[12.27827,47.62943],[12.27896,47.6295],[12.28026,47.63002],[12.28043,47.63032]]}},{"type":"Feature","properties":{"kind":"piste","difficulty":"easy","name":"Winkelkar - Durchholzen","aerialway":null,"osm":"relation/2809529"},"geometry":{"type":"MultiLineString","coordinates":[[[12.28361,47.61068],[12.28394,47.61059],[12.28428,47.61022],[12.28495,47.61015]],[[12.28495,47.61015],[12.28529,47.61034],[12.28597,47.61039],[12.28729,47.61021],[12.28714,47.61007],[12.28744,47.61002],[12.28793,47.61023],[12.28804,47.60989],[12.28827,47.60982]],[[12.28827,47.60982],[12.2888,47.60981],[12.28885,47.60961],[12.28925,47.60935],[12.29076,47.60897],[12.29136,47.60927],[12.29147,47.60946],[12.29258,47.60997],[12.29307,47.61076]],[[12.29307,47.61076],[12.29412,47.61171],[12.29553,47.61157],[12.2963,47.612],[12.29655,47.61236]],[[12.29655,47.61236],[12.29685,47.61247]],[[12.29685,47.61247],[12.2979,47.61289],[12.29819,47.61329],[12.29825,47.61366]],[[12.29825,47.61366],[12.2978,47.61402],[12.29869,47.61425]],[[12.29869,47.61425],[12.29849,47.6144],[12.29899,47.61482],[12.29891,47.61494],[12.29867,47.61495],[12.29871,47.61519],[12.29813,47.61546],[12.298,47.61565],[12.29821,47.61606],[12.29815,47.61658]],[[12.29815,47.61658],[12.29778,47.61729],[12.29827,47.61792],[12.29796,47.61853],[12.29696,47.61934],[12.29681,47.61959],[12.2964,47.61946],[12.29607,47.61955],[12.29554,47.62013],[12.29513,47.62092],[12.29502,47.62209],[12.2946,47.62385],[12.2931,47.62579]],[[12.2931,47.62579],[12.29311,47.62588]],[[12.29311,47.62588],[12.29309,47.62595]],[[12.29309,47.62595],[12.29312,47.62623],[12.29347,47.62655]],[[12.29347,47.62655],[12.29352,47.62659]],[[12.29352,47.62659],[12.2938,47.62684],[12.29387,47.62723],[12.29429,47.62777]],[[12.29429,47.62777],[12.29438,47.62807],[12.29424,47.62878],[12.294,47.62919]],[[12.294,47.62919],[12.294,47.62971],[12.29459,47.63052],[12.29496,47.6316],[12.29483,47.63255],[12.29429,47.63363],[12.29414,47.63369]]]}}]}