{"type":"FeatureCollection","features":[{"type":"Feature","properties":{"kind":"piste","difficulty":"easy","name":null,"aerialway":null,"osm":"way/54564808"},"geometry":{"type":"LineString","coordinates":[[12.56116,47.58032],[12.56213,47.58086],[12.56289,47.58111],[12.56451,47.58102],[12.56484,47.58189],[12.56518,47.58234],[12.56623,47.58306],[12.56706,47.58394],[12.56717,47.58431],[12.56703,47.58462]]}},{"type":"Feature","properties":{"kind":"piste","difficulty":"easy","name":null,"aerialway":null,"osm":"way/54568304"},"geometry":{"type":"LineString","coordinates":[[12.56116,47.58032],[12.56177,47.58137],[12.56261,47.5821],[12.56385,47.5825],[12.56566,47.58272]]}},{"type":"Feature","properties":{"kind":"lift","difficulty":null,"name":"Gondelbahn Steinplatte","aerialway":"gondola","osm":"way/22888177"},"geometry":{"type":"LineString","coordinates":[[12.565,47.58738],[12.57051,47.61108]]}},{"type":"Feature","properties":{"kind":"lift","difficulty":null,"name":"Hausberg","aerialway":"t-bar","osm":"way/54564807"},"geometry":{"type":"LineString","coordinates":[[12.56703,47.58462],[12.56116,47.58032]]}}]}