{"type":"FeatureCollection","features":[{"type":"Feature","properties":{"kind":"lift","difficulty":null,"name":"Feuerkogelseilbahn","aerialway":"cable_car","osm":"way/23689124"},"geometry":{"type":"LineString","coordinates":[[13.75836,47.81297],[13.72245,47.81584]]}},{"type":"Feature","properties":{"kind":"lift","difficulty":null,"name":"6er Sesselbahn Gruber","aerialway":"chair_lift","osm":"way/49939456"},"geometry":{"type":"LineString","coordinates":[[13.72976,47.81649],[13.7215,47.81509]]}},{"type":"Feature","properties":{"kind":"lift","difficulty":null,"name":"8er Kabinenbahn Gsoll","aerialway":"gondola","osm":"way/50008560"},"geometry":{"type":"LineString","coordinates":[[13.74144,47.8066],[13.72124,47.81063]]}},{"type":"Feature","properties":{"kind":"lift","difficulty":null,"name":"Babylift","aerialway":"platter","osm":"way/50009188"},"geometry":{"type":"LineString","coordinates":[[13.72053,47.81456],[13.71786,47.81568]]}},{"type":"Feature","properties":{"kind":"lift","difficulty":null,"name":"Schlepplift Edeltal","aerialway":"t-bar","osm":"way/50009189"},"geometry":{"type":"LineString","coordinates":[[13.71651,47.81351],[13.71752,47.81618]]}},{"type":"Feature","properties":{"kind":"lift","difficulty":null,"name":"Schlepplift Steinkogel","aerialway":"t-bar","osm":"way/50009191"},"geometry":{"type":"LineString","coordinates":[[13.7186,47.81235],[13.71452,47.81088]]}},{"type":"Feature","properties":{"kind":"lift","difficulty":null,"name":"Schlepplift Heumahdgupf","aerialway":"t-bar","osm":"way/50010274"},"geometry":{"type":"LineString","coordinates":[[13.71557,47.8158],[13.71247,47.8149]]}},{"type":"Feature","properties":{"kind":"piste","difficulty":"easy","name":"Edeltal West","aerialway":null,"osm":"way/50010275"},"geometry":{"type":"LineString","coordinates":[[13.71739,47.81583],[13.71672,47.8156],[13.71581,47.81554],[13.71627,47.8149],[13.71624,47.81454],[13.71649,47.81348]]}},{"type":"Feature","properties":{"kind":"piste","difficulty":"intermediate","name":"Edeltal Ost","aerialway":null,"osm":"way/50010276"},"geometry":{"type":"LineString","coordinates":[[13.71739,47.81583],[13.71764,47.81553],[13.71765,47.81528],[13.7169,47.81361],[13.71674,47.81353]]}},{"type":"Feature","properties":{"kind":"piste","difficulty":"easy","name":"Babylift","aerialway":null,"osm":"way/50010483"},"geometry":{"type":"LineString","coordinates":[[13.71739,47.81583],[13.72053,47.8149],[13.72053,47.81456]]}},{"type":"Feature","properties":{"kind":"piste","difficulty":"easy","name":null,"aerialway":null,"osm":"way/50011256"},"geometry":{"type":"LineString","coordinates":[[13.71841,47.81546],[13.71852,47.81553]]}},{"type":"Feature","properties":{"kind":"piste","difficulty":"easy","name":"Gruber Familie","aerialway":null,"osm":"way/50012009"},"geometry":{"type":"LineString","coordinates":[[13.72755,47.81081],[13.72825,47.81178],[13.72882,47.8122],[13.72921,47.81275],[13.72922,47.81288],[13.72877,47.8134],[13.72913,47.81391],[13.72928,47.81438],[13.7296,47.81474],[13.72961,47.81532],[13.73014,47.81631],[13.72996,47.8165],[13.72976,47.81649]]}},{"type":"Feature","properties":{"kind":"piste","difficulty":"easy","name":null,"aerialway":null,"osm":"way/50012011"},"geometry":{"type":"LineString","coordinates":[[13.72124,47.81063],[13.7211,47.81067],[13.72115,47.81079],[13.72178,47.81147],[13.72209,47.81164],[13.72292,47.81165],[13.72346,47.81144],[13.72402,47.81093],[13.72424,47.81055],[13.72428,47.81011]]}},{"type":"Feature","properties":{"kind":"piste","difficulty":"advanced","name":"Gruber Spezial","aerialway":null,"osm":"way/50012019"},"geometry":{"type":"LineString","coordinates":[[13.72316,47.81281],[13.7241,47.81316],[13.72466,47.81362],[13.72564,47.81392],[13.72619,47.81435],[13.72735,47.81475],[13.72777,47.81511],[13.72897,47.8144],[13.72928,47.81438]]}},{"type":"Feature","properties":{"kind":"piste","difficulty":"easy","name":null,"aerialway":null,"osm":"way/50012177"},"geometry":{"type":"LineString","coordinates":[[13.72117,47.8149],[13.71988,47.81429],[13.71867,47.81252],[13.71842,47.81241]]}},{"type":"Feature","properties":{"kind":"piste","difficulty":"easy","name":null,"aerialway":null,"osm":"way/50012179"},"geometry":{"type":"LineString","coordinates":[[13.71674,47.81353],[13.71742,47.8132],[13.71849,47.81231]]}},{"type":"Feature","properties":{"kind":"piste","difficulty":"advanced","name":"Steinkogel vorne","aerialway":null,"osm":"way/50012181"},"geometry":{"type":"LineString","coordinates":[[13.7148,47.81132],[13.71608,47.81194],[13.71721,47.81275],[13.71792,47.81277]]}},{"type":"Feature","properties":{"kind":"piste","difficulty":"easy","name":null,"aerialway":null,"osm":"way/116797767"},"geometry":{"type":"LineString","coordinates":[[13.72497,47.81097],[13.72501,47.81064],[13.72481,47.81038],[13.72409,47.80996],[13.72407,47.80977],[13.72435,47.80943],[13.72533,47.80939],[13.72772,47.81003]]}},{"type":"Feature","properties":{"kind":"piste","difficulty":"easy","name":null,"aerialway":null,"osm":"way/330769243"},"geometry":{"type":"LineString","coordinates":[[13.73607,47.80928],[13.73651,47.809],[13.73685,47.80837],[13.73714,47.80713],[13.73754,47.80619],[13.73861,47.80466],[13.73883,47.80452],[13.73937,47.80462],[13.73943,47.80475],[13.73933,47.80504],[13.73905,47.80519],[13.73885,47.8055],[13.73906,47.80648],[13.73929,47.80683],[13.74007,47.80708]]}},{"type":"Feature","properties":{"kind":"piste","difficulty":"easy","name":null,"aerialway":null,"osm":"way/330769244"},"geometry":{"type":"LineString","coordinates":[[13.73416,47.80883],[13.73607,47.80928]]}},{"type":"Feature","properties":{"kind":"piste","difficulty":"intermediate","name":null,"aerialway":null,"osm":"way/330769245"},"geometry":{"type":"LineString","coordinates":[[13.73607,47.80928],[13.73648,47.80937],[13.73762,47.80919],[13.73853,47.80862],[13.73931,47.80767],[13.74007,47.80708]]}},{"type":"Feature","properties":{"kind":"piste","difficulty":"intermediate","name":null,"aerialway":null,"osm":"way/330769246"},"geometry":{"type":"LineString","coordinates":[[13.72755,47.81081],[13.72772,47.81003]]}},{"type":"Feature","properties":{"kind":"piste","difficulty":"easy","name":"Steinkogel hinten","aerialway":null,"osm":"way/330809188"},"geometry":{"type":"LineString","coordinates":[[13.71497,47.81104],[13.71453,47.81162],[13.71416,47.81166],[13.71382,47.81155],[13.71349,47.81106],[13.71329,47.81108],[13.71342,47.81215],[13.71366,47.81264],[13.71404,47.81289],[13.715,47.81306],[13.71679,47.8133],[13.71742,47.8132]]}},{"type":"Feature","properties":{"kind":"piste","difficulty":"easy","name":null,"aerialway":null,"osm":"way/330809189"},"geometry":{"type":"LineString","coordinates":[[13.71404,47.81289],[13.71504,47.8133],[13.71674,47.81353],[13.71655,47.81362]]}},{"type":"Feature","properties":{"kind":"piste","difficulty":"intermediate","name":"Heumahdgupf Piste West","aerialway":null,"osm":"way/652379518"},"geometry":{"type":"LineString","coordinates":[[13.71307,47.81507],[13.71202,47.81424],[13.71194,47.81392],[13.71273,47.81336],[13.71479,47.8134],[13.71504,47.8133]]}},{"type":"Feature","properties":{"kind":"piste","difficulty":"intermediate","name":"Heumahdgupf Ost","aerialway":null,"osm":"way/652379520"},"geometry":{"type":"LineString","coordinates":[[13.71307,47.81507],[13.71581,47.81554]]}},{"type":"Feature","properties":{"kind":"piste","difficulty":"intermediate","name":null,"aerialway":null,"osm":"way/669393178"},"geometry":{"type":"LineString","coordinates":[[13.7308,47.8089],[13.73257,47.80864],[13.73416,47.80883]]}},{"type":"Feature","properties":{"kind":"piste","difficulty":"easy","name":"Edeltal West","aerialway":null,"osm":"way/669393181"},"geometry":{"type":"LineString","coordinates":[[13.71581,47.81554],[13.7155,47.81577]]}},{"type":"Feature","properties":{"kind":"piste","difficulty":"easy","name":"Gsoll - Steinkogel","aerialway":null,"osm":"way/672907562"},"geometry":{"type":"LineString","coordinates":[[13.72178,47.81147],[13.7216,47.81193],[13.71995,47.81304],[13.71949,47.81308],[13.71907,47.81296],[13.71881,47.81273]]}},{"type":"Feature","properties":{"kind":"piste","difficulty":"easy","name":null,"aerialway":null,"osm":"way/672907563"},"geometry":{"type":"LineString","coordinates":[[13.72053,47.81456],[13.72045,47.81429],[13.72089,47.81397],[13.722,47.81373],[13.72249,47.81329],[13.72244,47.8128],[13.72254,47.8126],[13.72346,47.81144]]}},{"type":"Feature","properties":{"kind":"piste","difficulty":"easy","name":null,"aerialway":null,"osm":"way/672907564"},"geometry":{"type":"LineString","coordinates":[[13.72127,47.81482],[13.72218,47.81507]]}},{"type":"Feature","properties":{"kind":"piste","difficulty":"easy","name":null,"aerialway":null,"osm":"way/672907565"},"geometry":{"type":"LineString","coordinates":[[13.7215,47.81509],[13.72117,47.8149],[13.7215,47.81466],[13.72215,47.8145]]}},{"type":"Feature","properties":{"kind":"piste","difficulty":"easy","name":null,"aerialway":null,"osm":"way/672907566"},"geometry":{"type":"LineString","coordinates":[[13.7222,47.81567],[13.72202,47.81554],[13.7223,47.81517],[13.72214,47.81494],[13.72216,47.81434]]}},{"type":"Feature","properties":{"kind":"piste","difficulty":"easy","name":null,"aerialway":null,"osm":"way/696320454"},"geometry":{"type":"LineString","coordinates":[[13.73189,47.80805],[13.73257,47.80864]]}},{"type":"Feature","properties":{"kind":"piste","difficulty":"intermediate","name":"Hinteres Edltal","aerialway":null,"osm":"way/779884374"},"geometry":{"type":"LineString","coordinates":[[13.71202,47.81424],[13.71132,47.81382],[13.71052,47.81357],[13.70921,47.81346],[13.70742,47.81244],[13.70656,47.81177],[13.70559,47.81077]]}},{"type":"Feature","properties":{"kind":"piste","difficulty":"easy","name":null,"aerialway":null,"osm":"way/901943227"},"geometry":{"type":"LineString","coordinates":[[13.72216,47.81434],[13.722,47.81373],[13.72283,47.81333],[13.72303,47.81294],[13.72497,47.81097]]}},{"type":"Feature","properties":{"kind":"piste","difficulty":"easy","name":"Gruber Familie","aerialway":null,"osm":"way/901943228"},"geometry":{"type":"LineString","coordinates":[[13.72346,47.81144],[13.72434,47.81135],[13.72497,47.81097]]}},{"type":"Feature","properties":{"kind":"piste","difficulty":"easy","name":"Gruber Familie","aerialway":null,"osm":"way/901943229"},"geometry":{"type":"LineString","coordinates":[[13.72497,47.81097],[13.72528,47.81072],[13.72592,47.8109],[13.72627,47.8115],[13.72645,47.81151],[13.72755,47.81081]]}},{"type":"Feature","properties":{"kind":"piste","difficulty":"intermediate","name":null,"aerialway":null,"osm":"way/901943230"},"geometry":{"type":"LineString","coordinates":[[13.72772,47.81003],[13.728,47.80961],[13.72975,47.80881]]}},{"type":"Feature","properties":{"kind":"piste","difficulty":"easy","name":null,"aerialway":null,"osm":"way/901943231"},"geometry":{"type":"LineString","coordinates":[[13.72772,47.81003],[13.7308,47.8089]]}},{"type":"Feature","properties":{"kind":"piste","difficulty":"easy","name":null,"aerialway":null,"osm":"way/901943232"},"geometry":{"type":"LineString","coordinates":[[13.7308,47.8089],[13.73074,47.80872],[13.72983,47.80891],[13.72975,47.80881],[13.731,47.80822],[13.73349,47.80755],[13.73491,47.80795],[13.7348,47.8081],[13.73407,47.80835],[13.73395,47.80861],[13.73416,47.80883]]}},{"type":"Feature","properties":{"kind":"piste","difficulty":"easy","name":null,"aerialway":null,"osm":"way/901943233"},"geometry":{"type":"LineString","coordinates":[[13.74007,47.80708],[13.74074,47.80655],[13.74143,47.80645]]}},{"type":"Feature","properties":{"kind":"piste","difficulty":"easy","name":null,"aerialway":null,"osm":"way/901943234"},"geometry":{"type":"LineString","coordinates":[[13.74143,47.80645],[13.74144,47.8066]]}},{"type":"Feature","properties":{"kind":"piste","difficulty":"intermediate","name":"Großer Höllkogel Nordostrinne","aerialway":null,"osm":"way/915965742"},"geometry":{"type":"LineString","coordinates":[[13.6782,47.79769],[13.67887,47.79783],[13.67978,47.79836],[13.68103,47.79946],[13.68158,47.80072],[13.68145,47.80192]]}},{"type":"Feature","properties":{"kind":"lift","difficulty":null,"name":null,"aerialway":"magic_carpet","osm":"way/1479240806"},"geometry":{"type":"LineString","coordinates":[[13.72098,47.81525],[13.72074,47.81537]]}},{"type":"Feature","properties":{"kind":"lift","difficulty":null,"name":null,"aerialway":"magic_carpet","osm":"way/1479240807"},"geometry":{"type":"LineString","coordinates":[[13.72117,47.81546],[13.72105,47.8155]]}}]}