{"type":"FeatureCollection","features":[{"type":"Feature","properties":{"kind":"lift","difficulty":null,"name":"Schießhüttllift","aerialway":"t-bar","osm":"way/338707450"},"geometry":{"type":"LineString","coordinates":[[12.05016,47.4435],[12.05329,47.44139]]}},{"type":"Feature","properties":{"kind":"piste","difficulty":"easy","name":null,"aerialway":null,"osm":"way/1073890172"},"geometry":{"type":"LineString","coordinates":[[12.05289,47.44166],[12.05296,47.44175],[12.05064,47.44339],[12.05016,47.4435]]}},{"type":"Feature","properties":{"kind":"lift","difficulty":null,"name":null,"aerialway":"magic_carpet","osm":"way/1180109752"},"geometry":{"type":"LineString","coordinates":[[12.05177,47.44299],[12.05236,47.44247]]}},{"type":"Feature","properties":{"kind":"lift","difficulty":null,"name":null,"aerialway":"magic_carpet","osm":"way/1180109753"},"geometry":{"type":"LineString","coordinates":[[12.05116,47.44358],[12.05171,47.44304]]}},{"type":"Feature","properties":{"kind":"lift","difficulty":null,"name":null,"aerialway":"drag_lift","osm":"way/1180109758"},"geometry":{"type":"LineString","coordinates":[[12.05265,47.44388],[12.05439,47.44124],[12.05696,47.43966]]}},{"type":"Feature","properties":{"kind":"piste","difficulty":"easy","name":null,"aerialway":null,"osm":"way/1462561611"},"geometry":{"type":"LineString","coordinates":[[12.05296,47.44162],[12.05306,47.44192],[12.05282,47.44216],[12.05235,47.44237],[12.05063,47.44377],[12.05019,47.44352],[12.05296,47.44162]]}}]}