{"type":"FeatureCollection","features":[{"type":"Feature","properties":{"kind":"lift","difficulty":null,"name":"Dachstein Südwandbahn","aerialway":"cable_car","osm":"way/30339198"},"geometry":{"type":"LineString","coordinates":[[13.61804,47.45099],[13.62619,47.46755]]}},{"type":"Feature","properties":{"kind":"piste","difficulty":"freeride","name":null,"aerialway":null,"osm":"way/78448425"},"geometry":{"type":"LineString","coordinates":[[13.61864,47.44968],[13.61906,47.44934],[13.61942,47.44877],[13.61981,47.44858],[13.62065,47.44877],[13.6222,47.44945],[13.62311,47.44942],[13.62493,47.44964],[13.62518,47.44954],[13.62587,47.44969],[13.6266,47.44957],[13.6268,47.44973],[13.62765,47.44987],[13.62968,47.44965],[13.63037,47.44979]]}},{"type":"Feature","properties":{"kind":"piste","difficulty":"intermediate","name":"Seetalerhütte-Simonyhütte (Skiweg-Winter)","aerialway":null,"osm":"way/129407553"},"geometry":{"type":"LineString","coordinates":[[13.61121,47.49345],[13.61165,47.49397],[13.61158,47.49441],[13.61188,47.49479],[13.61324,47.49583],[13.61314,47.49633],[13.61219,47.49699],[13.6123,47.49722],[13.61255,47.49733],[13.61328,47.49725],[13.61382,47.49744],[13.61353,47.49779],[13.61401,47.49815],[13.61431,47.49878],[13.61501,47.49943],[13.61523,47.50014],[13.61568,47.50034],[13.61684,47.50019],[13.61801,47.50055],[13.61843,47.50096],[13.6202,47.5009],[13.62237,47.50035],[13.62299,47.50061],[13.62337,47.50093]]}},{"type":"Feature","properties":{"kind":"piste","difficulty":"intermediate","name":null,"aerialway":null,"osm":"way/610049169"},"geometry":{"type":"LineString","coordinates":[[13.61121,47.49345],[13.6123,47.49398],[13.61258,47.49445],[13.61259,47.49478],[13.61317,47.49553],[13.61462,47.4965],[13.61551,47.49687],[13.61684,47.49707],[13.61871,47.49806],[13.61907,47.4984],[13.61989,47.49862],[13.62109,47.49927],[13.62146,47.49933],[13.62269,47.50011],[13.6229,47.50049],[13.62337,47.50093]]}},{"type":"Feature","properties":{"kind":"piste","difficulty":"intermediate","name":"Skitour Dachsteinüberquerung","aerialway":null,"osm":"way/800310290"},"geometry":{"type":"LineString","coordinates":[[13.62615,47.4682],[13.62554,47.46878],[13.62525,47.4701],[13.62534,47.47029],[13.62522,47.47047],[13.62369,47.47239],[13.6227,47.47318],[13.62045,47.4743],[13.61889,47.47483],[13.61788,47.47492],[13.61602,47.47479],[13.61468,47.47513],[13.61399,47.4756],[13.61294,47.4766],[13.61199,47.47722],[13.61029,47.47891],[13.60831,47.48014],[13.60788,47.48089],[13.60711,47.48294],[13.60721,47.48369],[13.60766,47.48488],[13.60861,47.48648],[13.60933,47.48841],[13.60943,47.48912],[13.60937,47.49012],[13.60994,47.49191],[13.61121,47.49345]]}},{"type":"Feature","properties":{"kind":"piste","difficulty":"freeride","name":"Austriascharte/Edelgrießkar","aerialway":null,"osm":"way/800333439"},"geometry":{"type":"LineString","coordinates":[[13.63804,47.46245],[13.63836,47.46193],[13.63827,47.46018],[13.637,47.45868],[13.63583,47.45654],[13.63386,47.45406],[13.63338,47.45282],[13.63335,47.45243],[13.63272,47.45184],[13.63298,47.45126],[13.63264,47.45036],[13.63083,47.4498],[13.63037,47.44979],[13.62971,47.4488],[13.62889,47.44815],[13.62749,47.44779],[13.6264,47.44735],[13.62589,47.44687],[13.62484,47.44667],[13.62295,47.44589],[13.62122,47.44553]]}}]}