{"type":"FeatureCollection","features":[{"type":"Feature","properties":{"kind":"piste","difficulty":"advanced","name":"35","aerialway":null,"osm":"way/30249207"},"geometry":{"type":"LineString","coordinates":[[9.96459,46.98462],[9.96432,46.9849],[9.96381,46.9851],[9.96092,46.98563],[9.96,46.98595]]}},{"type":"Feature","properties":{"kind":"piste","difficulty":"easy","name":"30","aerialway":null,"osm":"way/30249211"},"geometry":{"type":"LineString","coordinates":[[9.96382,46.9827],[9.96136,46.9836],[9.95898,46.984],[9.95802,46.98431]]}},{"type":"Feature","properties":{"kind":"piste","difficulty":"easy","name":null,"aerialway":null,"osm":"way/30249212"},"geometry":{"type":"LineString","coordinates":[[9.96459,46.98462],[9.96482,46.98488],[9.96559,46.98526]]}},{"type":"Feature","properties":{"kind":"piste","difficulty":"intermediate","name":"23","aerialway":null,"osm":"way/30249213"},"geometry":{"type":"LineString","coordinates":[[9.96542,46.98704],[9.96546,46.98741],[9.96567,46.98763],[9.96676,46.98822],[9.9699,46.99049],[9.97281,46.9933],[9.97289,46.99377],[9.9725,46.9937]]}},{"type":"Feature","properties":{"kind":"piste","difficulty":"intermediate","name":null,"aerialway":null,"osm":"way/30249217"},"geometry":{"type":"LineString","coordinates":[[9.98359,46.98444],[9.98365,46.9839]]}},{"type":"Feature","properties":{"kind":"piste","difficulty":"intermediate","name":"43","aerialway":null,"osm":"way/30249222"},"geometry":{"type":"LineString","coordinates":[[9.9682,46.97739],[9.96937,46.97658],[9.97063,46.97624]]}},{"type":"Feature","properties":{"kind":"piste","difficulty":"easy","name":"62","aerialway":null,"osm":"way/30748655"},"geometry":{"type":"LineString","coordinates":[[9.99374,46.97893],[9.99351,46.97897],[9.99323,46.97925]]}},{"type":"Feature","properties":{"kind":"piste","difficulty":"intermediate","name":"21","aerialway":null,"osm":"way/30757886"},"geometry":{"type":"LineString","coordinates":[[9.96528,46.9884],[9.96561,46.98906],[9.96557,46.98959],[9.9651,46.99054],[9.96463,46.99192],[9.96465,46.9924],[9.9655,46.99332],[9.96561,46.99359],[9.96552,46.99408],[9.96441,46.99559],[9.96343,46.99728],[9.96374,46.99842],[9.963,46.99977],[9.96365,47.00127],[9.96283,47.00223],[9.96231,47.00268],[9.9616,47.00306],[9.96168,47.00325],[9.9632,47.00403],[9.9633,47.00426],[9.96279,47.00456]]}},{"type":"Feature","properties":{"kind":"piste","difficulty":"intermediate","name":"2","aerialway":null,"osm":"way/37418713"},"geometry":{"type":"LineString","coordinates":[[9.97771,47.06076],[9.97665,47.06081],[9.97618,47.06098],[9.97603,47.0612],[9.97658,47.06116],[9.97685,47.06133]]}},{"type":"Feature","properties":{"kind":"piste","difficulty":"intermediate","name":"42","aerialway":null,"osm":"way/47309145"},"geometry":{"type":"LineString","coordinates":[[9.96683,46.97904],[9.96671,46.979],[9.96707,46.97874],[9.9686,46.97867],[9.97026,46.97879],[9.97464,46.98134],[9.97475,46.98151],[9.97467,46.98212],[9.97489,46.98243],[9.97674,46.98341],[9.97781,46.98458]]}},{"type":"Feature","properties":{"kind":"piste","difficulty":"easy","name":"62","aerialway":null,"osm":"way/49264253"},"geometry":{"type":"LineString","coordinates":[[9.99294,46.97964],[9.99294,46.97991],[9.99316,46.98024],[9.9927,46.98074],[9.99282,46.98207],[9.99308,46.98284],[9.99341,46.98329],[9.99455,46.98409],[9.99482,46.9841],[9.99518,46.98403],[9.99617,46.98343],[9.99674,46.98339]]}},{"type":"Feature","properties":{"kind":"piste","difficulty":"easy","name":null,"aerialway":null,"osm":"way/49265697"},"geometry":{"type":"LineString","coordinates":[[9.9754,47.00092],[9.97572,47.00073]]}},{"type":"Feature","properties":{"kind":"piste","difficulty":"intermediate","name":null,"aerialway":null,"osm":"way/49265703"},"geometry":{"type":"LineString","coordinates":[[9.98017,46.98563],[9.98127,46.98595],[9.98207,46.98589],[9.98257,46.98564],[9.98278,46.98493],[9.98294,46.98485]]}},{"type":"Feature","properties":{"kind":"piste","difficulty":"easy","name":null,"aerialway":null,"osm":"way/49265705"},"geometry":{"type":"LineString","coordinates":[[9.97635,47.00028],[9.97574,47.00048],[9.97566,47.00064],[9.97583,47.00075]]}},{"type":"Feature","properties":{"kind":"piste","difficulty":"easy","name":"28","aerialway":null,"osm":"way/49266553"},"geometry":{"type":"LineString","coordinates":[[9.98141,47.00207],[9.98115,47.00194],[9.97914,47.00166],[9.97768,47.00124],[9.97744,47.00107],[9.97778,46.99886],[9.97765,46.99864],[9.97712,46.99901],[9.97635,47.00028],[9.97607,47.00134],[9.97592,47.00141]]}},{"type":"Feature","properties":{"kind":"piste","difficulty":"intermediate","name":"29","aerialway":null,"osm":"way/49270235"},"geometry":{"type":"LineString","coordinates":[[9.98141,47.00207],[9.98163,47.00211],[9.9815,47.00265],[9.98097,47.00299],[9.97946,47.00448],[9.97942,47.00529],[9.97992,47.00696]]}},{"type":"Feature","properties":{"kind":"piste","difficulty":"easy","name":"Garfescha","aerialway":null,"osm":"way/49271311"},"geometry":{"type":"LineString","coordinates":[[9.97541,47.00832],[9.97563,47.00834],[9.97598,47.00815],[9.97683,47.00824],[9.97768,47.00792],[9.97816,47.00798],[9.97933,47.00716]]}},{"type":"Feature","properties":{"kind":"piste","difficulty":"advanced","name":"20d","aerialway":null,"osm":"way/49271314"},"geometry":{"type":"LineString","coordinates":[[9.97992,47.00696],[9.97993,47.00724],[9.97966,47.00775],[9.97989,47.00812],[9.98194,47.00813],[9.98188,47.00833],[9.98126,47.00866],[9.98116,47.0088],[9.98122,47.00899],[9.98233,47.00903],[9.98293,47.00919],[9.98279,47.00949],[9.98189,47.00992],[9.98135,47.0105],[9.98271,47.01078],[9.98315,47.01142],[9.98328,47.01185]]}},{"type":"Feature","properties":{"kind":"piste","difficulty":"intermediate","name":"34","aerialway":null,"osm":"way/49275283"},"geometry":{"type":"LineString","coordinates":[[9.96458,46.98694],[9.95736,46.98539],[9.95687,46.98554],[9.95682,46.9857]]}},{"type":"Feature","properties":{"kind":"piste","difficulty":"easy","name":"40","aerialway":null,"osm":"way/49293581"},"geometry":{"type":"LineString","coordinates":[[9.96819,46.97743],[9.96739,46.97829],[9.96628,46.9787],[9.96534,46.98026]]}},{"type":"Feature","properties":{"kind":"piste","difficulty":"advanced","name":"44","aerialway":null,"osm":"way/49293586"},"geometry":{"type":"LineString","coordinates":[[9.97124,46.97608],[9.97401,46.97415],[9.97442,46.97347],[9.97467,46.9734],[9.97517,46.97343],[9.97609,46.97374],[9.97849,46.97393],[9.97987,46.97428],[9.98065,46.97461],[9.98107,46.97463],[9.9818,46.97425],[9.98225,46.97424],[9.98257,46.9748],[9.98246,46.9755],[9.98369,46.97622],[9.98394,46.97652],[9.98349,46.97824],[9.9835,46.97989],[9.98361,46.98024],[9.98349,46.98148],[9.98373,46.9823],[9.98377,46.98331],[9.98361,46.98358]]}},{"type":"Feature","properties":{"kind":"piste","difficulty":"easy","name":null,"aerialway":null,"osm":"way/49293590"},"geometry":{"type":"LineString","coordinates":[[9.97206,46.98507],[9.97338,46.98501],[9.97578,46.98588],[9.97791,46.98604],[9.9807,46.98746],[9.98103,46.98736],[9.98129,46.9868],[9.98229,46.98624],[9.98273,46.98583],[9.98386,46.98538]]}},{"type":"Feature","properties":{"kind":"piste","difficulty":"easy","name":"26","aerialway":null,"osm":"way/49293592"},"geometry":{"type":"LineString","coordinates":[[9.97265,46.99379],[9.96979,46.99536],[9.96879,46.99615]]}},{"type":"Feature","properties":{"kind":"piste","difficulty":"easy","name":"50","aerialway":null,"osm":"way/49293593"},"geometry":{"type":"LineString","coordinates":[[9.99286,46.97893],[9.9932,46.97896],[9.99323,46.97925],[9.99208,46.98049],[9.99185,46.981],[9.99092,46.98196],[9.99059,46.98294],[9.99022,46.98321],[9.9897,46.98319],[9.9892,46.98292],[9.98903,46.98265],[9.98878,46.98154],[9.988,46.98086],[9.98767,46.98019],[9.9875,46.98018],[9.98722,46.98105],[9.9869,46.9814],[9.98609,46.98017],[9.98476,46.98264],[9.98448,46.9837],[9.98406,46.98409],[9.98383,46.98399]]}},{"type":"Feature","properties":{"kind":"piste","difficulty":"intermediate","name":"27","aerialway":null,"osm":"way/49341468"},"geometry":{"type":"LineString","coordinates":[[9.96395,46.9939],[9.96372,46.99455],[9.96381,46.99483],[9.96774,46.99956],[9.96774,46.99973],[9.96751,46.99991],[9.96652,47.00032]]}},{"type":"Feature","properties":{"kind":"piste","difficulty":"easy","name":null,"aerialway":null,"osm":"way/49341469"},"geometry":{"type":"LineString","coordinates":[[9.96596,46.98343],[9.96541,46.98373],[9.96518,46.98371],[9.96478,46.98326]]}},{"type":"Feature","properties":{"kind":"piste","difficulty":"easy","name":"30","aerialway":null,"osm":"way/49341470"},"geometry":{"type":"LineString","coordinates":[[9.96459,46.98462],[9.96478,46.98326],[9.96436,46.98276],[9.96188,46.98246],[9.9592,46.98289],[9.95902,46.98268]]}},{"type":"Feature","properties":{"kind":"piste","difficulty":"easy","name":"20a","aerialway":null,"osm":"way/49341471"},"geometry":{"type":"LineString","coordinates":[[9.96879,46.99615],[9.96803,46.99671],[9.96763,46.99734],[9.96655,46.99803]]}},{"type":"Feature","properties":{"kind":"piste","difficulty":"easy","name":null,"aerialway":null,"osm":"way/49341473"},"geometry":{"type":"LineString","coordinates":[[9.98361,46.98358],[9.98342,46.98412],[9.9835,46.98437]]}},{"type":"Feature","properties":{"kind":"piste","difficulty":"easy","name":null,"aerialway":null,"osm":"way/49341475"},"geometry":{"type":"LineString","coordinates":[[9.97992,47.00696],[9.98006,47.00738],[9.98021,47.0074],[9.98031,47.00724]]}},{"type":"Feature","properties":{"kind":"piste","difficulty":"freeride","name":"R55","aerialway":null,"osm":"way/49342026"},"geometry":{"type":"LineString","coordinates":[[9.99486,46.97592],[9.99443,46.97621],[9.9938,46.97631],[9.99331,46.97656],[9.99207,46.97673],[9.99155,46.97692],[9.98888,46.9782],[9.98739,46.97827],[9.9857,46.97902],[9.98526,46.97957],[9.98404,46.97967],[9.98378,46.9798],[9.98361,46.98024]]}},{"type":"Feature","properties":{"kind":"piste","difficulty":"advanced","name":"55","aerialway":null,"osm":"way/49342027"},"geometry":{"type":"LineString","coordinates":[[9.99323,46.97925],[9.99228,46.97941],[9.98742,46.98202]]}},{"type":"Feature","properties":{"kind":"piste","difficulty":"easy","name":null,"aerialway":null,"osm":"way/49342028"},"geometry":{"type":"LineString","coordinates":[[9.98462,46.98318],[9.98361,46.98358]]}},{"type":"Feature","properties":{"kind":"piste","difficulty":"easy","name":null,"aerialway":null,"osm":"way/49342777"},"geometry":{"type":"LineString","coordinates":[[9.96739,46.97799],[9.96768,46.97796],[9.96764,46.97809]]}},{"type":"Feature","properties":{"kind":"piste","difficulty":"intermediate","name":null,"aerialway":null,"osm":"way/49342778"},"geometry":{"type":"LineString","coordinates":[[9.97535,46.98],[9.97575,46.97987]]}},{"type":"Feature","properties":{"kind":"piste","difficulty":"intermediate","name":"33","aerialway":null,"osm":"way/49342779"},"geometry":{"type":"LineString","coordinates":[[9.9611,46.98042],[9.95911,46.98249],[9.9585,46.98394]]}},{"type":"Feature","properties":{"kind":"piste","difficulty":"easy","name":"62","aerialway":null,"osm":"way/49342780"},"geometry":{"type":"LineString","coordinates":[[9.99312,46.98011],[9.99388,46.98024]]}},{"type":"Feature","properties":{"kind":"piste","difficulty":"easy","name":null,"aerialway":null,"osm":"way/49425523"},"geometry":{"type":"LineString","coordinates":[[9.9633,47.00426],[9.96349,47.00522]]}},{"type":"Feature","properties":{"kind":"piste","difficulty":"easy","name":null,"aerialway":null,"osm":"way/49425527"},"geometry":{"type":"LineString","coordinates":[[9.96431,47.00077],[9.96365,47.00127]]}},{"type":"Feature","properties":{"kind":"piste","difficulty":"easy","name":"10","aerialway":null,"osm":"way/49511028"},"geometry":{"type":"LineString","coordinates":[[9.98243,47.06],[9.9817,47.05983],[9.98109,47.06006],[9.9804,47.06],[9.97927,47.06031],[9.97827,47.06023],[9.97691,47.06033]]}},{"type":"Feature","properties":{"kind":"piste","difficulty":"easy","name":"13","aerialway":null,"osm":"way/49511033"},"geometry":{"type":"LineString","coordinates":[[9.9871,47.05552],[9.98659,47.05528],[9.9864,47.05501],[9.9863,47.05467],[9.98655,47.05392],[9.98707,47.05346],[9.98801,47.05299],[9.99135,47.05179],[9.9917,47.0514],[9.99219,47.0513],[9.9941,47.05182],[9.99512,47.05194],[9.99509,47.05221]]}},{"type":"Feature","properties":{"kind":"piste","difficulty":"intermediate","name":"43","aerialway":null,"osm":"way/49596588"},"geometry":{"type":"LineString","coordinates":[[9.97063,46.97624],[9.97101,46.97668],[9.97189,46.97709],[9.97306,46.97804],[9.97323,46.97905],[9.97347,46.97943],[9.97404,46.97972],[9.97535,46.98],[9.9761,46.98047],[9.97653,46.98134],[9.97653,46.9823],[9.97715,46.98232],[9.97843,46.98187],[9.97895,46.98196],[9.97971,46.98264],[9.97977,46.9834],[9.98323,46.98501],[9.98391,46.98514]]}},{"type":"Feature","properties":{"kind":"piste","difficulty":"intermediate","name":"43","aerialway":null,"osm":"way/49596598"},"geometry":{"type":"LineString","coordinates":[[9.96683,46.97904],[9.96671,46.979],[9.96707,46.97874],[9.96782,46.97852],[9.96897,46.97778],[9.96975,46.97749],[9.9704,46.97683],[9.97101,46.97668]]}},{"type":"Feature","properties":{"kind":"piste","difficulty":"advanced","name":"20a","aerialway":null,"osm":"way/49596601"},"geometry":{"type":"LineString","coordinates":[[9.96441,47.00177],[9.96443,47.00259],[9.96404,47.00354],[9.9633,47.00426]]}},{"type":"Feature","properties":{"kind":"piste","difficulty":"intermediate","name":null,"aerialway":null,"osm":"way/49596606"},"geometry":{"type":"LineString","coordinates":[[9.96649,46.97931],[9.96633,46.97961],[9.96631,46.98046],[9.96658,46.98193]]}},{"type":"Feature","properties":{"kind":"piste","difficulty":"easy","name":"20a","aerialway":null,"osm":"way/49596607"},"geometry":{"type":"LineString","coordinates":[[9.96542,46.98704],[9.96458,46.98694],[9.96491,46.98807],[9.96528,46.9884],[9.96612,46.98875],[9.96658,46.9898],[9.96754,46.99137],[9.96766,46.99202],[9.96751,46.99544],[9.96712,46.99683],[9.96638,46.9984],[9.96591,46.99908],[9.96431,47.00077],[9.96441,47.00177],[9.9641,47.00231],[9.96329,47.00283],[9.96225,47.00303],[9.96395,47.004],[9.96394,47.00428],[9.96349,47.00522],[9.9636,47.0054],[9.96409,47.00539],[9.96501,47.00476],[9.96678,47.00465],[9.96724,47.00442],[9.96826,47.00428],[9.9693,47.00447],[9.96975,47.00436],[9.97113,47.00369],[9.9722,47.00279],[9.9754,47.00092],[9.97596,47.00092],[9.97607,47.00109]]}},{"type":"Feature","properties":{"kind":"piste","difficulty":"intermediate","name":null,"aerialway":null,"osm":"way/49596611"},"geometry":{"type":"LineString","coordinates":[[9.97464,46.98134],[9.97653,46.9823]]}},{"type":"Feature","properties":{"kind":"piste","difficulty":"easy","name":null,"aerialway":null,"osm":"way/49596613"},"geometry":{"type":"LineString","coordinates":[[9.96458,46.98694],[9.96524,46.98791],[9.96612,46.98875]]}},{"type":"Feature","properties":{"kind":"piste","difficulty":"easy","name":"40","aerialway":null,"osm":"way/49596615"},"geometry":{"type":"LineString","coordinates":[[9.96573,46.98742],[9.96578,46.98698]]}},{"type":"Feature","properties":{"kind":"piste","difficulty":"easy","name":"26","aerialway":null,"osm":"way/49596617"},"geometry":{"type":"LineString","coordinates":[[9.9676,46.9935],[9.96872,46.99443],[9.97022,46.99512]]}},{"type":"Feature","properties":{"kind":"piste","difficulty":"intermediate","name":null,"aerialway":null,"osm":"way/49596621"},"geometry":{"type":"LineString","coordinates":[[9.98123,47.00175],[9.98155,47.00204]]}},{"type":"Feature","properties":{"kind":"piste","difficulty":"easy","name":"12","aerialway":null,"osm":"way/50302827"},"geometry":{"type":"LineString","coordinates":[[9.97669,47.05853],[9.97675,47.05809],[9.97836,47.057],[9.97892,47.05638],[9.97926,47.05545],[9.97878,47.05503],[9.97874,47.05486],[9.9795,47.05396],[9.97997,47.05427],[9.98085,47.05443],[9.98209,47.05427],[9.98375,47.05332],[9.98492,47.05313],[9.98598,47.05235],[9.98817,47.0518],[9.98917,47.05122]]}},{"type":"Feature","properties":{"kind":"piste","difficulty":"easy","name":"10","aerialway":null,"osm":"way/50302828"},"geometry":{"type":"LineString","coordinates":[[9.98172,47.05305],[9.98245,47.05189],[9.98319,47.05165],[9.98484,47.05146]]}},{"type":"Feature","properties":{"kind":"piste","difficulty":"novice","name":null,"aerialway":null,"osm":"way/52414350"},"geometry":{"type":"LineString","coordinates":[[10.02245,46.98435],[10.02308,46.98426],[10.02455,46.98435],[10.02491,46.98451]]}},{"type":"Feature","properties":{"kind":"piste","difficulty":"intermediate","name":"60c Talabfahrt Gaschurn","aerialway":null,"osm":"way/52527245"},"geometry":{"type":"LineString","coordinates":[[10.00723,46.98446],[10.00793,46.98417],[10.00937,46.98457],[10.00878,46.98637],[10.01014,46.9876],[10.01022,46.98774],[10.01003,46.98808]]}},{"type":"Feature","properties":{"kind":"piste","difficulty":"advanced","name":"2a","aerialway":null,"osm":"way/98486503"},"geometry":{"type":"LineString","coordinates":[[9.9764,47.06361],[9.97684,47.0639],[9.97632,47.06444]]}},{"type":"Feature","properties":{"kind":"piste","difficulty":"intermediate","name":"17","aerialway":null,"osm":"way/98486506"},"geometry":{"type":"LineString","coordinates":[[10.00603,47.04808],[10.00629,47.04839],[10.00341,47.04887],[9.99984,47.04831],[9.99666,47.0493],[9.99429,47.04941],[9.99383,47.04973],[9.99352,47.05026],[9.99251,47.05029],[9.99226,47.05045]]}},{"type":"Feature","properties":{"kind":"piste","difficulty":"easy","name":"12","aerialway":null,"osm":"way/98486510"},"geometry":{"type":"LineString","coordinates":[[9.979,47.05461],[9.97947,47.05441],[9.9804,47.05435]]}},{"type":"Feature","properties":{"kind":"piste","difficulty":"easy","name":"12","aerialway":null,"osm":"way/98486513"},"geometry":{"type":"LineString","coordinates":[[9.98817,47.0518],[9.98927,47.05151],[9.98977,47.05153],[9.99089,47.05186],[9.99135,47.05179]]}},{"type":"Feature","properties":{"kind":"piste","difficulty":"easy","name":"13","aerialway":null,"osm":"way/98486520"},"geometry":{"type":"LineString","coordinates":[[9.9917,47.0514],[9.99265,47.05028]]}},{"type":"Feature","properties":{"kind":"piste","difficulty":"easy","name":"10","aerialway":null,"osm":"way/98486522"},"geometry":{"type":"LineString","coordinates":[[9.97675,47.05923],[9.9775,47.05908],[9.97757,47.05897]]}},{"type":"Feature","properties":{"kind":"piste","difficulty":"advanced","name":"54","aerialway":null,"osm":"way/98498004"},"geometry":{"type":"LineString","coordinates":[[9.99323,46.97925],[9.99271,46.97928],[9.99189,46.97905],[9.99124,46.97909],[9.98772,46.97972],[9.98752,46.97992],[9.9875,46.98018]]}},{"type":"Feature","properties":{"kind":"piste","difficulty":"intermediate","name":null,"aerialway":null,"osm":"way/98498005"},"geometry":{"type":"LineString","coordinates":[[9.96831,46.97738],[9.9682,46.97739],[9.96821,46.97751],[9.97026,46.97879]]}},{"type":"Feature","properties":{"kind":"piste","difficulty":"freeride","name":"R22","aerialway":null,"osm":"way/98498007"},"geometry":{"type":"LineString","coordinates":[[9.96622,46.98611],[9.97023,46.98726],[9.97381,46.98871],[9.97496,46.98961],[9.97612,46.9901],[9.97668,46.9905],[9.97696,46.99093],[9.9788,46.99251],[9.97911,46.99304]]}},{"type":"Feature","properties":{"kind":"piste","difficulty":"intermediate","name":null,"aerialway":null,"osm":"way/98498009"},"geometry":{"type":"LineString","coordinates":[[9.97781,46.98458],[9.97905,46.98532],[9.98017,46.98563],[9.98095,46.9848],[9.98112,46.98424],[9.98227,46.98365],[9.98264,46.9837],[9.98359,46.98444],[9.98359,46.98457],[9.98343,46.98452]]}},{"type":"Feature","properties":{"kind":"piste","difficulty":"intermediate","name":null,"aerialway":null,"osm":"way/98498013"},"geometry":{"type":"LineString","coordinates":[[9.96511,46.98069],[9.96442,46.98223],[9.96436,46.98276]]}},{"type":"Feature","properties":{"kind":"piste","difficulty":"easy","name":null,"aerialway":null,"osm":"way/98498022"},"geometry":{"type":"LineString","coordinates":[[9.9654,46.98589],[9.96501,46.98654],[9.96458,46.98694]]}},{"type":"Feature","properties":{"kind":"piste","difficulty":"easy","name":null,"aerialway":null,"osm":"way/98498024"},"geometry":{"type":"LineString","coordinates":[[9.98742,46.98202],[9.98709,46.98177],[9.9869,46.9814]]}},{"type":"Feature","properties":{"kind":"piste","difficulty":"intermediate","name":"53","aerialway":null,"osm":"way/98498027"},"geometry":{"type":"LineString","coordinates":[[9.98726,46.98417],[9.98718,46.98352],[9.98478,46.98356]]}},{"type":"Feature","properties":{"kind":"piste","difficulty":"intermediate","name":null,"aerialway":null,"osm":"way/98498029"},"geometry":{"type":"LineString","coordinates":[[9.9686,46.97867],[9.96875,46.9795],[9.96943,46.98004],[9.97322,46.98137],[9.97489,46.98243]]}},{"type":"Feature","properties":{"kind":"piste","difficulty":"intermediate","name":"36","aerialway":null,"osm":"way/98498031"},"geometry":{"type":"LineString","coordinates":[[9.96458,46.98445],[9.96319,46.98443],[9.96073,46.98466],[9.95733,46.98478]]}},{"type":"Feature","properties":{"kind":"piste","difficulty":"intermediate","name":"61","aerialway":null,"osm":"way/98498034"},"geometry":{"type":"LineString","coordinates":[[9.99312,46.98062],[9.99324,46.98051],[9.99509,46.98216],[9.99723,46.9837]]}},{"type":"Feature","properties":{"kind":"piste","difficulty":"intermediate","name":"53","aerialway":null,"osm":"way/98498036"},"geometry":{"type":"LineString","coordinates":[[9.99143,46.9822],[9.99039,46.98348],[9.99015,46.98359],[9.98842,46.98365],[9.98803,46.98472]]}},{"type":"Feature","properties":{"kind":"piste","difficulty":"easy","name":"Garfescha","aerialway":null,"osm":"way/127677865"},"geometry":{"type":"LineString","coordinates":[[9.98939,47.01412],[9.98937,47.01433]]}},{"type":"Feature","properties":{"kind":"piste","difficulty":"easy","name":"Garfescha","aerialway":null,"osm":"way/127677866"},"geometry":{"type":"LineString","coordinates":[[9.98937,47.01433],[9.98931,47.01441]]}},{"type":"Feature","properties":{"kind":"piste","difficulty":"easy","name":"20e","aerialway":null,"osm":"way/128960094"},"geometry":{"type":"LineString","coordinates":[[9.98522,47.01418],[9.98432,47.0148],[9.98377,47.01488],[9.98294,47.01528],[9.98218,47.01588],[9.97929,47.01604],[9.97788,47.01678],[9.97573,47.01755],[9.97447,47.01787],[9.97328,47.01796]]}},{"type":"Feature","properties":{"kind":"piste","difficulty":"intermediate","name":null,"aerialway":null,"osm":"way/137206164"},"geometry":{"type":"LineString","coordinates":[[9.98294,46.98485],[9.98351,46.9847],[9.98359,46.98457]]}},{"type":"Feature","properties":{"kind":"piste","difficulty":"intermediate","name":null,"aerialway":null,"osm":"way/137206166"},"geometry":{"type":"LineString","coordinates":[[9.98257,46.98564],[9.98366,46.98548]]}},{"type":"Feature","properties":{"kind":"piste","difficulty":"intermediate","name":"64","aerialway":null,"osm":"way/137206172"},"geometry":{"type":"LineString","coordinates":[[9.9933,46.98018],[9.9939,46.98062],[9.99578,46.98137],[9.99603,46.9817]]}},{"type":"Feature","properties":{"kind":"piste","difficulty":"easy","name":"60b - Talabfahrt Gaschurn","aerialway":null,"osm":"way/137206176"},"geometry":{"type":"LineString","coordinates":[[10.01288,46.98827],[10.01328,46.98773],[10.01355,46.98765],[10.01488,46.98831],[10.01508,46.98907]]}},{"type":"Feature","properties":{"kind":"piste","difficulty":"intermediate","name":"43","aerialway":null,"osm":"way/137206182"},"geometry":{"type":"LineString","coordinates":[[9.97895,46.98196],[9.979,46.98286],[9.97918,46.98324],[9.97977,46.9834]]}},{"type":"Feature","properties":{"kind":"piste","difficulty":"easy","name":"62","aerialway":null,"osm":"way/137206184"},"geometry":{"type":"LineString","coordinates":[[9.99655,46.98049],[9.9968,46.98102],[9.99781,46.98106]]}},{"type":"Feature","properties":{"kind":"piste","difficulty":"intermediate","name":null,"aerialway":null,"osm":"way/137206190"},"geometry":{"type":"LineString","coordinates":[[10.00649,46.985],[10.00696,46.98509],[10.00707,46.98496]]}},{"type":"Feature","properties":{"kind":"piste","difficulty":"intermediate","name":"R60c - Talabfahrt Gaschurn","aerialway":null,"osm":"way/137206198"},"geometry":{"type":"LineString","coordinates":[[10.00914,46.98527],[10.01035,46.98472],[10.01111,46.98453],[10.01144,46.98397],[10.01176,46.98392],[10.01125,46.98521],[10.01069,46.98584],[10.00993,46.9863],[10.01038,46.98721],[10.01038,46.98752],[10.01022,46.98774]]}},{"type":"Feature","properties":{"kind":"piste","difficulty":"easy","name":"24","aerialway":null,"osm":"way/137206201"},"geometry":{"type":"LineString","coordinates":[[9.98287,46.98801],[9.98288,46.98822],[9.98236,46.98856],[9.98222,46.98881],[9.98044,46.98886],[9.98048,46.98911],[9.98034,46.98927],[9.98028,46.98979],[9.97993,46.99031],[9.98008,46.99086],[9.98001,46.99104],[9.97931,46.99136],[9.97911,46.99304],[9.97732,46.99729],[9.97726,46.99857],[9.97712,46.99901]]}},{"type":"Feature","properties":{"kind":"piste","difficulty":"intermediate","name":null,"aerialway":null,"osm":"way/137206204"},"geometry":{"type":"LineString","coordinates":[[9.98229,46.98624],[9.98257,46.98564]]}},{"type":"Feature","properties":{"kind":"piste","difficulty":"intermediate","name":"43","aerialway":null,"osm":"way/137206207"},"geometry":{"type":"LineString","coordinates":[[9.97556,46.98013],[9.97565,46.98035],[9.97484,46.98144]]}},{"type":"Feature","properties":{"kind":"piste","difficulty":"intermediate","name":null,"aerialway":null,"osm":"way/137206208"},"geometry":{"type":"LineString","coordinates":[[10.00397,46.98431],[10.00457,46.98439],[10.0054,46.9842],[10.00553,46.98428]]}},{"type":"Feature","properties":{"kind":"piste","difficulty":"intermediate","name":null,"aerialway":null,"osm":"way/137206211"},"geometry":{"type":"LineString","coordinates":[[9.96633,46.97979],[9.96602,46.98021],[9.96641,46.981]]}},{"type":"Feature","properties":{"kind":"piste","difficulty":"easy","name":"62","aerialway":null,"osm":"way/137206219"},"geometry":{"type":"LineString","coordinates":[[9.99285,46.98177],[9.9945,46.98338],[9.99426,46.98392]]}},{"type":"Feature","properties":{"kind":"piste","difficulty":"freeride","name":"R46","aerialway":null,"osm":"way/137206220"},"geometry":{"type":"LineString","coordinates":[[9.97895,46.98196],[9.98274,46.98177],[9.98305,46.98156],[9.98359,46.98175]]}},{"type":"Feature","properties":{"kind":"piste","difficulty":"intermediate","name":null,"aerialway":null,"osm":"way/137206224"},"geometry":{"type":"LineString","coordinates":[[9.96719,46.97878],[9.96892,46.97968]]}},{"type":"Feature","properties":{"kind":"piste","difficulty":"easy","name":"51","aerialway":null,"osm":"way/137206227"},"geometry":{"type":"LineString","coordinates":[[9.99274,46.98063],[9.99185,46.981],[9.99143,46.9822],[9.99173,46.98307],[9.99149,46.98394],[9.99067,46.98472],[9.99072,46.98503],[9.99037,46.98552],[9.98926,46.98569],[9.98865,46.98558],[9.98844,46.98546],[9.98828,46.98499],[9.98803,46.98472],[9.98799,46.98522],[9.98784,46.98534],[9.98726,46.98417],[9.98632,46.98595],[9.98618,46.98593],[9.98606,46.98518],[9.98557,46.98405],[9.98538,46.98405],[9.98527,46.98448],[9.98513,46.98459],[9.98417,46.98476],[9.98394,46.98499]]}},{"type":"Feature","properties":{"kind":"piste","difficulty":"easy","name":"20f","aerialway":null,"osm":"way/137214915"},"geometry":{"type":"LineString","coordinates":[[9.98757,47.01311],[9.98818,47.01309],[9.98843,47.01314],[9.98884,47.01348],[9.98939,47.01345],[9.98997,47.01316],[9.99056,47.01243],[9.9903,47.01325],[9.98998,47.01371],[9.98939,47.01412]]}},{"type":"Feature","properties":{"kind":"piste","difficulty":"easy","name":"40","aerialway":null,"osm":"way/137214922"},"geometry":{"type":"LineString","coordinates":[[9.97539,46.98485],[9.97594,46.98521],[9.97701,46.98544],[9.97791,46.98604]]}},{"type":"Feature","properties":{"kind":"piste","difficulty":"freeride","name":"R21","aerialway":null,"osm":"way/137214929"},"geometry":{"type":"LineString","coordinates":[[9.97284,46.98499],[9.97315,46.98628],[9.97418,46.98763],[9.97394,46.98882]]}},{"type":"Feature","properties":{"kind":"piste","difficulty":"easy","name":"20a","aerialway":null,"osm":"way/137214933"},"geometry":{"type":"LineString","coordinates":[[9.96441,47.0007],[9.96545,47.00078]]}},{"type":"Feature","properties":{"kind":"piste","difficulty":"freeride","name":"R20","aerialway":null,"osm":"way/137214935"},"geometry":{"type":"LineString","coordinates":[[9.96545,47.00078],[9.9661,47.00169],[9.96619,47.00248],[9.9664,47.00299],[9.96819,47.0035],[9.9693,47.00447]]}},{"type":"Feature","properties":{"kind":"piste","difficulty":"advanced","name":"25","aerialway":null,"osm":"way/137214939"},"geometry":{"type":"LineString","coordinates":[[9.96762,46.99181],[9.97016,46.9934],[9.97151,46.99398],[9.97206,46.99403]]}},{"type":"Feature","properties":{"kind":"piste","difficulty":"easy","name":"20a","aerialway":null,"osm":"way/137214944"},"geometry":{"type":"LineString","coordinates":[[9.96639,46.98799],[9.96658,46.9898]]}},{"type":"Feature","properties":{"kind":"piste","difficulty":"intermediate","name":"41","aerialway":null,"osm":"way/137214948"},"geometry":{"type":"LineString","coordinates":[[9.97446,46.98223],[9.97324,46.98337],[9.97304,46.98372],[9.97284,46.98499]]}},{"type":"Feature","properties":{"kind":"piste","difficulty":"intermediate","name":null,"aerialway":null,"osm":"way/137214956"},"geometry":{"type":"LineString","coordinates":[[9.96578,46.98698],[9.96616,46.98738],[9.96639,46.98799]]}},{"type":"Feature","properties":{"kind":"piste","difficulty":"easy","name":"20b","aerialway":null,"osm":"way/137214960"},"geometry":{"type":"LineString","coordinates":[[9.97914,47.00166],[9.97862,47.00241],[9.97817,47.00279],[9.97782,47.00273],[9.9773,47.002],[9.97744,47.00107]]}},{"type":"Feature","properties":{"kind":"piste","difficulty":"easy","name":null,"aerialway":null,"osm":"way/137214962"},"geometry":{"type":"LineString","coordinates":[[9.96583,46.98842],[9.96676,46.98822]]}},{"type":"Feature","properties":{"kind":"piste","difficulty":"intermediate","name":"33","aerialway":null,"osm":"way/137214964"},"geometry":{"type":"LineString","coordinates":[[9.9655,46.97272],[9.96477,46.9727],[9.96223,46.97364],[9.96132,46.97388],[9.96065,46.97391],[9.96049,46.9741],[9.96077,46.97485],[9.96056,46.97524],[9.96005,46.97539],[9.959,46.97532],[9.95858,46.97559],[9.95879,46.97595],[9.96076,46.9776],[9.96147,46.97801],[9.96176,46.97835],[9.96187,46.97944],[9.96127,46.98008],[9.96071,46.98126],[9.95977,46.98209],[9.9593,46.98316],[9.9585,46.98394],[9.95733,46.98478],[9.95712,46.98531],[9.95687,46.98554]]}},{"type":"Feature","properties":{"kind":"piste","difficulty":"easy","name":null,"aerialway":null,"osm":"way/137214972"},"geometry":{"type":"LineString","coordinates":[[9.98899,47.01453],[9.98863,47.0145]]}},{"type":"Feature","properties":{"kind":"piste","difficulty":"freeride","name":"R24","aerialway":null,"osm":"way/137214973"},"geometry":{"type":"LineString","coordinates":[[9.97172,46.99425],[9.97169,46.99462],[9.97486,46.99594],[9.97725,46.99664],[9.97749,46.99701]]}},{"type":"Feature","properties":{"kind":"piste","difficulty":"advanced","name":"65","aerialway":null,"osm":"way/137216300"},"geometry":{"type":"LineString","coordinates":[[9.99616,46.98141],[9.99658,46.98138],[9.99796,46.98209],[9.99988,46.98324],[10.0003,46.98367]]}},{"type":"Feature","properties":{"kind":"piste","difficulty":"advanced","name":"Skiroute R60b Burg","aerialway":null,"osm":"way/137216301"},"geometry":{"type":"LineString","coordinates":[[10.00137,46.98207],[10.00177,46.98272]]}},{"type":"Feature","properties":{"kind":"piste","difficulty":"intermediate","name":"64","aerialway":null,"osm":"way/137216302"},"geometry":{"type":"LineString","coordinates":[[9.99521,46.97571],[9.99535,46.9758],[9.99521,46.97638],[9.99543,46.97674],[9.99377,46.97764],[9.9936,46.97865],[9.9932,46.97896]]}},{"type":"Feature","properties":{"kind":"piste","difficulty":"intermediate","name":"Skiroute R60b Burg","aerialway":null,"osm":"way/137216303"},"geometry":{"type":"LineString","coordinates":[[10.00137,46.98207],[10.00263,46.98184],[10.00291,46.98187],[10.00302,46.98207],[10.00333,46.98215],[10.00543,46.98215],[10.00657,46.98277],[10.00649,46.98332],[10.00729,46.98378],[10.00734,46.98396]]}},{"type":"Feature","properties":{"kind":"piste","difficulty":"intermediate","name":"Skiroute 66 Zigjam","aerialway":null,"osm":"way/137216304"},"geometry":{"type":"LineString","coordinates":[[9.99706,46.9757],[9.99764,46.97579],[10.00072,46.97498],[10.00296,46.97485],[10.00406,46.97563],[10.00452,46.97563],[10.00588,46.97517],[10.00616,46.97527],[10.00676,46.97604],[10.00691,46.97636],[10.00674,46.97685],[10.0071,46.97718],[10.00762,46.97732],[10.00827,46.97728],[10.00941,46.97681],[10.01002,46.97693],[10.01033,46.97725],[10.01023,46.97745],[10.00949,46.9783],[10.00794,46.98085],[10.0096,46.98027],[10.01176,46.97901],[10.01192,46.97907],[10.01178,46.97989],[10.0108,46.98142],[10.01002,46.9819],[10.00958,46.9826],[10.00911,46.98287],[10.00817,46.98309],[10.0076,46.98352],[10.00734,46.98396],[10.00723,46.98446]]}},{"type":"Feature","properties":{"kind":"piste","difficulty":"easy","name":"63","aerialway":null,"osm":"way/137216305"},"geometry":{"type":"LineString","coordinates":[[9.99686,46.97951],[9.99731,46.97961],[9.99777,46.98062],[9.99775,46.9808],[9.99747,46.98102],[9.99754,46.98112]]}},{"type":"Feature","properties":{"kind":"piste","difficulty":"easy","name":"63","aerialway":null,"osm":"way/137216306"},"geometry":{"type":"LineString","coordinates":[[9.99543,46.97674],[9.99619,46.97697],[9.99686,46.97683]]}},{"type":"Feature","properties":{"kind":"piste","difficulty":"easy","name":"19","aerialway":null,"osm":"way/137218996"},"geometry":{"type":"LineString","coordinates":[[9.99234,47.05019],[9.9943,47.05121],[9.99512,47.05194],[9.99561,47.05202],[9.99562,47.05221]]}},{"type":"Feature","properties":{"kind":"piste","difficulty":"freeride","name":"R11","aerialway":null,"osm":"way/137218998"},"geometry":{"type":"LineString","coordinates":[[9.97451,47.05932],[9.97356,47.05831],[9.97341,47.05759],[9.97349,47.05743],[9.97511,47.05641],[9.97635,47.05534]]}},{"type":"Feature","properties":{"kind":"piste","difficulty":"intermediate","name":"11","aerialway":null,"osm":"way/137219023"},"geometry":{"type":"LineString","coordinates":[[9.97757,47.05897],[9.97814,47.0587],[9.97877,47.05751],[9.97932,47.05684],[9.97975,47.05653],[9.98108,47.05616],[9.98203,47.05573],[9.9839,47.05452],[9.98707,47.05346]]}},{"type":"Feature","properties":{"kind":"piste","difficulty":"intermediate","name":"1a","aerialway":null,"osm":"way/137219024"},"geometry":{"type":"LineString","coordinates":[[9.97982,47.06367],[9.98105,47.06385],[9.98145,47.06445]]}},{"type":"Feature","properties":{"kind":"piste","difficulty":"easy","name":"10","aerialway":null,"osm":"way/137219030"},"geometry":{"type":"LineString","coordinates":[[9.97559,47.06019],[9.9757,47.05951],[9.976,47.05927]]}},{"type":"Feature","properties":{"kind":"piste","difficulty":"intermediate","name":"1a","aerialway":null,"osm":"way/137219032"},"geometry":{"type":"LineString","coordinates":[[9.97711,47.06172],[9.9772,47.06247],[9.9761,47.06312]]}},{"type":"Feature","properties":{"kind":"piste","difficulty":"advanced","name":"Skiroute R1","aerialway":null,"osm":"way/137219033"},"geometry":{"type":"LineString","coordinates":[[9.9764,47.06357],[9.97947,47.06349]]}},{"type":"Feature","properties":{"kind":"piste","difficulty":"intermediate","name":"2","aerialway":null,"osm":"way/137219035"},"geometry":{"type":"LineString","coordinates":[[9.97827,47.06023],[9.9779,47.06071],[9.97771,47.06076]]}},{"type":"Feature","properties":{"kind":"piste","difficulty":"freeride","name":"R13","aerialway":null,"osm":"way/137219039"},"geometry":{"type":"LineString","coordinates":[[9.9871,47.05552],[9.98767,47.05552],[9.98871,47.05525],[9.99121,47.05433],[9.99253,47.05452],[9.99373,47.05411],[9.99394,47.05399],[9.9943,47.05316],[9.99439,47.05256],[9.99509,47.05221]]}},{"type":"Feature","properties":{"kind":"piste","difficulty":"intermediate","name":"1a","aerialway":null,"osm":"way/137219044"},"geometry":{"type":"LineString","coordinates":[[9.9761,47.06312],[9.97676,47.06276],[9.97776,47.0627],[9.97823,47.0628]]}},{"type":"Feature","properties":{"kind":"piste","difficulty":"freeride","name":"R19","aerialway":null,"osm":"way/137219051"},"geometry":{"type":"LineString","coordinates":[[10.00593,47.04879],[10.00596,47.04994],[10.00578,47.0502],[10.00528,47.05021],[10.00483,47.05006],[10.00407,47.05022],[10.00331,47.05066],[10.0022,47.0509],[10.00116,47.05101],[9.99972,47.05083],[9.9993,47.05093],[9.99867,47.05135],[9.99774,47.0515],[9.99574,47.05151],[9.99555,47.05164],[9.99561,47.05202]]}},{"type":"Feature","properties":{"kind":"piste","difficulty":"intermediate","name":"60b Talabfahrt Gaschurn","aerialway":null,"osm":"way/150102467"},"geometry":{"type":"LineString","coordinates":[[9.99731,46.98479],[9.99759,46.98551],[9.99782,46.98556],[9.99821,46.98541],[9.99857,46.9852],[9.9987,46.98387],[9.9989,46.9836],[9.9994,46.98354],[10.00068,46.98371],[10.00088,46.98361],[10.00125,46.98298],[10.00177,46.98272],[10.00253,46.9832],[10.00312,46.9838],[10.00429,46.98453],[10.00464,46.98484],[10.00499,46.98544],[10.00583,46.98528],[10.00649,46.985],[10.00673,46.98462],[10.00723,46.98446],[10.00737,46.98493],[10.00707,46.98496]]}},{"type":"Feature","properties":{"kind":"piste","difficulty":"easy","name":"63","aerialway":null,"osm":"way/150102468"},"geometry":{"type":"LineString","coordinates":[[9.99486,46.97592],[9.99521,46.97571],[9.99619,46.97554],[9.99706,46.9757],[9.99674,46.97664],[9.99686,46.97683],[9.99814,46.97654],[9.99858,46.9766],[9.99902,46.97684],[9.99918,46.9772],[9.99913,46.97762],[9.99886,46.97783],[9.99774,46.97796],[9.99728,46.97824],[9.9971,46.97845],[9.99705,46.97907],[9.99686,46.97951]]}},{"type":"Feature","properties":{"kind":"piste","difficulty":"easy","name":null,"aerialway":null,"osm":"way/152394122"},"geometry":{"type":"LineString","coordinates":[[9.97946,47.00448],[9.97838,47.005]]}},{"type":"Feature","properties":{"kind":"piste","difficulty":"easy","name":"Garfescha","aerialway":null,"osm":"way/153334474"},"geometry":{"type":"LineString","coordinates":[[9.985,47.01218],[9.98567,47.01224],[9.98668,47.01173],[9.98722,47.01163],[9.98749,47.01132],[9.98757,47.01143],[9.98744,47.01183],[9.9871,47.01205],[9.98667,47.01265]]}},{"type":"Feature","properties":{"kind":"piste","difficulty":"easy","name":"Garfescha","aerialway":null,"osm":"way/153334475"},"geometry":{"type":"LineString","coordinates":[[9.97845,47.00533],[9.9782,47.00569],[9.97783,47.00582]]}},{"type":"Feature","properties":{"kind":"piste","difficulty":"easy","name":"Garfescha","aerialway":null,"osm":"way/174731977"},"geometry":{"type":"LineString","coordinates":[[9.98931,47.01441],[9.98899,47.01453]]}},{"type":"Feature","properties":{"kind":"piste","difficulty":"novice","name":"Skischulgelände","aerialway":null,"osm":"way/206376632"},"geometry":{"type":"LineString","coordinates":[[9.96188,47.004],[9.96212,47.00415],[9.96253,47.00538],[9.96237,47.00539]]}},{"type":"Feature","properties":{"kind":"piste","difficulty":"easy","name":"Garfescha","aerialway":null,"osm":"way/218441753"},"geometry":{"type":"LineString","coordinates":[[9.97783,47.00582],[9.9764,47.00636]]}},{"type":"Feature","properties":{"kind":"piste","difficulty":"easy","name":null,"aerialway":null,"osm":"way/218441754"},"geometry":{"type":"LineString","coordinates":[[9.97568,46.97822],[9.9762,46.97964],[9.97601,46.97983],[9.97575,46.97987]]}},{"type":"Feature","properties":{"kind":"piste","difficulty":"easy","name":null,"aerialway":null,"osm":"way/218867901"},"geometry":{"type":"LineString","coordinates":[[9.98603,47.01364],[9.98522,47.01418]]}},{"type":"Feature","properties":{"kind":"piste","difficulty":"easy","name":null,"aerialway":null,"osm":"way/306594718"},"geometry":{"type":"LineString","coordinates":[[9.97605,47.06057],[9.97638,47.06045]]}},{"type":"Feature","properties":{"kind":"piste","difficulty":"easy","name":"10","aerialway":null,"osm":"way/307737536"},"geometry":{"type":"LineString","coordinates":[[9.97638,47.06045],[9.97517,47.06001],[9.9745,47.05936],[9.97466,47.05925],[9.97675,47.05923],[9.97704,47.05901],[9.97643,47.05822],[9.97633,47.05789],[9.97657,47.0572],[9.97658,47.05662],[9.97657,47.05608],[9.97631,47.05505],[9.97683,47.05439],[9.97793,47.05402],[9.97885,47.05389],[9.9795,47.05396],[9.97974,47.05374],[9.98199,47.05296],[9.98287,47.05284],[9.98343,47.0526],[9.98484,47.05146],[9.98621,47.05102],[9.98735,47.0509],[9.98798,47.05126],[9.98841,47.05132],[9.99018,47.05103],[9.9919,47.05107],[9.99265,47.05028]]}},{"type":"Feature","properties":{"kind":"piste","difficulty":"easy","name":"Garfescha","aerialway":null,"osm":"way/365593183"},"geometry":{"type":"LineString","coordinates":[[9.98603,47.01364],[9.98717,47.0134],[9.98757,47.01311]]}},{"type":"Feature","properties":{"kind":"piste","difficulty":"intermediate","name":null,"aerialway":null,"osm":"way/437201452"},"geometry":{"type":"LineString","coordinates":[[9.97638,47.06045],[9.97708,47.06048],[9.97771,47.06076]]}},{"type":"Feature","properties":{"kind":"piste","difficulty":"easy","name":"10","aerialway":null,"osm":"way/437201453"},"geometry":{"type":"LineString","coordinates":[[9.97691,47.06033],[9.97638,47.06045]]}},{"type":"Feature","properties":{"kind":"piste","difficulty":"easy","name":"Garfescha","aerialway":null,"osm":"way/441253449"},"geometry":{"type":"LineString","coordinates":[[9.98028,47.00699],[9.98058,47.00707],[9.98257,47.00698],[9.98497,47.00625],[9.98516,47.00603],[9.98617,47.0058],[9.98679,47.0054],[9.98859,47.00481],[9.98865,47.00488],[9.98834,47.00525],[9.98784,47.00551],[9.9875,47.00613],[9.98691,47.00652],[9.98757,47.0064],[9.98755,47.00651],[9.9862,47.0075]]}},{"type":"Feature","properties":{"kind":"piste","difficulty":"easy","name":"Garfescha","aerialway":null,"osm":"way/441253450"},"geometry":{"type":"LineString","coordinates":[[9.9862,47.0075],[9.98378,47.00932],[9.9831,47.00971],[9.98198,47.01009],[9.98153,47.01053]]}},{"type":"Feature","properties":{"kind":"piste","difficulty":"freeride","name":"R24","aerialway":null,"osm":"way/443608263"},"geometry":{"type":"LineString","coordinates":[[9.969,46.99597],[9.9705,46.9964],[9.97085,46.99669],[9.97098,46.99697],[9.9715,46.99725],[9.97216,46.99714],[9.97394,46.99714],[9.9754,46.99726],[9.97704,46.99778],[9.97727,46.99799]]}},{"type":"Feature","properties":{"kind":"piste","difficulty":"freeride","name":"R23","aerialway":null,"osm":"way/443736760"},"geometry":{"type":"LineString","coordinates":[[9.97067,46.99129],[9.97505,46.99195],[9.97718,46.99276],[9.97891,46.9936]]}},{"type":"Feature","properties":{"kind":"piste","difficulty":"freeride","name":"R45 Rinderhütte","aerialway":null,"osm":"way/443743410"},"geometry":{"type":"LineString","coordinates":[[9.97644,46.97974],[9.97681,46.98006],[9.97778,46.98006],[9.9785,46.9806],[9.98053,46.98136],[9.98352,46.98121]]}},{"type":"Feature","properties":{"kind":"piste","difficulty":"easy","name":null,"aerialway":null,"osm":"way/578793629"},"geometry":{"type":"LineString","coordinates":[[9.96652,47.00032],[9.96545,47.00078],[9.96441,47.00177]]}},{"type":"Feature","properties":{"kind":"piste","difficulty":"intermediate","name":"27","aerialway":null,"osm":"way/578793631"},"geometry":{"type":"LineString","coordinates":[[9.96463,46.99192],[9.96429,46.99257],[9.96433,46.99347],[9.96395,46.9939]]}},{"type":"Feature","properties":{"kind":"piste","difficulty":"easy","name":null,"aerialway":null,"osm":"way/664481291"},"geometry":{"type":"LineString","coordinates":[[9.96464,46.98725],[9.96413,46.98756],[9.96442,46.98765],[9.96458,46.98795],[9.9645,46.98815],[9.96491,46.98807]]}},{"type":"Feature","properties":{"kind":"piste","difficulty":"easy","name":"20c","aerialway":null,"osm":"way/737879786"},"geometry":{"type":"LineString","coordinates":[[9.97782,47.00273],[9.97764,47.00301],[9.97751,47.00388],[9.97727,47.00449],[9.97736,47.00506],[9.97699,47.0058],[9.9764,47.00636]]}},{"type":"Feature","properties":{"kind":"piste","difficulty":"easy","name":null,"aerialway":null,"osm":"way/737879788"},"geometry":{"type":"LineString","coordinates":[[9.98011,47.00383],[9.9783,47.00399],[9.9777,47.00354],[9.97755,47.00358]]}},{"type":"Feature","properties":{"kind":"piste","difficulty":"easy","name":"20c","aerialway":null,"osm":"way/737879789"},"geometry":{"type":"LineString","coordinates":[[9.97891,47.00157],[9.97828,47.00203],[9.97782,47.00273]]}},{"type":"Feature","properties":{"kind":"piste","difficulty":"easy","name":null,"aerialway":null,"osm":"way/737879790"},"geometry":{"type":"LineString","coordinates":[[9.97736,47.00506],[9.97783,47.00582]]}},{"type":"Feature","properties":{"kind":"piste","difficulty":"intermediate","name":"60c Talabfahrt Gaschurn","aerialway":null,"osm":"way/817868956"},"geometry":{"type":"LineString","coordinates":[[10.00499,46.98544],[10.00451,46.98567],[10.00432,46.98603],[10.00456,46.98654],[10.00658,46.98727],[10.00845,46.98621],[10.00878,46.98637]]}},{"type":"Feature","properties":{"kind":"piste","difficulty":"advanced","name":"60b - Talabfahrt Gaschurn","aerialway":null,"osm":"way/817868957"},"geometry":{"type":"LineString","coordinates":[[10.01803,46.98899],[10.01768,46.98966],[10.01773,46.98982],[10.01889,46.98976],[10.01994,46.9899],[10.02035,46.98968],[10.02056,46.98921]]}},{"type":"Feature","properties":{"kind":"piste","difficulty":"easy","name":"60b - Talabfahrt Gaschurn","aerialway":null,"osm":"way/817868958"},"geometry":{"type":"LineString","coordinates":[[10.02056,46.98921],[10.02106,46.98855],[10.02226,46.98784],[10.02248,46.98749],[10.0229,46.9872],[10.02318,46.98584],[10.0237,46.98579],[10.02486,46.98466],[10.02488,46.98431],[10.02443,46.98407]]}},{"type":"Feature","properties":{"kind":"piste","difficulty":"easy","name":"60b Talabfahrt Gaschurn","aerialway":null,"osm":"way/817868959"},"geometry":{"type":"LineString","coordinates":[[10.01803,46.98899],[10.01999,46.98808],[10.02013,46.98831],[10.02012,46.98929],[10.02056,46.98921]]}},{"type":"Feature","properties":{"kind":"piste","difficulty":"advanced","name":"60b - Talabfahrt Gaschurn","aerialway":null,"osm":"way/817868960"},"geometry":{"type":"LineString","coordinates":[[10.01003,46.98808],[10.01201,46.98863],[10.0123,46.9888],[10.01242,46.98907]]}},{"type":"Feature","properties":{"kind":"piste","difficulty":"easy","name":"60b - Talabfahrt Gaschurn","aerialway":null,"osm":"way/817868961"},"geometry":{"type":"LineString","coordinates":[[10.01242,46.98907],[10.01264,46.98878],[10.01272,46.98841],[10.01323,46.98805],[10.0149,46.98885],[10.01526,46.98943],[10.01728,46.98916],[10.01776,46.98891],[10.01803,46.98899]]}},{"type":"Feature","properties":{"kind":"piste","difficulty":"easy","name":"60b Talabfahrt Gaschurn","aerialway":null,"osm":"way/817868962"},"geometry":{"type":"LineString","coordinates":[[10.01006,46.98811],[10.01075,46.98944],[10.01064,46.99008],[10.011,46.99011],[10.01146,46.98964],[10.01242,46.98907]]}},{"type":"Feature","properties":{"kind":"piste","difficulty":"easy","name":null,"aerialway":null,"osm":"way/817869112"},"geometry":{"type":"LineString","coordinates":[[10.02245,46.98435],[10.02318,46.98473],[10.02454,46.98468],[10.02491,46.98451]]}},{"type":"Feature","properties":{"kind":"piste","difficulty":"easy","name":null,"aerialway":null,"osm":"way/992027784"},"geometry":{"type":"LineString","coordinates":[[9.96858,47.01883],[9.96844,47.01931],[9.96816,47.01962],[9.96757,47.01988],[9.96617,47.02006],[9.96547,47.02065],[9.96504,47.02113],[9.96502,47.02134]]}},{"type":"Feature","properties":{"kind":"piste","difficulty":"easy","name":null,"aerialway":null,"osm":"way/992027785"},"geometry":{"type":"LineString","coordinates":[[9.96862,47.01876],[9.96858,47.01883]]}},{"type":"Feature","properties":{"kind":"piste","difficulty":"easy","name":null,"aerialway":null,"osm":"way/1123745489"},"geometry":{"type":"LineString","coordinates":[[9.9972,46.98469],[9.9969,46.98455]]}},{"type":"Feature","properties":{"kind":"piste","difficulty":"easy","name":null,"aerialway":null,"osm":"way/1123745490"},"geometry":{"type":"LineString","coordinates":[[9.98386,46.98538],[9.98347,46.98568],[9.98333,46.98613],[9.98343,46.98636],[9.9834,46.98698],[9.98298,46.98741],[9.98287,46.98801]]}},{"type":"Feature","properties":{"kind":"piste","difficulty":"easy","name":null,"aerialway":null,"osm":"way/1123745491"},"geometry":{"type":"LineString","coordinates":[[9.98155,46.98665],[9.98181,46.98667],[9.98176,46.98683],[9.98232,46.98787],[9.98287,46.98801]]}},{"type":"Feature","properties":{"kind":"piste","difficulty":"easy","name":"Garfescha","aerialway":null,"osm":"way/1182834853"},"geometry":{"type":"LineString","coordinates":[[9.98667,47.01265],[9.98646,47.01324],[9.98597,47.0135],[9.98603,47.01364]]}},{"type":"Feature","properties":{"kind":"piste","difficulty":"easy","name":null,"aerialway":null,"osm":"way/1209524143"},"geometry":{"type":"LineString","coordinates":[[9.98109,47.00166],[9.98125,47.00183],[9.98115,47.00194]]}},{"type":"Feature","properties":{"kind":"piste","difficulty":"easy","name":null,"aerialway":null,"osm":"way/1209524145"},"geometry":{"type":"LineString","coordinates":[[9.97816,47.00602],[9.9781,47.00575]]}},{"type":"Feature","properties":{"kind":"piste","difficulty":"easy","name":null,"aerialway":null,"osm":"way/1209821847"},"geometry":{"type":"LineString","coordinates":[[9.98269,47.06007],[9.98243,47.06]]}},{"type":"Feature","properties":{"kind":"piste","difficulty":"easy","name":null,"aerialway":null,"osm":"way/1274623909"},"geometry":{"type":"LineString","coordinates":[[9.97553,47.00071],[9.97586,47.00034],[9.97618,47.00029],[9.97666,46.99916],[9.97706,46.99876],[9.97722,46.99834],[9.97721,46.99759],[9.97743,46.9976],[9.97734,46.99829],[9.97752,46.99856],[9.97739,46.99902],[9.97624,47.00085],[9.97615,47.00084],[9.97621,47.00056],[9.9761,47.00049],[9.97578,47.00048],[9.97553,47.00071]]}},{"type":"Feature","properties":{"kind":"piste","difficulty":"easy","name":null,"aerialway":null,"osm":"way/1274623912"},"geometry":{"type":"LineString","coordinates":[[9.97496,47.00124],[9.97564,47.00094],[9.97594,47.00101],[9.97607,47.00142],[9.97624,47.00085],[9.97553,47.00071],[9.97186,47.0029],[9.97204,47.00298],[9.97329,47.0025],[9.97351,47.00221],[9.97496,47.00124]]}},{"type":"Feature","properties":{"kind":"piste","difficulty":"easy","name":null,"aerialway":null,"osm":"way/1328907148"},"geometry":{"type":"LineString","coordinates":[[9.97127,47.01817],[9.96929,47.01841],[9.96862,47.01876]]}},{"type":"Feature","properties":{"kind":"piste","difficulty":"easy","name":"Garfescha","aerialway":null,"osm":"way/1329188159"},"geometry":{"type":"LineString","coordinates":[[9.98336,47.01089],[9.98398,47.01094],[9.98451,47.01075]]}},{"type":"Feature","properties":{"kind":"piste","difficulty":"easy","name":"Garfescha","aerialway":null,"osm":"way/1329188160"},"geometry":{"type":"LineString","coordinates":[[9.98049,47.01169],[9.98202,47.01126],[9.98252,47.01083],[9.98336,47.01089]]}},{"type":"Feature","properties":{"kind":"piste","difficulty":"easy","name":"Garfescha","aerialway":null,"osm":"way/1329188161"},"geometry":{"type":"LineString","coordinates":[[9.98153,47.01053],[9.98145,47.0106]]}},{"type":"Feature","properties":{"kind":"piste","difficulty":"easy","name":"Garfescha","aerialway":null,"osm":"way/1329188164"},"geometry":{"type":"LineString","coordinates":[[9.97992,47.00696],[9.98028,47.00699]]}},{"type":"Feature","properties":{"kind":"piste","difficulty":"easy","name":"Garfescha","aerialway":null,"osm":"way/1329188165"},"geometry":{"type":"LineString","coordinates":[[9.97933,47.00716],[9.97992,47.00696]]}},{"type":"Feature","properties":{"kind":"piste","difficulty":"easy","name":null,"aerialway":null,"osm":"way/1329188166"},"geometry":{"type":"LineString","coordinates":[[9.97242,47.01805],[9.97127,47.01817]]}},{"type":"Feature","properties":{"kind":"piste","difficulty":"easy","name":null,"aerialway":null,"osm":"way/1329188167"},"geometry":{"type":"LineString","coordinates":[[9.97328,47.01796],[9.97242,47.01805]]}},{"type":"Feature","properties":{"kind":"piste","difficulty":"easy","name":"Garfescha","aerialway":null,"osm":"way/1329188168"},"geometry":{"type":"LineString","coordinates":[[9.98339,47.01167],[9.98286,47.0122],[9.9822,47.01315],[9.98188,47.01333]]}},{"type":"Feature","properties":{"kind":"piste","difficulty":"easy","name":"Garfescha","aerialway":null,"osm":"way/1329188169"},"geometry":{"type":"LineString","coordinates":[[9.98188,47.01333],[9.98221,47.01331]]}},{"type":"Feature","properties":{"kind":"piste","difficulty":"easy","name":"Garfescha","aerialway":null,"osm":"way/1329188170"},"geometry":{"type":"LineString","coordinates":[[9.98145,47.0106],[9.98104,47.01113],[9.98041,47.01152],[9.98035,47.01162],[9.98049,47.01169]]}},{"type":"Feature","properties":{"kind":"piste","difficulty":"easy","name":"Garfescha","aerialway":null,"osm":"way/1329188171"},"geometry":{"type":"LineString","coordinates":[[9.98221,47.01331],[9.98345,47.01295],[9.985,47.01218]]}},{"type":"Feature","properties":{"kind":"piste","difficulty":"easy","name":"Garfescha","aerialway":null,"osm":"way/1329188172"},"geometry":{"type":"LineString","coordinates":[[9.98451,47.01075],[9.98339,47.01167]]}},{"type":"Feature","properties":{"kind":"piste","difficulty":"easy","name":"Garfescha","aerialway":null,"osm":"way/1329205562"},"geometry":{"type":"LineString","coordinates":[[9.9764,47.00636],[9.97614,47.00734],[9.97541,47.00832]]}},{"type":"Feature","properties":{"kind":"piste","difficulty":"easy","name":"Garfescha","aerialway":null,"osm":"way/1329205563"},"geometry":{"type":"LineString","coordinates":[[9.97838,47.005],[9.97845,47.00533]]}},{"type":"Feature","properties":{"kind":"piste","difficulty":"advanced","name":"60b","aerialway":null,"osm":"way/1361435866"},"geometry":{"type":"LineString","coordinates":[[10.00068,46.98371],[10.00361,46.9841]]}},{"type":"Feature","properties":{"kind":"piste","difficulty":"advanced","name":"Skiroute R60a Burg","aerialway":null,"osm":"way/1361435867"},"geometry":{"type":"LineString","coordinates":[[9.99861,46.97894],[9.99955,46.97941],[10.00029,46.98033],[10.00137,46.98207]]}},{"type":"Feature","properties":{"kind":"piste","difficulty":"intermediate","name":"1a","aerialway":null,"osm":"way/1361439009"},"geometry":{"type":"LineString","coordinates":[[9.97667,47.06119],[9.97594,47.06223],[9.97617,47.06276],[9.9761,47.06312]]}},{"type":"Feature","properties":{"kind":"piste","difficulty":"advanced","name":"46","aerialway":null,"osm":"way/1443347055"},"geometry":{"type":"LineString","coordinates":[[9.97653,46.9823],[9.97768,46.98282],[9.97918,46.98324]]}},{"type":"Feature","properties":{"kind":"piste","difficulty":"intermediate","name":"Talabfahrt Gaschurn","aerialway":null,"osm":"way/1455784854"},"geometry":{"type":"LineString","coordinates":[[9.99323,46.97925],[9.99384,46.97992],[9.99388,46.98024],[9.99456,46.98009],[9.99558,46.9796],[9.99686,46.97951],[9.99603,46.9817],[9.99731,46.9837]]}},{"type":"Feature","properties":{"kind":"piste","difficulty":"intermediate","name":"60b Talabfahrt Gaschurn","aerialway":null,"osm":"way/1455784855"},"geometry":{"type":"LineString","coordinates":[[9.99731,46.9837],[9.99731,46.98479]]}},{"type":"Feature","properties":{"kind":"piste","difficulty":"intermediate","name":null,"aerialway":null,"osm":"way/1455784856"},"geometry":{"type":"LineString","coordinates":[[9.99723,46.9837],[9.99731,46.98415],[9.9972,46.98469]]}},{"type":"Feature","properties":{"kind":"piste","difficulty":"intermediate","name":null,"aerialway":null,"osm":"way/1455784857"},"geometry":{"type":"LineString","coordinates":[[9.99713,46.9836],[9.99731,46.9837]]}},{"type":"Feature","properties":{"kind":"piste","difficulty":"easy","name":null,"aerialway":null,"osm":"way/1455784858"},"geometry":{"type":"LineString","coordinates":[[9.98388,46.98416],[9.98382,46.98388]]}},{"type":"Feature","properties":{"kind":"piste","difficulty":"easy","name":null,"aerialway":null,"osm":"way/1455784859"},"geometry":{"type":"LineString","coordinates":[[9.98388,46.98416],[9.98399,46.98445],[9.98386,46.98538]]}},{"type":"Feature","properties":{"kind":"piste","difficulty":"easy","name":null,"aerialway":null,"osm":"way/1455784860"},"geometry":{"type":"LineString","coordinates":[[9.98467,46.98469],[9.98399,46.98445]]}},{"type":"Feature","properties":{"kind":"piste","difficulty":"easy","name":"40","aerialway":null,"osm":"way/1455784861"},"geometry":{"type":"LineString","coordinates":[[9.96683,46.97904],[9.96671,46.979],[9.96649,46.97931],[9.96517,46.98037],[9.96511,46.98069],[9.96644,46.9816],[9.96658,46.98193],[9.96659,46.98233],[9.96633,46.98297],[9.96553,46.98412],[9.96559,46.98526],[9.9654,46.98589],[9.96562,46.98643],[9.9654,46.98695],[9.96542,46.98704],[9.96578,46.98698],[9.96628,46.98596],[9.96659,46.98562],[9.96737,46.98531],[9.96798,46.98525]]}},{"type":"Feature","properties":{"kind":"piste","difficulty":"easy","name":"40","aerialway":null,"osm":"way/1455784862"},"geometry":{"type":"LineString","coordinates":[[9.96798,46.98525],[9.96937,46.98546],[9.97036,46.98547],[9.97146,46.98533],[9.97206,46.98507]]}},{"type":"Feature","properties":{"kind":"piste","difficulty":"intermediate","name":"41","aerialway":null,"osm":"way/1455784863"},"geometry":{"type":"LineString","coordinates":[[9.97206,46.98484],[9.97297,46.98443],[9.97349,46.98438],[9.97458,46.9845],[9.97539,46.98485],[9.97729,46.98449],[9.97781,46.98458]]}},{"type":"Feature","properties":{"kind":"piste","difficulty":"intermediate","name":"41","aerialway":null,"osm":"way/1455784864"},"geometry":{"type":"LineString","coordinates":[[9.96633,46.98297],[9.96624,46.98384],[9.96636,46.98413],[9.96798,46.98501]]}},{"type":"Feature","properties":{"kind":"piste","difficulty":"easy","name":"40","aerialway":null,"osm":"way/1455784865"},"geometry":{"type":"LineString","coordinates":[[9.96798,46.98501],[9.96937,46.98523],[9.97036,46.98523],[9.97146,46.9851],[9.97206,46.98484]]}},{"type":"Feature","properties":{"kind":"piste","difficulty":"intermediate","name":"Talabfahrt Gaschurn","aerialway":null,"osm":"way/1456258718"},"geometry":{"type":"LineString","coordinates":[[9.99611,46.97954],[9.99655,46.97966],[9.99665,46.98008]]}},{"type":"Feature","properties":{"kind":"piste","difficulty":"easy","name":null,"aerialway":null,"osm":"way/1456258719"},"geometry":{"type":"LineString","coordinates":[[9.99314,46.98034],[9.99324,46.98051]]}},{"type":"Feature","properties":{"kind":"piste","difficulty":"easy","name":null,"aerialway":null,"osm":"way/1456258720"},"geometry":{"type":"LineString","coordinates":[[9.98417,46.98336],[9.98373,46.98372],[9.98365,46.9839],[9.98393,46.98378]]}},{"type":"Feature","properties":{"kind":"piste","difficulty":"easy","name":null,"aerialway":null,"osm":"way/1456258721"},"geometry":{"type":"LineString","coordinates":[[9.97553,46.98495],[9.97566,46.98571],[9.97588,46.98589]]}},{"type":"Feature","properties":{"kind":"piste","difficulty":"intermediate","name":null,"aerialway":null,"osm":"way/1551209623"},"geometry":{"type":"LineString","coordinates":[[9.96751,46.98116],[9.96888,46.98076]]}},{"type":"Feature","properties":{"kind":"piste","difficulty":"intermediate","name":null,"aerialway":null,"osm":"way/1551209624"},"geometry":{"type":"LineString","coordinates":[[9.96725,46.97881],[9.96719,46.97932],[9.96749,46.98039],[9.96731,46.98121]]}},{"type":"Feature","properties":{"kind":"piste","difficulty":"advanced","name":"55","aerialway":null,"osm":"way/1551209625"},"geometry":{"type":"LineString","coordinates":[[9.98742,46.98202],[9.98536,46.98331],[9.98448,46.9837]]}},{"type":"Feature","properties":{"kind":"piste","difficulty":"advanced","name":"Skiroute R60a Burg","aerialway":null,"osm":"way/1551209626"},"geometry":{"type":"LineString","coordinates":[[9.99709,46.97951],[9.99861,46.97894]]}},{"type":"Feature","properties":{"kind":"piste","difficulty":"intermediate","name":null,"aerialway":null,"osm":"way/1551209627"},"geometry":{"type":"LineString","coordinates":[[10.00553,46.98428],[10.00494,46.98534]]}},{"type":"Feature","properties":{"kind":"piste","difficulty":"intermediate","name":"Funcross","aerialway":null,"osm":"way/1552413678"},"geometry":{"type":"LineString","coordinates":[[9.96654,46.98165],[9.96674,46.9817],[9.96698,46.98131],[9.96751,46.98116],[9.96724,46.98156],[9.96745,46.9823],[9.9674,46.98252],[9.9676,46.98279],[9.96747,46.98324],[9.96796,46.98351],[9.96811,46.9838],[9.96846,46.98403],[9.9688,46.98477],[9.96989,46.98495],[9.9706,46.98487],[9.97126,46.98451],[9.97174,46.98446],[9.97229,46.98369],[9.97251,46.98357],[9.97268,46.98362],[9.97295,46.9841]]}},{"type":"Feature","properties":{"kind":"lift","difficulty":null,"name":"Madrisella","aerialway":"chair_lift","osm":"way/23402097"},"geometry":{"type":"LineString","coordinates":[[9.98364,46.98531],[9.96683,46.97904]]}},{"type":"Feature","properties":{"kind":"lift","difficulty":null,"name":"Schwarzköpfle","aerialway":"chair_lift","osm":"way/23402098"},"geometry":{"type":"LineString","coordinates":[[9.98343,46.98452],[9.96831,46.97738]]}},{"type":"Feature","properties":{"kind":"lift","difficulty":null,"name":"Nova","aerialway":"chair_lift","osm":"way/23402099"},"geometry":{"type":"LineString","coordinates":[[9.98393,46.98378],[9.99286,46.97893]]}},{"type":"Feature","properties":{"kind":"lift","difficulty":null,"name":"Jöchle Bahn","aerialway":"chair_lift","osm":"way/30249201"},"geometry":{"type":"LineString","coordinates":[[9.9725,46.9937],[9.96508,46.98756]]}},{"type":"Feature","properties":{"kind":"lift","difficulty":null,"name":"Rinderhütte","aerialway":"chair_lift","osm":"way/30249202"},"geometry":{"type":"LineString","coordinates":[[9.97592,46.9797],[9.96657,46.97308]]}},{"type":"Feature","properties":{"kind":"lift","difficulty":null,"name":"Burg","aerialway":"t-bar","osm":"way/31100988"},"geometry":{"type":"LineString","coordinates":[[9.99781,46.98106],[9.99465,46.97557]]}},{"type":"Feature","properties":{"kind":"lift","difficulty":null,"name":"Spatla","aerialway":"chair_lift","osm":"way/31100990"},"geometry":{"type":"LineString","coordinates":[[9.9969,46.98455],[9.9931,46.98063]]}},{"type":"Feature","properties":{"kind":"lift","difficulty":null,"name":"Heimspitz","aerialway":"chair_lift","osm":"way/31101151"},"geometry":{"type":"LineString","coordinates":[[9.95902,46.98268],[9.96739,46.97799]]}},{"type":"Feature","properties":{"kind":"lift","difficulty":null,"name":"Versettla I","aerialway":"gondola","osm":"way/39959060"},"geometry":{"type":"LineString","coordinates":[[10.02443,46.98407],[10.00707,46.98496]]}},{"type":"Feature","properties":{"kind":"lift","difficulty":null,"name":"Garfrescha I","aerialway":"chair_lift","osm":"way/45753306"},"geometry":{"type":"LineString","coordinates":[[9.98863,47.0145],[9.97796,47.00587]]}},{"type":"Feature","properties":{"kind":"lift","difficulty":null,"name":"Grandau","aerialway":"chair_lift","osm":"way/45754983"},"geometry":{"type":"LineString","coordinates":[[9.98031,47.00724],[9.98141,47.00207]]}},{"type":"Feature","properties":{"kind":"lift","difficulty":null,"name":"Vermiel","aerialway":"chair_lift","osm":"way/45754984"},"geometry":{"type":"LineString","coordinates":[[9.97583,47.00075],[9.98109,47.00166]]}},{"type":"Feature","properties":{"kind":"lift","difficulty":null,"name":"Sonnen Bahn","aerialway":"chair_lift","osm":"way/47309144"},"geometry":{"type":"LineString","coordinates":[[9.95682,46.9857],[9.96426,46.98462]]}},{"type":"Feature","properties":{"kind":"lift","difficulty":null,"name":"Silvretta Bahn","aerialway":"chair_lift","osm":"way/48045067"},"geometry":{"type":"LineString","coordinates":[[9.97592,47.00141],[9.96471,46.98502]]}},{"type":"Feature","properties":{"kind":"lift","difficulty":null,"name":"Platina Skilift","aerialway":"t-bar","osm":"way/49511029"},"geometry":{"type":"LineString","coordinates":[[9.99509,47.05221],[9.9929,47.05187],[9.98941,47.05287],[9.98677,47.05589]]}},{"type":"Feature","properties":{"kind":"lift","difficulty":null,"name":"Freda Bahn","aerialway":"chair_lift","osm":"way/49511030"},"geometry":{"type":"LineString","coordinates":[[9.99562,47.05221],[10.00603,47.04808]]}},{"type":"Feature","properties":{"kind":"lift","difficulty":null,"name":"Vallüla","aerialway":"t-bar","osm":"way/52414349"},"geometry":{"type":"LineString","coordinates":[[10.02491,46.98451],[10.0224,46.98434]]}},{"type":"Feature","properties":{"kind":"lift","difficulty":null,"name":"Hochalpilabahn","aerialway":"gondola","osm":"way/137219011"},"geometry":{"type":"LineString","coordinates":[[9.99226,47.05045],[9.98269,47.06007]]}},{"type":"Feature","properties":{"kind":"lift","difficulty":null,"name":"Versettla II","aerialway":"gondola","osm":"way/137241266"},"geometry":{"type":"LineString","coordinates":[[10.00707,46.98496],[9.99374,46.97893]]}},{"type":"Feature","properties":{"kind":"lift","difficulty":null,"name":"Valiserabahn I","aerialway":"gondola","osm":"way/201325868"},"geometry":{"type":"LineString","coordinates":[[9.96458,47.0222],[9.96279,47.00456]]}},{"type":"Feature","properties":{"kind":"lift","difficulty":null,"name":"Grasjochbahn","aerialway":"gondola","osm":"way/201325869"},"geometry":{"type":"LineString","coordinates":[[9.96467,47.02279],[9.99234,47.05019]]}},{"type":"Feature","properties":{"kind":"lift","difficulty":null,"name":"Valiserabahn II","aerialway":"gondola","osm":"way/327884952"},"geometry":{"type":"LineString","coordinates":[[9.96279,47.00456],[9.96573,46.98742]]}},{"type":"Feature","properties":{"kind":"lift","difficulty":null,"name":"Förderband I","aerialway":"magic_carpet","osm":"way/578793633"},"geometry":{"type":"LineString","coordinates":[[9.96237,47.00539],[9.96221,47.00473]]}},{"type":"Feature","properties":{"kind":"lift","difficulty":null,"name":"Förderband II","aerialway":"magic_carpet","osm":"way/578793635"},"geometry":{"type":"LineString","coordinates":[[9.96218,47.00465],[9.96207,47.00428]]}},{"type":"Feature","properties":{"kind":"lift","difficulty":null,"name":"Förderband III","aerialway":"magic_carpet","osm":"way/578793636"},"geometry":{"type":"LineString","coordinates":[[9.96186,47.00427],[9.96188,47.004]]}},{"type":"Feature","properties":{"kind":"lift","difficulty":null,"name":"Förderband Valisera","aerialway":"magic_carpet","osm":"way/664481292"},"geometry":{"type":"LineString","coordinates":[[9.9645,46.98815],[9.96413,46.98756]]}}]}