{"type":"FeatureCollection","features":[{"type":"Feature","properties":{"kind":"piste","difficulty":"intermediate","name":null,"aerialway":null,"osm":"way/22719619"},"geometry":{"type":"LineString","coordinates":[[13.07155,47.15567],[13.07105,47.15574],[13.06975,47.15546],[13.06795,47.15561],[13.06662,47.15544],[13.06647,47.15513],[13.06497,47.15505],[13.06326,47.15441],[13.06264,47.15465],[13.0623,47.15465],[13.06188,47.15448],[13.06192,47.15436],[13.06157,47.15438],[13.06177,47.15547],[13.06164,47.15575],[13.06095,47.15588],[13.05944,47.15557],[13.05925,47.15588],[13.06055,47.15626],[13.06093,47.15624],[13.06171,47.15605],[13.06266,47.15555],[13.06316,47.15545],[13.06591,47.15535],[13.06664,47.15568],[13.06796,47.15594],[13.06976,47.15578],[13.07093,47.15604],[13.07143,47.15616],[13.07185,47.15673],[13.07205,47.15667],[13.072,47.15626],[13.073,47.1561],[13.07155,47.15567]]}},{"type":"Feature","properties":{"kind":"piste","difficulty":"easy","name":null,"aerialway":null,"osm":"way/22719629"},"geometry":{"type":"LineString","coordinates":[[13.05986,47.15528],[13.05923,47.15499],[13.05947,47.15473],[13.05955,47.1543]]}},{"type":"Feature","properties":{"kind":"piste","difficulty":"easy","name":null,"aerialway":null,"osm":"way/22719632"},"geometry":{"type":"LineString","coordinates":[[13.06075,47.14916],[13.05913,47.14888],[13.05759,47.14908],[13.05411,47.14893],[13.05381,47.14875],[13.05301,47.14884],[13.05338,47.14922],[13.05886,47.14928],[13.05917,47.14946],[13.06069,47.14962],[13.06075,47.14916]]}},{"type":"Feature","properties":{"kind":"piste","difficulty":"intermediate","name":null,"aerialway":null,"osm":"way/22719637"},"geometry":{"type":"LineString","coordinates":[[13.0782,47.16606],[13.07775,47.16627],[13.07844,47.16618],[13.08042,47.16753],[13.08198,47.16822],[13.08247,47.16876],[13.08337,47.16905],[13.08403,47.17],[13.08428,47.17017],[13.08729,47.17139],[13.08777,47.17131],[13.09039,47.16952],[13.09084,47.16886],[13.09099,47.16808],[13.0919,47.16775],[13.09246,47.16777],[13.09326,47.16822],[13.09372,47.16814],[13.09361,47.16806],[13.0937,47.16795],[13.094,47.16784],[13.09502,47.16798],[13.09532,47.1682],[13.09546,47.16863],[13.09587,47.16886],[13.09608,47.16923],[13.09743,47.16937],[13.09752,47.16901],[13.09728,47.16899],[13.09727,47.16881],[13.09681,47.16888],[13.09671,47.16903],[13.09628,47.16894],[13.0963,47.16877],[13.09547,47.16834],[13.09523,47.16804],[13.09457,47.16779],[13.09462,47.16766],[13.09434,47.16745],[13.09287,47.16727],[13.09262,47.16737],[13.09165,47.16736],[13.09062,47.16789],[13.09048,47.16904],[13.08985,47.16956],[13.08939,47.16975],[13.08865,47.17042],[13.08788,47.17075],[13.08697,47.17064],[13.08656,47.1703],[13.08521,47.16961],[13.08479,47.16894],[13.08088,47.16713],[13.08091,47.16664],[13.08064,47.16623],[13.08161,47.16589],[13.08166,47.16566],[13.08141,47.16543],[13.08221,47.16509],[13.08195,47.16496],[13.08218,47.16471],[13.08209,47.16467],[13.08178,47.16495],[13.08199,47.16516],[13.08124,47.16541],[13.08148,47.16566],[13.08146,47.16586],[13.08056,47.16615],[13.08052,47.16624],[13.08083,47.16661],[13.08073,47.16703],[13.0804,47.16678],[13.07868,47.16612],[13.0782,47.16606]]}},{"type":"Feature","properties":{"kind":"piste","difficulty":"intermediate","name":null,"aerialway":null,"osm":"way/22719639"},"geometry":{"type":"LineString","coordinates":[[13.07394,47.15551],[13.07375,47.15546],[13.07392,47.15532],[13.07408,47.15434],[13.07374,47.15329],[13.07389,47.15322],[13.07423,47.15368],[13.07473,47.15393],[13.07498,47.15424],[13.07498,47.15479],[13.07526,47.15552],[13.07553,47.1559],[13.07577,47.15601],[13.07566,47.15622],[13.07534,47.15582],[13.07492,47.15481],[13.07479,47.15408],[13.07417,47.15373],[13.07391,47.15337],[13.07416,47.15424],[13.07394,47.15551]]}},{"type":"Feature","properties":{"kind":"piste","difficulty":"intermediate","name":null,"aerialway":null,"osm":"way/22719642"},"geometry":{"type":"LineString","coordinates":[[13.05976,47.15543],[13.05958,47.15545],[13.05903,47.15599],[13.0592,47.15636],[13.05907,47.15705],[13.05912,47.15729],[13.05969,47.15765],[13.05995,47.15825],[13.06,47.15906],[13.05931,47.16084],[13.05942,47.16111],[13.06038,47.16175],[13.06049,47.16236],[13.06029,47.16262],[13.06011,47.16374],[13.06022,47.16397],[13.06073,47.16391],[13.06195,47.16306],[13.06246,47.16302],[13.06311,47.16319],[13.06459,47.16511],[13.0655,47.1658],[13.06675,47.16754],[13.06734,47.16816],[13.06901,47.16843],[13.06974,47.16826],[13.07037,47.16785],[13.07096,47.16694],[13.07182,47.16629],[13.07343,47.16565],[13.07458,47.16476],[13.07579,47.16505],[13.07749,47.16585],[13.0782,47.16606],[13.07775,47.16627],[13.07668,47.16589],[13.07627,47.16559],[13.07496,47.16502],[13.07436,47.16511],[13.0734,47.1659],[13.07162,47.16659],[13.07016,47.16818],[13.06959,47.16847],[13.06833,47.16861],[13.06713,47.16833],[13.06655,47.16807],[13.06606,47.16752],[13.06584,47.16688],[13.06497,47.16584],[13.06437,47.16546],[13.06395,47.16494],[13.0636,47.16416],[13.06267,47.1633],[13.06182,47.16332],[13.0607,47.16421],[13.0597,47.16417],[13.05988,47.16387],[13.06024,47.16227],[13.0601,47.16181],[13.05982,47.1615],[13.0591,47.16111],[13.05903,47.16077],[13.05972,47.15916],[13.05969,47.15803],[13.0589,47.15718],[13.05903,47.1565],[13.05879,47.15563],[13.05891,47.15523],[13.05976,47.15543]]}},{"type":"Feature","properties":{"kind":"piste","difficulty":"advanced","name":null,"aerialway":null,"osm":"way/52509291"},"geometry":{"type":"LineString","coordinates":[[13.08128,47.12517],[13.08091,47.12485],[13.07939,47.12585],[13.07889,47.1266],[13.0788,47.127],[13.07888,47.12755],[13.07843,47.12799],[13.0776,47.12812],[13.07759,47.12827],[13.07807,47.12899],[13.07885,47.12946],[13.0798,47.12977],[13.0804,47.13029],[13.08037,47.13055],[13.08091,47.13122],[13.08169,47.13174],[13.08185,47.13169],[13.08094,47.13112],[13.08048,47.13053],[13.08049,47.13026],[13.07984,47.12972],[13.07853,47.12923],[13.07812,47.12898],[13.07786,47.1286],[13.07805,47.12828],[13.07889,47.12816],[13.07911,47.128],[13.07929,47.12757],[13.07918,47.12741],[13.07922,47.12673],[13.08046,47.12553],[13.08128,47.12517]]}},{"type":"Feature","properties":{"kind":"piste","difficulty":"intermediate","name":null,"aerialway":null,"osm":"way/53167759"},"geometry":{"type":"LineString","coordinates":[[13.04522,47.153],[13.04803,47.15162],[13.04894,47.15144],[13.04961,47.15091],[13.05052,47.15044],[13.0515,47.15028],[13.05398,47.15024],[13.05438,47.15],[13.05401,47.14981],[13.05357,47.15002],[13.05268,47.15],[13.05305,47.14954],[13.05351,47.14931],[13.05338,47.14922],[13.05232,47.14998],[13.05029,47.15028],[13.04926,47.15059],[13.04838,47.15113],[13.04723,47.15156],[13.04469,47.15288],[13.04522,47.153]]}},{"type":"Feature","properties":{"kind":"piste","difficulty":"intermediate","name":null,"aerialway":null,"osm":"way/53167760"},"geometry":{"type":"LineString","coordinates":[[13.05379,47.15083],[13.05227,47.15068],[13.05053,47.15099],[13.04983,47.1515],[13.04657,47.15309],[13.04461,47.15318],[13.04462,47.15328],[13.0452,47.1534],[13.04533,47.15349],[13.04521,47.15355],[13.04491,47.15339],[13.04421,47.15333],[13.04469,47.15288],[13.04606,47.15299],[13.04706,47.1526],[13.04872,47.15168],[13.04864,47.15156],[13.04918,47.15147],[13.05033,47.15082],[13.05109,47.15054],[13.05169,47.15043],[13.05345,47.15058],[13.05438,47.15],[13.05541,47.15029],[13.05501,47.15032],[13.05379,47.15083]]}},{"type":"Feature","properties":{"kind":"piste","difficulty":"intermediate","name":null,"aerialway":null,"osm":"way/53169862"},"geometry":{"type":"LineString","coordinates":[[13.09402,47.10518],[13.09423,47.10515],[13.09577,47.10778],[13.09577,47.10804],[13.09548,47.10865],[13.09483,47.10917],[13.09333,47.1096],[13.09212,47.11036],[13.09048,47.11391],[13.08824,47.11527],[13.08688,47.1176]]}},{"type":"Feature","properties":{"kind":"piste","difficulty":"easy","name":null,"aerialway":null,"osm":"way/53170213"},"geometry":{"type":"LineString","coordinates":[[13.09555,47.12215],[13.09573,47.12204],[13.09586,47.12214],[13.09584,47.12238],[13.09655,47.12304],[13.09736,47.12358],[13.09814,47.12388],[13.0966,47.12383],[13.09794,47.12453],[13.09683,47.12459],[13.09348,47.12388],[13.09312,47.12369],[13.09247,47.12332],[13.08946,47.12056],[13.08731,47.11756],[13.08713,47.11752],[13.08604,47.11823],[13.08623,47.11891],[13.08613,47.11915],[13.08675,47.12007],[13.08703,47.12082],[13.08713,47.12189],[13.08654,47.12135],[13.08562,47.12077],[13.08386,47.12017],[13.08536,47.12159],[13.08598,47.1234],[13.08706,47.12491],[13.08775,47.12645],[13.08863,47.12765],[13.09003,47.13072],[13.09078,47.13154],[13.092,47.13225],[13.09328,47.13281],[13.0942,47.13297],[13.09532,47.1336],[13.09677,47.13414],[13.09818,47.13496],[13.10085,47.13571],[13.10225,47.13594],[13.10352,47.13599],[13.10456,47.1357],[13.10479,47.13581],[13.10413,47.13613],[13.10324,47.13681],[13.10211,47.13731],[13.10034,47.13766],[13.09896,47.13775],[13.09773,47.13833],[13.09691,47.13841],[13.09541,47.13822],[13.09051,47.13661],[13.08848,47.13555],[13.08646,47.13478],[13.08503,47.13407],[13.08443,47.13338],[13.08324,47.13255],[13.08219,47.13272],[13.08166,47.13254]]}},{"type":"Feature","properties":{"kind":"piste","difficulty":"intermediate","name":null,"aerialway":null,"osm":"way/53170573"},"geometry":{"type":"LineString","coordinates":[[13.09878,47.11348],[13.09874,47.11415],[13.09864,47.11422],[13.09817,47.11406],[13.09819,47.11438],[13.09692,47.11621],[13.09643,47.11668],[13.09469,47.11965],[13.09587,47.12091]]}},{"type":"Feature","properties":{"kind":"piste","difficulty":"intermediate","name":null,"aerialway":null,"osm":"way/53172634"},"geometry":{"type":"LineString","coordinates":[[13.09948,47.11135],[13.09932,47.11064],[13.09944,47.1095],[13.09931,47.10867],[13.09863,47.10731],[13.09806,47.10677]]}},{"type":"Feature","properties":{"kind":"piste","difficulty":"easy","name":null,"aerialway":null,"osm":"way/53172635"},"geometry":{"type":"LineString","coordinates":[[13.09956,47.11178],[13.09957,47.11077],[13.10003,47.10877],[13.10034,47.10866],[13.10377,47.11299],[13.10553,47.11385],[13.10618,47.11401],[13.10717,47.11397],[13.10849,47.11372],[13.10927,47.1134]]}},{"type":"Feature","properties":{"kind":"piste","difficulty":"intermediate","name":null,"aerialway":null,"osm":"way/53174012"},"geometry":{"type":"LineString","coordinates":[[13.08816,47.11877],[13.08666,47.1198],[13.08654,47.12135],[13.08623,47.12173],[13.08384,47.12261],[13.08165,47.12441],[13.08178,47.12495]]}},{"type":"Feature","properties":{"kind":"piste","difficulty":"easy","name":null,"aerialway":null,"osm":"way/53353629"},"geometry":{"type":"LineString","coordinates":[[13.08043,47.13055],[13.08079,47.13101]]}},{"type":"Feature","properties":{"kind":"piste","difficulty":"easy","name":null,"aerialway":null,"osm":"way/53353630"},"geometry":{"type":"LineString","coordinates":[[13.08045,47.13027],[13.08045,47.13033]]}},{"type":"Feature","properties":{"kind":"piste","difficulty":"easy","name":null,"aerialway":null,"osm":"way/102139896"},"geometry":{"type":"LineString","coordinates":[[13.08079,47.13101],[13.08089,47.13112]]}},{"type":"Feature","properties":{"kind":"piste","difficulty":"intermediate","name":null,"aerialway":null,"osm":"way/133145359"},"geometry":{"type":"LineString","coordinates":[[13.07679,47.15937],[13.07656,47.15904],[13.07664,47.15843],[13.0764,47.15766],[13.07552,47.15706],[13.07461,47.15672],[13.07413,47.1564],[13.07155,47.15567],[13.07119,47.15532],[13.06831,47.1544],[13.06714,47.15377],[13.06486,47.15345],[13.06435,47.154],[13.06414,47.15479],[13.06326,47.15441],[13.06412,47.15349],[13.06404,47.15342],[13.06329,47.15337],[13.06174,47.15357],[13.06175,47.1533],[13.06404,47.15321],[13.06456,47.1528],[13.06479,47.15276],[13.06549,47.15282],[13.06594,47.15308],[13.06708,47.15319],[13.06852,47.15297],[13.0708,47.15384],[13.07146,47.15428],[13.07302,47.15479],[13.0737,47.15533],[13.0738,47.15554],[13.07522,47.15636],[13.07566,47.15622],[13.07673,47.15443],[13.078,47.15352],[13.07845,47.15384],[13.07812,47.1538],[13.0774,47.15404],[13.07725,47.15469],[13.07684,47.15507],[13.0761,47.15631],[13.07672,47.1571],[13.07728,47.15818],[13.0772,47.15892],[13.07752,47.1594],[13.07679,47.15937]]}},{"type":"Feature","properties":{"kind":"piste","difficulty":"intermediate","name":null,"aerialway":null,"osm":"way/133149635"},"geometry":{"type":"LineString","coordinates":[[13.10115,47.12185],[13.10137,47.1229],[13.10119,47.12351]]}},{"type":"Feature","properties":{"kind":"piste","difficulty":"intermediate","name":null,"aerialway":null,"osm":"way/133149637"},"geometry":{"type":"LineString","coordinates":[[13.10226,47.1186],[13.10125,47.11989],[13.10096,47.12077],[13.10115,47.12185]]}},{"type":"Feature","properties":{"kind":"piste","difficulty":"freeride","name":"Skiroute Katstall","aerialway":null,"osm":"way/142792498"},"geometry":{"type":"LineString","coordinates":[[13.06225,47.14352],[13.06296,47.1432],[13.06373,47.14241],[13.06408,47.1414],[13.06532,47.14058],[13.06691,47.13865],[13.06775,47.13878],[13.06821,47.13915],[13.06853,47.13973],[13.06927,47.14036],[13.06998,47.14132],[13.07002,47.14171],[13.0709,47.14198],[13.0733,47.14404]]}},{"type":"Feature","properties":{"kind":"piste","difficulty":"intermediate","name":null,"aerialway":null,"osm":"way/142792499"},"geometry":{"type":"LineString","coordinates":[[13.0945,47.10924],[13.09176,47.10866],[13.09133,47.10868],[13.09105,47.10883],[13.09035,47.10965],[13.08792,47.11167],[13.08559,47.11396],[13.08553,47.11451],[13.08605,47.11564],[13.08425,47.11726],[13.08382,47.11788]]}},{"type":"Feature","properties":{"kind":"piste","difficulty":"easy","name":null,"aerialway":null,"osm":"way/142796346"},"geometry":{"type":"LineString","coordinates":[[13.08178,47.12495],[13.08124,47.12481],[13.08163,47.1253],[13.08392,47.12641],[13.08405,47.12672],[13.08455,47.12711],[13.08504,47.12772],[13.08533,47.1287],[13.08479,47.1293],[13.08494,47.13009],[13.08486,47.1304],[13.08392,47.13116],[13.08386,47.13136],[13.0853,47.13419]]}},{"type":"Feature","properties":{"kind":"piste","difficulty":"advanced","name":null,"aerialway":null,"osm":"way/142796347"},"geometry":{"type":"LineString","coordinates":[[13.08611,47.11864],[13.08525,47.11915],[13.08482,47.11989],[13.08203,47.12194],[13.08126,47.12269],[13.08104,47.12315],[13.08122,47.12377],[13.08156,47.12429],[13.08124,47.12481]]}},{"type":"Feature","properties":{"kind":"piste","difficulty":"intermediate","name":"Schlosshochalm","aerialway":null,"osm":"way/142796978"},"geometry":{"type":"LineString","coordinates":[[13.05624,47.14455],[13.05998,47.14454],[13.06168,47.14471],[13.06183,47.14383],[13.06287,47.14381],[13.06294,47.14447],[13.06395,47.14603],[13.06284,47.14623],[13.06189,47.14504],[13.05638,47.14468],[13.05611,47.14517],[13.05597,47.14514],[13.05624,47.14455]]}},{"type":"Feature","properties":{"kind":"piste","difficulty":"intermediate","name":null,"aerialway":null,"osm":"way/142797206"},"geometry":{"type":"LineString","coordinates":[[13.08137,47.13744],[13.0795,47.138],[13.07903,47.13835],[13.07901,47.1386],[13.07948,47.13936],[13.07915,47.13973],[13.07794,47.14039],[13.07752,47.13975],[13.07837,47.13954],[13.07884,47.13914],[13.07883,47.13887],[13.07849,47.13847],[13.07861,47.13809],[13.07919,47.13763],[13.07986,47.13746],[13.0808,47.13694],[13.08084,47.13672],[13.08128,47.13678],[13.08144,47.13711],[13.08137,47.13744]]}},{"type":"Feature","properties":{"kind":"piste","difficulty":"intermediate","name":null,"aerialway":null,"osm":"way/143208594"},"geometry":{"type":"LineString","coordinates":[[13.08306,47.11777],[13.08326,47.11784]]}},{"type":"Feature","properties":{"kind":"piste","difficulty":"intermediate","name":null,"aerialway":null,"osm":"way/156098124"},"geometry":{"type":"LineString","coordinates":[[13.10377,47.11299],[13.10543,47.11603],[13.1061,47.11695],[13.10601,47.11721],[13.10552,47.11773],[13.10433,47.11789],[13.10226,47.1186]]}},{"type":"Feature","properties":{"kind":"piste","difficulty":"intermediate","name":null,"aerialway":null,"osm":"way/156098128"},"geometry":{"type":"LineString","coordinates":[[13.10119,47.12351],[13.10094,47.12422],[13.10108,47.12465],[13.10201,47.12515],[13.10248,47.12562],[13.10267,47.12616],[13.10265,47.1266],[13.10285,47.1269],[13.10233,47.12892],[13.10228,47.12962],[13.10142,47.13062],[13.1018,47.13197],[13.10152,47.1338],[13.10033,47.13706],[13.10004,47.13759],[13.09978,47.13765]]}},{"type":"Feature","properties":{"kind":"piste","difficulty":"intermediate","name":null,"aerialway":null,"osm":"way/156098129"},"geometry":{"type":"LineString","coordinates":[[13.09956,47.11178],[13.09992,47.11237],[13.10125,47.11308],[13.10377,47.11299],[13.10698,47.11337],[13.10716,47.11329],[13.10796,47.11202],[13.10888,47.11148],[13.10945,47.11136],[13.11163,47.11177],[13.11206,47.11164]]}},{"type":"Feature","properties":{"kind":"piste","difficulty":"intermediate","name":null,"aerialway":null,"osm":"way/156098133"},"geometry":{"type":"LineString","coordinates":[[13.10097,47.12391],[13.10162,47.12404],[13.1019,47.12422],[13.10214,47.12415]]}},{"type":"Feature","properties":{"kind":"piste","difficulty":"intermediate","name":null,"aerialway":null,"osm":"way/156098136"},"geometry":{"type":"LineString","coordinates":[[13.10024,47.12468],[13.10097,47.12391]]}},{"type":"Feature","properties":{"kind":"piste","difficulty":"intermediate","name":null,"aerialway":null,"osm":"way/156117816"},"geometry":{"type":"LineString","coordinates":[[13.05988,47.16387],[13.0597,47.16417],[13.0588,47.16403],[13.05828,47.16365],[13.05652,47.16293],[13.05565,47.16216],[13.0524,47.16207],[13.05199,47.16187],[13.05145,47.16077],[13.05105,47.15896],[13.05108,47.15813],[13.05057,47.1575],[13.04957,47.15707],[13.04808,47.15708],[13.04548,47.15644],[13.04502,47.15611],[13.04468,47.15556],[13.0439,47.15498],[13.04365,47.15365],[13.04421,47.15333],[13.04432,47.15341],[13.04408,47.15363],[13.04415,47.15432],[13.04402,47.15479],[13.04418,47.15505],[13.04483,47.15539],[13.04577,47.15626],[13.04837,47.15689],[13.04964,47.15686],[13.05042,47.15709],[13.05108,47.15754],[13.05153,47.15819],[13.05175,47.1608],[13.05245,47.16172],[13.05288,47.16191],[13.05548,47.16191],[13.05585,47.16201],[13.05712,47.16301],[13.05814,47.16346],[13.05988,47.16387]]}},{"type":"Feature","properties":{"kind":"piste","difficulty":"intermediate","name":null,"aerialway":null,"osm":"way/173451178"},"geometry":{"type":"LineString","coordinates":[[13.10233,47.11887],[13.10175,47.11918]]}},{"type":"Feature","properties":{"kind":"piste","difficulty":"intermediate","name":null,"aerialway":null,"osm":"way/173451179"},"geometry":{"type":"LineString","coordinates":[[13.10233,47.11887],[13.10398,47.1193],[13.10545,47.11991],[13.1057,47.12045],[13.10563,47.12099],[13.1054,47.12158],[13.10501,47.12197],[13.10352,47.12247],[13.10232,47.12429],[13.102,47.12434],[13.10128,47.12398],[13.10096,47.12406]]}},{"type":"Feature","properties":{"kind":"piste","difficulty":"intermediate","name":null,"aerialway":null,"osm":"way/173451180"},"geometry":{"type":"LineString","coordinates":[[13.08604,47.11823],[13.0853,47.11807]]}},{"type":"Feature","properties":{"kind":"piste","difficulty":"intermediate","name":null,"aerialway":null,"osm":"way/173451181"},"geometry":{"type":"LineString","coordinates":[[13.09584,47.12238],[13.09448,47.12309],[13.09446,47.12339],[13.09494,47.12373],[13.09493,47.12398],[13.0942,47.12405]]}},{"type":"Feature","properties":{"kind":"piste","difficulty":"intermediate","name":null,"aerialway":null,"osm":"way/173451184"},"geometry":{"type":"LineString","coordinates":[[13.09573,47.12204],[13.09558,47.12191],[13.09493,47.12203],[13.09414,47.12293],[13.09393,47.12327],[13.09423,47.12366],[13.09458,47.12387],[13.0942,47.12405]]}},{"type":"Feature","properties":{"kind":"piste","difficulty":"intermediate","name":null,"aerialway":null,"osm":"way/173451186"},"geometry":{"type":"LineString","coordinates":[[13.09084,47.11309],[13.09006,47.11312],[13.08887,47.11364],[13.08786,47.11425],[13.08701,47.11436],[13.08605,47.11564]]}},{"type":"Feature","properties":{"kind":"piste","difficulty":"easy","name":null,"aerialway":null,"osm":"way/175644752"},"geometry":{"type":"LineString","coordinates":[[13.07223,47.14881],[13.07587,47.14953],[13.07748,47.14946],[13.078,47.14928],[13.07955,47.14834],[13.08008,47.14789],[13.08061,47.14691],[13.08087,47.14583],[13.08073,47.14526],[13.07965,47.14436],[13.07805,47.14368],[13.07754,47.14234],[13.0775,47.14177],[13.07755,47.1415],[13.07797,47.14092],[13.07781,47.1402],[13.07705,47.13933],[13.0766,47.13916],[13.07659,47.13906],[13.07537,47.13877],[13.07475,47.13846],[13.0746,47.13823],[13.07436,47.13673],[13.07403,47.13594],[13.07342,47.13505],[13.07311,47.13485],[13.07119,47.13423],[13.07224,47.13437],[13.07326,47.1342],[13.07389,47.13429],[13.07555,47.13463],[13.07746,47.13522]]}},{"type":"Feature","properties":{"kind":"piste","difficulty":"intermediate","name":null,"aerialway":null,"osm":"way/175644765"},"geometry":{"type":"LineString","coordinates":[[13.05624,47.14455],[13.05998,47.14454],[13.06057,47.1443],[13.06093,47.14398],[13.06226,47.14382],[13.06217,47.14337],[13.0609,47.14373],[13.0605,47.14413],[13.05984,47.14438],[13.05698,47.14428],[13.05624,47.14455]]}},{"type":"Feature","properties":{"kind":"piste","difficulty":"easy","name":null,"aerialway":null,"osm":"way/175644779"},"geometry":{"type":"LineString","coordinates":[[13.05913,47.14888],[13.05864,47.14827],[13.05801,47.14806],[13.0549,47.14833],[13.05381,47.14875],[13.05301,47.14884],[13.05286,47.14861],[13.05361,47.14848],[13.05404,47.14815],[13.0552,47.14787],[13.05768,47.14777],[13.05899,47.14803],[13.06049,47.14866],[13.06088,47.1486],[13.06075,47.14916],[13.05913,47.14888]]}},{"type":"Feature","properties":{"kind":"piste","difficulty":"easy","name":null,"aerialway":null,"osm":"way/175644786"},"geometry":{"type":"LineString","coordinates":[[13.06069,47.14962],[13.05917,47.14946],[13.0589,47.14966],[13.05699,47.14986],[13.05522,47.14989],[13.05405,47.14927],[13.05338,47.14922],[13.05401,47.14981],[13.05541,47.15029],[13.06071,47.14994],[13.06069,47.14962]]}},{"type":"Feature","properties":{"kind":"piste","difficulty":"novice","name":null,"aerialway":null,"osm":"way/175644848"},"geometry":{"type":"LineString","coordinates":[[13.08144,47.13267],[13.07836,47.1318],[13.07858,47.1313],[13.08004,47.1311],[13.08091,47.13122],[13.08122,47.13148],[13.08079,47.13176],[13.08143,47.13218],[13.08144,47.13267]]}},{"type":"Feature","properties":{"kind":"piste","difficulty":"intermediate","name":null,"aerialway":null,"osm":"way/177366740"},"geometry":{"type":"LineString","coordinates":[[13.10955,47.11095],[13.11019,47.11055],[13.11168,47.1106],[13.11242,47.1113]]}},{"type":"Feature","properties":{"kind":"piste","difficulty":"intermediate","name":null,"aerialway":null,"osm":"way/177366746"},"geometry":{"type":"LineString","coordinates":[[13.0853,47.11807],[13.0852,47.1176],[13.08501,47.11746],[13.08382,47.11788]]}},{"type":"Feature","properties":{"kind":"piste","difficulty":"intermediate","name":null,"aerialway":null,"osm":"way/177366750"},"geometry":{"type":"LineString","coordinates":[[13.09806,47.10677],[13.09668,47.10627],[13.09578,47.10573],[13.09464,47.10539]]}},{"type":"Feature","properties":{"kind":"piste","difficulty":"intermediate","name":"Käferstall","aerialway":null,"osm":"way/177366785"},"geometry":{"type":"LineString","coordinates":[[13.07654,47.13407],[13.07864,47.13316],[13.08085,47.13317],[13.08091,47.13285],[13.07888,47.13302],[13.07804,47.13283],[13.07595,47.13392],[13.07706,47.1347],[13.07756,47.13521],[13.07721,47.13469],[13.07648,47.13415],[13.07654,47.13407]]}},{"type":"Feature","properties":{"kind":"piste","difficulty":"intermediate","name":null,"aerialway":null,"osm":"way/177367100"},"geometry":{"type":"LineString","coordinates":[[13.08326,47.11784],[13.08329,47.11767]]}},{"type":"Feature","properties":{"kind":"piste","difficulty":"intermediate","name":null,"aerialway":null,"osm":"way/177367101"},"geometry":{"type":"LineString","coordinates":[[13.08382,47.11788],[13.08326,47.11784]]}},{"type":"Feature","properties":{"kind":"piste","difficulty":"easy","name":null,"aerialway":null,"osm":"way/177383402"},"geometry":{"type":"LineString","coordinates":[[13.08045,47.13033],[13.08043,47.13049]]}},{"type":"Feature","properties":{"kind":"piste","difficulty":"easy","name":null,"aerialway":null,"osm":"way/177383408"},"geometry":{"type":"LineString","coordinates":[[13.08043,47.13049],[13.08043,47.13055]]}},{"type":"Feature","properties":{"kind":"piste","difficulty":"easy","name":null,"aerialway":null,"osm":"way/177383410"},"geometry":{"type":"LineString","coordinates":[[13.08089,47.13112],[13.08093,47.13117]]}},{"type":"Feature","properties":{"kind":"piste","difficulty":"easy","name":null,"aerialway":null,"osm":"way/227988007"},"geometry":{"type":"LineString","coordinates":[[13.08093,47.13117],[13.08179,47.13171],[13.08175,47.1318]]}},{"type":"Feature","properties":{"kind":"piste","difficulty":"easy","name":null,"aerialway":null,"osm":"way/237304456"},"geometry":{"type":"LineString","coordinates":[[13.10264,47.1185],[13.10284,47.11866],[13.10402,47.11871],[13.10495,47.11849],[13.10648,47.11846],[13.10749,47.11807],[13.10758,47.11769],[13.10794,47.1173],[13.10795,47.11673],[13.10853,47.11565],[13.10868,47.11412],[13.10927,47.1134],[13.10938,47.11299],[13.10927,47.11252],[13.10942,47.1112],[13.10955,47.11095]]}},{"type":"Feature","properties":{"kind":"piste","difficulty":"intermediate","name":null,"aerialway":null,"osm":"way/238865031"},"geometry":{"type":"LineString","coordinates":[[13.09587,47.12091],[13.09564,47.12155],[13.09493,47.12203]]}},{"type":"Feature","properties":{"kind":"piste","difficulty":"intermediate","name":null,"aerialway":null,"osm":"way/238865032"},"geometry":{"type":"LineString","coordinates":[[13.08165,47.12441],[13.08124,47.12481]]}},{"type":"Feature","properties":{"kind":"piste","difficulty":"advanced","name":null,"aerialway":null,"osm":"way/238865033"},"geometry":{"type":"LineString","coordinates":[[13.08156,47.12429],[13.08165,47.12441]]}},{"type":"Feature","properties":{"kind":"piste","difficulty":"intermediate","name":null,"aerialway":null,"osm":"way/238875161"},"geometry":{"type":"LineString","coordinates":[[13.09464,47.10539],[13.09443,47.1055]]}},{"type":"Feature","properties":{"kind":"piste","difficulty":"intermediate","name":null,"aerialway":null,"osm":"way/238875162"},"geometry":{"type":"LineString","coordinates":[[13.0915,47.10867],[13.0914,47.10896],[13.09207,47.10977],[13.09212,47.11036]]}},{"type":"Feature","properties":{"kind":"piste","difficulty":"intermediate","name":null,"aerialway":null,"osm":"way/258101042"},"geometry":{"type":"LineString","coordinates":[[13.09846,47.1239],[13.09938,47.12446],[13.10201,47.12515],[13.10257,47.1248],[13.10332,47.12469],[13.1042,47.12494],[13.10437,47.12515],[13.10422,47.1255],[13.10332,47.12601],[13.10285,47.1269]]}},{"type":"Feature","properties":{"kind":"piste","difficulty":"intermediate","name":null,"aerialway":null,"osm":"way/258101043"},"geometry":{"type":"LineString","coordinates":[[13.09814,47.12388],[13.09846,47.1239]]}},{"type":"Feature","properties":{"kind":"piste","difficulty":"advanced","name":null,"aerialway":null,"osm":"way/258101044"},"geometry":{"type":"LineString","coordinates":[[13.09469,47.11965],[13.09442,47.12003],[13.09293,47.1206],[13.09178,47.12091],[13.0911,47.12123],[13.09057,47.12134],[13.0903,47.12127]]}},{"type":"Feature","properties":{"kind":"piste","difficulty":"easy","name":null,"aerialway":null,"osm":"way/453763270"},"geometry":{"type":"LineString","coordinates":[[13.10377,47.11299],[13.10456,47.11232],[13.10754,47.11138],[13.10955,47.11095]]}},{"type":"Feature","properties":{"kind":"piste","difficulty":"easy","name":null,"aerialway":null,"osm":"way/462173908"},"geometry":{"type":"LineString","coordinates":[[13.08656,47.1703],[13.08686,47.16876],[13.0866,47.1674],[13.08598,47.16676],[13.08587,47.16648],[13.08601,47.16614],[13.0859,47.16578],[13.08621,47.16524],[13.08604,47.16448],[13.08625,47.16353],[13.08679,47.16262],[13.08733,47.16103],[13.08742,47.15994],[13.08713,47.15912],[13.08702,47.15917],[13.08685,47.16005],[13.08477,47.1623],[13.08435,47.16255],[13.08395,47.16348],[13.08298,47.16426],[13.08286,47.16414],[13.08385,47.16346],[13.08428,47.16252],[13.08472,47.16227],[13.08518,47.16179],[13.08448,47.16222],[13.08329,47.16221],[13.0831,47.16196],[13.08441,47.16203],[13.08542,47.16146],[13.08679,47.16001],[13.08686,47.15928],[13.08712,47.159],[13.08746,47.15955],[13.08746,47.16106],[13.08694,47.16264],[13.08632,47.16353],[13.08633,47.16383],[13.08611,47.16438],[13.08627,47.16526],[13.08598,47.16578],[13.08616,47.16608],[13.08606,47.16673],[13.08665,47.1673],[13.08706,47.16901],[13.08706,47.16996],[13.08677,47.17047],[13.08656,47.1703]]}},{"type":"Feature","properties":{"kind":"piste","difficulty":"easy","name":null,"aerialway":null,"osm":"way/515462312"},"geometry":{"type":"LineString","coordinates":[[13.07746,47.13522],[13.07785,47.13562],[13.07863,47.13566],[13.08016,47.13624],[13.08072,47.1366],[13.08136,47.13671],[13.08285,47.13782]]}},{"type":"Feature","properties":{"kind":"piste","difficulty":"easy","name":null,"aerialway":null,"osm":"way/524379105"},"geometry":{"type":"LineString","coordinates":[[13.06504,47.14699],[13.06519,47.147],[13.06513,47.14721],[13.06537,47.14707],[13.06569,47.14636],[13.06723,47.14656],[13.06814,47.14696],[13.06937,47.14729],[13.07068,47.14791],[13.0742,47.15054],[13.0744,47.15093],[13.07427,47.15111],[13.07456,47.15176],[13.078,47.15352],[13.07845,47.15384],[13.07834,47.15407],[13.07851,47.15407],[13.07854,47.15371],[13.07804,47.15334],[13.07858,47.1535],[13.07892,47.1538],[13.07931,47.15459],[13.07947,47.15526],[13.08021,47.15673],[13.08011,47.15758],[13.08035,47.15889],[13.08078,47.15935],[13.0811,47.16042],[13.08062,47.16146],[13.08067,47.16287],[13.08058,47.16305],[13.07965,47.16374],[13.07827,47.1653],[13.0779,47.16543],[13.07773,47.16593],[13.0782,47.16606],[13.0792,47.16545],[13.08052,47.16541],[13.08118,47.16489],[13.08269,47.16427],[13.08209,47.16467],[13.08258,47.16487],[13.08277,47.16478],[13.0825,47.16455],[13.08298,47.16426],[13.08286,47.16414],[13.08119,47.16479],[13.08058,47.1648],[13.0804,47.16512],[13.08016,47.16525],[13.07919,47.16533],[13.07828,47.16576],[13.07799,47.16565],[13.07833,47.16544],[13.07999,47.16364],[13.08061,47.16319],[13.08077,47.16292],[13.08079,47.16144],[13.08125,47.16049],[13.08087,47.15929],[13.08049,47.15883],[13.08024,47.15747],[13.08039,47.15657],[13.07954,47.15498],[13.07945,47.15454],[13.07909,47.15404],[13.07907,47.15369],[13.07873,47.15344],[13.07765,47.15311],[13.07491,47.15176],[13.07454,47.15127],[13.07478,47.15053],[13.0746,47.15016],[13.07341,47.14923],[13.0722,47.14856],[13.0721,47.14835],[13.06992,47.14712],[13.0676,47.14622],[13.06613,47.14593],[13.06569,47.14601],[13.06523,47.14585],[13.06192,47.14634],[13.0614,47.14616],[13.06092,47.14685],[13.06121,47.14818],[13.06133,47.14771],[13.06113,47.14679],[13.06133,47.14658],[13.06326,47.14665],[13.06464,47.14633],[13.06504,47.14699]]}},{"type":"Feature","properties":{"kind":"piste","difficulty":"intermediate","name":null,"aerialway":null,"osm":"way/524388076"},"geometry":{"type":"LineString","coordinates":[[13.07456,47.15176],[13.07427,47.15111],[13.07357,47.15056],[13.0728,47.1502],[13.07231,47.1496],[13.06947,47.14837],[13.06783,47.14787],[13.06569,47.14636],[13.06549,47.14691],[13.06558,47.14715],[13.0664,47.14783],[13.06696,47.14809],[13.06928,47.14844],[13.0721,47.14961],[13.07248,47.15024],[13.07337,47.15067],[13.07456,47.15176]]}},{"type":"Feature","properties":{"kind":"piste","difficulty":"easy","name":null,"aerialway":null,"osm":"way/530501894"},"geometry":{"type":"LineString","coordinates":[[13.07387,47.14736],[13.07434,47.14789],[13.07477,47.14806],[13.07474,47.14825],[13.07189,47.14822],[13.0722,47.14856],[13.07284,47.14893],[13.07579,47.14956],[13.07757,47.14954],[13.07809,47.14932],[13.08016,47.14796],[13.08057,47.14718],[13.08093,47.14548],[13.0808,47.14522],[13.07981,47.14438],[13.07816,47.14363],[13.07763,47.14231],[13.07764,47.14151],[13.07798,47.14107],[13.07804,47.14076],[13.07785,47.14019],[13.0771,47.13932],[13.0767,47.13915],[13.0766,47.13897],[13.07489,47.1385],[13.0747,47.13815],[13.07444,47.13671],[13.07359,47.13506],[13.07309,47.13478],[13.07155,47.13432],[13.07226,47.13443],[13.07324,47.13426],[13.07387,47.13434],[13.07741,47.13527],[13.07782,47.13568],[13.07851,47.13569],[13.08003,47.13625],[13.08084,47.13672],[13.08149,47.13687],[13.08282,47.13787],[13.08306,47.13782],[13.08247,47.13661],[13.08129,47.13551],[13.0806,47.13463],[13.08143,47.13417],[13.08097,47.13354],[13.08114,47.13302],[13.08072,47.13266],[13.08137,47.1328],[13.08144,47.13267],[13.08065,47.13255],[13.08091,47.13285],[13.08085,47.13356],[13.0811,47.13389],[13.08034,47.13447],[13.08091,47.13528],[13.08233,47.13666],[13.0828,47.13764],[13.08272,47.13771],[13.0814,47.1367],[13.08083,47.13661],[13.07945,47.13587],[13.07865,47.13562],[13.07789,47.13559],[13.07737,47.13513],[13.07325,47.13414],[13.07224,47.13432],[13.07121,47.13413],[13.07097,47.1342],[13.07208,47.13466],[13.07301,47.13486],[13.07337,47.13511],[13.07379,47.13567],[13.07428,47.13674],[13.07459,47.13839],[13.07534,47.13882],[13.07636,47.13904],[13.07701,47.13937],[13.07772,47.14034],[13.07787,47.14084],[13.07743,47.1415],[13.07743,47.1423],[13.07794,47.14365],[13.07848,47.14401],[13.07964,47.14447],[13.07978,47.14468],[13.08049,47.14513],[13.08078,47.14551],[13.08043,47.14715],[13.08001,47.14783],[13.07946,47.14833],[13.0787,47.14867],[13.07802,47.14917],[13.07704,47.14949],[13.07582,47.1495],[13.07274,47.14883],[13.07226,47.14855],[13.07228,47.14835],[13.07345,47.14826],[13.07482,47.14839],[13.07497,47.14821],[13.07489,47.14799],[13.07465,47.14788],[13.07422,47.14735],[13.07361,47.14696],[13.073,47.14677],[13.07231,47.14592],[13.06904,47.14521],[13.06839,47.14496],[13.06773,47.14497],[13.06542,47.14386],[13.06376,47.14343],[13.06238,47.14351],[13.06217,47.14337],[13.06226,47.14382],[13.06355,47.1437],[13.06556,47.14436],[13.06613,47.14473],[13.06841,47.1453],[13.0703,47.1456],[13.07251,47.14645],[13.07272,47.14685],[13.07331,47.14701],[13.07387,47.14736]]}},{"type":"Feature","properties":{"kind":"piste","difficulty":"novice","name":null,"aerialway":null,"osm":"way/566436431"},"geometry":{"type":"LineString","coordinates":[[13.09612,47.16956],[13.09608,47.16923],[13.09743,47.16937],[13.09758,47.17],[13.09678,47.17],[13.09629,47.16983],[13.09612,47.16956]]}},{"type":"Feature","properties":{"kind":"piste","difficulty":"easy","name":null,"aerialway":null,"osm":"way/637579236"},"geometry":{"type":"LineString","coordinates":[[13.06125,47.15063],[13.06137,47.14957],[13.06173,47.14935],[13.0617,47.14906],[13.06151,47.1489],[13.06144,47.14802],[13.06229,47.14717],[13.06326,47.14665],[13.06256,47.14659],[13.06133,47.14771],[13.06121,47.14818],[13.06088,47.1486],[13.06069,47.14962],[13.06068,47.15076],[13.06017,47.15213],[13.05994,47.1524],[13.05873,47.15242],[13.05844,47.15231],[13.05837,47.1528],[13.05883,47.15306],[13.05918,47.15344],[13.05898,47.1539],[13.05916,47.15418],[13.05963,47.1544],[13.05964,47.15424],[13.05946,47.15414],[13.05929,47.15328],[13.05895,47.15287],[13.05979,47.15285],[13.06154,47.15356],[13.06157,47.15438],[13.06192,47.15436],[13.06174,47.15379],[13.06175,47.1533],[13.06104,47.15321],[13.06087,47.15291],[13.06119,47.15217],[13.06133,47.15095],[13.06125,47.15063]]}},{"type":"Feature","properties":{"kind":"piste","difficulty":"intermediate","name":null,"aerialway":null,"osm":"way/637742389"},"geometry":{"type":"LineString","coordinates":[[13.07231,47.14592],[13.07299,47.14618],[13.07413,47.14606],[13.07343,47.14546],[13.07298,47.14467],[13.07285,47.14422],[13.073,47.14394],[13.07413,47.14306],[13.07491,47.14221],[13.075,47.14195],[13.07671,47.14075],[13.07725,47.1405],[13.07746,47.13994],[13.0778,47.14057],[13.07694,47.14101],[13.07628,47.14157],[13.07551,47.142],[13.07481,47.14297],[13.07328,47.14427],[13.07318,47.14475],[13.07359,47.14539],[13.07433,47.14607],[13.0742,47.14631],[13.07349,47.1465],[13.0728,47.1465],[13.07231,47.14592]]}},{"type":"Feature","properties":{"kind":"piste","difficulty":"intermediate","name":null,"aerialway":null,"osm":"way/637753633"},"geometry":{"type":"LineString","coordinates":[[13.08079,47.16144],[13.0808,47.16204],[13.08095,47.16213],[13.08308,47.16228],[13.08331,47.16288],[13.08324,47.16342],[13.08299,47.164],[13.08323,47.16389],[13.0835,47.16342],[13.08353,47.16281],[13.0831,47.16196],[13.08124,47.16166],[13.08091,47.16122],[13.08079,47.16144]]}},{"type":"Feature","properties":{"kind":"piste","difficulty":"intermediate","name":null,"aerialway":null,"osm":"way/723810212"},"geometry":{"type":"LineString","coordinates":[[13.07679,47.15937],[13.07729,47.15987],[13.07793,47.16024],[13.07917,47.16183],[13.07985,47.16248],[13.08003,47.16284],[13.07993,47.16352],[13.08027,47.16334],[13.08041,47.16291],[13.0803,47.16259],[13.0795,47.16147],[13.0794,47.16107],[13.07819,47.15996],[13.0778,47.15978],[13.07752,47.1594],[13.07679,47.15937]]}},{"type":"Feature","properties":{"kind":"piste","difficulty":"advanced","name":"Talblick Abfahrt","aerialway":null,"osm":"way/839958996"},"geometry":{"type":"LineString","coordinates":[[13.09874,47.11415],[13.09914,47.1148],[13.10037,47.11521],[13.10069,47.11616],[13.10076,47.11717],[13.10041,47.11806],[13.09955,47.11923],[13.09985,47.12153],[13.10083,47.12342],[13.10097,47.12391]]}},{"type":"Feature","properties":{"kind":"piste","difficulty":"easy","name":null,"aerialway":null,"osm":"way/1057953867"},"geometry":{"type":"LineString","coordinates":[[13.05955,47.1543],[13.05926,47.15409],[13.05925,47.15345],[13.05891,47.15306],[13.05884,47.15271],[13.05906,47.15257],[13.06027,47.15261],[13.06075,47.15199],[13.06091,47.15143],[13.06101,47.14975],[13.06131,47.14834],[13.06103,47.14687],[13.06117,47.14653],[13.06308,47.14643],[13.06496,47.14612],[13.06588,47.14616],[13.06801,47.14659],[13.06983,47.14724],[13.07387,47.14987],[13.07458,47.15066],[13.07447,47.15126],[13.07452,47.15149],[13.0748,47.15178],[13.0777,47.15323],[13.07852,47.15339],[13.07888,47.15362],[13.08032,47.15662],[13.0802,47.15735],[13.08042,47.15877],[13.08076,47.15922],[13.08118,47.16048],[13.08074,47.16148],[13.0807,47.1629],[13.07858,47.16505],[13.07804,47.16545],[13.0779,47.16568],[13.07796,47.16585],[13.07821,47.16587],[13.07959,47.16533],[13.08051,47.16531],[13.08097,47.16493],[13.08168,47.16461],[13.08279,47.1642],[13.0829,47.16426]]}},{"type":"Feature","properties":{"kind":"piste","difficulty":"intermediate","name":"Hamburger","aerialway":null,"osm":"way/1057953868"},"geometry":{"type":"LineString","coordinates":[[13.08242,47.16457],[13.08193,47.16494],[13.08197,47.16521],[13.08139,47.16533],[13.08132,47.16543],[13.08156,47.16579],[13.08142,47.16592],[13.08058,47.16624],[13.08085,47.1666],[13.08084,47.16726]]}},{"type":"Feature","properties":{"kind":"piste","difficulty":"easy","name":null,"aerialway":null,"osm":"way/1057953869"},"geometry":{"type":"LineString","coordinates":[[13.0777,47.15323],[13.07852,47.15377],[13.07848,47.15402],[13.07827,47.15405]]}},{"type":"Feature","properties":{"kind":"piste","difficulty":"easy","name":null,"aerialway":null,"osm":"way/1057953870"},"geometry":{"type":"LineString","coordinates":[[13.06192,47.15436],[13.06175,47.15425],[13.0616,47.15342],[13.06076,47.15306],[13.06063,47.15248],[13.06075,47.15199]]}},{"type":"Feature","properties":{"kind":"piste","difficulty":"intermediate","name":null,"aerialway":null,"osm":"way/1057953871"},"geometry":{"type":"LineString","coordinates":[[13.06091,47.15143],[13.06112,47.15085],[13.06239,47.15047],[13.06285,47.15024],[13.06309,47.14995],[13.06361,47.14843],[13.06367,47.1479],[13.06405,47.14736],[13.06481,47.14696],[13.06561,47.14684],[13.06733,47.14792],[13.06942,47.14839],[13.07225,47.14963],[13.07265,47.15022],[13.07341,47.15061],[13.07452,47.15149]]}},{"type":"Feature","properties":{"kind":"piste","difficulty":"easy","name":null,"aerialway":null,"osm":"way/1057953872"},"geometry":{"type":"LineString","coordinates":[[13.05298,47.14849],[13.05324,47.14873],[13.05448,47.14907],[13.06113,47.14909]]}},{"type":"Feature","properties":{"kind":"piste","difficulty":"easy","name":null,"aerialway":null,"osm":"way/1057953873"},"geometry":{"type":"LineString","coordinates":[[13.05324,47.14873],[13.05478,47.14814],[13.05768,47.14789],[13.0587,47.14812],[13.06025,47.14905]]}},{"type":"Feature","properties":{"kind":"piste","difficulty":"easy","name":null,"aerialway":null,"osm":"way/1057953874"},"geometry":{"type":"LineString","coordinates":[[13.05324,47.14873],[13.05357,47.14919],[13.05514,47.15],[13.05743,47.15],[13.05987,47.14971],[13.06107,47.1494]]}},{"type":"Feature","properties":{"kind":"piste","difficulty":"intermediate","name":null,"aerialway":null,"osm":"way/1057953876"},"geometry":{"type":"LineString","coordinates":[[13.05556,47.14502],[13.05554,47.14514],[13.05605,47.14513],[13.0565,47.14452],[13.05995,47.14445],[13.06059,47.14417],[13.06098,47.14382],[13.06166,47.14364],[13.06225,47.14352],[13.06363,47.1436],[13.06536,47.14398],[13.06731,47.14496],[13.07055,47.1456],[13.07253,47.14625],[13.07355,47.14632],[13.07404,47.1462],[13.07418,47.14602],[13.07348,47.14542],[13.07307,47.14474],[13.07306,47.14421],[13.07455,47.14298],[13.07517,47.14207],[13.07879,47.13958],[13.07905,47.1393],[13.07877,47.1386],[13.07886,47.13826],[13.07959,47.13775],[13.08093,47.13711],[13.08086,47.13663]]}},{"type":"Feature","properties":{"kind":"piste","difficulty":"easy","name":null,"aerialway":null,"osm":"way/1057953877"},"geometry":{"type":"LineString","coordinates":[[13.08285,47.13782],[13.08284,47.13749],[13.08238,47.13653],[13.08114,47.13541],[13.08051,47.13459],[13.08056,47.13444],[13.08113,47.13409],[13.08097,47.13354],[13.08098,47.13289],[13.08068,47.13264],[13.0814,47.13272],[13.08166,47.13254]]}},{"type":"Feature","properties":{"kind":"piste","difficulty":"intermediate","name":"Käferstall","aerialway":null,"osm":"way/1057953878"},"geometry":{"type":"LineString","coordinates":[[13.07746,47.13522],[13.07712,47.13468],[13.07641,47.13414],[13.07717,47.13355],[13.07826,47.1331],[13.08099,47.13303]]}},{"type":"Feature","properties":{"kind":"piste","difficulty":"easy","name":null,"aerialway":null,"osm":"way/1057953879"},"geometry":{"type":"LineString","coordinates":[[13.07824,47.13179],[13.07843,47.13164],[13.07965,47.13177],[13.08042,47.13197],[13.08166,47.13254]]}},{"type":"Feature","properties":{"kind":"piste","difficulty":"easy","name":null,"aerialway":null,"osm":"way/1057953880"},"geometry":{"type":"LineString","coordinates":[[13.07253,47.14625],[13.07306,47.1469],[13.07386,47.14721],[13.07497,47.14821],[13.0746,47.14838],[13.07343,47.14818],[13.07232,47.14826],[13.072,47.14846],[13.07201,47.14866],[13.07223,47.14881]]}},{"type":"Feature","properties":{"kind":"piste","difficulty":"intermediate","name":"Schlosshochalm","aerialway":null,"osm":"way/1057953881"},"geometry":{"type":"LineString","coordinates":[[13.05682,47.14449],[13.06199,47.14493],[13.06387,47.14624]]}},{"type":"Feature","properties":{"kind":"piste","difficulty":"intermediate","name":"Schlosshochalm","aerialway":null,"osm":"way/1057953882"},"geometry":{"type":"LineString","coordinates":[[13.06225,47.14352],[13.06214,47.14382],[13.06224,47.1445],[13.06301,47.1457]]}},{"type":"Feature","properties":{"kind":"piste","difficulty":"intermediate","name":null,"aerialway":null,"osm":"way/1057953883"},"geometry":{"type":"LineString","coordinates":[[13.04508,47.15356],[13.04448,47.15328],[13.04455,47.15318],[13.04687,47.15193],[13.05052,47.15039],[13.05231,47.15005],[13.05357,47.14919]]}},{"type":"Feature","properties":{"kind":"piste","difficulty":"intermediate","name":null,"aerialway":null,"osm":"way/1057953884"},"geometry":{"type":"LineString","coordinates":[[13.04476,47.15305],[13.04599,47.15308],[13.04641,47.15295],[13.04877,47.15176],[13.04991,47.15132],[13.05072,47.15077],[13.05163,47.15059]]}},{"type":"Feature","properties":{"kind":"piste","difficulty":"intermediate","name":null,"aerialway":null,"osm":"way/1057953885"},"geometry":{"type":"LineString","coordinates":[[13.05194,47.15017],[13.0548,47.14987]]}},{"type":"Feature","properties":{"kind":"piste","difficulty":"intermediate","name":null,"aerialway":null,"osm":"way/1057953886"},"geometry":{"type":"LineString","coordinates":[[13.04448,47.15328],[13.04389,47.15359],[13.04384,47.15424],[13.04395,47.15466],[13.04413,47.15501],[13.04465,47.15537],[13.04529,47.1561],[13.04566,47.15632],[13.04728,47.15674],[13.04804,47.1569],[13.0494,47.15695],[13.05045,47.1572],[13.05103,47.15775],[13.05125,47.1582],[13.05149,47.16026],[13.05227,47.1618],[13.0531,47.16198],[13.05531,47.16201],[13.05576,47.16214],[13.0567,47.16286],[13.05771,47.16339],[13.05852,47.1637],[13.06011,47.16401]]}},{"type":"Feature","properties":{"kind":"piste","difficulty":"intermediate","name":null,"aerialway":null,"osm":"way/1057953887"},"geometry":{"type":"LineString","coordinates":[[13.05986,47.15528],[13.05938,47.15546],[13.05896,47.156],[13.05909,47.1573],[13.05977,47.15801],[13.05991,47.15914],[13.05925,47.16087],[13.05943,47.16118],[13.06022,47.16173],[13.06039,47.16208],[13.06004,47.16371],[13.06011,47.16401],[13.06078,47.16401],[13.06178,47.16327],[13.06253,47.16321],[13.0629,47.16334],[13.06441,47.16522],[13.06589,47.1666],[13.06612,47.16714],[13.06683,47.16804],[13.06741,47.16828],[13.06885,47.16851],[13.07005,47.16819],[13.07154,47.16658],[13.0721,47.16624],[13.07313,47.16592],[13.07466,47.16489],[13.07506,47.16495],[13.07754,47.16601]]}},{"type":"Feature","properties":{"kind":"piste","difficulty":"intermediate","name":null,"aerialway":null,"osm":"way/1057994334"},"geometry":{"type":"LineString","coordinates":[[13.06213,47.15566],[13.06321,47.1552],[13.06409,47.15513],[13.0657,47.15525],[13.06781,47.15575],[13.06965,47.15558],[13.07173,47.15602],[13.07258,47.15599],[13.07322,47.15582]]}},{"type":"Feature","properties":{"kind":"piste","difficulty":"intermediate","name":null,"aerialway":null,"osm":"way/1057994335"},"geometry":{"type":"LineString","coordinates":[[13.08288,47.16209],[13.08329,47.16247],[13.08342,47.16287],[13.08338,47.16341],[13.08291,47.16422]]}},{"type":"Feature","properties":{"kind":"piste","difficulty":"easy","name":null,"aerialway":null,"osm":"way/1057994336"},"geometry":{"type":"LineString","coordinates":[[13.08291,47.16422],[13.08387,47.16349],[13.08432,47.16254],[13.08478,47.16223],[13.08684,47.15997],[13.08691,47.15938],[13.08707,47.15905],[13.0872,47.15907],[13.08719,47.15929],[13.08743,47.1597],[13.08734,47.16119],[13.08682,47.16274],[13.08628,47.16355],[13.08607,47.16445],[13.08624,47.16525],[13.08595,47.16579],[13.08609,47.16615],[13.08599,47.16667],[13.08662,47.16735],[13.08698,47.16914],[13.0866,47.17069]]}},{"type":"Feature","properties":{"kind":"piste","difficulty":"intermediate","name":null,"aerialway":null,"osm":"way/1057994338"},"geometry":{"type":"LineString","coordinates":[[13.05986,47.15528],[13.05934,47.15567],[13.05983,47.15586],[13.06142,47.15593],[13.06213,47.15566],[13.06252,47.15492],[13.06305,47.15488],[13.06349,47.15464],[13.06451,47.15327],[13.06485,47.15314],[13.06763,47.15348],[13.06951,47.15397],[13.07322,47.15582],[13.07588,47.15694],[13.0764,47.1573],[13.07698,47.15836],[13.07697,47.15909],[13.07738,47.15962],[13.07885,47.16087],[13.08006,47.16248],[13.08022,47.1628],[13.08008,47.16352]]}},{"type":"Feature","properties":{"kind":"piste","difficulty":"intermediate","name":null,"aerialway":null,"osm":"way/1057994340"},"geometry":{"type":"LineString","coordinates":[[13.07322,47.15582],[13.07396,47.15535],[13.07411,47.15424],[13.07383,47.15353],[13.07387,47.15329],[13.07422,47.15372],[13.07476,47.15402],[13.07493,47.15426],[13.07495,47.15481],[13.07531,47.15568],[13.07585,47.15619],[13.07606,47.15608],[13.07687,47.15454],[13.07756,47.15389],[13.07797,47.15368],[13.07834,47.1537],[13.07851,47.15391]]}},{"type":"Feature","properties":{"kind":"piste","difficulty":"intermediate","name":null,"aerialway":null,"osm":"way/1057994341"},"geometry":{"type":"LineString","coordinates":[[13.0616,47.15342],[13.06451,47.15327]]}},{"type":"Feature","properties":{"kind":"piste","difficulty":"advanced","name":null,"aerialway":null,"osm":"way/1057994346"},"geometry":{"type":"LineString","coordinates":[[13.08124,47.12481],[13.08011,47.12561],[13.07917,47.12659],[13.07905,47.12786],[13.07886,47.12801],[13.078,47.12815],[13.0778,47.12824],[13.07776,47.12842],[13.0781,47.12899],[13.07882,47.12941],[13.0795,47.12956],[13.08042,47.13025],[13.08043,47.13055],[13.08093,47.13117]]}},{"type":"Feature","properties":{"kind":"piste","difficulty":"novice","name":null,"aerialway":null,"osm":"way/1073992776"},"geometry":{"type":"LineString","coordinates":[[13.08055,47.13165],[13.08107,47.13148]]}},{"type":"Feature","properties":{"kind":"piste","difficulty":"novice","name":null,"aerialway":null,"osm":"way/1073992777"},"geometry":{"type":"LineString","coordinates":[[13.07967,47.13157],[13.08053,47.13141]]}},{"type":"Feature","properties":{"kind":"piste","difficulty":"novice","name":null,"aerialway":null,"osm":"way/1073992778"},"geometry":{"type":"LineString","coordinates":[[13.07863,47.13133],[13.07978,47.13118]]}},{"type":"Feature","properties":{"kind":"piste","difficulty":"easy","name":null,"aerialway":null,"osm":"way/1073992779"},"geometry":{"type":"LineString","coordinates":[[13.08175,47.1318],[13.08166,47.13254]]}},{"type":"Feature","properties":{"kind":"piste","difficulty":"easy","name":null,"aerialway":null,"osm":"way/1073992780"},"geometry":{"type":"LineString","coordinates":[[13.08174,47.13211],[13.08196,47.13202]]}},{"type":"Feature","properties":{"kind":"piste","difficulty":"easy","name":null,"aerialway":null,"osm":"way/1079696885"},"geometry":{"type":"LineString","coordinates":[[13.06527,47.14688],[13.0653,47.14708],[13.06499,47.14718]]}},{"type":"Feature","properties":{"kind":"piste","difficulty":"intermediate","name":null,"aerialway":null,"osm":"way/1088604263"},"geometry":{"type":"LineString","coordinates":[[13.05163,47.15059],[13.05358,47.15069],[13.05514,47.15]]}},{"type":"Feature","properties":{"kind":"piste","difficulty":"easy","name":"Hamburger","aerialway":null,"osm":"way/1106631358"},"geometry":{"type":"LineString","coordinates":[[13.0829,47.16426],[13.08242,47.16457],[13.08262,47.16485]]}},{"type":"Feature","properties":{"kind":"piste","difficulty":"intermediate","name":null,"aerialway":null,"osm":"way/1108980384"},"geometry":{"type":"LineString","coordinates":[[13.06561,47.14684],[13.06581,47.14665],[13.0675,47.14647]]}},{"type":"Feature","properties":{"kind":"piste","difficulty":"easy","name":null,"aerialway":null,"osm":"way/1108980385"},"geometry":{"type":"LineString","coordinates":[[13.06496,47.14612],[13.06527,47.14688]]}},{"type":"Feature","properties":{"kind":"piste","difficulty":"intermediate","name":"Aeroplan","aerialway":null,"osm":"way/1108980388"},"geometry":{"type":"LineString","coordinates":[[13.09429,47.16762],[13.09441,47.16781],[13.09529,47.16813],[13.09609,47.169],[13.09652,47.16921],[13.09715,47.16923]]}},{"type":"Feature","properties":{"kind":"piste","difficulty":"intermediate","name":null,"aerialway":null,"osm":"way/1108980397"},"geometry":{"type":"LineString","coordinates":[[13.09467,47.16741],[13.09601,47.16734],[13.09751,47.16673],[13.09786,47.16638],[13.09839,47.16647],[13.098,47.16716],[13.09799,47.16757],[13.09776,47.16753],[13.09814,47.16669],[13.09789,47.16661],[13.09757,47.16691],[13.0971,47.16704],[13.0962,47.16759],[13.09462,47.16766],[13.09434,47.16745],[13.09467,47.16741]]}},{"type":"Feature","properties":{"kind":"piste","difficulty":"intermediate","name":"Aeroplan","aerialway":null,"osm":"way/1108980399"},"geometry":{"type":"LineString","coordinates":[[13.07754,47.16601],[13.07842,47.16615],[13.08026,47.16688],[13.08101,47.16747],[13.08425,47.16904],[13.08493,47.16971],[13.08683,47.17085],[13.08741,47.17096],[13.088,47.17087],[13.08849,47.17064],[13.09042,47.16928],[13.09068,47.16877],[13.09081,47.16804],[13.09121,47.16774],[13.09232,47.16757],[13.09429,47.16762],[13.09582,47.1675],[13.09664,47.16725],[13.09804,47.1665],[13.09827,47.16662],[13.09793,47.16717],[13.09788,47.16755]]}},{"type":"Feature","properties":{"kind":"piste","difficulty":"easy","name":null,"aerialway":null,"osm":"way/1117326956"},"geometry":{"type":"LineString","coordinates":[[13.08175,47.1318],[13.08144,47.13172]]}},{"type":"Feature","properties":{"kind":"piste","difficulty":"easy","name":null,"aerialway":null,"osm":"way/1117326957"},"geometry":{"type":"LineString","coordinates":[[13.08166,47.13254],[13.08125,47.13263]]}},{"type":"Feature","properties":{"kind":"piste","difficulty":"easy","name":null,"aerialway":null,"osm":"way/1117326958"},"geometry":{"type":"LineString","coordinates":[[13.08166,47.13254],[13.08209,47.13239]]}},{"type":"Feature","properties":{"kind":"piste","difficulty":"intermediate","name":null,"aerialway":null,"osm":"way/1134836382"},"geometry":{"type":"LineString","coordinates":[[13.07754,47.16601],[13.07821,47.16587]]}},{"type":"Feature","properties":{"kind":"piste","difficulty":"easy","name":null,"aerialway":null,"osm":"way/1162628183"},"geometry":{"type":"LineString","coordinates":[[13.09878,47.11348],[13.09924,47.11322],[13.09941,47.11261],[13.09936,47.11231],[13.09956,47.11178]]}},{"type":"Feature","properties":{"kind":"piste","difficulty":"novice","name":null,"aerialway":null,"osm":"way/1195630063"},"geometry":{"type":"LineString","coordinates":[[13.08044,47.13174],[13.08136,47.13228]]}},{"type":"Feature","properties":{"kind":"piste","difficulty":"intermediate","name":null,"aerialway":null,"osm":"way/1232955332"},"geometry":{"type":"LineString","coordinates":[[13.08074,47.16173],[13.08114,47.16191],[13.08288,47.16209],[13.08433,47.1621],[13.08495,47.1619],[13.08537,47.16158]]}},{"type":"Feature","properties":{"kind":"piste","difficulty":"easy","name":null,"aerialway":null,"osm":"way/1246020675"},"geometry":{"type":"LineString","coordinates":[[13.08519,47.12842],[13.08545,47.12864],[13.08614,47.13019],[13.0863,47.13086],[13.08668,47.13119],[13.08712,47.13212],[13.08809,47.1336],[13.08917,47.13447],[13.08948,47.13492],[13.09047,47.13586],[13.09099,47.1361],[13.09123,47.13653],[13.09183,47.13689],[13.09183,47.137]]}},{"type":"Feature","properties":{"kind":"piste","difficulty":"intermediate","name":"Käferstall","aerialway":null,"osm":"way/1246020676"},"geometry":{"type":"LineString","coordinates":[[13.07707,47.13387],[13.07745,47.13456],[13.07756,47.13521],[13.07769,47.13472],[13.07756,47.13429],[13.07732,47.13376],[13.07707,47.13387]]}},{"type":"Feature","properties":{"kind":"piste","difficulty":"intermediate","name":null,"aerialway":null,"osm":"way/1246020677"},"geometry":{"type":"LineString","coordinates":[[13.06479,47.15276],[13.06555,47.15174],[13.06597,47.1519],[13.06621,47.15243],[13.06668,47.15255],[13.06713,47.15243],[13.06852,47.15297],[13.06785,47.15302],[13.06715,47.15265],[13.06675,47.15272],[13.06674,47.15316],[13.06655,47.15314],[13.06671,47.15289],[13.06665,47.1528],[13.06599,47.15255],[13.06565,47.15254],[13.06522,47.15277],[13.06479,47.15276]]}},{"type":"Feature","properties":{"kind":"piste","difficulty":"intermediate","name":null,"aerialway":null,"osm":"way/1246086617"},"geometry":{"type":"LineString","coordinates":[[13.05992,47.1553],[13.05986,47.15528]]}},{"type":"Feature","properties":{"kind":"piste","difficulty":"intermediate","name":null,"aerialway":null,"osm":"way/1246086618"},"geometry":{"type":"LineString","coordinates":[[13.08242,47.16457],[13.08282,47.16454],[13.0831,47.16507],[13.08373,47.16556],[13.08565,47.16596],[13.08605,47.16626]]}},{"type":"Feature","properties":{"kind":"piste","difficulty":"intermediate","name":null,"aerialway":null,"osm":"way/1246086619"},"geometry":{"type":"LineString","coordinates":[[13.08254,47.1646],[13.08276,47.16456],[13.08337,47.16558],[13.08508,47.16596],[13.08599,47.16631],[13.08582,47.16584],[13.08369,47.16539],[13.08316,47.16505],[13.08286,47.16445],[13.08254,47.1646]]}},{"type":"Feature","properties":{"kind":"piste","difficulty":"intermediate","name":null,"aerialway":null,"osm":"way/1246086620"},"geometry":{"type":"LineString","coordinates":[[13.07543,47.1558],[13.07551,47.15505],[13.07602,47.15387],[13.07594,47.15317],[13.07475,47.15186],[13.07603,47.15319],[13.07609,47.15388],[13.07558,47.1551],[13.07558,47.15583],[13.07543,47.1558]]}},{"type":"Feature","properties":{"kind":"piste","difficulty":"easy","name":null,"aerialway":null,"osm":"way/1246086621"},"geometry":{"type":"LineString","coordinates":[[13.05891,47.15523],[13.05944,47.15463],[13.05937,47.1543],[13.05963,47.1544],[13.05957,47.15472],[13.05934,47.15497],[13.05993,47.15525],[13.05976,47.15543],[13.05891,47.15523]]}},{"type":"Feature","properties":{"kind":"piste","difficulty":"easy","name":null,"aerialway":null,"osm":"way/1246086622"},"geometry":{"type":"LineString","coordinates":[[13.05853,47.15235],[13.05901,47.15201],[13.05956,47.15212],[13.05982,47.15238],[13.05932,47.1521],[13.0589,47.15217],[13.05873,47.15242],[13.05853,47.15235]]}},{"type":"Feature","properties":{"kind":"piste","difficulty":"intermediate","name":null,"aerialway":null,"osm":"way/1246086623"},"geometry":{"type":"LineString","coordinates":[[13.06437,47.16546],[13.06415,47.16626],[13.06383,47.16658],[13.06449,47.1665],[13.06486,47.16618],[13.06532,47.16626],[13.0652,47.16612],[13.06486,47.16611],[13.06445,47.16645],[13.06391,47.16654],[13.0642,47.16627],[13.06447,47.1655],[13.06437,47.16546]]}},{"type":"Feature","properties":{"kind":"piste","difficulty":"intermediate","name":null,"aerialway":null,"osm":"way/1246086624"},"geometry":{"type":"LineString","coordinates":[[13.06504,47.14699],[13.06501,47.14687],[13.0644,47.14705],[13.06368,47.14751],[13.06333,47.14868],[13.06255,47.15006],[13.06125,47.15063],[13.06133,47.15095],[13.06259,47.15058],[13.0635,47.15003],[13.06368,47.1498],[13.0636,47.1492],[13.06389,47.1477],[13.0645,47.1471],[13.06504,47.14699]]}},{"type":"Feature","properties":{"kind":"piste","difficulty":"easy","name":null,"aerialway":null,"osm":"way/1246421857"},"geometry":{"type":"LineString","coordinates":[[13.09997,47.12461],[13.09913,47.1248],[13.09794,47.12453]]}},{"type":"Feature","properties":{"kind":"piste","difficulty":"intermediate","name":null,"aerialway":null,"osm":"way/1246421858"},"geometry":{"type":"LineString","coordinates":[[13.09587,47.12091],[13.09635,47.12127],[13.09846,47.1239]]}},{"type":"Feature","properties":{"kind":"piste","difficulty":"intermediate","name":null,"aerialway":null,"osm":"way/1246421859"},"geometry":{"type":"LineString","coordinates":[[13.09577,47.11775],[13.09624,47.11951],[13.09587,47.12091]]}},{"type":"Feature","properties":{"kind":"piste","difficulty":"easy","name":null,"aerialway":null,"osm":"way/1290840469"},"geometry":{"type":"LineString","coordinates":[[13.10955,47.11095],[13.10974,47.11066],[13.10976,47.10822],[13.10988,47.10812]]}},{"type":"Feature","properties":{"kind":"piste","difficulty":"advanced","name":"B24","aerialway":null,"osm":"way/1324990682"},"geometry":{"type":"LineString","coordinates":[[13.10076,47.11717],[13.1011,47.11799],[13.10156,47.11834],[13.1028,47.11846]]}},{"type":"Feature","properties":{"kind":"piste","difficulty":"intermediate","name":null,"aerialway":null,"osm":"way/1346755054"},"geometry":{"type":"LineString","coordinates":[[13.09952,47.11158],[13.09948,47.11135]]}},{"type":"Feature","properties":{"kind":"piste","difficulty":"intermediate","name":null,"aerialway":null,"osm":"way/1346755057"},"geometry":{"type":"LineString","coordinates":[[13.09956,47.11178],[13.09952,47.11158]]}},{"type":"Feature","properties":{"kind":"piste","difficulty":"intermediate","name":null,"aerialway":null,"osm":"way/1356125379"},"geometry":{"type":"LineString","coordinates":[[13.07564,47.15609],[13.07626,47.15721]]}},{"type":"Feature","properties":{"kind":"piste","difficulty":"intermediate","name":null,"aerialway":null,"osm":"way/1462303356"},"geometry":{"type":"LineString","coordinates":[[13.06192,47.15436],[13.06176,47.15442],[13.06184,47.15464],[13.06209,47.15483],[13.06252,47.15492]]}},{"type":"Feature","properties":{"kind":"piste","difficulty":"intermediate","name":null,"aerialway":null,"osm":"way/1462364860"},"geometry":{"type":"LineString","coordinates":[[13.07796,47.16585],[13.07804,47.16604],[13.07826,47.16614]]}},{"type":"Feature","properties":{"kind":"piste","difficulty":"unknown","name":"Ziehweg vom Offpistegebiet zum Skigebiet zurück","aerialway":null,"osm":"relation/15523128"},"geometry":{"type":"MultiLineString","coordinates":[[[13.07529,47.10779],[13.0752,47.10827],[13.07539,47.10844]],[[13.07539,47.10844],[13.07678,47.1085],[13.07786,47.10893],[13.07906,47.10976],[13.07998,47.10999],[13.08078,47.11039],[13.08164,47.11133],[13.0824,47.11179],[13.08285,47.11255],[13.08265,47.11331],[13.08274,47.11365],[13.08219,47.11441],[13.08209,47.11506],[13.0825,47.11548],[13.08268,47.11624],[13.083,47.1166],[13.08298,47.11686]],[[13.08298,47.11686],[13.08303,47.11726],[13.08293,47.11747]]]}},{"type":"Feature","properties":{"kind":"lift","difficulty":null,"name":"Sendleitenbahn","aerialway":"chair_lift","osm":"way/22719615"},"geometry":{"type":"LineString","coordinates":[[13.07827,47.15405],[13.06202,47.15436]]}},{"type":"Feature","properties":{"kind":"lift","difficulty":null,"name":"Weitmoser","aerialway":"chair_lift","osm":"way/22719616"},"geometry":{"type":"LineString","coordinates":[[13.06499,47.14718],[13.05298,47.14849]]}},{"type":"Feature","properties":{"kind":"lift","difficulty":null,"name":"Hohe Scharte","aerialway":"chair_lift","osm":"way/22719617"},"geometry":{"type":"LineString","coordinates":[[13.05321,47.14924],[13.04508,47.15356]]}},{"type":"Feature","properties":{"kind":"lift","difficulty":null,"name":"Angertalbahn","aerialway":"chair_lift","osm":"way/28622626"},"geometry":{"type":"LineString","coordinates":[[13.08209,47.13239],[13.09555,47.12215]]}},{"type":"Feature","properties":{"kind":"lift","difficulty":null,"name":"Kaserebenbahn","aerialway":"gondola","osm":"way/29576286"},"geometry":{"type":"LineString","coordinates":[[13.08144,47.13172],[13.06242,47.14336]]}},{"type":"Feature","properties":{"kind":"lift","difficulty":null,"name":"Senderbahn I","aerialway":"gondola","osm":"way/33380449"},"geometry":{"type":"LineString","coordinates":[[13.08196,47.13202],[13.08185,47.12509]]}},{"type":"Feature","properties":{"kind":"lift","difficulty":null,"name":"Jungeralmbahn","aerialway":"chair_lift","osm":"way/48974093"},"geometry":{"type":"LineString","coordinates":[[13.08329,47.11767],[13.09402,47.10518]]}},{"type":"Feature","properties":{"kind":"lift","difficulty":null,"name":"Schlosshochalmlift","aerialway":"t-bar","osm":"way/48974546"},"geometry":{"type":"LineString","coordinates":[[13.06252,47.14622],[13.05556,47.14502]]}},{"type":"Feature","properties":{"kind":"lift","difficulty":null,"name":"Burgstalllift","aerialway":"t-bar","osm":"way/137085519"},"geometry":{"type":"LineString","coordinates":[[13.10214,47.12415],[13.10233,47.11868]]}},{"type":"Feature","properties":{"kind":"lift","difficulty":null,"name":"Übungslift Judau","aerialway":"t-bar","osm":"way/175644801"},"geometry":{"type":"LineString","coordinates":[[13.08136,47.13266],[13.07808,47.13175]]}},{"type":"Feature","properties":{"kind":"lift","difficulty":null,"name":"Förderbänder Angertal","aerialway":"magic_carpet","osm":"way/233094021"},"geometry":{"type":"LineString","coordinates":[[13.08053,47.13141],[13.07967,47.13157]]}},{"type":"Feature","properties":{"kind":"lift","difficulty":null,"name":"Förderbänder Angertal","aerialway":"magic_carpet","osm":"way/233094022"},"geometry":{"type":"LineString","coordinates":[[13.07978,47.13118],[13.07863,47.13133]]}},{"type":"Feature","properties":{"kind":"lift","difficulty":null,"name":"Förderbänder Angertal","aerialway":"magic_carpet","osm":"way/233094024"},"geometry":{"type":"LineString","coordinates":[[13.08107,47.13148],[13.08055,47.13165]]}},{"type":"Feature","properties":{"kind":"lift","difficulty":null,"name":"Förderbänder Angertal","aerialway":"magic_carpet","osm":"way/233094026"},"geometry":{"type":"LineString","coordinates":[[13.07976,47.13055],[13.07864,47.13083]]}},{"type":"Feature","properties":{"kind":"lift","difficulty":null,"name":"Senderbahn II","aerialway":"gondola","osm":"way/448910019"},"geometry":{"type":"LineString","coordinates":[[13.08185,47.12509],[13.09864,47.11339]]}},{"type":"Feature","properties":{"kind":"lift","difficulty":null,"name":"Stubnerkogelbahn II","aerialway":"gondola","osm":"way/448912800"},"geometry":{"type":"LineString","coordinates":[[13.11214,47.1114],[13.09917,47.11188]]}},{"type":"Feature","properties":{"kind":"lift","difficulty":null,"name":"Schlossalmbahn II","aerialway":"gondola","osm":"way/510822840"},"geometry":{"type":"LineString","coordinates":[[13.0825,47.16511],[13.06001,47.15538]]}},{"type":"Feature","properties":{"kind":"lift","difficulty":null,"name":"Schlossalmbahn I","aerialway":"gondola","osm":"way/563394543"},"geometry":{"type":"LineString","coordinates":[[13.09823,47.16777],[13.0825,47.16511]]}},{"type":"Feature","properties":{"kind":"lift","difficulty":null,"name":null,"aerialway":"magic_carpet","osm":"way/566436432"},"geometry":{"type":"LineString","coordinates":[[13.09741,47.16973],[13.09701,47.16975]]}},{"type":"Feature","properties":{"kind":"lift","difficulty":null,"name":null,"aerialway":"magic_carpet","osm":"way/566727398"},"geometry":{"type":"LineString","coordinates":[[13.09736,47.16956],[13.09695,47.16958]]}},{"type":"Feature","properties":{"kind":"lift","difficulty":null,"name":"Förderbänder Angertal","aerialway":"magic_carpet","osm":"way/1195630062"},"geometry":{"type":"LineString","coordinates":[[13.08136,47.13228],[13.08044,47.13174]]}}]}