{"type":"FeatureCollection","features":[{"type":"Feature","properties":{"kind":"piste","difficulty":"intermediate","name":"Notwegabfahrt","aerialway":null,"osm":"way/23510278"},"geometry":{"type":"LineString","coordinates":[[10.88851,46.92021],[10.89075,46.92032],[10.89158,46.92056],[10.89277,46.92126],[10.89541,46.92365],[10.89695,46.92559],[10.89799,46.92659],[10.90033,46.93034],[10.9017,46.93122],[10.90194,46.93167],[10.90206,46.93231],[10.90142,46.93335],[10.90182,46.93398],[10.90179,46.93412],[10.89878,46.93699],[10.89784,46.93741],[10.89758,46.93737],[10.89739,46.9367],[10.89662,46.93663],[10.89658,46.93644],[10.89688,46.93614],[10.89534,46.93629],[10.89414,46.93615],[10.89158,46.93667],[10.89117,46.93685],[10.89089,46.93742],[10.89168,46.93717],[10.8914,46.93771],[10.89211,46.93752],[10.89181,46.9379],[10.89288,46.93792],[10.89223,46.93873],[10.8921,46.93916],[10.89215,46.94049],[10.89203,46.94092],[10.89087,46.94279],[10.89081,46.94422],[10.88892,46.94575],[10.88842,46.94641],[10.88497,46.95],[10.88335,46.95123],[10.88317,46.95147],[10.88295,46.95231],[10.88157,46.95287],[10.88058,46.95375],[10.87997,46.954],[10.87904,46.95462],[10.87664,46.95647],[10.87587,46.95743]]}},{"type":"Feature","properties":{"kind":"piste","difficulty":"easy","name":null,"aerialway":null,"osm":"way/23511329"},"geometry":{"type":"LineString","coordinates":[[10.85557,46.92224],[10.85561,46.9225],[10.85711,46.92299],[10.8676,46.92445],[10.87026,46.92496],[10.87094,46.92528],[10.8708,46.92592],[10.87106,46.92653],[10.87196,46.92701],[10.87264,46.92717],[10.87411,46.92715],[10.87621,46.92684],[10.87876,46.92638],[10.8791,46.92615]]}},{"type":"Feature","properties":{"kind":"piste","difficulty":"intermediate","name":null,"aerialway":null,"osm":"way/23511332"},"geometry":{"type":"LineString","coordinates":[[10.8647,46.91129],[10.86476,46.91117],[10.86412,46.91134],[10.86323,46.91126],[10.86295,46.91119],[10.86287,46.91089],[10.86305,46.91054],[10.86456,46.90901],[10.86546,46.90841],[10.86623,46.90818],[10.86767,46.90832],[10.86932,46.90869],[10.87253,46.9097],[10.8749,46.91073],[10.88017,46.91267],[10.88299,46.91402],[10.88471,46.91467],[10.88648,46.91564],[10.88676,46.91594],[10.8869,46.91756]]}},{"type":"Feature","properties":{"kind":"piste","difficulty":"intermediate","name":null,"aerialway":null,"osm":"way/23511341"},"geometry":{"type":"LineString","coordinates":[[10.86542,46.91765],[10.86673,46.91839],[10.87019,46.92114],[10.87121,46.92206],[10.87303,46.92413]]}},{"type":"Feature","properties":{"kind":"piste","difficulty":"easy","name":null,"aerialway":null,"osm":"way/23511344"},"geometry":{"type":"LineString","coordinates":[[10.86983,46.92403],[10.87303,46.92413],[10.87597,46.92354],[10.8782,46.92292],[10.87884,46.92254],[10.87977,46.92138],[10.88133,46.921],[10.88357,46.92112],[10.88553,46.92143],[10.88783,46.92122],[10.88911,46.92128]]}},{"type":"Feature","properties":{"kind":"piste","difficulty":"intermediate","name":null,"aerialway":null,"osm":"way/23511347"},"geometry":{"type":"LineString","coordinates":[[10.8707,46.90912],[10.87121,46.90964],[10.8726,46.9118],[10.87327,46.9148],[10.87383,46.91619],[10.87337,46.91734],[10.87349,46.91773],[10.87949,46.91858],[10.88217,46.91932]]}},{"type":"Feature","properties":{"kind":"piste","difficulty":"easy","name":null,"aerialway":null,"osm":"way/29007839"},"geometry":{"type":"LineString","coordinates":[[10.86983,46.92403],[10.8704,46.92425],[10.87077,46.92463],[10.87094,46.92528],[10.87458,46.92654],[10.87585,46.92672],[10.87698,46.92671]]}},{"type":"Feature","properties":{"kind":"piste","difficulty":"easy","name":null,"aerialway":null,"osm":"way/29007840"},"geometry":{"type":"LineString","coordinates":[[10.88045,46.92611],[10.8803,46.92601],[10.88181,46.92462],[10.88582,46.92244],[10.88845,46.92263],[10.88979,46.92239]]}},{"type":"Feature","properties":{"kind":"piste","difficulty":"intermediate","name":"Snowpark","aerialway":null,"osm":"way/29054388"},"geometry":{"type":"LineString","coordinates":[[10.88489,46.92366],[10.88762,46.92312]]}},{"type":"Feature","properties":{"kind":"piste","difficulty":"easy","name":"32","aerialway":null,"osm":"way/30247772"},"geometry":{"type":"LineString","coordinates":[[10.92951,46.92586],[10.92966,46.92587],[10.92963,46.92618],[10.92935,46.92622],[10.92692,46.92501]]}},{"type":"Feature","properties":{"kind":"piste","difficulty":"easy","name":null,"aerialway":null,"osm":"way/30247773"},"geometry":{"type":"LineString","coordinates":[[10.92633,46.92324],[10.92619,46.92312],[10.92498,46.92314],[10.92474,46.9217],[10.92514,46.92007]]}},{"type":"Feature","properties":{"kind":"piste","difficulty":"easy","name":"38","aerialway":null,"osm":"way/30247780"},"geometry":{"type":"LineString","coordinates":[[10.91854,46.92059],[10.91855,46.92078],[10.91893,46.92103],[10.92003,46.92109],[10.92662,46.91969],[10.92904,46.9195],[10.93886,46.92141],[10.94397,46.9222],[10.9452,46.92228]]}},{"type":"Feature","properties":{"kind":"piste","difficulty":"easy","name":null,"aerialway":null,"osm":"way/30247782"},"geometry":{"type":"LineString","coordinates":[[10.92583,46.92483],[10.92692,46.92501],[10.92703,46.9249]]}},{"type":"Feature","properties":{"kind":"piste","difficulty":"intermediate","name":null,"aerialway":null,"osm":"way/30909885"},"geometry":{"type":"LineString","coordinates":[[10.87993,46.91809],[10.88008,46.91833],[10.88087,46.91891],[10.88286,46.9195],[10.88467,46.92041],[10.88571,46.92077],[10.88783,46.92122]]}},{"type":"Feature","properties":{"kind":"piste","difficulty":"easy","name":"Gletscher Skitunnel","aerialway":null,"osm":"way/41749537"},"geometry":{"type":"LineString","coordinates":[[10.92703,46.9249],[10.92633,46.92324]]}},{"type":"Feature","properties":{"kind":"piste","difficulty":"easy","name":"32","aerialway":null,"osm":"way/46613728"},"geometry":{"type":"LineString","coordinates":[[10.92583,46.92483],[10.9262,46.9256],[10.92645,46.92672],[10.92656,46.92936],[10.92754,46.93111],[10.9278,46.93194],[10.92764,46.93256],[10.92714,46.93301],[10.92661,46.93328],[10.92623,46.9332],[10.92605,46.93299]]}},{"type":"Feature","properties":{"kind":"piste","difficulty":"easy","name":null,"aerialway":null,"osm":"way/47422474"},"geometry":{"type":"LineString","coordinates":[[10.87303,46.92413],[10.87353,46.92463],[10.87431,46.92469],[10.8768,46.92442],[10.87991,46.92382],[10.88109,46.92404],[10.88341,46.92369],[10.88482,46.92364],[10.88561,46.92386],[10.88751,46.92393],[10.88761,46.92288],[10.88831,46.92261]]}},{"type":"Feature","properties":{"kind":"piste","difficulty":"easy","name":null,"aerialway":null,"osm":"way/47422476"},"geometry":{"type":"LineString","coordinates":[[10.87436,46.92783],[10.87458,46.92708]]}},{"type":"Feature","properties":{"kind":"piste","difficulty":"intermediate","name":null,"aerialway":null,"osm":"way/49833032"},"geometry":{"type":"LineString","coordinates":[[10.879,46.91225],[10.87994,46.91362],[10.88073,46.91423],[10.88066,46.91453]]}},{"type":"Feature","properties":{"kind":"piste","difficulty":"intermediate","name":null,"aerialway":null,"osm":"way/49836026"},"geometry":{"type":"LineString","coordinates":[[10.87062,46.90949],[10.87132,46.90977],[10.87167,46.91046],[10.87344,46.91665],[10.87416,46.91723],[10.87527,46.91759],[10.87963,46.91837],[10.88068,46.91916],[10.87951,46.91886],[10.87638,46.9184],[10.874,46.91762],[10.87293,46.91692],[10.87119,46.91056],[10.87062,46.90949]]}},{"type":"Feature","properties":{"kind":"piste","difficulty":"intermediate","name":null,"aerialway":null,"osm":"way/49836027"},"geometry":{"type":"LineString","coordinates":[[10.86419,46.91125],[10.86418,46.91142],[10.86285,46.91125],[10.86264,46.91057],[10.86542,46.9081],[10.86623,46.90798],[10.8695,46.90836],[10.87248,46.90921],[10.8781,46.9114],[10.87993,46.91246],[10.88729,46.91545],[10.88763,46.91619],[10.88721,46.91761],[10.88855,46.91996],[10.88944,46.92212],[10.88961,46.92229],[10.88932,46.92232],[10.88918,46.92216],[10.88892,46.92112],[10.88696,46.91844],[10.8861,46.91575],[10.87983,46.91284],[10.87686,46.9116],[10.87287,46.91019],[10.86919,46.90908],[10.8663,46.90844],[10.86542,46.90863],[10.86439,46.90942],[10.86313,46.9107],[10.86301,46.91096],[10.86419,46.91125]]}},{"type":"Feature","properties":{"kind":"piste","difficulty":"easy","name":null,"aerialway":null,"osm":"way/49836030"},"geometry":{"type":"LineString","coordinates":[[10.85561,46.9225],[10.85564,46.92238],[10.87009,46.92472],[10.87094,46.92528],[10.87133,46.92575],[10.8714,46.92622],[10.87273,46.92687],[10.87535,46.92681],[10.8791,46.92615],[10.87856,46.92653],[10.87479,46.92735],[10.87442,46.92762],[10.87399,46.92744],[10.87264,46.92751],[10.87103,46.92688],[10.87006,46.92529],[10.86905,46.9249],[10.86722,46.92453],[10.85943,46.92402],[10.85715,46.92342],[10.85572,46.9228],[10.85561,46.9225]]}},{"type":"Feature","properties":{"kind":"piste","difficulty":"easy","name":null,"aerialway":null,"osm":"way/49836031"},"geometry":{"type":"LineString","coordinates":[[10.86979,46.92437],[10.87107,46.92438],[10.87143,46.92516],[10.87477,46.92628],[10.876,46.92648],[10.8772,46.92644],[10.87535,46.92681],[10.87436,46.92678],[10.87274,46.92647],[10.87154,46.92602],[10.87094,46.92528],[10.87009,46.92472],[10.86979,46.92437]]}},{"type":"Feature","properties":{"kind":"piste","difficulty":"easy","name":null,"aerialway":null,"osm":"way/49836032"},"geometry":{"type":"LineString","coordinates":[[10.88051,46.92539],[10.88138,46.92461],[10.8853,46.92234],[10.8863,46.92222],[10.88865,46.92247],[10.88932,46.92232],[10.88971,46.92236],[10.88869,46.92277],[10.88635,46.9227],[10.88517,46.92302],[10.88238,46.92465],[10.88133,46.92551],[10.88051,46.92539]]}},{"type":"Feature","properties":{"kind":"piste","difficulty":"easy","name":null,"aerialway":null,"osm":"way/49836033"},"geometry":{"type":"LineString","coordinates":[[10.86991,46.92391],[10.87234,46.92405],[10.87803,46.92276],[10.87861,46.92242],[10.8795,46.92122],[10.88134,46.92088],[10.88359,46.92102],[10.8855,46.92138],[10.88802,46.9211],[10.88892,46.92112],[10.88902,46.92139],[10.88785,46.92131],[10.88549,46.92149],[10.88134,46.92111],[10.88002,46.92147],[10.87902,46.92279],[10.8784,46.92307],[10.87263,46.92433],[10.87107,46.92438],[10.86991,46.92391]]}},{"type":"Feature","properties":{"kind":"piste","difficulty":"easy","name":null,"aerialway":null,"osm":"way/49836034"},"geometry":{"type":"LineString","coordinates":[[10.87263,46.92433],[10.87365,46.92415],[10.87411,46.92449],[10.87677,46.92426],[10.87985,46.92367],[10.88197,46.92385],[10.88276,46.92355],[10.88354,46.92344],[10.88258,46.92396],[10.88182,46.92417],[10.88103,46.92422],[10.87991,46.924],[10.87697,46.92458],[10.87382,46.92488],[10.87302,46.92483],[10.87263,46.92433]]}},{"type":"Feature","properties":{"kind":"piste","difficulty":"intermediate","name":null,"aerialway":null,"osm":"way/49836035"},"geometry":{"type":"LineString","coordinates":[[10.87983,46.91284],[10.87994,46.91362],[10.87963,46.91527],[10.87972,46.9174],[10.88033,46.91834],[10.88108,46.91874],[10.88295,46.91937],[10.88479,46.92031],[10.88802,46.9211],[10.88729,46.92125],[10.88655,46.92123],[10.88487,46.92072],[10.882,46.91949],[10.88068,46.91916],[10.87963,46.91837],[10.87916,46.91726],[10.87912,46.91496],[10.87938,46.91374],[10.8786,46.91234],[10.87983,46.91284]]}},{"type":"Feature","properties":{"kind":"piste","difficulty":"novice","name":null,"aerialway":null,"osm":"way/49836036"},"geometry":{"type":"LineString","coordinates":[[10.8795,46.92665],[10.87856,46.92653],[10.8791,46.92615],[10.88006,46.92579],[10.88051,46.92539],[10.88133,46.92551],[10.88114,46.92578],[10.87958,46.92645],[10.8795,46.92665]]}},{"type":"Feature","properties":{"kind":"piste","difficulty":"intermediate","name":null,"aerialway":null,"osm":"way/49844048"},"geometry":{"type":"LineString","coordinates":[[10.866,46.91749],[10.86925,46.91979],[10.87087,46.92115],[10.87345,46.92375],[10.87234,46.92405],[10.8701,46.92141],[10.86658,46.91876],[10.866,46.91749]]}},{"type":"Feature","properties":{"kind":"piste","difficulty":"intermediate","name":null,"aerialway":null,"osm":"way/49844049"},"geometry":{"type":"LineString","coordinates":[[10.86442,46.91652],[10.866,46.91749],[10.86867,46.9231],[10.86991,46.92391],[10.86825,46.9237],[10.86781,46.92334],[10.86697,46.92152],[10.86452,46.91781],[10.86321,46.91673],[10.86442,46.91652]]}},{"type":"Feature","properties":{"kind":"piste","difficulty":"intermediate","name":null,"aerialway":null,"osm":"way/88810161"},"geometry":{"type":"LineString","coordinates":[[10.87163,46.90941],[10.87319,46.91161],[10.87404,46.91342],[10.8746,46.91409],[10.87533,46.91465],[10.8781,46.91532],[10.87838,46.91639],[10.87924,46.9175],[10.87993,46.91809]]}},{"type":"Feature","properties":{"kind":"piste","difficulty":"easy","name":"39","aerialway":null,"osm":"way/110448040"},"geometry":{"type":"LineString","coordinates":[[10.92514,46.92007],[10.92639,46.91918],[10.92797,46.91729],[10.9293,46.9164],[10.93041,46.91628],[10.93159,46.91635],[10.93244,46.91652],[10.93388,46.91715],[10.93738,46.9179],[10.94146,46.91933],[10.94312,46.91948],[10.94463,46.9202],[10.94595,46.92111],[10.9452,46.92228],[10.94515,46.92269],[10.94528,46.92285],[10.94478,46.92295]]}},{"type":"Feature","properties":{"kind":"piste","difficulty":"easy","name":"32","aerialway":null,"osm":"way/315883058"},"geometry":{"type":"LineString","coordinates":[[10.92458,46.93445],[10.9245,46.93426],[10.92464,46.93402],[10.92562,46.93346],[10.92605,46.93299]]}},{"type":"Feature","properties":{"kind":"piste","difficulty":"easy","name":"38","aerialway":null,"osm":"way/315884751"},"geometry":{"type":"LineString","coordinates":[[10.92498,46.92314],[10.92442,46.92303],[10.9208,46.921]]}},{"type":"Feature","properties":{"kind":"piste","difficulty":"easy","name":"39","aerialway":null,"osm":"way/315934888"},"geometry":{"type":"LineString","coordinates":[[10.91977,46.91703],[10.9198,46.91717],[10.92002,46.91725],[10.92441,46.91825],[10.92904,46.9195]]}},{"type":"Feature","properties":{"kind":"piste","difficulty":"easy","name":"32","aerialway":null,"osm":"way/316792620"},"geometry":{"type":"LineString","coordinates":[[10.92458,46.93445],[10.92485,46.9344],[10.92509,46.93388],[10.92661,46.93328]]}},{"type":"Feature","properties":{"kind":"piste","difficulty":"easy","name":"32","aerialway":null,"osm":"way/317701004"},"geometry":{"type":"LineString","coordinates":[[10.92694,46.92496],[10.92468,46.92486],[10.92519,46.9292],[10.92516,46.93055],[10.92678,46.93123],[10.92702,46.93148],[10.92731,46.93253],[10.92709,46.93288],[10.92656,46.93319],[10.92523,46.93371],[10.92538,46.93395],[10.92767,46.93358],[10.92768,46.93315],[10.92808,46.93188],[10.92891,46.93021],[10.92837,46.92967],[10.92692,46.92596],[10.92694,46.92496]]}},{"type":"Feature","properties":{"kind":"piste","difficulty":"easy","name":"39","aerialway":null,"osm":"way/317701411"},"geometry":{"type":"LineString","coordinates":[[10.92748,46.91791],[10.93269,46.91913],[10.9335,46.91877],[10.93424,46.91766],[10.93539,46.91745]]}},{"type":"Feature","properties":{"kind":"piste","difficulty":"easy","name":"38","aerialway":null,"osm":"way/317701958"},"geometry":{"type":"LineString","coordinates":[[10.92576,46.91936],[10.9194,46.92079],[10.9184,46.92062],[10.91847,46.92094],[10.91861,46.92093],[10.9187,46.9214],[10.91946,46.92177],[10.92427,46.92074],[10.92439,46.92233],[10.92467,46.92319],[10.92528,46.9232],[10.92507,46.92158],[10.92597,46.92035],[10.92638,46.92014],[10.9278,46.91987],[10.92955,46.91992],[10.92576,46.91936]]}},{"type":"Feature","properties":{"kind":"piste","difficulty":"advanced","name":"31","aerialway":null,"osm":"way/440323830"},"geometry":{"type":"LineString","coordinates":[[10.92458,46.93445],[10.92439,46.93464],[10.92448,46.93474],[10.92536,46.93438],[10.92688,46.93451]]}},{"type":"Feature","properties":{"kind":"piste","difficulty":"easy","name":"39","aerialway":null,"osm":"way/440604010"},"geometry":{"type":"LineString","coordinates":[[10.91977,46.91703],[10.92247,46.91701],[10.92748,46.91791]]}},{"type":"Feature","properties":{"kind":"piste","difficulty":"easy","name":null,"aerialway":null,"osm":"way/440604011"},"geometry":{"type":"LineString","coordinates":[[10.92576,46.91936],[10.93298,46.92048],[10.9341,46.92075],[10.93468,46.92117],[10.93594,46.92148],[10.93898,46.92185],[10.93975,46.92215],[10.94302,46.92291],[10.94401,46.92356],[10.94428,46.9235],[10.94421,46.92294],[10.94453,46.92261],[10.9453,46.92252],[10.94585,46.92221],[10.94538,46.92203],[10.93464,46.91992],[10.93273,46.9192],[10.92983,46.91954],[10.92698,46.91911],[10.92576,46.91936]]}},{"type":"Feature","properties":{"kind":"piste","difficulty":"easy","name":"39","aerialway":null,"osm":"way/440604012"},"geometry":{"type":"LineString","coordinates":[[10.92904,46.9195],[10.93141,46.91943],[10.93273,46.9192],[10.93314,46.91896],[10.92712,46.91724],[10.92161,46.91657],[10.92047,46.91657],[10.91992,46.91684],[10.91961,46.91744],[10.92221,46.91792],[10.92698,46.91911],[10.92904,46.9195]]}},{"type":"Feature","properties":{"kind":"piste","difficulty":"easy","name":"39","aerialway":null,"osm":"way/440604013"},"geometry":{"type":"LineString","coordinates":[[10.92904,46.9195],[10.93269,46.91913]]}},{"type":"Feature","properties":{"kind":"piste","difficulty":"easy","name":"38","aerialway":null,"osm":"way/440604014"},"geometry":{"type":"LineString","coordinates":[[10.93269,46.91913],[10.93311,46.9192],[10.93432,46.91986],[10.93522,46.92009],[10.93621,46.92013]]}},{"type":"Feature","properties":{"kind":"piste","difficulty":"easy","name":"38","aerialway":null,"osm":"way/440604015"},"geometry":{"type":"LineString","coordinates":[[10.93522,46.92009],[10.93623,46.92053],[10.93699,46.92108]]}},{"type":"Feature","properties":{"kind":"piste","difficulty":"intermediate","name":null,"aerialway":null,"osm":"way/513976555"},"geometry":{"type":"LineString","coordinates":[[10.87766,46.91175],[10.88124,46.91196],[10.88377,46.91239],[10.88562,46.91343],[10.88689,46.91503],[10.88709,46.91594],[10.8869,46.91756]]}},{"type":"Feature","properties":{"kind":"piste","difficulty":"intermediate","name":null,"aerialway":null,"osm":"way/513976556"},"geometry":{"type":"LineString","coordinates":[[10.8869,46.91756],[10.88753,46.91883],[10.88911,46.92128],[10.88948,46.92232],[10.88963,46.92238]]}},{"type":"Feature","properties":{"kind":"piste","difficulty":"easy","name":null,"aerialway":null,"osm":"way/513976557"},"geometry":{"type":"LineString","coordinates":[[10.87819,46.92648],[10.87863,46.92655]]}},{"type":"Feature","properties":{"kind":"piste","difficulty":"easy","name":null,"aerialway":null,"osm":"way/513976558"},"geometry":{"type":"LineString","coordinates":[[10.88894,46.92255],[10.88934,46.92251],[10.88948,46.92255],[10.88942,46.92267]]}},{"type":"Feature","properties":{"kind":"piste","difficulty":"easy","name":null,"aerialway":null,"osm":"way/513976559"},"geometry":{"type":"LineString","coordinates":[[10.8796,46.92699],[10.8796,46.92646],[10.87908,46.92581]]}},{"type":"Feature","properties":{"kind":"piste","difficulty":"easy","name":null,"aerialway":null,"osm":"way/513976560"},"geometry":{"type":"LineString","coordinates":[[10.8791,46.92615],[10.8803,46.92601]]}},{"type":"Feature","properties":{"kind":"piste","difficulty":"intermediate","name":"Notwegabfahrt","aerialway":null,"osm":"way/617413828"},"geometry":{"type":"LineString","coordinates":[[10.885,46.92286],[10.88504,46.92244],[10.88571,46.92194],[10.88561,46.92142],[10.8858,46.92118],[10.88624,46.92104],[10.88749,46.92104],[10.88848,46.92051],[10.88851,46.92021]]}},{"type":"Feature","properties":{"kind":"piste","difficulty":"intermediate","name":null,"aerialway":null,"osm":"way/1315020996"},"geometry":{"type":"LineString","coordinates":[[10.92621,46.92313],[10.92591,46.92233],[10.92593,46.92195],[10.92608,46.92143],[10.92641,46.92096],[10.92681,46.92069],[10.93141,46.91994]]}},{"type":"Feature","properties":{"kind":"piste","difficulty":"intermediate","name":null,"aerialway":null,"osm":"way/1417462874"},"geometry":{"type":"LineString","coordinates":[[10.86443,46.91702],[10.86542,46.91765],[10.86589,46.91836],[10.86726,46.92081],[10.86834,46.92338],[10.86983,46.92403]]}},{"type":"Feature","properties":{"kind":"piste","difficulty":"easy","name":"Wisbi Run","aerialway":null,"osm":"way/1417462876"},"geometry":{"type":"LineString","coordinates":[[10.86522,46.92336],[10.86786,46.92384],[10.86983,46.92403]]}},{"type":"Feature","properties":{"kind":"piste","difficulty":"easy","name":null,"aerialway":null,"osm":"way/1417463659"},"geometry":{"type":"LineString","coordinates":[[10.87353,46.92463],[10.87411,46.92639],[10.87458,46.92708]]}},{"type":"Feature","properties":{"kind":"piste","difficulty":"freeride","name":null,"aerialway":null,"osm":"way/1419236941"},"geometry":{"type":"LineString","coordinates":[[10.87958,46.9131],[10.87963,46.91414],[10.87927,46.9153],[10.87953,46.91775]]}},{"type":"Feature","properties":{"kind":"piste","difficulty":"freeride","name":null,"aerialway":null,"osm":"way/1419236942"},"geometry":{"type":"LineString","coordinates":[[10.87963,46.91403],[10.87604,46.91516],[10.87477,46.91532],[10.87418,46.91558],[10.87418,46.91588],[10.87382,46.91616]]}},{"type":"Feature","properties":{"kind":"piste","difficulty":"easy","name":null,"aerialway":null,"osm":"way/1421306560"},"geometry":{"type":"LineString","coordinates":[[10.87961,46.92665],[10.87919,46.92652],[10.87857,46.92646],[10.87863,46.92655]]}},{"type":"Feature","properties":{"kind":"piste","difficulty":"easy","name":null,"aerialway":null,"osm":"way/1421306561"},"geometry":{"type":"LineString","coordinates":[[10.87876,46.92638],[10.87929,46.92645],[10.87961,46.92665]]}},{"type":"Feature","properties":{"kind":"piste","difficulty":"easy","name":"Wisbi Run","aerialway":null,"osm":"way/1513212782"},"geometry":{"type":"LineString","coordinates":[[10.86533,46.92325],[10.86991,46.92391],[10.87107,46.92438],[10.86789,46.92419],[10.86463,46.92344],[10.86533,46.92325]]}},{"type":"Feature","properties":{"kind":"piste","difficulty":"intermediate","name":null,"aerialway":null,"osm":"way/1552084807"},"geometry":{"type":"LineString","coordinates":[[10.8781,46.91532],[10.87884,46.91548],[10.88094,46.91698],[10.88447,46.92031]]}},{"type":"Feature","properties":{"kind":"piste","difficulty":"intermediate","name":null,"aerialway":null,"osm":"way/1552084808"},"geometry":{"type":"LineString","coordinates":[[10.88924,46.92173],[10.88987,46.922],[10.89052,46.92281],[10.8946,46.92297],[10.89613,46.92312],[10.89719,46.92342],[10.89971,46.92932]]}},{"type":"Feature","properties":{"kind":"lift","difficulty":null,"name":"Mittelbergbahn","aerialway":"gondola","osm":"way/23510277"},"geometry":{"type":"LineString","coordinates":[[10.88979,46.92239],[10.88066,46.91453],[10.8647,46.91129]]}},{"type":"Feature","properties":{"kind":"lift","difficulty":null,"name":"Brunnenkogellift","aerialway":"t-bar","osm":"way/23511343"},"geometry":{"type":"LineString","coordinates":[[10.8791,46.92615],[10.85508,46.92216]]}},{"type":"Feature","properties":{"kind":"lift","difficulty":null,"name":"Wildspitzbahn","aerialway":"gondola","osm":"way/23511345"},"geometry":{"type":"LineString","coordinates":[[10.87908,46.92581],[10.86247,46.91279]]}},{"type":"Feature","properties":{"kind":"lift","difficulty":null,"name":"Gletschersee","aerialway":"chair_lift","osm":"way/23511348"},"geometry":{"type":"LineString","coordinates":[[10.88942,46.92267],[10.88045,46.92611]]}},{"type":"Feature","properties":{"kind":"lift","difficulty":null,"name":"Tiefenbachbahn","aerialway":"gondola","osm":"way/28523287"},"geometry":{"type":"LineString","coordinates":[[10.94478,46.92295],[10.91854,46.92059]]}},{"type":"Feature","properties":{"kind":"lift","difficulty":null,"name":"Karleskogl","aerialway":"t-bar","osm":"way/28523291"},"geometry":{"type":"LineString","coordinates":[[10.92605,46.93299],[10.92581,46.9244]]}},{"type":"Feature","properties":{"kind":"lift","difficulty":null,"name":"Mutkogl","aerialway":"t-bar","osm":"way/44044858"},"geometry":{"type":"LineString","coordinates":[[10.94643,46.92207],[10.9191,46.91691]]}},{"type":"Feature","properties":{"kind":"lift","difficulty":null,"name":"Mittagskogel","aerialway":"platter","osm":"way/47422475"},"geometry":{"type":"LineString","coordinates":[[10.87863,46.92655],[10.8738,46.928]]}},{"type":"Feature","properties":{"kind":"lift","difficulty":null,"name":null,"aerialway":"magic_carpet","osm":"way/95648828"},"geometry":{"type":"LineString","coordinates":[[10.87814,46.92615],[10.87725,46.92612]]}},{"type":"Feature","properties":{"kind":"lift","difficulty":null,"name":"Schwarze Schneid II","aerialway":"gondola","osm":"way/140592069"},"geometry":{"type":"LineString","coordinates":[[10.92458,46.93445],[10.92951,46.92586]]}}]}