{"type":"FeatureCollection","features":[{"type":"Feature","properties":{"kind":"lift","difficulty":null,"name":"Starnberglift 2","aerialway":"t-bar","osm":"way/19232331"},"geometry":{"type":"LineString","coordinates":[[14.32952,47.06296],[14.32972,47.05209]]}},{"type":"Feature","properties":{"kind":"lift","difficulty":null,"name":"Grebenzenbahn","aerialway":"chair_lift","osm":"way/19232525"},"geometry":{"type":"LineString","coordinates":[[14.31073,47.07257],[14.3208,47.06437]]}},{"type":"Feature","properties":{"kind":"lift","difficulty":null,"name":"Starnberglift 1","aerialway":"t-bar","osm":"way/19232541"},"geometry":{"type":"LineString","coordinates":[[14.32104,47.06447],[14.32767,47.06393]]}},{"type":"Feature","properties":{"kind":"lift","difficulty":null,"name":"Dreiwiesenlift","aerialway":"t-bar","osm":"way/19232578"},"geometry":{"type":"LineString","coordinates":[[14.33341,47.03478],[14.33151,47.03931]]}},{"type":"Feature","properties":{"kind":"lift","difficulty":null,"name":"Grebenzenlift","aerialway":"t-bar","osm":"way/19232589"},"geometry":{"type":"LineString","coordinates":[[14.33277,47.05158],[14.3314,47.03972]]}},{"type":"Feature","properties":{"kind":"lift","difficulty":null,"name":"5 - Sonnenlift","aerialway":"drag_lift","osm":"way/19310113"},"geometry":{"type":"LineString","coordinates":[[14.31078,47.07278],[14.31476,47.07209]]}},{"type":"Feature","properties":{"kind":"piste","difficulty":"intermediate","name":null,"aerialway":null,"osm":"way/405267954"},"geometry":{"type":"LineString","coordinates":[[14.33147,47.04032],[14.33122,47.04045],[14.33102,47.04137],[14.33104,47.04225],[14.33131,47.04245],[14.33192,47.04247],[14.33245,47.04297]]}},{"type":"Feature","properties":{"kind":"piste","difficulty":"easy","name":null,"aerialway":null,"osm":"way/405267956"},"geometry":{"type":"LineString","coordinates":[[14.32972,47.05258],[14.32885,47.05206],[14.32887,47.05188],[14.33023,47.05123],[14.33116,47.05116],[14.33289,47.05173],[14.33293,47.05159]]}},{"type":"Feature","properties":{"kind":"piste","difficulty":"easy","name":null,"aerialway":null,"osm":"way/405267959"},"geometry":{"type":"LineString","coordinates":[[14.32956,47.05258],[14.32839,47.05307],[14.3279,47.05347],[14.32769,47.05449]]}},{"type":"Feature","properties":{"kind":"piste","difficulty":"intermediate","name":"Dreiwiesenpiste","aerialway":null,"osm":"way/405267961"},"geometry":{"type":"LineString","coordinates":[[14.33157,47.03916],[14.33146,47.03851],[14.33193,47.03648],[14.33283,47.03509],[14.33333,47.03471],[14.33354,47.03472],[14.33341,47.03478]]}},{"type":"Feature","properties":{"kind":"piste","difficulty":"intermediate","name":"Kessellochpiste","aerialway":null,"osm":"way/405267963"},"geometry":{"type":"LineString","coordinates":[[14.33147,47.04032],[14.33233,47.04182],[14.33257,47.04249],[14.33245,47.04297],[14.33261,47.04623],[14.33324,47.04695],[14.33321,47.04742],[14.33367,47.04879],[14.33331,47.04965],[14.33325,47.05118],[14.3331,47.05154],[14.33293,47.05159]]}},{"type":"Feature","properties":{"kind":"piste","difficulty":"intermediate","name":"Hirschbodenabfahrt","aerialway":null,"osm":"way/405267965"},"geometry":{"type":"LineString","coordinates":[[14.33215,47.04264],[14.33204,47.04356],[14.3315,47.04491],[14.33198,47.04609],[14.33261,47.04623]]}},{"type":"Feature","properties":{"kind":"piste","difficulty":"intermediate","name":"Hirschbodenabfahrt","aerialway":null,"osm":"way/405267967"},"geometry":{"type":"LineString","coordinates":[[14.33331,47.04965],[14.33214,47.04962],[14.33092,47.04992],[14.32868,47.05132]]}},{"type":"Feature","properties":{"kind":"piste","difficulty":"advanced","name":"Grebenzenschuss","aerialway":null,"osm":"way/405267969"},"geometry":{"type":"LineString","coordinates":[[14.33198,47.04609],[14.33211,47.04672],[14.33203,47.04711],[14.33092,47.04992]]}},{"type":"Feature","properties":{"kind":"piste","difficulty":"intermediate","name":"Starnberg-Piste","aerialway":null,"osm":"way/405267971"},"geometry":{"type":"LineString","coordinates":[[14.32972,47.05258],[14.32992,47.05263],[14.32991,47.05374],[14.33021,47.0552],[14.33004,47.05608],[14.33003,47.05886],[14.32985,47.05941],[14.32987,47.05996],[14.33017,47.06076],[14.32967,47.06288]]}},{"type":"Feature","properties":{"kind":"piste","difficulty":"easy","name":"Lockn-Schwung","aerialway":null,"osm":"way/405267974"},"geometry":{"type":"LineString","coordinates":[[14.32551,47.06092],[14.32615,47.06157],[14.32621,47.06191],[14.32679,47.06208],[14.32696,47.06248],[14.32803,47.06241],[14.32921,47.06216],[14.32977,47.06246]]}},{"type":"Feature","properties":{"kind":"piste","difficulty":"easy","name":"4a - Starnlockn","aerialway":null,"osm":"way/405267976"},"geometry":{"type":"LineString","coordinates":[[14.32965,47.05155],[14.32868,47.05132],[14.32816,47.05147],[14.32745,47.05236],[14.32697,47.0536],[14.32707,47.05409],[14.32769,47.05449],[14.32787,47.05706],[14.32777,47.05769],[14.32692,47.05912],[14.3262,47.05936],[14.32615,47.05982],[14.32551,47.06092]]}},{"type":"Feature","properties":{"kind":"piste","difficulty":"easy","name":"Sonnenlifthang","aerialway":null,"osm":"way/405267978"},"geometry":{"type":"LineString","coordinates":[[14.31452,47.07216],[14.3138,47.07257],[14.31078,47.07278]]}},{"type":"Feature","properties":{"kind":"piste","difficulty":"easy","name":"5a - Sonnenlifthang","aerialway":null,"osm":"way/405267980"},"geometry":{"type":"LineString","coordinates":[[14.31473,47.06883],[14.31489,47.06955],[14.31447,47.07016],[14.31478,47.07126],[14.31452,47.07216]]}},{"type":"Feature","properties":{"kind":"piste","difficulty":"intermediate","name":"6b - Papstin-Stich","aerialway":null,"osm":"way/405267982"},"geometry":{"type":"LineString","coordinates":[[14.32551,47.06092],[14.32509,47.06168],[14.32481,47.06177],[14.32456,47.06176],[14.32386,47.06124],[14.32341,47.06119],[14.32229,47.06202],[14.32118,47.06391],[14.3202,47.06415]]}},{"type":"Feature","properties":{"kind":"piste","difficulty":"intermediate","name":"Papstin-Stich","aerialway":null,"osm":"way/405267985"},"geometry":{"type":"LineString","coordinates":[[14.3208,47.06437],[14.32087,47.06431],[14.3202,47.06415],[14.31902,47.06484],[14.3158,47.06801],[14.31286,47.07003],[14.31035,47.07205],[14.31029,47.07231],[14.31061,47.07242],[14.31053,47.07259],[14.31073,47.07257]]}},{"type":"Feature","properties":{"kind":"piste","difficulty":"easy","name":null,"aerialway":null,"osm":"way/518514951"},"geometry":{"type":"LineString","coordinates":[[14.32712,47.06408],[14.32773,47.06411],[14.32956,47.06305]]}},{"type":"Feature","properties":{"kind":"piste","difficulty":"easy","name":null,"aerialway":null,"osm":"way/518514952"},"geometry":{"type":"LineString","coordinates":[[14.32956,47.06305],[14.32967,47.06288]]}},{"type":"Feature","properties":{"kind":"piste","difficulty":"easy","name":null,"aerialway":null,"osm":"way/518514953"},"geometry":{"type":"LineString","coordinates":[[14.32716,47.06397],[14.32712,47.06408]]}},{"type":"Feature","properties":{"kind":"piste","difficulty":"easy","name":null,"aerialway":null,"osm":"way/899510767"},"geometry":{"type":"LineString","coordinates":[[14.31476,47.07209],[14.31452,47.07216]]}},{"type":"Feature","properties":{"kind":"piste","difficulty":"unknown","name":null,"aerialway":null,"osm":"way/899512490"},"geometry":{"type":"LineString","coordinates":[[14.32972,47.05258],[14.32956,47.05258]]}},{"type":"Feature","properties":{"kind":"piste","difficulty":"intermediate","name":"Dreiwiesenpiste","aerialway":null,"osm":"way/899513535"},"geometry":{"type":"LineString","coordinates":[[14.33147,47.04032],[14.33166,47.03988],[14.33266,47.03873],[14.33268,47.03848],[14.33231,47.03801],[14.3317,47.03754]]}},{"type":"Feature","properties":{"kind":"lift","difficulty":null,"name":"Greben10","aerialway":"gondola","osm":"way/1097085142"},"geometry":{"type":"LineString","coordinates":[[14.31061,47.07242],[14.32943,47.05032]]}},{"type":"Feature","properties":{"kind":"piste","difficulty":"intermediate","name":"Maria Schönanger","aerialway":null,"osm":"way/1245623228"},"geometry":{"type":"LineString","coordinates":[[14.32967,47.06288],[14.32998,47.06304],[14.33019,47.06345],[14.33081,47.06373],[14.33211,47.06494],[14.33219,47.06555],[14.33207,47.06606],[14.33284,47.06703],[14.33108,47.06645],[14.33053,47.06601],[14.33005,47.06588],[14.32933,47.0658],[14.32671,47.06604],[14.32503,47.06578],[14.32403,47.06578],[14.32274,47.06604],[14.32014,47.06705],[14.31749,47.06746],[14.3165,47.06741]]}},{"type":"Feature","properties":{"kind":"piste","difficulty":"easy","name":null,"aerialway":null,"osm":"way/1245623229"},"geometry":{"type":"LineString","coordinates":[[14.33048,47.0512],[14.33102,47.05199],[14.33092,47.05307],[14.32996,47.05412]]}},{"type":"Feature","properties":{"kind":"piste","difficulty":"intermediate","name":null,"aerialway":null,"osm":"way/1245623230"},"geometry":{"type":"LineString","coordinates":[[14.33098,47.05264],[14.33135,47.05294],[14.33141,47.05317],[14.3314,47.05589],[14.33087,47.05686],[14.3304,47.05725],[14.33005,47.05736]]}},{"type":"Feature","properties":{"kind":"piste","difficulty":"unknown","name":null,"aerialway":null,"osm":"way/1245623231"},"geometry":{"type":"LineString","coordinates":[[14.32925,47.05234],[14.32923,47.05179]]}},{"type":"Feature","properties":{"kind":"piste","difficulty":"unknown","name":null,"aerialway":null,"osm":"way/1362676607"},"geometry":{"type":"LineString","coordinates":[[14.33005,47.05049],[14.33048,47.0512]]}},{"type":"Feature","properties":{"kind":"lift","difficulty":null,"name":null,"aerialway":"magic_carpet","osm":"way/1524020818"},"geometry":{"type":"LineString","coordinates":[[14.31005,47.07226],[14.31023,47.07208]]}}]}