{"type":"FeatureCollection","features":[{"type":"Feature","properties":{"kind":"piste","difficulty":"easy","name":null,"aerialway":null,"osm":"way/26072432"},"geometry":{"type":"LineString","coordinates":[[10.15918,47.25599],[10.15896,47.25598],[10.15873,47.25631],[10.15826,47.25643],[10.15659,47.25651],[10.15632,47.25697]]}},{"type":"Feature","properties":{"kind":"piste","difficulty":"easy","name":null,"aerialway":null,"osm":"way/32566667"},"geometry":{"type":"LineString","coordinates":[[10.14987,47.25358],[10.14918,47.25343],[10.14791,47.25355],[10.14686,47.2535],[10.14583,47.25387],[10.14543,47.25432],[10.14534,47.25523],[10.14433,47.25606],[10.14435,47.25713],[10.1439,47.25792],[10.14409,47.2587],[10.14396,47.2588],[10.14383,47.25867]]}},{"type":"Feature","properties":{"kind":"piste","difficulty":"easy","name":null,"aerialway":null,"osm":"way/32567820"},"geometry":{"type":"LineString","coordinates":[[10.15003,47.25364],[10.14972,47.25363],[10.15004,47.25402]]}},{"type":"Feature","properties":{"kind":"piste","difficulty":"easy","name":null,"aerialway":null,"osm":"way/32567824"},"geometry":{"type":"LineString","coordinates":[[10.15004,47.25402],[10.15138,47.25471],[10.15347,47.2555],[10.15632,47.25697]]}},{"type":"Feature","properties":{"kind":"piste","difficulty":"easy","name":null,"aerialway":null,"osm":"way/32567826"},"geometry":{"type":"LineString","coordinates":[[10.14304,47.25358],[10.14283,47.2535],[10.14213,47.25359],[10.14061,47.2539],[10.14026,47.25411],[10.13941,47.25516],[10.14047,47.25654],[10.14158,47.25744],[10.14225,47.25782],[10.14343,47.2578],[10.14389,47.25809]]}},{"type":"Feature","properties":{"kind":"piste","difficulty":"advanced","name":null,"aerialway":null,"osm":"way/32567969"},"geometry":{"type":"LineString","coordinates":[[10.13418,47.25349],[10.13444,47.25321],[10.13376,47.25187],[10.13215,47.2502],[10.13055,47.24893],[10.12976,47.24814],[10.12962,47.24771],[10.13004,47.24658]]}},{"type":"Feature","properties":{"kind":"piste","difficulty":"easy","name":null,"aerialway":null,"osm":"way/32568004"},"geometry":{"type":"LineString","coordinates":[[10.13371,47.25529],[10.13493,47.25391],[10.13548,47.25376],[10.13804,47.25519],[10.13892,47.25595]]}},{"type":"Feature","properties":{"kind":"piste","difficulty":"advanced","name":null,"aerialway":null,"osm":"way/32568881"},"geometry":{"type":"LineString","coordinates":[[10.1339,47.25503],[10.13445,47.25584],[10.13471,47.25743],[10.13435,47.25861],[10.13361,47.26009],[10.13331,47.26036],[10.13199,47.26053],[10.13156,47.26074],[10.1309,47.26065],[10.13048,47.26073]]}},{"type":"Feature","properties":{"kind":"piste","difficulty":"easy","name":null,"aerialway":null,"osm":"way/32570588"},"geometry":{"type":"LineString","coordinates":[[10.1346,47.25533],[10.13395,47.25507],[10.1338,47.25487],[10.13418,47.25349],[10.13382,47.25325],[10.12914,47.2523],[10.12843,47.25225],[10.12782,47.25239],[10.12755,47.25299],[10.12728,47.25328],[10.12658,47.25345],[10.12609,47.25257],[10.12543,47.25206],[10.12428,47.25185],[10.12178,47.25102],[10.12062,47.25029],[10.11867,47.24959],[10.11856,47.24936],[10.11865,47.24917],[10.11913,47.24913]]}},{"type":"Feature","properties":{"kind":"piste","difficulty":"easy","name":"Kuchl + Körb/Jägeralpe","aerialway":null,"osm":"way/32570619"},"geometry":{"type":"LineString","coordinates":[[10.13113,47.26259],[10.13129,47.26249],[10.13153,47.26258],[10.13204,47.26369]]}},{"type":"Feature","properties":{"kind":"piste","difficulty":"advanced","name":null,"aerialway":null,"osm":"way/32570791"},"geometry":{"type":"LineString","coordinates":[[10.15887,47.25611],[10.15998,47.25647],[10.1615,47.25739],[10.16284,47.25778],[10.16517,47.25878]]}},{"type":"Feature","properties":{"kind":"piste","difficulty":"easy","name":null,"aerialway":null,"osm":"way/32570985"},"geometry":{"type":"LineString","coordinates":[[10.15073,47.25753],[10.15126,47.25781],[10.15186,47.25842],[10.15344,47.25899],[10.1537,47.2594],[10.15411,47.25965],[10.15831,47.26069],[10.1595,47.2612]]}},{"type":"Feature","properties":{"kind":"piste","difficulty":"easy","name":null,"aerialway":null,"osm":"way/32570987"},"geometry":{"type":"LineString","coordinates":[[10.13334,47.25469],[10.13355,47.25475],[10.13328,47.25435],[10.13263,47.25427],[10.13024,47.25537],[10.12977,47.25541],[10.12951,47.25528],[10.12868,47.25436],[10.12834,47.25418],[10.12625,47.25455],[10.12624,47.25435],[10.12671,47.25368],[10.12664,47.25349],[10.12641,47.25346],[10.12512,47.25423],[10.12417,47.25575],[10.12231,47.25742],[10.12208,47.25812],[10.12251,47.25891]]}},{"type":"Feature","properties":{"kind":"piste","difficulty":"easy","name":"Körbersee","aerialway":null,"osm":"way/135165998"},"geometry":{"type":"LineString","coordinates":[[10.11666,47.25875],[10.11684,47.25891],[10.11589,47.25947],[10.11473,47.25892],[10.11382,47.2592],[10.1134,47.25914],[10.11257,47.25834],[10.11148,47.25801],[10.11185,47.25757],[10.11158,47.25703],[10.11049,47.25562],[10.10989,47.25518],[10.10901,47.25487],[10.10907,47.25468],[10.10937,47.25473]]}},{"type":"Feature","properties":{"kind":"piste","difficulty":"intermediate","name":null,"aerialway":null,"osm":"way/135165999"},"geometry":{"type":"LineString","coordinates":[[10.12977,47.25541],[10.12899,47.25563],[10.12803,47.25556],[10.12635,47.25469],[10.1262,47.25449]]}},{"type":"Feature","properties":{"kind":"piste","difficulty":"easy","name":null,"aerialway":null,"osm":"way/135166000"},"geometry":{"type":"LineString","coordinates":[[10.11666,47.25875],[10.11755,47.25871],[10.11906,47.2589],[10.12139,47.25861],[10.12251,47.25891]]}},{"type":"Feature","properties":{"kind":"piste","difficulty":"advanced","name":null,"aerialway":null,"osm":"way/135166951"},"geometry":{"type":"LineString","coordinates":[[10.1308,47.25507],[10.13143,47.25606],[10.13178,47.25711],[10.13132,47.25798],[10.13132,47.25833],[10.13051,47.26067],[10.13017,47.26103],[10.12993,47.26192],[10.12895,47.2638],[10.12889,47.26423],[10.12899,47.26461]]}},{"type":"Feature","properties":{"kind":"piste","difficulty":"easy","name":null,"aerialway":null,"osm":"way/135166953"},"geometry":{"type":"LineString","coordinates":[[10.13204,47.26369],[10.13227,47.26413],[10.13208,47.26518],[10.13217,47.26533],[10.13189,47.26542],[10.13169,47.26525]]}},{"type":"Feature","properties":{"kind":"piste","difficulty":"easy","name":null,"aerialway":null,"osm":"way/135166954"},"geometry":{"type":"LineString","coordinates":[[10.13113,47.26259],[10.13113,47.2625],[10.13042,47.26257],[10.12998,47.26278],[10.12941,47.26362],[10.12919,47.26437],[10.12975,47.26474],[10.13144,47.265],[10.13156,47.26525],[10.13165,47.26533],[10.13169,47.26525]]}},{"type":"Feature","properties":{"kind":"piste","difficulty":"intermediate","name":null,"aerialway":null,"osm":"way/135166956"},"geometry":{"type":"LineString","coordinates":[[10.13061,47.26254],[10.13093,47.2639],[10.13144,47.265]]}},{"type":"Feature","properties":{"kind":"piste","difficulty":"easy","name":null,"aerialway":null,"osm":"way/135166958"},"geometry":{"type":"LineString","coordinates":[[10.13204,47.26369],[10.13439,47.26458],[10.13646,47.26482],[10.14072,47.26505],[10.14339,47.26546],[10.1456,47.26635],[10.14862,47.26695]]}},{"type":"Feature","properties":{"kind":"piste","difficulty":"easy","name":null,"aerialway":null,"osm":"way/135167328"},"geometry":{"type":"LineString","coordinates":[[10.13132,47.26739],[10.13213,47.26642],[10.13266,47.26633],[10.13287,47.26612],[10.13265,47.26575],[10.13169,47.26525]]}},{"type":"Feature","properties":{"kind":"piste","difficulty":"easy","name":null,"aerialway":null,"osm":"way/135168132"},"geometry":{"type":"LineString","coordinates":[[10.1339,47.25503],[10.1351,47.25523],[10.13629,47.25526],[10.1385,47.25569],[10.13992,47.2566],[10.14055,47.25726],[10.14122,47.25772],[10.1419,47.25853],[10.14276,47.25915],[10.14274,47.25941],[10.14255,47.25941]]}},{"type":"Feature","properties":{"kind":"piste","difficulty":"intermediate","name":null,"aerialway":null,"osm":"way/135168133"},"geometry":{"type":"LineString","coordinates":[[10.14161,47.25367],[10.1415,47.25423],[10.142,47.25476],[10.14245,47.2555],[10.14257,47.25671],[10.14332,47.2578]]}},{"type":"Feature","properties":{"kind":"piste","difficulty":"easy","name":null,"aerialway":null,"osm":"way/135168772"},"geometry":{"type":"LineString","coordinates":[[10.14244,47.25986],[10.14235,47.26109],[10.14122,47.2611],[10.1411,47.26126],[10.14129,47.26145],[10.14261,47.26175],[10.14396,47.26115],[10.14435,47.26086],[10.1446,47.26087]]}},{"type":"Feature","properties":{"kind":"piste","difficulty":"easy","name":null,"aerialway":null,"osm":"way/135168775"},"geometry":{"type":"LineString","coordinates":[[10.1444,47.25413],[10.14664,47.25423],[10.14767,47.25485],[10.14764,47.25612],[10.14745,47.25663],[10.14764,47.25719],[10.14776,47.25828],[10.1496,47.25997],[10.15077,47.26044]]}},{"type":"Feature","properties":{"kind":"piste","difficulty":"intermediate","name":null,"aerialway":null,"osm":"way/135168777"},"geometry":{"type":"LineString","coordinates":[[10.14802,47.26539],[10.14834,47.2666]]}},{"type":"Feature","properties":{"kind":"piste","difficulty":"advanced","name":null,"aerialway":null,"osm":"way/135168778"},"geometry":{"type":"LineString","coordinates":[[10.15429,47.25971],[10.15442,47.26045],[10.15549,47.26156]]}},{"type":"Feature","properties":{"kind":"piste","difficulty":"advanced","name":null,"aerialway":null,"osm":"way/135169272"},"geometry":{"type":"LineString","coordinates":[[10.14982,47.25386],[10.14823,47.25436],[10.14772,47.25533]]}},{"type":"Feature","properties":{"kind":"piste","difficulty":"easy","name":null,"aerialway":null,"osm":"way/135169273"},"geometry":{"type":"LineString","coordinates":[[10.14275,47.25938],[10.14244,47.25986]]}},{"type":"Feature","properties":{"kind":"piste","difficulty":"advanced","name":null,"aerialway":null,"osm":"way/135169274"},"geometry":{"type":"LineString","coordinates":[[10.14235,47.26059],[10.14395,47.2607],[10.1446,47.26087]]}},{"type":"Feature","properties":{"kind":"piste","difficulty":"intermediate","name":null,"aerialway":null,"osm":"way/135170246"},"geometry":{"type":"LineString","coordinates":[[10.15344,47.25899],[10.15613,47.2587],[10.15832,47.2588],[10.15963,47.25864]]}},{"type":"Feature","properties":{"kind":"piste","difficulty":"intermediate","name":null,"aerialway":null,"osm":"way/135170247"},"geometry":{"type":"LineString","coordinates":[[10.14994,47.25395],[10.15126,47.25412],[10.15232,47.25447],[10.16076,47.2585]]}},{"type":"Feature","properties":{"kind":"piste","difficulty":"advanced","name":null,"aerialway":null,"osm":"way/135170248"},"geometry":{"type":"LineString","coordinates":[[10.15611,47.26017],[10.15656,47.25992],[10.15873,47.25944],[10.1596,47.25909],[10.15989,47.25882],[10.15999,47.25854]]}},{"type":"Feature","properties":{"kind":"piste","difficulty":"easy","name":null,"aerialway":null,"osm":"way/135170428"},"geometry":{"type":"LineString","coordinates":[[10.16963,47.25872],[10.17083,47.25892],[10.17154,47.25889],[10.1754,47.25973],[10.17642,47.25973]]}},{"type":"Feature","properties":{"kind":"piste","difficulty":"intermediate","name":null,"aerialway":null,"osm":"way/148855675"},"geometry":{"type":"LineString","coordinates":[[10.11278,47.22991],[10.11378,47.22957]]}},{"type":"Feature","properties":{"kind":"piste","difficulty":"advanced","name":null,"aerialway":null,"osm":"way/148855685"},"geometry":{"type":"LineString","coordinates":[[10.11553,47.22883],[10.11565,47.22903],[10.11596,47.22909],[10.11764,47.22892],[10.11908,47.22911],[10.12101,47.22908],[10.12218,47.22876],[10.12376,47.22857],[10.12549,47.22731],[10.12626,47.22745],[10.12691,47.22739],[10.12745,47.22717],[10.12756,47.22691]]}},{"type":"Feature","properties":{"kind":"piste","difficulty":"easy","name":null,"aerialway":null,"osm":"way/162826285"},"geometry":{"type":"LineString","coordinates":[[10.14406,47.25876],[10.14385,47.25888],[10.14307,47.25871],[10.14288,47.25877],[10.14276,47.25915],[10.14228,47.25929],[10.14244,47.25986]]}},{"type":"Feature","properties":{"kind":"piste","difficulty":"intermediate","name":null,"aerialway":null,"osm":"way/163563473"},"geometry":{"type":"LineString","coordinates":[[10.13057,47.25491],[10.13078,47.25492],[10.13079,47.25475]]}},{"type":"Feature","properties":{"kind":"piste","difficulty":"easy","name":null,"aerialway":null,"osm":"way/163573443"},"geometry":{"type":"LineString","coordinates":[[10.12869,47.26652],[10.12896,47.2659],[10.12946,47.26545]]}},{"type":"Feature","properties":{"kind":"piste","difficulty":"easy","name":null,"aerialway":null,"osm":"way/164434186"},"geometry":{"type":"LineString","coordinates":[[10.13057,47.25491],[10.1308,47.25507]]}},{"type":"Feature","properties":{"kind":"piste","difficulty":"easy","name":null,"aerialway":null,"osm":"way/167957290"},"geometry":{"type":"LineString","coordinates":[[10.13132,47.26739],[10.13103,47.26748],[10.13043,47.2673],[10.1288,47.26671],[10.12869,47.26652],[10.12884,47.26655]]}},{"type":"Feature","properties":{"kind":"piste","difficulty":"easy","name":null,"aerialway":null,"osm":"way/169234246"},"geometry":{"type":"LineString","coordinates":[[10.12487,47.24836],[10.12515,47.24836]]}},{"type":"Feature","properties":{"kind":"piste","difficulty":"unknown","name":null,"aerialway":null,"osm":"way/182013013"},"geometry":{"type":"LineString","coordinates":[[10.17561,47.26026],[10.17576,47.26019],[10.1757,47.26002]]}},{"type":"Feature","properties":{"kind":"piste","difficulty":"intermediate","name":null,"aerialway":null,"osm":"way/251702652"},"geometry":{"type":"LineString","coordinates":[[10.10758,47.22749],[10.10759,47.2278],[10.10776,47.22799],[10.10885,47.22861]]}},{"type":"Feature","properties":{"kind":"piste","difficulty":"easy","name":null,"aerialway":null,"osm":"way/251702653"},"geometry":{"type":"LineString","coordinates":[[10.11576,47.22777],[10.11581,47.22735],[10.11551,47.22707],[10.11542,47.22666]]}},{"type":"Feature","properties":{"kind":"piste","difficulty":"intermediate","name":"Auenfeld","aerialway":null,"osm":"way/252261251"},"geometry":{"type":"LineString","coordinates":[[10.12594,47.24572],[10.1268,47.24568]]}},{"type":"Feature","properties":{"kind":"piste","difficulty":"intermediate","name":null,"aerialway":null,"osm":"way/253937502"},"geometry":{"type":"LineString","coordinates":[[10.13111,47.25493],[10.12995,47.25412],[10.12903,47.2531],[10.12851,47.25135],[10.12823,47.25081],[10.12795,47.24934],[10.12758,47.24853],[10.12758,47.24721],[10.12638,47.24602],[10.12604,47.24389],[10.12546,47.24366],[10.12371,47.2439]]}},{"type":"Feature","properties":{"kind":"piste","difficulty":"intermediate","name":null,"aerialway":null,"osm":"way/253937508"},"geometry":{"type":"LineString","coordinates":[[10.11764,47.25872],[10.11893,47.25985],[10.11971,47.26027],[10.12081,47.26061],[10.12229,47.26184]]}},{"type":"Feature","properties":{"kind":"piste","difficulty":"easy","name":null,"aerialway":null,"osm":"way/253954848"},"geometry":{"type":"LineString","coordinates":[[10.15632,47.25697],[10.15626,47.25759],[10.15828,47.25816],[10.15932,47.25864],[10.16076,47.2585],[10.1613,47.25883],[10.16095,47.25886]]}},{"type":"Feature","properties":{"kind":"piste","difficulty":"easy","name":null,"aerialway":null,"osm":"way/255259652"},"geometry":{"type":"LineString","coordinates":[[10.1477,47.26271],[10.14858,47.2634],[10.14916,47.26367],[10.15265,47.26397],[10.15274,47.26417]]}},{"type":"Feature","properties":{"kind":"piste","difficulty":"intermediate","name":null,"aerialway":null,"osm":"way/255259654"},"geometry":{"type":"LineString","coordinates":[[10.15549,47.26156],[10.15644,47.26193],[10.15749,47.26216],[10.15757,47.26233],[10.15656,47.26319],[10.15464,47.26356]]}},{"type":"Feature","properties":{"kind":"piste","difficulty":"easy","name":null,"aerialway":null,"osm":"way/255259655"},"geometry":{"type":"LineString","coordinates":[[10.1446,47.26087],[10.14523,47.26154],[10.14688,47.26215],[10.1477,47.26271]]}},{"type":"Feature","properties":{"kind":"piste","difficulty":"easy","name":null,"aerialway":null,"osm":"way/255259656"},"geometry":{"type":"LineString","coordinates":[[10.13908,47.25608],[10.1406,47.25822],[10.14178,47.25946],[10.1425,47.25974]]}},{"type":"Feature","properties":{"kind":"piste","difficulty":"advanced","name":null,"aerialway":null,"osm":"way/255259657"},"geometry":{"type":"LineString","coordinates":[[10.15074,47.25652],[10.15343,47.25656],[10.15439,47.25684],[10.15533,47.25743],[10.15572,47.25754]]}},{"type":"Feature","properties":{"kind":"piste","difficulty":"easy","name":null,"aerialway":null,"osm":"way/334848522"},"geometry":{"type":"LineString","coordinates":[[10.17215,47.25827],[10.17216,47.25815],[10.17454,47.25826],[10.17563,47.25856],[10.17546,47.25953]]}},{"type":"Feature","properties":{"kind":"piste","difficulty":"easy","name":"Dorfabfahrt","aerialway":null,"osm":"way/334851237"},"geometry":{"type":"LineString","coordinates":[[10.17628,47.25773],[10.17577,47.2581],[10.17563,47.25856],[10.17623,47.25851],[10.17787,47.25804],[10.18232,47.25815],[10.18233,47.25799]]}},{"type":"Feature","properties":{"kind":"piste","difficulty":"advanced","name":null,"aerialway":null,"osm":"way/399075684"},"geometry":{"type":"LineString","coordinates":[[10.1308,47.25507],[10.13061,47.25575],[10.13078,47.25706],[10.13055,47.25751],[10.12939,47.25892],[10.12929,47.25929],[10.12932,47.25982],[10.13008,47.26071],[10.13017,47.26103]]}},{"type":"Feature","properties":{"kind":"piste","difficulty":"easy","name":null,"aerialway":null,"osm":"way/399076776"},"geometry":{"type":"LineString","coordinates":[[10.15073,47.25753],[10.15035,47.25867],[10.15026,47.25945],[10.15043,47.26005],[10.15077,47.26044]]}},{"type":"Feature","properties":{"kind":"piste","difficulty":"easy","name":null,"aerialway":null,"osm":"way/399077933"},"geometry":{"type":"LineString","coordinates":[[10.16267,47.26258],[10.16434,47.26235],[10.16576,47.26253],[10.16613,47.26244],[10.1661,47.26189],[10.16597,47.26168],[10.16508,47.26106],[10.16471,47.26047],[10.16418,47.26019],[10.16414,47.25996],[10.16495,47.25975],[10.1668,47.25957],[10.16821,47.25873]]}},{"type":"Feature","properties":{"kind":"piste","difficulty":"easy","name":null,"aerialway":null,"osm":"way/399725308"},"geometry":{"type":"LineString","coordinates":[[10.15464,47.26356],[10.15336,47.26389],[10.1517,47.26457],[10.14881,47.26499],[10.14735,47.26573],[10.14715,47.26591],[10.14735,47.26619],[10.14834,47.2666],[10.14849,47.26686],[10.14887,47.26709],[10.1491,47.26707],[10.14914,47.26685]]}},{"type":"Feature","properties":{"kind":"piste","difficulty":"advanced","name":null,"aerialway":null,"osm":"way/399732025"},"geometry":{"type":"LineString","coordinates":[[10.15873,47.25631],[10.1589,47.2568],[10.15958,47.25761],[10.16076,47.2585]]}},{"type":"Feature","properties":{"kind":"piste","difficulty":"easy","name":null,"aerialway":null,"osm":"way/442270909"},"geometry":{"type":"LineString","coordinates":[[10.12496,47.26197],[10.12794,47.26333],[10.12874,47.26406],[10.12946,47.26545],[10.12981,47.2655],[10.13,47.26529]]}},{"type":"Feature","properties":{"kind":"piste","difficulty":"easy","name":null,"aerialway":null,"osm":"way/442270937"},"geometry":{"type":"LineString","coordinates":[[10.12377,47.2611],[10.12496,47.26197]]}},{"type":"Feature","properties":{"kind":"piste","difficulty":"easy","name":null,"aerialway":null,"osm":"way/442270940"},"geometry":{"type":"LineString","coordinates":[[10.12285,47.25999],[10.12371,47.26068],[10.12377,47.2611]]}},{"type":"Feature","properties":{"kind":"piste","difficulty":"easy","name":null,"aerialway":null,"osm":"way/474015518"},"geometry":{"type":"LineString","coordinates":[[10.12251,47.25891],[10.1228,47.25941],[10.12285,47.25999]]}},{"type":"Feature","properties":{"kind":"piste","difficulty":"easy","name":null,"aerialway":null,"osm":"way/474015523"},"geometry":{"type":"LineString","coordinates":[[10.12285,47.25999],[10.1228,47.26091],[10.12229,47.26177],[10.12238,47.26201],[10.12265,47.26213],[10.12258,47.26198]]}},{"type":"Feature","properties":{"kind":"piste","difficulty":"advanced","name":"Walserschuss","aerialway":null,"osm":"way/478609178"},"geometry":{"type":"LineString","coordinates":[[10.14876,47.25918],[10.14821,47.26059],[10.14801,47.2619],[10.14802,47.26539]]}},{"type":"Feature","properties":{"kind":"piste","difficulty":"intermediate","name":"Skiroute - Nesslegg - Schröcken","aerialway":null,"osm":"way/527160812"},"geometry":{"type":"LineString","coordinates":[[10.11307,47.25891],[10.11269,47.25889],[10.1123,47.25913],[10.11246,47.25979],[10.1124,47.26003],[10.1115,47.2606],[10.11146,47.26083],[10.11169,47.26105],[10.11248,47.26131],[10.11279,47.26176],[10.11285,47.26263],[10.11326,47.263],[10.11331,47.26366],[10.1135,47.2639],[10.11332,47.26418],[10.11398,47.26468],[10.11368,47.2651],[10.11337,47.26516],[10.11309,47.2651],[10.11299,47.26487],[10.11197,47.26472],[10.11134,47.26428],[10.11031,47.26398],[10.10948,47.26336],[10.10851,47.26305],[10.1077,47.26309],[10.10729,47.26276],[10.10659,47.26245],[10.10485,47.26201],[10.10383,47.26157],[10.10323,47.26114],[10.10296,47.2607],[10.10221,47.2601],[10.1014,47.25966],[10.10101,47.25967],[10.10106,47.25982],[10.10154,47.26004],[10.1015,47.26017],[10.10126,47.26022],[10.09984,47.25957],[10.09971,47.25938],[10.09978,47.25867],[10.09964,47.2585],[10.09821,47.2573],[10.09778,47.25674],[10.09647,47.25645],[10.09488,47.2553],[10.09464,47.25487],[10.09431,47.25461],[10.09423,47.25406],[10.09406,47.25391],[10.09388,47.25394],[10.09395,47.2542],[10.09384,47.25426],[10.09366,47.25419],[10.09354,47.25392],[10.09335,47.25394],[10.0938,47.25524],[10.09399,47.25548],[10.09384,47.2555],[10.0932,47.25496],[10.09288,47.25499],[10.09178,47.25597],[10.09169,47.25638],[10.09177,47.25679]]}},{"type":"Feature","properties":{"kind":"piste","difficulty":"advanced","name":null,"aerialway":null,"osm":"way/550111964"},"geometry":{"type":"LineString","coordinates":[[10.14815,47.26109],[10.14844,47.26163],[10.14848,47.26216],[10.14838,47.26261],[10.14798,47.26293]]}},{"type":"Feature","properties":{"kind":"piste","difficulty":"easy","name":"Weibermahd","aerialway":null,"osm":"way/568520258"},"geometry":{"type":"LineString","coordinates":[[10.12629,47.22563],[10.12728,47.22668],[10.12792,47.22673]]}},{"type":"Feature","properties":{"kind":"piste","difficulty":"easy","name":"Weibermahd","aerialway":null,"osm":"way/568520259"},"geometry":{"type":"LineString","coordinates":[[10.12728,47.22668],[10.12756,47.22691],[10.12792,47.22673]]}},{"type":"Feature","properties":{"kind":"piste","difficulty":"easy","name":"Weibermahd","aerialway":null,"osm":"way/568520260"},"geometry":{"type":"LineString","coordinates":[[10.12671,47.22607],[10.12733,47.22599],[10.12771,47.22611],[10.12798,47.22655],[10.12792,47.22673]]}},{"type":"Feature","properties":{"kind":"piste","difficulty":"easy","name":null,"aerialway":null,"osm":"way/568804104"},"geometry":{"type":"LineString","coordinates":[[10.12186,47.25104],[10.12217,47.25035],[10.12287,47.24957],[10.124,47.24875],[10.1253,47.2483],[10.12606,47.2475],[10.12714,47.24681],[10.12649,47.24643],[10.12594,47.24572],[10.12407,47.244],[10.1236,47.24397]]}},{"type":"Feature","properties":{"kind":"piste","difficulty":"intermediate","name":"Skiroute - Wolfegg","aerialway":null,"osm":"way/580671980"},"geometry":{"type":"LineString","coordinates":[[10.16554,47.26132],[10.16855,47.26208],[10.16906,47.26195],[10.1702,47.26123],[10.17083,47.26101],[10.17282,47.2608],[10.17385,47.26095]]}},{"type":"Feature","properties":{"kind":"piste","difficulty":"freeride","name":"Fürmesle","aerialway":null,"osm":"way/582632358"},"geometry":{"type":"LineString","coordinates":[[10.10437,47.22828],[10.10669,47.22986],[10.11046,47.23194],[10.11242,47.23266],[10.11355,47.23344],[10.11372,47.23404],[10.11443,47.23462],[10.11759,47.23491],[10.11847,47.23529],[10.1192,47.23544],[10.12057,47.23521],[10.12318,47.23528],[10.12464,47.23612],[10.12572,47.23645],[10.1263,47.23699],[10.12715,47.23746],[10.12779,47.2377],[10.12919,47.23784],[10.12933,47.23808],[10.12928,47.23825],[10.12954,47.2386],[10.12938,47.23895],[10.12958,47.23982],[10.12938,47.24026],[10.12852,47.24108],[10.12848,47.24205],[10.12797,47.24246],[10.12603,47.24325],[10.12402,47.24381]]}},{"type":"Feature","properties":{"kind":"piste","difficulty":"freeride","name":"Juppenspitze","aerialway":null,"osm":"way/582632361"},"geometry":{"type":"LineString","coordinates":[[10.10219,47.22836],[10.10258,47.2289],[10.10365,47.22965],[10.10386,47.22994],[10.10433,47.22999],[10.10487,47.23059],[10.10488,47.23112],[10.10455,47.23165],[10.10497,47.2328],[10.10609,47.23452],[10.10703,47.23503],[10.10809,47.23595],[10.10842,47.23643],[10.10842,47.23684],[10.10853,47.23693],[10.10978,47.23697],[10.11076,47.2373],[10.11204,47.23794],[10.11572,47.23803],[10.12075,47.23764],[10.12501,47.2377],[10.12683,47.23729]]}},{"type":"Feature","properties":{"kind":"piste","difficulty":"freeride","name":"Auenfelder Horn","aerialway":null,"osm":"way/582879531"},"geometry":{"type":"LineString","coordinates":[[10.13402,47.25243],[10.13433,47.25193],[10.13666,47.25091],[10.13862,47.24986],[10.13926,47.24937],[10.13944,47.24907],[10.13947,47.24881],[10.13921,47.24802],[10.13841,47.24757],[10.1377,47.24677],[10.13772,47.24622],[10.13742,47.24575],[10.13619,47.24507],[10.13468,47.24455],[10.13305,47.24421],[10.13023,47.2439],[10.1267,47.24374]]}},{"type":"Feature","properties":{"kind":"piste","difficulty":"intermediate","name":"Skiroute - Nesslegg - Schröcken","aerialway":null,"osm":"way/663301169"},"geometry":{"type":"LineString","coordinates":[[10.10148,47.2615],[10.10136,47.26138],[10.1015,47.26126],[10.10228,47.26135],[10.10292,47.26111]]}},{"type":"Feature","properties":{"kind":"piste","difficulty":"intermediate","name":"Skiroute - Nesslegg - Schröcken","aerialway":null,"osm":"way/663301170"},"geometry":{"type":"LineString","coordinates":[[10.10678,47.26254],[10.10556,47.26336],[10.10507,47.26319]]}},{"type":"Feature","properties":{"kind":"piste","difficulty":"intermediate","name":"Skiroute - Älpele (Dorfabfahrt Schröcken)","aerialway":null,"osm":"way/697827548"},"geometry":{"type":"LineString","coordinates":[[10.10914,47.25493],[10.10849,47.25483],[10.10828,47.25424],[10.108,47.25395],[10.10731,47.25382],[10.10631,47.25394],[10.10557,47.25384],[10.10488,47.2533],[10.10375,47.25307],[10.10344,47.25247],[10.10297,47.25214],[10.09972,47.2513],[10.10002,47.25082],[10.10003,47.25057],[10.10095,47.24969],[10.10088,47.24909],[10.10141,47.24841],[10.10121,47.2482],[10.09965,47.24851],[10.09861,47.24916],[10.09774,47.24944],[10.0967,47.24929],[10.09523,47.25015],[10.09485,47.2506],[10.09471,47.25057],[10.0946,47.25012],[10.0952,47.24925],[10.094,47.2498],[10.09376,47.25048],[10.09384,47.25142],[10.09398,47.25163],[10.0944,47.25178],[10.09452,47.25208],[10.0945,47.25271],[10.09391,47.25391]]}},{"type":"Feature","properties":{"kind":"piste","difficulty":"advanced","name":"Skiroute - Walserstutz","aerialway":null,"osm":"way/853522664"},"geometry":{"type":"LineString","coordinates":[[10.1521,47.2612],[10.15186,47.26159],[10.15082,47.26229],[10.15047,47.26268],[10.14992,47.26337],[10.14989,47.26373]]}},{"type":"Feature","properties":{"kind":"piste","difficulty":"freeride","name":"Klemm","aerialway":null,"osm":"way/1035408535"},"geometry":{"type":"LineString","coordinates":[[10.10247,47.22642],[10.10266,47.22729],[10.10219,47.22786],[10.10219,47.22836],[10.1004,47.22901],[10.09775,47.22955],[10.09657,47.23],[10.09489,47.23035],[10.09416,47.2309],[10.09315,47.23119],[10.09273,47.23166],[10.09417,47.23296],[10.09434,47.23385],[10.09373,47.23456],[10.09244,47.23477],[10.08864,47.23494],[10.08797,47.23555],[10.0878,47.23674],[10.08709,47.23838],[10.08724,47.2401],[10.08769,47.24048],[10.08917,47.24107],[10.0906,47.24232],[10.0909,47.24239],[10.09105,47.24268],[10.09161,47.24302],[10.09346,47.24483],[10.09374,47.24552],[10.09442,47.24609],[10.09463,47.24696],[10.09441,47.24741],[10.09343,47.24831],[10.09226,47.24901],[10.09194,47.24939],[10.09174,47.25],[10.09129,47.25071],[10.09125,47.25186],[10.09093,47.25195],[10.09037,47.25187],[10.09002,47.25234],[10.08944,47.25269],[10.08956,47.25278],[10.09042,47.25263],[10.09145,47.25284],[10.092,47.25265],[10.09159,47.25302],[10.09086,47.25323],[10.09076,47.25355],[10.09013,47.25391],[10.08992,47.25427],[10.0902,47.25463],[10.09058,47.25466],[10.09098,47.25458],[10.09148,47.25424],[10.09242,47.25406],[10.09243,47.25426],[10.09173,47.25503],[10.09136,47.25588],[10.09146,47.25634],[10.09171,47.25655]]}},{"type":"Feature","properties":{"kind":"piste","difficulty":"easy","name":"Körbersee","aerialway":null,"osm":"way/1249858290"},"geometry":{"type":"LineString","coordinates":[[10.11427,47.25899],[10.11371,47.25895],[10.11257,47.25834],[10.11185,47.25745]]}},{"type":"Feature","properties":{"kind":"piste","difficulty":"easy","name":null,"aerialway":null,"osm":"way/1249858291"},"geometry":{"type":"LineString","coordinates":[[10.12764,47.2487],[10.12638,47.24819],[10.12592,47.24817],[10.12515,47.24836]]}},{"type":"Feature","properties":{"kind":"piste","difficulty":"easy","name":"Speed slalom","aerialway":null,"osm":"way/1249870422"},"geometry":{"type":"LineString","coordinates":[[10.17154,47.25889],[10.17251,47.25877],[10.17351,47.25921],[10.17503,47.25938],[10.1758,47.25971],[10.1758,47.26006]]}},{"type":"Feature","properties":{"kind":"piste","difficulty":"intermediate","name":"Skiroute - Nesslegg - Schröcken","aerialway":null,"osm":"way/1249870423"},"geometry":{"type":"LineString","coordinates":[[10.10323,47.26114],[10.10292,47.26111]]}},{"type":"Feature","properties":{"kind":"piste","difficulty":"intermediate","name":"Skiroute - Nesslegg - Schröcken","aerialway":null,"osm":"way/1249870424"},"geometry":{"type":"LineString","coordinates":[[10.10292,47.26111],[10.10306,47.26097]]}},{"type":"Feature","properties":{"kind":"piste","difficulty":"advanced","name":null,"aerialway":null,"osm":"way/1267747142"},"geometry":{"type":"LineString","coordinates":[[10.12939,47.25892],[10.12886,47.25929],[10.12841,47.26008],[10.12845,47.2608],[10.12816,47.2622],[10.12839,47.26271],[10.12908,47.26302],[10.12923,47.26326]]}},{"type":"Feature","properties":{"kind":"piste","difficulty":"easy","name":null,"aerialway":null,"osm":"way/1268459886"},"geometry":{"type":"LineString","coordinates":[[10.12645,47.25315],[10.12606,47.25317],[10.12559,47.25367],[10.12485,47.25398],[10.12436,47.25442],[10.12176,47.25595],[10.12172,47.2561],[10.1221,47.25692],[10.12188,47.2578],[10.12212,47.25829]]}},{"type":"Feature","properties":{"kind":"piste","difficulty":"intermediate","name":"Skiroute - Adler","aerialway":null,"osm":"way/1357051325"},"geometry":{"type":"LineString","coordinates":[[10.13117,47.26747],[10.13108,47.26754],[10.13116,47.26786],[10.13045,47.26875],[10.13033,47.26933],[10.13279,47.27004],[10.13393,47.27015],[10.13472,47.26995],[10.13571,47.27006],[10.13846,47.26939],[10.14048,47.26916],[10.14119,47.26882],[10.14301,47.26881],[10.1447,47.26841],[10.1453,47.26813],[10.1466,47.2679],[10.14713,47.26762],[10.14715,47.26733],[10.14729,47.26721],[10.14818,47.26694],[10.14862,47.26695]]}},{"type":"Feature","properties":{"kind":"piste","difficulty":"intermediate","name":null,"aerialway":null,"osm":"way/1382511389"},"geometry":{"type":"LineString","coordinates":[[10.11206,47.22991],[10.11239,47.23002],[10.11278,47.22991]]}},{"type":"Feature","properties":{"kind":"piste","difficulty":"intermediate","name":null,"aerialway":null,"osm":"way/1383004426"},"geometry":{"type":"LineString","coordinates":[[10.16076,47.2585],[10.16268,47.25905],[10.16517,47.25878],[10.16821,47.25873]]}},{"type":"Feature","properties":{"kind":"piste","difficulty":"easy","name":null,"aerialway":null,"osm":"way/1383004427"},"geometry":{"type":"LineString","coordinates":[[10.17215,47.25827],[10.17204,47.25825],[10.17198,47.25843],[10.17213,47.25882],[10.17265,47.25912]]}},{"type":"Feature","properties":{"kind":"piste","difficulty":"easy","name":null,"aerialway":null,"osm":"way/1383069651"},"geometry":{"type":"LineString","coordinates":[[10.14973,47.25405],[10.14986,47.25369],[10.14957,47.25349]]}},{"type":"Feature","properties":{"kind":"piste","difficulty":"easy","name":null,"aerialway":null,"osm":"way/1383245400"},"geometry":{"type":"LineString","coordinates":[[10.14105,47.25757],[10.14225,47.25782]]}},{"type":"Feature","properties":{"kind":"piste","difficulty":"easy","name":null,"aerialway":null,"osm":"way/1383245402"},"geometry":{"type":"LineString","coordinates":[[10.14072,47.25677],[10.14076,47.25739]]}},{"type":"Feature","properties":{"kind":"piste","difficulty":"easy","name":null,"aerialway":null,"osm":"way/1383245404"},"geometry":{"type":"LineString","coordinates":[[10.13908,47.25608],[10.13999,47.25616],[10.14028,47.2563]]}},{"type":"Feature","properties":{"kind":"piste","difficulty":"easy","name":null,"aerialway":null,"osm":"way/1383245407"},"geometry":{"type":"LineString","coordinates":[[10.14079,47.2584],[10.1419,47.25853]]}},{"type":"Feature","properties":{"kind":"piste","difficulty":"easy","name":null,"aerialway":null,"osm":"way/1383245409"},"geometry":{"type":"LineString","coordinates":[[10.13334,47.25469],[10.1339,47.25503]]}},{"type":"Feature","properties":{"kind":"piste","difficulty":"intermediate","name":null,"aerialway":null,"osm":"way/1383262447"},"geometry":{"type":"LineString","coordinates":[[10.12714,47.24681],[10.12775,47.24661],[10.12895,47.2469],[10.12978,47.24678],[10.13012,47.24639],[10.1301,47.24589],[10.12906,47.24471],[10.1267,47.24374],[10.12546,47.24366]]}},{"type":"Feature","properties":{"kind":"piste","difficulty":"easy","name":null,"aerialway":null,"osm":"way/1383301336"},"geometry":{"type":"LineString","coordinates":[[10.1339,47.25503],[10.13354,47.2547]]}},{"type":"Feature","properties":{"kind":"piste","difficulty":"easy","name":null,"aerialway":null,"osm":"way/1383301337"},"geometry":{"type":"LineString","coordinates":[[10.1304,47.25447],[10.12858,47.25428]]}},{"type":"Feature","properties":{"kind":"piste","difficulty":"advanced","name":null,"aerialway":null,"osm":"way/1383316546"},"geometry":{"type":"LineString","coordinates":[[10.1339,47.25503],[10.13209,47.25516],[10.13111,47.25493]]}},{"type":"Feature","properties":{"kind":"piste","difficulty":"advanced","name":null,"aerialway":null,"osm":"way/1383316548"},"geometry":{"type":"LineString","coordinates":[[10.13232,47.25516],[10.13159,47.25532],[10.13143,47.25606]]}},{"type":"Feature","properties":{"kind":"piste","difficulty":"advanced","name":null,"aerialway":null,"osm":"way/1383316552"},"geometry":{"type":"LineString","coordinates":[[10.13073,47.25624],[10.13156,47.2564]]}},{"type":"Feature","properties":{"kind":"piste","difficulty":"intermediate","name":"Skiroute - Bildegg","aerialway":null,"osm":"way/1383333136"},"geometry":{"type":"LineString","coordinates":[[10.17758,47.25809],[10.17829,47.25766],[10.17892,47.25746],[10.18252,47.25677],[10.18258,47.25634],[10.18329,47.25644]]}},{"type":"Feature","properties":{"kind":"piste","difficulty":"easy","name":"Dorfabfahrt","aerialway":null,"osm":"way/1383334123"},"geometry":{"type":"LineString","coordinates":[[10.18211,47.25814],[10.18274,47.25815]]}},{"type":"Feature","properties":{"kind":"piste","difficulty":"easy","name":"Speed Check","aerialway":null,"osm":"way/1383514968"},"geometry":{"type":"LineString","coordinates":[[10.13113,47.26259],[10.13113,47.2625],[10.13126,47.26257],[10.13172,47.26432],[10.13175,47.26505]]}},{"type":"Feature","properties":{"kind":"piste","difficulty":"easy","name":null,"aerialway":null,"osm":"way/1383514969"},"geometry":{"type":"LineString","coordinates":[[10.13144,47.265],[10.13208,47.26518]]}},{"type":"Feature","properties":{"kind":"piste","difficulty":"easy","name":null,"aerialway":null,"osm":"way/1383514970"},"geometry":{"type":"LineString","coordinates":[[10.12859,47.26388],[10.12919,47.26437]]}},{"type":"Feature","properties":{"kind":"piste","difficulty":"easy","name":null,"aerialway":null,"osm":"way/1383514971"},"geometry":{"type":"LineString","coordinates":[[10.12919,47.26437],[10.12899,47.26461]]}},{"type":"Feature","properties":{"kind":"piste","difficulty":"easy","name":"Körbersee","aerialway":null,"osm":"way/1383569131"},"geometry":{"type":"LineString","coordinates":[[10.11666,47.25875],[10.11641,47.2588],[10.11661,47.25903]]}},{"type":"Feature","properties":{"kind":"piste","difficulty":"easy","name":null,"aerialway":null,"osm":"way/1383569132"},"geometry":{"type":"LineString","coordinates":[[10.11666,47.25875],[10.1164,47.25868],[10.11653,47.25856],[10.11764,47.25872]]}},{"type":"Feature","properties":{"kind":"piste","difficulty":"intermediate","name":"Skiroute - Nesslegg - Schröcken","aerialway":null,"osm":"way/1383600032"},"geometry":{"type":"LineString","coordinates":[[10.09293,47.25497],[10.09291,47.25512],[10.0934,47.25567],[10.09351,47.25617]]}},{"type":"Feature","properties":{"kind":"piste","difficulty":"intermediate","name":null,"aerialway":null,"osm":"way/1383849065"},"geometry":{"type":"LineString","coordinates":[[10.10452,47.22621],[10.10588,47.22685],[10.10659,47.22735],[10.10758,47.22749]]}},{"type":"Feature","properties":{"kind":"piste","difficulty":"easy","name":null,"aerialway":null,"osm":"way/1383876640"},"geometry":{"type":"LineString","coordinates":[[10.15077,47.26044],[10.15233,47.26129],[10.15348,47.26147],[10.15681,47.26157],[10.15801,47.26131],[10.16026,47.26124],[10.16073,47.26153],[10.16099,47.26201]]}},{"type":"Feature","properties":{"kind":"piste","difficulty":"easy","name":null,"aerialway":null,"osm":"way/1384152336"},"geometry":{"type":"LineString","coordinates":[[10.16916,47.25863],[10.17075,47.25865],[10.17216,47.25815]]}},{"type":"Feature","properties":{"kind":"piste","difficulty":"easy","name":null,"aerialway":null,"osm":"way/1424810934"},"geometry":{"type":"LineString","coordinates":[[10.16099,47.26201],[10.16131,47.26223],[10.16267,47.26258]]}},{"type":"Feature","properties":{"kind":"piste","difficulty":"easy","name":null,"aerialway":null,"osm":"way/1459926090"},"geometry":{"type":"LineString","coordinates":[[10.15004,47.25402],[10.15017,47.25512],[10.15063,47.25603],[10.15074,47.25652],[10.15073,47.25753]]}},{"type":"Feature","properties":{"kind":"piste","difficulty":"easy","name":null,"aerialway":null,"osm":"way/1459926092"},"geometry":{"type":"LineString","coordinates":[[10.16267,47.26258],[10.16152,47.26318],[10.16109,47.26326],[10.15932,47.26307],[10.15681,47.2635],[10.15464,47.26356]]}},{"type":"Feature","properties":{"kind":"piste","difficulty":"easy","name":null,"aerialway":null,"osm":"way/1460163211"},"geometry":{"type":"LineString","coordinates":[[10.16821,47.25873],[10.16941,47.25867],[10.17347,47.2598],[10.17561,47.26016],[10.17577,47.26012],[10.1757,47.26002]]}},{"type":"Feature","properties":{"kind":"piste","difficulty":"easy","name":null,"aerialway":null,"osm":"way/1460163268"},"geometry":{"type":"LineString","coordinates":[[10.15073,47.25753],[10.15306,47.25782],[10.1554,47.25755],[10.15626,47.25759]]}},{"type":"Feature","properties":{"kind":"piste","difficulty":"easy","name":"Mohnenmähder","aerialway":null,"osm":"way/1460163807"},"geometry":{"type":"LineString","coordinates":[[10.10225,47.22618],[10.10235,47.22639],[10.10367,47.22689],[10.10405,47.22808],[10.10437,47.22828],[10.10561,47.22858],[10.10885,47.22861],[10.11044,47.22927],[10.11264,47.22964]]}},{"type":"Feature","properties":{"kind":"piste","difficulty":"easy","name":null,"aerialway":null,"osm":"way/1460163808"},"geometry":{"type":"LineString","coordinates":[[10.11081,47.22715],[10.11124,47.22724],[10.11347,47.22717],[10.11542,47.22666]]}},{"type":"Feature","properties":{"kind":"piste","difficulty":"intermediate","name":null,"aerialway":null,"osm":"way/1460163809"},"geometry":{"type":"LineString","coordinates":[[10.10758,47.22749],[10.10936,47.22693],[10.11006,47.22691],[10.11081,47.22715]]}},{"type":"Feature","properties":{"kind":"piste","difficulty":"advanced","name":null,"aerialway":null,"osm":"way/1552001504"},"geometry":{"type":"LineString","coordinates":[[10.14776,47.25828],[10.14754,47.25924],[10.14739,47.2614],[10.14756,47.26257]]}},{"type":"Feature","properties":{"kind":"piste","difficulty":"easy","name":null,"aerialway":null,"osm":"way/1558609497"},"geometry":{"type":"LineString","coordinates":[[10.14304,47.25358],[10.14328,47.25351],[10.1444,47.25413]]}},{"type":"Feature","properties":{"kind":"piste","difficulty":"intermediate","name":null,"aerialway":null,"osm":"way/1558609499"},"geometry":{"type":"LineString","coordinates":[[10.14283,47.2535],[10.14263,47.25375],[10.14336,47.25514],[10.1426,47.25642],[10.14256,47.25667]]}},{"type":"Feature","properties":{"kind":"piste","difficulty":"intermediate","name":"Skiroute Adler","aerialway":null,"osm":"relation/18657309"},"geometry":{"type":"LineString","coordinates":[[10.13576,47.27005],[10.13586,47.27007]]}},{"type":"Feature","properties":{"kind":"piste","difficulty":"easy","name":null,"aerialway":null,"osm":"relation/19070425"},"geometry":{"type":"MultiLineString","coordinates":[[[10.1754,47.25937],[10.1755,47.25864],[10.17443,47.25833],[10.17226,47.25818],[10.17215,47.25827],[10.17216,47.25841],[10.17245,47.2586],[10.1736,47.25916],[10.17508,47.25924],[10.1754,47.25937]],[[10.13137,47.26729],[10.13125,47.26736],[10.12884,47.26655],[10.12913,47.26601],[10.13001,47.26537],[10.1298,47.26547],[10.12949,47.26538],[10.12962,47.26515],[10.12933,47.26462],[10.13021,47.26495],[10.13124,47.26503],[10.13158,47.26536],[10.13272,47.2659],[10.13277,47.26618],[10.13204,47.26642],[10.13137,47.26729]],[[10.11401,47.25907],[10.11349,47.25914],[10.11311,47.25887],[10.11306,47.25866],[10.11401,47.25907]],[[10.15867,47.25636],[10.15673,47.25647],[10.15826,47.25639],[10.15898,47.25602],[10.15867,47.25636]],[[10.11186,47.25765],[10.11229,47.2582],[10.11155,47.25796],[10.11186,47.25765]],[[10.11664,47.2589],[10.1169,47.25866],[10.11645,47.25861],[10.11664,47.2589]],[[10.13122,47.26259],[10.13019,47.26281],[10.1296,47.26358],[10.12936,47.26433],[10.12951,47.2645],[10.13007,47.26477],[10.13153,47.26494],[10.13167,47.26451],[10.13122,47.26259]],[[10.1313,47.26259],[10.13166,47.264],[10.13191,47.26431],[10.13177,47.26497],[10.13197,47.265],[10.13218,47.26412],[10.13145,47.26264],[10.1313,47.26259]],[[10.13191,47.26524],[10.13167,47.2653],[10.13155,47.26513],[10.13178,47.26509],[10.13191,47.26524]],[[10.12618,47.25318],[10.12567,47.25367],[10.12484,47.25402],[10.12431,47.25455],[10.12184,47.25599],[10.1219,47.25644],[10.12218,47.25696],[10.12194,47.25785],[10.12218,47.25738],[10.12265,47.25687],[10.1241,47.25572],[10.12505,47.25423],[10.1262,47.25355],[10.12618,47.25318]],[[10.13444,47.2551],[10.13439,47.25491],[10.13484,47.25404],[10.13537,47.25378],[10.13805,47.25537],[10.13717,47.2554],[10.13621,47.255],[10.13444,47.2551]],[[10.1418,47.25862],[10.14248,47.25917],[10.14225,47.25923],[10.14226,47.25955],[10.14199,47.25943],[10.14101,47.25848],[10.1418,47.25862]],[[10.14081,47.25831],[10.14156,47.25838],[10.14141,47.25816],[10.13954,47.25652],[10.14081,47.25831]],[[10.14081,47.25708],[10.14169,47.25769],[10.14086,47.25736],[10.14081,47.25708]],[[10.14161,47.25778],[10.14226,47.25795],[10.14354,47.25793],[10.14373,47.25809],[10.14396,47.25873],[10.14381,47.25884],[10.14301,47.25866],[10.14266,47.25891],[10.14173,47.25824],[10.14161,47.25778]],[[10.13964,47.25621],[10.14008,47.25625],[10.14059,47.25693],[10.14066,47.25723],[10.13964,47.25621]],[[10.14242,47.25927],[10.14236,47.25942],[10.14267,47.25944],[10.14242,47.25927]],[[10.1593,47.26117],[10.1566,47.26155],[10.15342,47.2614],[10.15236,47.26121],[10.15162,47.2608],[10.15078,47.25993],[10.15055,47.25904],[10.1506,47.25871],[10.15085,47.25816],[10.15135,47.25809],[10.15174,47.25846],[10.15316,47.25894],[10.15388,47.25968],[10.15697,47.26053],[10.15807,47.2607],[10.1593,47.26117]],[[10.17542,47.2599],[10.17575,47.25998],[10.17561,47.26012],[10.17497,47.25983],[10.17542,47.2599]],[[10.1561,47.25736],[10.15099,47.2574],[10.15078,47.25558],[10.15037,47.2543],[10.15117,47.25476],[10.15299,47.2554],[10.15611,47.25696],[10.1561,47.25736]],[[10.14527,47.25509],[10.14427,47.25604],[10.14432,47.25683],[10.1438,47.25783],[10.14216,47.25765],[10.14115,47.25694],[10.13954,47.25521],[10.13954,47.25507],[10.14056,47.254],[10.14304,47.25358],[10.14454,47.25427],[10.14538,47.25424],[10.14527,47.25509]],[[10.11649,47.25902],[10.11583,47.2594],[10.11479,47.25887],[10.11371,47.25891],[10.1124,47.25803],[10.11057,47.25554],[10.10984,47.25507],[10.10913,47.25486],[10.10912,47.2547],[10.10937,47.25473],[10.10914,47.25462],[10.10896,47.25471],[10.10891,47.25491],[10.10989,47.25526],[10.11042,47.25566],[10.11179,47.25756],[10.11145,47.25785],[10.11141,47.25807],[10.11265,47.25853],[10.11346,47.25922],[10.11389,47.25924],[10.11477,47.25899],[10.11591,47.25949],[10.11743,47.25879],[10.11893,47.25897],[10.12169,47.25867],[10.12233,47.25891],[10.12266,47.25936],[10.12275,47.25981],[10.12269,47.26094],[10.1222,47.26171],[10.12234,47.26202],[10.12271,47.26212],[10.12236,47.26193],[10.12236,47.26175],[10.12289,47.26095],[10.12291,47.26017],[10.12318,47.26034],[10.12357,47.26066],[10.1237,47.2611],[10.12399,47.26145],[10.1249,47.26208],[10.12754,47.26319],[10.12825,47.26368],[10.1285,47.264],[10.12888,47.26515],[10.12874,47.26585],[10.12851,47.26626],[10.1285,47.26668],[10.12952,47.26717],[10.13094,47.26761],[10.1312,47.26758],[10.13149,47.26733],[10.13216,47.26644],[10.13273,47.26637],[10.13293,47.26619],[10.1329,47.26592],[10.13246,47.26552],[10.13256,47.2653],[10.13223,47.26503],[10.13237,47.26423],[10.13227,47.26391],[10.13435,47.26464],[10.13664,47.26489],[10.1407,47.2651],[10.14332,47.2655],[10.14558,47.26641],[10.14836,47.2669],[10.14873,47.26717],[10.14897,47.26718],[10.14915,47.2671],[10.14918,47.26691],[10.14893,47.26704],[10.14864,47.26666],[10.14739,47.26617],[10.14722,47.26593],[10.14788,47.26577],[10.1489,47.26518],[10.15134,47.2648],[10.15387,47.26384],[10.15488,47.26363],[10.15698,47.26351],[10.15935,47.2631],[10.16124,47.26327],[10.1632,47.26253],[10.16458,47.26243],[10.16569,47.26262],[10.16615,47.26256],[10.16632,47.26241],[10.16618,47.26178],[10.166,47.26155],[10.16509,47.26102],[10.1648,47.26042],[10.16424,47.26016],[10.16421,47.25998],[10.1667,47.25963],[10.16818,47.25885],[10.16916,47.2588],[10.17007,47.2592],[10.17034,47.25945],[10.17297,47.26022],[10.17368,47.26029],[10.17501,47.26016],[10.17577,47.26031],[10.17602,47.25989],[10.17659,47.25979],[10.17555,47.25942],[10.17576,47.25858],[10.17791,47.25814],[10.18214,47.25825],[10.18274,47.25815],[10.18071,47.25791],[10.17845,47.25788],[10.17576,47.25852],[10.17591,47.25812],[10.17633,47.25779],[10.1763,47.2576],[10.17573,47.25804],[10.17555,47.2585],[10.17469,47.2582],[10.17204,47.25807],[10.17058,47.25858],[10.16854,47.25851],[10.1679,47.25877],[10.1667,47.25957],[10.16445,47.2598],[10.16402,47.26004],[10.16467,47.26052],[10.16498,47.26103],[10.16594,47.26181],[10.16605,47.26235],[10.16545,47.26243],[10.16414,47.26226],[10.16263,47.26249],[10.16122,47.26214],[10.16074,47.26147],[10.16028,47.26122],[10.15953,47.26117],[10.1585,47.26064],[10.15647,47.26025],[10.15413,47.25956],[10.15344,47.25884],[10.15184,47.25831],[10.1516,47.25792],[10.15291,47.25821],[10.15534,47.25784],[10.15618,47.25783],[10.1581,47.25831],[10.1592,47.25881],[10.16038,47.25853],[10.16122,47.2588],[10.16108,47.25893],[10.16139,47.25884],[10.16076,47.2585],[10.16024,47.25838],[10.15921,47.2584],[10.15753,47.25766],[10.15642,47.25739],[10.15645,47.25675],[10.15636,47.2567],[10.15632,47.25682],[10.15601,47.25668],[10.15306,47.25513],[10.15148,47.25462],[10.15022,47.25391],[10.14995,47.25373],[10.14998,47.25356],[10.14971,47.25344],[10.14684,47.25342],[10.14582,47.25376],[10.14548,47.25412],[10.14513,47.25415],[10.14318,47.25341],[10.14183,47.25353]],[[10.11649,47.25902],[10.11634,47.25863],[10.11659,47.25853],[10.11873,47.25885],[10.12139,47.25854],[10.1222,47.25873],[10.12191,47.25826],[10.12181,47.25778],[10.12206,47.25699],[10.12161,47.25604],[10.12165,47.2559],[10.12362,47.25479],[10.12482,47.25395],[10.12554,47.25367],[10.12612,47.25309],[10.12581,47.25257],[10.1253,47.25214],[10.12387,47.2519],[10.12161,47.25109],[10.11975,47.24996],[10.11849,47.24949],[10.11859,47.24908],[10.11902,47.24902],[10.11908,47.24911],[10.11876,47.24926],[10.11865,47.2495],[10.12073,47.2502],[10.12179,47.25087],[10.12218,47.25019],[10.12268,47.24967],[10.12405,47.24866],[10.12481,47.24841],[10.12476,47.24822],[10.12525,47.24826],[10.12604,47.24746],[10.127,47.24684],[10.12648,47.2466],[10.12573,47.24573],[10.12387,47.24402],[10.12365,47.24394],[10.12411,47.24375],[10.12463,47.24435],[10.1261,47.24557],[10.12608,47.24575],[10.12633,47.24613],[10.12714,47.24681],[10.1261,47.2475],[10.12558,47.24814],[10.12655,47.24809],[10.1271,47.24828],[10.12729,47.24841],[10.12727,47.24858],[10.12659,47.24832],[10.12596,47.24825],[10.12417,47.2487],[10.12265,47.24981],[10.122,47.25098],[10.12418,47.25164],[10.12555,47.25192],[10.12649,47.25271],[10.12672,47.2533],[10.12685,47.25336],[10.12716,47.25329],[10.12747,47.253],[10.12783,47.25229],[10.12839,47.25216],[10.12844,47.25234],[10.12786,47.25244],[10.12732,47.25332],[10.12675,47.2535],[10.12677,47.25391],[10.12632,47.25435],[10.12633,47.2545],[10.12843,47.25398],[10.12895,47.25427],[10.12985,47.25433],[10.13009,47.25448],[10.12896,47.25444],[10.12966,47.2552],[10.13013,47.25525],[10.13267,47.25408],[10.13324,47.25415],[10.13366,47.25471],[10.13402,47.25388],[10.13401,47.25355],[10.13382,47.25333],[10.13047,47.25275],[10.12909,47.25241],[10.12894,47.25214],[10.13076,47.25265],[10.13422,47.25327],[10.13437,47.25353],[10.13402,47.25464],[10.13505,47.2538],[10.13531,47.25366],[10.13565,47.25372],[10.13833,47.2552],[10.13942,47.25608],[10.13969,47.25614],[10.13993,47.25612],[10.13934,47.25532],[10.13933,47.255],[10.14036,47.25391],[10.14183,47.25353]],[[10.13936,47.25652],[10.14047,47.25822],[10.14108,47.2588],[10.14152,47.25944],[10.14235,47.25986],[10.14229,47.2611],[10.1412,47.26105],[10.14103,47.26121],[10.14125,47.26147],[10.14213,47.26178],[10.1428,47.26174],[10.14444,47.26091],[10.14502,47.26163],[10.14664,47.26209],[10.14774,47.26279],[10.14773,47.2625],[10.14705,47.26213],[10.14557,47.26162],[10.14482,47.2609],[10.14461,47.26085],[10.14437,47.26081],[10.14257,47.26169],[10.14143,47.26147],[10.14116,47.26126],[10.14134,47.26111],[10.14243,47.26112],[10.14244,47.26003],[10.14256,47.25966],[10.14281,47.25945],[10.14297,47.2588],[10.14396,47.2589],[10.14424,47.25872],[10.14398,47.25805],[10.14447,47.25714],[10.14438,47.25607],[10.1454,47.25528],[10.14557,47.25423],[10.14623,47.25424],[10.14677,47.25433],[10.14767,47.25502],[10.14752,47.25556],[10.14758,47.2561],[10.14738,47.25659],[10.14758,47.25718],[10.14756,47.25772],[10.14771,47.25829],[10.14987,47.26023],[10.15225,47.26138],[10.15346,47.26154],[10.15682,47.26162],[10.15793,47.26136],[10.16018,47.26125],[10.16059,47.26142],[10.16114,47.26221],[10.16239,47.26257],[10.16215,47.26284],[10.16133,47.26319],[10.15919,47.26305],[10.15672,47.26348],[10.15393,47.26359],[10.15293,47.26396],[10.14933,47.26368],[10.14864,47.2634],[10.14819,47.26296],[10.14818,47.26319],[10.14923,47.26371],[10.15113,47.26396],[10.15193,47.26393],[10.15244,47.2641],[10.15178,47.26446],[10.1489,47.26475],[10.14745,47.26526],[10.14711,47.2656],[10.14701,47.266],[10.14834,47.26679],[10.14567,47.2663],[10.14336,47.26539],[10.14074,47.26499],[10.13666,47.26478],[10.13413,47.26447],[10.13213,47.26366],[10.13174,47.26269],[10.13137,47.26235],[10.13006,47.26247],[10.12946,47.26317],[10.12905,47.26411],[10.12779,47.26312],[10.12477,47.26182],[10.12398,47.26123],[10.12367,47.26058],[10.12302,47.26015],[10.12298,47.25961],[10.12236,47.25843],[10.1223,47.25798],[10.12244,47.25739],[10.12425,47.25579],[10.12526,47.2542],[10.12631,47.25366],[10.12656,47.25365],[10.12603,47.25449],[10.12609,47.25461],[10.12829,47.25426],[10.12951,47.25543],[10.13,47.25559],[10.13212,47.25461],[10.13311,47.2544],[10.13346,47.25468],[10.13311,47.25485],[10.13368,47.25522],[10.13785,47.25568],[10.13891,47.25617],[10.13936,47.25652]],[[10.14981,47.25545],[10.15037,47.25598],[10.15053,47.25659],[10.15045,47.25768],[10.15006,47.25828],[10.14987,47.25894],[10.15007,47.26011],[10.14967,47.25995],[10.14786,47.25834],[10.1477,47.25713],[10.14751,47.25659],[10.14772,47.25604],[10.14765,47.25559],[10.14788,47.25525]],[[10.14788,47.25525],[10.14781,47.255]],[[10.14781,47.255],[10.14732,47.25449],[10.14682,47.25422],[10.14573,47.2541],[10.14589,47.25391],[10.1469,47.25357],[10.14963,47.25358],[10.14955,47.25395],[10.14983,47.25406],[10.14972,47.25517],[10.14981,47.25545]]]}},{"type":"Feature","properties":{"kind":"piste","difficulty":"advanced","name":null,"aerialway":null,"osm":"relation/19070823"},"geometry":{"type":"MultiLineString","coordinates":[[[10.13123,47.26068],[10.13151,47.26071],[10.13204,47.26046],[10.13299,47.26035],[10.13339,47.2601],[10.13437,47.25813],[10.13453,47.25726],[10.1343,47.25587],[10.13404,47.25541],[10.1338,47.25524],[10.13451,47.25538],[10.13491,47.25731],[10.13461,47.25847],[10.13387,47.26007],[10.13327,47.26046],[10.13205,47.26055],[10.13152,47.26081],[10.13102,47.26072],[10.13061,47.26084],[10.13006,47.26247],[10.12946,47.26317],[10.12905,47.26411],[10.12872,47.26387],[10.12909,47.26318],[10.12838,47.2628],[10.12802,47.26229],[10.12831,47.26077],[10.12827,47.26016],[10.1288,47.25912],[10.12941,47.25879],[10.13053,47.2573],[10.13055,47.25634],[10.13028,47.25569],[10.13032,47.25551],[10.13072,47.25519],[10.13154,47.2549],[10.13222,47.25504],[10.13311,47.25485],[10.13368,47.25522],[10.13198,47.25531],[10.13163,47.25555],[10.13153,47.25588],[10.132,47.25706],[10.13191,47.25764],[10.13162,47.25792],[10.13169,47.25836],[10.13076,47.26051],[10.13123,47.26068]],[[10.13422,47.25327],[10.13437,47.25353],[10.13474,47.2533],[10.13429,47.25259],[10.13403,47.25183],[10.13232,47.25014],[10.13067,47.24881],[10.12984,47.24796],[10.12981,47.24775],[10.1303,47.24649],[10.1297,47.24683],[10.1294,47.2477],[10.12956,47.24822],[10.13104,47.24958],[10.13218,47.25039],[10.13317,47.25146],[10.13427,47.25311],[10.13422,47.25327]],[[10.15903,47.25633],[10.15977,47.25653],[10.16133,47.25757],[10.16444,47.25867],[10.16473,47.25849],[10.16303,47.25758],[10.16168,47.25721],[10.16047,47.2565],[10.15923,47.25611]],[[10.15923,47.25611],[10.15897,47.25608],[10.15867,47.25636]],[[10.15867,47.25636],[10.15867,47.25668],[10.15965,47.25787],[10.16076,47.2585],[10.15908,47.25683],[10.15889,47.25647],[10.15903,47.25633]],[[10.15088,47.25636],[10.15088,47.25669],[10.1532,47.25667],[10.15403,47.25686],[10.15486,47.25739],[10.15534,47.25729],[10.15506,47.25699],[10.15435,47.25663],[10.15331,47.25636],[10.15088,47.25636]],[[10.15597,47.26006],[10.15633,47.2602],[10.15671,47.25998],[10.15879,47.25952],[10.15972,47.25914],[10.16017,47.25856],[10.15984,47.25864],[10.15951,47.25904],[10.15886,47.25928],[10.1564,47.25985],[10.15597,47.26006]],[[10.14788,47.25525],[10.1482,47.25446],[10.14955,47.25395],[10.14955,47.25383],[10.14811,47.25436],[10.14781,47.255]],[[10.14788,47.25525],[10.14781,47.255]],[[10.14814,47.26464],[10.14821,47.26214],[10.1486,47.25999],[10.14886,47.25936],[10.14867,47.25917],[10.14789,47.26072],[10.14783,47.26111],[10.14771,47.26372],[10.14778,47.26512],[10.14816,47.265],[10.14814,47.26464]],[[10.15449,47.25985],[10.15407,47.25973],[10.15424,47.26045],[10.15511,47.26142],[10.15557,47.26153],[10.1546,47.26043],[10.15449,47.25985]],[[10.14242,47.26026],[10.14245,47.26085],[10.14437,47.26081],[10.14482,47.2609],[10.14348,47.26037],[10.14242,47.26026]],[[10.1292,47.2591],[10.12853,47.26016],[10.1286,47.26079],[10.12828,47.26221],[10.12847,47.26263],[10.12924,47.26289],[10.12957,47.26205],[10.1298,47.26071],[10.12931,47.26015],[10.12913,47.25957],[10.1292,47.2591]],[[10.13135,47.25629],[10.13096,47.25624],[10.13088,47.2555],[10.13135,47.25629]],[[10.13035,47.26053],[10.12957,47.26003],[10.1294,47.25964],[10.12944,47.25913],[10.13082,47.25732],[10.13096,47.25637],[10.13139,47.25641],[10.13159,47.25711],[10.13141,47.25742],[10.13096,47.25772],[10.13096,47.25834],[10.13045,47.25978],[10.13035,47.26053]],[[10.13137,47.25512],[10.13134,47.25562],[10.13115,47.25521],[10.13137,47.25512]]]}},{"type":"Feature","properties":{"kind":"piste","difficulty":"intermediate","name":null,"aerialway":null,"osm":"relation/19070824"},"geometry":{"type":"MultiLineString","coordinates":[[[10.12654,47.2546],[10.12603,47.25457],[10.12616,47.25479],[10.12791,47.25564],[10.12868,47.25574],[10.12977,47.25556],[10.12951,47.25543],[10.12896,47.25556],[10.12821,47.25552],[10.12654,47.2546]],[[10.15926,47.25882],[10.15644,47.25881],[10.15481,47.25904],[10.15364,47.25902],[10.15344,47.25884],[10.15617,47.25858],[10.15801,47.25873],[10.15884,47.25861],[10.15926,47.25882]],[[10.15996,47.25829],[10.16076,47.2585],[10.15815,47.25699],[10.15673,47.25647],[10.1551,47.25554],[10.15239,47.25424],[10.1515,47.25396],[10.15022,47.25391],[10.15072,47.25418],[10.15209,47.25457],[10.15688,47.25698],[10.15996,47.25829]],[[10.16532,47.25853],[10.16807,47.25839],[10.16894,47.2585],[10.16843,47.25854],[10.16736,47.2591],[10.16423,47.25891],[10.16252,47.2591],[10.16076,47.2585],[10.16057,47.25822],[10.16142,47.25864],[10.16259,47.25899],[10.1643,47.25878],[10.1647,47.25849],[10.16532,47.25853]],[[10.18076,47.25714],[10.18253,47.2568],[10.18266,47.25668],[10.18259,47.25637],[10.18329,47.25644],[10.18258,47.25632],[10.18247,47.25637],[10.18257,47.25666],[10.18243,47.25677],[10.17838,47.25756],[10.1776,47.25801],[10.17854,47.25759],[10.18076,47.25714]],[[10.15613,47.26161],[10.15509,47.26158],[10.15722,47.26217],[10.15742,47.26229],[10.1574,47.26241],[10.15656,47.26311],[10.1546,47.2635],[10.15652,47.2633],[10.15764,47.26244],[10.15773,47.26228],[10.15762,47.26213],[10.15663,47.26191],[10.15613,47.26161]],[[10.12714,47.24681],[10.12709,47.2469],[10.12733,47.24716],[10.12727,47.24858],[10.12754,47.24887],[10.1276,47.24989],[10.12792,47.25094],[10.12827,47.25148],[10.12853,47.25265],[10.12962,47.25413],[10.13071,47.25487],[10.13066,47.25496],[10.13082,47.25494],[10.13159,47.25451],[10.13123,47.25456],[10.13054,47.25435],[10.12941,47.25315],[10.12894,47.25214],[10.12836,47.24963],[10.12781,47.2484],[10.12785,47.24724],[10.12743,47.24676],[10.12799,47.24664],[10.12896,47.24693],[10.12981,47.2468],[10.1303,47.24649],[10.1303,47.2459],[10.12923,47.24468],[10.1268,47.24365],[10.12532,47.24355],[10.12411,47.24375],[10.1243,47.24389],[10.12555,47.24378],[10.12583,47.24395],[10.12613,47.24541],[10.12608,47.24575],[10.12633,47.24613],[10.12714,47.24681]],[[10.14836,47.2669],[10.14726,47.2672],[10.14712,47.26733],[10.14713,47.2676],[10.14658,47.26789],[10.14532,47.2681],[10.1443,47.26851],[10.14289,47.26882],[10.14125,47.26879],[10.14054,47.26913],[10.13846,47.26937],[10.13573,47.27004],[10.13482,47.26993],[10.13392,47.27014],[10.13191,47.26982],[10.13031,47.26928],[10.13077,47.26831],[10.13126,47.26783],[10.1312,47.26758],[10.131,47.26762],[10.13109,47.26785],[10.13037,47.26884],[10.13023,47.26926],[10.13129,47.2697],[10.13321,47.27014],[10.13393,47.27017],[10.13482,47.26997],[10.1356,47.27009],[10.13783,47.26953],[10.14053,47.26916],[10.14115,47.26884],[10.14289,47.26885],[10.14432,47.26854],[10.14534,47.26813],[10.14671,47.26788],[10.1472,47.26759],[10.14723,47.26726],[10.14836,47.2669]],[[10.13049,47.26274],[10.13084,47.26264],[10.13089,47.26323],[10.13153,47.26494],[10.13119,47.26491],[10.1307,47.26375],[10.13049,47.26274]],[[10.10669,47.26253],[10.10552,47.26334],[10.10507,47.26319],[10.10535,47.26337],[10.10561,47.26337],[10.10628,47.26281],[10.10678,47.26258],[10.10731,47.26282],[10.10761,47.26311],[10.1085,47.26308],[10.10947,47.2634],[10.1102,47.26399],[10.11079,47.26426],[10.11125,47.26427],[10.11195,47.26475],[10.11293,47.26488],[10.11317,47.26516],[10.11369,47.26513],[10.11403,47.26469],[10.11338,47.26414],[10.11356,47.26387],[10.11332,47.2636],[10.11328,47.26295],[10.11287,47.26261],[10.11285,47.26176],[10.11241,47.26123],[10.11176,47.26105],[10.1115,47.26082],[10.11154,47.26062],[10.11243,47.26006],[10.1125,47.25981],[10.11234,47.25913],[10.11262,47.25895],[10.11304,47.25895],[10.11296,47.25885],[10.11253,47.2589],[10.11228,47.25909],[10.11236,47.26002],[10.11152,47.26056],[10.11142,47.26083],[10.11161,47.26104],[10.11242,47.26131],[10.11273,47.26175],[10.1128,47.26262],[10.11327,47.26309],[10.11327,47.26367],[10.11345,47.26391],[10.11322,47.26413],[10.11393,47.26468],[10.11363,47.26509],[10.11315,47.26509],[10.11298,47.26483],[10.11187,47.26466],[10.11147,47.26429],[10.11034,47.26395],[10.10921,47.26318],[10.10846,47.26302],[10.10773,47.26306],[10.10678,47.26249],[10.10555,47.26207],[10.1048,47.26195],[10.10382,47.26153],[10.10195,47.25984],[10.10126,47.25957],[10.10103,47.25962],[10.10103,47.25984],[10.10151,47.26004],[10.10134,47.2602],[10.09984,47.25952],[10.09974,47.25908],[10.09982,47.25863],[10.09878,47.25779],[10.09785,47.25676],[10.09626,47.2563],[10.09491,47.25528],[10.09467,47.25482],[10.09432,47.2545],[10.09423,47.25397],[10.09401,47.25383],[10.09453,47.25274],[10.09457,47.25205],[10.09442,47.25177],[10.09391,47.25151],[10.09382,47.25024],[10.09403,47.24982],[10.09515,47.24927],[10.09453,47.25016],[10.09469,47.25062],[10.09484,47.25065],[10.09528,47.25014],[10.09653,47.24939],[10.09691,47.24931],[10.09736,47.24951],[10.09791,47.24946],[10.09863,47.2492],[10.09968,47.24853],[10.10124,47.24825],[10.10135,47.24837],[10.10128,47.24857],[10.10081,47.24914],[10.10084,47.24976],[10.1,47.25054],[10.09995,47.25088],[10.09965,47.25126],[10.09971,47.25134],[10.10298,47.25219],[10.10347,47.25258],[10.10371,47.25311],[10.10486,47.25331],[10.10522,47.25373],[10.10568,47.25391],[10.10634,47.25398],[10.10732,47.25386],[10.108,47.254],[10.10825,47.25429],[10.10827,47.25461],[10.10856,47.25494],[10.10901,47.25496],[10.10889,47.25481],[10.10855,47.25481],[10.10815,47.25398],[10.10748,47.25379],[10.10629,47.2539],[10.10562,47.25382],[10.10493,47.25328],[10.10378,47.25303],[10.10345,47.25244],[10.10296,47.2521],[10.09974,47.25126],[10.10008,47.25081],[10.10005,47.25058],[10.10102,47.24968],[10.10093,47.2491],[10.10147,47.24845],[10.10127,47.24817],[10.10007,47.24833],[10.09865,47.24909],[10.09763,47.24942],[10.0969,47.24923],[10.09664,47.24928],[10.09524,47.25011],[10.09481,47.25055],[10.09463,47.25012],[10.0953,47.24925],[10.09502,47.24923],[10.0939,47.24979],[10.09373,47.25035],[10.09379,47.25134],[10.09393,47.25163],[10.09445,47.25191],[10.09447,47.25271],[10.0938,47.25391],[10.09387,47.25422],[10.09372,47.2542],[10.09351,47.25384],[10.0933,47.254],[10.09376,47.25524],[10.09395,47.25547],[10.09324,47.25493],[10.09278,47.25495],[10.09172,47.25585],[10.09156,47.25641],[10.09174,47.25671],[10.09188,47.25667],[10.0918,47.25645],[10.09194,47.25593],[10.09284,47.25516],[10.0932,47.2554],[10.09351,47.25617],[10.09346,47.25574],[10.09308,47.2551],[10.09326,47.25503],[10.09382,47.25551],[10.09407,47.2555],[10.09383,47.2552],[10.0934,47.25397],[10.09385,47.2543],[10.09401,47.2542],[10.09396,47.25397],[10.09409,47.25396],[10.09421,47.25456],[10.09465,47.25496],[10.09485,47.25533],[10.09651,47.25652],[10.09771,47.25672],[10.09818,47.25733],[10.09965,47.25856],[10.09976,47.25958],[10.10128,47.26025],[10.10158,47.26011],[10.10106,47.25974],[10.10135,47.25964],[10.10213,47.26007],[10.10264,47.2606],[10.10294,47.26072],[10.1029,47.26107],[10.10256,47.26125],[10.10316,47.26115],[10.10374,47.26156],[10.10481,47.26203],[10.10669,47.26253]],[[10.10217,47.26136],[10.10149,47.26123],[10.10132,47.2614],[10.10148,47.2615],[10.1014,47.2614],[10.10148,47.2613],[10.10217,47.26136]],[[10.14788,47.26577],[10.14814,47.26645],[10.14864,47.26666],[10.1482,47.26562],[10.14788,47.26577]],[[10.12779,47.24437],[10.12908,47.24481],[10.12987,47.24587],[10.12995,47.24628],[10.12975,47.24673],[10.12899,47.24688],[10.128,47.2466],[10.12736,47.24669],[10.12665,47.24609],[10.12647,47.24584],[10.12668,47.2458],[10.12668,47.24553],[10.12646,47.24547],[10.12628,47.24412],[10.12604,47.24378],[10.12666,47.24386],[10.12779,47.24437]],[[10.14277,47.2565],[10.14287,47.25696],[10.14337,47.25771],[10.14309,47.25775],[10.1427,47.25719],[10.14245,47.25678],[10.14231,47.25548],[10.1412,47.25432],[10.14112,47.25385],[10.14228,47.25368],[10.14179,47.25407],[10.14257,47.25536],[10.14257,47.25617],[10.14302,47.25554],[10.14314,47.25512],[10.14242,47.25366],[10.14289,47.25361],[10.14302,47.25427],[10.14358,47.25506],[10.14351,47.25538],[10.14277,47.2565]]]}},{"type":"Feature","properties":{"kind":"lift","difficulty":null,"name":"Steffisalp-Express","aerialway":"chair_lift","osm":"way/26072430"},"geometry":{"type":"LineString","coordinates":[[10.1757,47.26002],[10.15918,47.25599]]}},{"type":"Feature","properties":{"kind":"lift","difficulty":null,"name":"Wannenkopfbahn","aerialway":"chair_lift","osm":"way/29105302"},"geometry":{"type":"LineString","coordinates":[[10.17642,47.25973],[10.17215,47.25827]]}},{"type":"Feature","properties":{"kind":"lift","difficulty":null,"name":"Wartherhorn-Express","aerialway":"chair_lift","osm":"way/29105303"},"geometry":{"type":"LineString","coordinates":[[10.16095,47.25886],[10.15003,47.25364]]}},{"type":"Feature","properties":{"kind":"lift","difficulty":null,"name":"Jägeralp-Express","aerialway":"chair_lift","osm":"way/29105305"},"geometry":{"type":"LineString","coordinates":[[10.14914,47.26685],[10.14973,47.25405]]}},{"type":"Feature","properties":{"kind":"lift","difficulty":null,"name":"Hochalpbahn","aerialway":"chair_lift","osm":"way/29105306"},"geometry":{"type":"LineString","coordinates":[[10.14255,47.25941],[10.1346,47.25533]]}},{"type":"Feature","properties":{"kind":"lift","difficulty":null,"name":"Salober-Jet","aerialway":"chair_lift","osm":"way/29105307"},"geometry":{"type":"LineString","coordinates":[[10.13,47.26529],[10.13371,47.25529]]}},{"type":"Feature","properties":{"kind":"lift","difficulty":null,"name":"Sonnen-Jet","aerialway":"chair_lift","osm":"way/29105308"},"geometry":{"type":"LineString","coordinates":[[10.1236,47.24397],[10.13334,47.25469]]}},{"type":"Feature","properties":{"kind":"lift","difficulty":null,"name":"Ski-Schaukel-Falken (Spielboden - Falkenkopf)","aerialway":"chair_lift","osm":"way/29105309"},"geometry":{"type":"LineString","coordinates":[[10.12258,47.26198],[10.11666,47.25875]]}},{"type":"Feature","properties":{"kind":"lift","difficulty":null,"name":"Ski-Schaukel-Falken (Körbersee - Falkenkopf)","aerialway":"chair_lift","osm":"way/29105310"},"geometry":{"type":"LineString","coordinates":[[10.10937,47.25473],[10.11666,47.25875]]}},{"type":"Feature","properties":{"kind":"lift","difficulty":null,"name":"Karhornbahn","aerialway":"chair_lift","osm":"way/32564216"},"geometry":{"type":"LineString","coordinates":[[10.14383,47.25867],[10.14304,47.25358]]}},{"type":"Feature","properties":{"kind":"lift","difficulty":null,"name":"Sonnencruiser","aerialway":"chair_lift","osm":"way/32567926"},"geometry":{"type":"LineString","coordinates":[[10.11913,47.24913],[10.13057,47.25491]]}},{"type":"Feature","properties":{"kind":"lift","difficulty":null,"name":"Kuchlbahn","aerialway":"chair_lift","osm":"way/32570618"},"geometry":{"type":"LineString","coordinates":[[10.13169,47.26525],[10.13113,47.26259]]}},{"type":"Feature","properties":{"kind":"lift","difficulty":null,"name":"Körbliftle","aerialway":"platter","osm":"way/135167329"},"geometry":{"type":"LineString","coordinates":[[10.12884,47.26655],[10.13176,47.26754]]}},{"type":"Feature","properties":{"kind":"lift","difficulty":null,"name":"Auenfeldjet","aerialway":"gondola","osm":"way/203110042"},"geometry":{"type":"LineString","coordinates":[[10.1268,47.24568],[10.12792,47.22673]]}},{"type":"Feature","properties":{"kind":"lift","difficulty":null,"name":"Kitzeliftle","aerialway":"rope_tow","osm":"way/334848514"},"geometry":{"type":"LineString","coordinates":[[10.17921,47.2606],[10.17807,47.26013]]}},{"type":"Feature","properties":{"kind":"lift","difficulty":null,"name":null,"aerialway":"magic_carpet","osm":"way/334848515"},"geometry":{"type":"LineString","coordinates":[[10.1786,47.26018],[10.17832,47.26005]]}},{"type":"Feature","properties":{"kind":"lift","difficulty":null,"name":"Dorfbahn Warth","aerialway":"gondola","osm":"way/518304853"},"geometry":{"type":"LineString","coordinates":[[10.18233,47.25799],[10.17644,47.25771]]}},{"type":"Feature","properties":{"kind":"lift","difficulty":null,"name":"Märchenlandlift","aerialway":"rope_tow","osm":"way/549661080"},"geometry":{"type":"LineString","coordinates":[[10.12964,47.26622],[10.13052,47.26579]]}},{"type":"Feature","properties":{"kind":"lift","difficulty":null,"name":null,"aerialway":"yes","osm":"way/570963769"},"geometry":{"type":"LineString","coordinates":[[10.08896,47.25915],[10.08906,47.25912],[10.08896,47.25915]]}},{"type":"Feature","properties":{"kind":"lift","difficulty":null,"name":"Materialseilbahn Oberwaldalpe","aerialway":"yes","osm":"way/580475551"},"geometry":{"type":"LineString","coordinates":[[10.08379,47.25689],[10.08379,47.25689]]}},{"type":"Feature","properties":{"kind":"lift","difficulty":null,"name":null,"aerialway":"yes","osm":"way/580510286"},"geometry":{"type":"LineString","coordinates":[[10.08634,47.26497],[10.08634,47.26497]]}},{"type":"Feature","properties":{"kind":"lift","difficulty":null,"name":null,"aerialway":"yes","osm":"way/580510287"},"geometry":{"type":"LineString","coordinates":[[10.08575,47.26256],[10.08582,47.2626],[10.08575,47.26256]]}},{"type":"Feature","properties":{"kind":"lift","difficulty":null,"name":null,"aerialway":"yes","osm":"way/580510291"},"geometry":{"type":"LineString","coordinates":[[10.08588,47.26516],[10.08588,47.26516]]}}]}