{"type":"FeatureCollection","features":[{"type":"Feature","properties":{"kind":"piste","difficulty":"intermediate","name":"Talabfahrt Schöneben","aerialway":null,"osm":"way/34714202"},"geometry":{"type":"LineString","coordinates":[[10.49233,46.80668],[10.4923,46.80699],[10.49277,46.80761],[10.49312,46.8088],[10.49246,46.81034],[10.49269,46.81083],[10.49431,46.81225],[10.49454,46.81267],[10.49439,46.81407],[10.49462,46.81459],[10.49577,46.81529],[10.49606,46.81569],[10.49715,46.81614],[10.49724,46.8163],[10.4962,46.81794],[10.49611,46.81831],[10.4963,46.81866],[10.49717,46.81938],[10.49809,46.8195],[10.4997,46.81909],[10.50185,46.81892],[10.50338,46.81857],[10.50616,46.81831],[10.50677,46.81841],[10.5081,46.81898],[10.50869,46.81896],[10.51005,46.81835],[10.51154,46.81823],[10.51178,46.81835],[10.51143,46.81936],[10.51115,46.8198],[10.51025,46.82074],[10.50941,46.82128],[10.50918,46.82167]]}},{"type":"Feature","properties":{"kind":"piste","difficulty":"easy","name":"Ganderbildabfahrt","aerialway":null,"osm":"way/50999749"},"geometry":{"type":"LineString","coordinates":[[10.5507,46.86647],[10.54826,46.86476],[10.54739,46.86392],[10.54675,46.86323],[10.54659,46.86238],[10.54601,46.86252]]}},{"type":"Feature","properties":{"kind":"piste","difficulty":"intermediate","name":"Wiegenabfahrt","aerialway":null,"osm":"way/50999751"},"geometry":{"type":"LineString","coordinates":[[10.57191,46.88598],[10.57131,46.88546],[10.57038,46.88504],[10.56959,46.88447],[10.56944,46.88418],[10.56971,46.88258],[10.5692,46.88202],[10.56727,46.8806],[10.56262,46.87757],[10.56228,46.87762],[10.56211,46.87819],[10.5619,46.87815],[10.56084,46.87714],[10.55951,46.87642],[10.55792,46.87651],[10.55318,46.87717],[10.55121,46.87693],[10.54903,46.87688]]}},{"type":"Feature","properties":{"kind":"piste","difficulty":"intermediate","name":"Tscheyeckabfahrt","aerialway":null,"osm":"way/50999752"},"geometry":{"type":"LineString","coordinates":[[10.57191,46.88598],[10.5701,46.88601],[10.56551,46.88505],[10.56452,46.88455],[10.56298,46.88347],[10.5621,46.8831],[10.55503,46.88084],[10.55345,46.88048],[10.55145,46.87905],[10.55136,46.87858],[10.55098,46.87825],[10.55011,46.87796],[10.54929,46.87787],[10.54931,46.87776],[10.55055,46.87743],[10.5505,46.87732],[10.54879,46.87684]]}},{"type":"Feature","properties":{"kind":"piste","difficulty":"intermediate","name":"Gampenabfahrt","aerialway":null,"osm":"way/50999973"},"geometry":{"type":"LineString","coordinates":[[10.5542,46.86764],[10.55455,46.86772],[10.55603,46.86884],[10.55696,46.86918],[10.55634,46.86964],[10.55462,46.87171],[10.55123,46.87486],[10.55072,46.8751],[10.54903,46.8753],[10.54812,46.87518],[10.54755,46.87566]]}},{"type":"Feature","properties":{"kind":"piste","difficulty":"intermediate","name":"Gaislochabfahrt","aerialway":null,"osm":"way/50999974"},"geometry":{"type":"LineString","coordinates":[[10.55219,46.86671],[10.55249,46.86709],[10.5542,46.86764],[10.55398,46.86799],[10.5506,46.87001],[10.5483,46.87219]]}},{"type":"Feature","properties":{"kind":"piste","difficulty":"intermediate","name":"Piengabfahrt","aerialway":null,"osm":"way/51000037"},"geometry":{"type":"LineString","coordinates":[[10.55251,46.86681],[10.5524,46.86668],[10.55006,46.86682],[10.54964,46.86702],[10.54969,46.86806],[10.54956,46.86858],[10.54873,46.86987],[10.5483,46.87219]]}},{"type":"Feature","properties":{"kind":"piste","difficulty":"easy","name":"Waldabfahrt","aerialway":null,"osm":"way/51001302"},"geometry":{"type":"LineString","coordinates":[[10.54083,46.86266],[10.54185,46.86282],[10.54227,46.86304],[10.54352,46.86333],[10.54453,46.86304],[10.54554,46.86252],[10.54581,46.86254],[10.54604,46.86275],[10.54584,46.86404],[10.54621,46.86475],[10.5462,46.86505],[10.54485,46.86825],[10.54513,46.86917],[10.54653,46.87103],[10.54744,46.87172],[10.54748,46.87205],[10.54715,46.87296],[10.54626,46.87461],[10.54644,46.87479],[10.54697,46.87495],[10.54604,46.87536],[10.54532,46.87515],[10.54525,46.87522],[10.54586,46.87568],[10.54714,46.87593],[10.54742,46.87628],[10.54786,46.87652]]}},{"type":"Feature","properties":{"kind":"piste","difficulty":"intermediate","name":"Avagrassabfahrt","aerialway":null,"osm":"way/51002554"},"geometry":{"type":"LineString","coordinates":[[10.54686,46.87631],[10.54665,46.87653],[10.54623,46.87659]]}},{"type":"Feature","properties":{"kind":"piste","difficulty":"intermediate","name":"Talabfahrt Bergkastel","aerialway":null,"osm":"way/51002606"},"geometry":{"type":"LineString","coordinates":[[10.54083,46.86266],[10.54147,46.86282],[10.54162,46.86292],[10.54151,46.86309],[10.53947,46.86496],[10.53774,46.86616],[10.53653,46.86614],[10.53429,46.86479],[10.53386,46.86432],[10.53363,46.86231],[10.53322,46.8617],[10.53256,46.86105],[10.52838,46.86214],[10.52303,46.86266],[10.52173,46.86301]]}},{"type":"Feature","properties":{"kind":"piste","difficulty":"intermediate","name":"Zirmabfahrt Ost","aerialway":null,"osm":"way/51002618"},"geometry":{"type":"LineString","coordinates":[[10.54683,46.85317],[10.54684,46.85306],[10.54655,46.85307],[10.54575,46.85331],[10.54506,46.85377],[10.54324,46.85898],[10.54317,46.8599],[10.54272,46.86189],[10.54228,46.86243],[10.54193,46.8626],[10.54083,46.86266]]}},{"type":"Feature","properties":{"kind":"piste","difficulty":"advanced","name":"Almabfahrt Steilhang","aerialway":null,"osm":"way/51002783"},"geometry":{"type":"LineString","coordinates":[[10.546,46.85111],[10.54484,46.8522],[10.54407,46.85262],[10.54087,46.8516],[10.5394,46.85128],[10.53813,46.85128],[10.53473,46.85186]]}},{"type":"Feature","properties":{"kind":"piste","difficulty":"easy","name":"4 Goldseeabfahrt","aerialway":null,"osm":"way/136491883"},"geometry":{"type":"LineString","coordinates":[[10.5446,46.8593],[10.5443,46.85943],[10.54397,46.85979],[10.54383,46.86049],[10.54319,46.86212],[10.54313,46.8632]]}},{"type":"Feature","properties":{"kind":"piste","difficulty":"easy","name":"Avagrassabfahrt","aerialway":null,"osm":"way/136520574"},"geometry":{"type":"LineString","coordinates":[[10.54623,46.87659],[10.5449,46.87641],[10.54074,46.87512],[10.54004,46.87513],[10.53889,46.87491],[10.53746,46.87501],[10.53396,46.87463],[10.53328,46.87415],[10.5331,46.87384],[10.53345,46.87314],[10.53468,46.87275],[10.5347,46.87257],[10.53327,46.87232],[10.53194,46.87238],[10.5301,46.87218],[10.5285,46.87169],[10.52531,46.8712],[10.52351,46.87168],[10.52234,46.87182],[10.51954,46.87176],[10.51735,46.87273],[10.51511,46.87298],[10.51348,46.8739],[10.51202,46.87433],[10.50969,46.87526],[10.50938,46.87519],[10.50892,46.87546]]}},{"type":"Feature","properties":{"kind":"piste","difficulty":"easy","name":"21 Avagrassabfahrt","aerialway":null,"osm":"way/136520585"},"geometry":{"type":"LineString","coordinates":[[10.5347,46.87257],[10.53471,46.87262]]}},{"type":"Feature","properties":{"kind":"piste","difficulty":"intermediate","name":"Stieramlabfahrt II","aerialway":null,"osm":"way/136631856"},"geometry":{"type":"LineString","coordinates":[[10.53199,46.85618],[10.53177,46.85631],[10.53178,46.8567],[10.53292,46.85742],[10.53311,46.86015],[10.53397,46.86111],[10.53426,46.8623]]}},{"type":"Feature","properties":{"kind":"piste","difficulty":"freeride","name":"G3000","aerialway":null,"osm":"way/156255219"},"geometry":{"type":"LineString","coordinates":[[10.57706,46.88385],[10.57853,46.88278],[10.57917,46.88179],[10.57928,46.88064],[10.57779,46.87919],[10.57058,46.87771],[10.56846,46.87755],[10.56773,46.87678],[10.56595,46.87656],[10.5646,46.87589],[10.56427,46.8755],[10.56379,46.87544],[10.56307,46.87558],[10.5625,46.87527],[10.5606,46.87587],[10.55995,46.87627]]}},{"type":"Feature","properties":{"kind":"piste","difficulty":"intermediate","name":"19","aerialway":null,"osm":"way/156255223"},"geometry":{"type":"LineString","coordinates":[[10.56262,46.87757],[10.56101,46.87639],[10.56091,46.8762],[10.56024,46.8762],[10.55951,46.87642]]}},{"type":"Feature","properties":{"kind":"piste","difficulty":"easy","name":"Skiweg nach Nauders","aerialway":null,"osm":"way/156255224"},"geometry":{"type":"LineString","coordinates":[[10.51511,46.87298],[10.51365,46.8757],[10.51228,46.87719],[10.50971,46.87956],[10.50864,46.88014],[10.50785,46.88078],[10.5073,46.88161],[10.50626,46.88409],[10.50595,46.88447],[10.50578,46.88446],[10.50401,46.88652],[10.50402,46.88697],[10.50347,46.88783],[10.50211,46.88849]]}},{"type":"Feature","properties":{"kind":"piste","difficulty":"expert","name":"Almtäler Abfahrt","aerialway":null,"osm":"way/156255226"},"geometry":{"type":"LineString","coordinates":[[10.54417,46.85308],[10.54242,46.85312],[10.54019,46.8534],[10.53637,46.85412]]}},{"type":"Feature","properties":{"kind":"piste","difficulty":"intermediate","name":"Almabfahrt Almboden","aerialway":null,"osm":"way/156255227"},"geometry":{"type":"LineString","coordinates":[[10.53813,46.85128],[10.53778,46.85164],[10.53748,46.85234],[10.53778,46.85389]]}},{"type":"Feature","properties":{"kind":"piste","difficulty":"intermediate","name":"Almabfahrt Alpboden","aerialway":null,"osm":"way/156255232"},"geometry":{"type":"LineString","coordinates":[[10.54207,46.85873],[10.54121,46.85853],[10.5399,46.85843],[10.53951,46.85821],[10.53856,46.85729],[10.53776,46.85479],[10.53637,46.85412]]}},{"type":"Feature","properties":{"kind":"piste","difficulty":"advanced","name":"Die Schwarze","aerialway":null,"osm":"way/251852053"},"geometry":{"type":"LineString","coordinates":[[10.56507,46.88152],[10.56283,46.88075],[10.56206,46.88035],[10.5609,46.87935],[10.55999,46.87907],[10.55145,46.87905]]}},{"type":"Feature","properties":{"kind":"piste","difficulty":"advanced","name":"Südhang","aerialway":null,"osm":"way/251853108"},"geometry":{"type":"LineString","coordinates":[[10.53256,46.86105],[10.53203,46.86047],[10.53159,46.85971],[10.53108,46.85953],[10.53006,46.8594],[10.52813,46.85941],[10.52731,46.85972],[10.5268,46.86013]]}},{"type":"Feature","properties":{"kind":"piste","difficulty":"intermediate","name":"Martannesabfahrt","aerialway":null,"osm":"way/251853109"},"geometry":{"type":"LineString","coordinates":[[10.53256,46.86105],[10.53008,46.86103],[10.52835,46.86044],[10.5268,46.86013],[10.52427,46.86014],[10.52378,46.86045],[10.52332,46.86126],[10.52303,46.86266]]}},{"type":"Feature","properties":{"kind":"piste","difficulty":"intermediate","name":"Westabfahrt","aerialway":null,"osm":"way/251858394"},"geometry":{"type":"LineString","coordinates":[[10.53473,46.85186],[10.53265,46.85269],[10.53228,46.85256],[10.53126,46.85252],[10.53031,46.85261],[10.52798,46.85344],[10.52719,46.85382],[10.52659,46.85438],[10.52486,46.85516],[10.52468,46.85561],[10.52473,46.85657],[10.52462,46.85731],[10.5254,46.85837],[10.52513,46.85864],[10.52351,46.85905],[10.52317,46.8593],[10.52222,46.86111],[10.52172,46.86163],[10.52163,46.86202],[10.52173,46.86301]]}},{"type":"Feature","properties":{"kind":"piste","difficulty":"intermediate","name":"Almabfahrt Almboden","aerialway":null,"osm":"way/251858395"},"geometry":{"type":"LineString","coordinates":[[10.53473,46.85186],[10.53382,46.85121],[10.53287,46.85099]]}},{"type":"Feature","properties":{"kind":"piste","difficulty":"easy","name":"Zirmabfahrt West","aerialway":null,"osm":"way/251858396"},"geometry":{"type":"LineString","coordinates":[[10.54684,46.85306],[10.54566,46.85256],[10.5451,46.85251],[10.54417,46.85308],[10.54327,46.85603],[10.54207,46.85873],[10.54106,46.86044],[10.54086,46.86131],[10.54119,46.8624],[10.54083,46.86266],[10.54069,46.86263]]}},{"type":"Feature","properties":{"kind":"piste","difficulty":"easy","name":null,"aerialway":null,"osm":"way/301095842"},"geometry":{"type":"LineString","coordinates":[[10.54302,46.87575],[10.54074,46.87512],[10.54004,46.87513],[10.53889,46.87491],[10.53746,46.87501],[10.53396,46.87463],[10.53328,46.87415],[10.5331,46.87384],[10.53337,46.87325],[10.53364,46.873],[10.53472,46.87269]]}},{"type":"Feature","properties":{"kind":"piste","difficulty":"easy","name":"21 Avagrassabfahrt","aerialway":null,"osm":"way/301095843"},"geometry":{"type":"LineString","coordinates":[[10.53472,46.87269],[10.53471,46.87262]]}},{"type":"Feature","properties":{"kind":"piste","difficulty":"easy","name":null,"aerialway":null,"osm":"way/301095844"},"geometry":{"type":"LineString","coordinates":[[10.54623,46.87659],[10.5449,46.87641],[10.54302,46.87575]]}},{"type":"Feature","properties":{"kind":"piste","difficulty":"intermediate","name":"Bullenabfahrt","aerialway":null,"osm":"way/477919891"},"geometry":{"type":"LineString","coordinates":[[10.53196,46.85613],[10.53005,46.85632],[10.52943,46.85603],[10.52861,46.85499],[10.52659,46.85438]]}},{"type":"Feature","properties":{"kind":"piste","difficulty":"advanced","name":"Die Schwarze","aerialway":null,"osm":"way/477923710"},"geometry":{"type":"LineString","coordinates":[[10.55145,46.87905],[10.5509,46.87891],[10.5501,46.87907],[10.54954,46.8785],[10.54929,46.87787]]}},{"type":"Feature","properties":{"kind":"piste","difficulty":"intermediate","name":"Stieralmabfahrt I","aerialway":null,"osm":"way/564068348"},"geometry":{"type":"LineString","coordinates":[[10.54067,46.86215],[10.53973,46.86166],[10.53854,46.86061],[10.535,46.85901],[10.53397,46.85792],[10.53361,46.85681],[10.53256,46.85651],[10.53196,46.85613]]}},{"type":"Feature","properties":{"kind":"piste","difficulty":"novice","name":"Pofel","aerialway":null,"osm":"way/644949721"},"geometry":{"type":"LineString","coordinates":[[10.50297,46.83241],[10.50324,46.83233],[10.50911,46.83252],[10.51028,46.83262],[10.5105,46.83281]]}},{"type":"Feature","properties":{"kind":"piste","difficulty":"freeride","name":"5 Grenzroute","aerialway":null,"osm":"way/669538828"},"geometry":{"type":"LineString","coordinates":[[10.546,46.85111],[10.54666,46.84986],[10.5462,46.84981],[10.54545,46.8502],[10.54534,46.85017],[10.54539,46.84993],[10.54437,46.84986],[10.54429,46.84966],[10.54263,46.85022],[10.54211,46.84993],[10.54075,46.8502],[10.54031,46.85006],[10.53973,46.85011],[10.53955,46.84994],[10.53857,46.85004],[10.53783,46.84993],[10.53759,46.85006],[10.53692,46.84993],[10.53656,46.8497],[10.53649,46.84984],[10.53531,46.84994],[10.53507,46.85024],[10.53478,46.85023],[10.53436,46.85049],[10.53335,46.85079],[10.53303,46.85103]]}},{"type":"Feature","properties":{"kind":"piste","difficulty":"advanced","name":"Almabfahrt Steilhang","aerialway":null,"osm":"way/771719591"},"geometry":{"type":"LineString","coordinates":[[10.546,46.85111],[10.5458,46.85127],[10.54486,46.8515],[10.54385,46.85211],[10.5432,46.85223],[10.54264,46.85214]]}},{"type":"Feature","properties":{"kind":"piste","difficulty":"intermediate","name":"26 Stieralmabfahrt I","aerialway":null,"osm":"way/771721534"},"geometry":{"type":"LineString","coordinates":[[10.54105,46.86253],[10.54067,46.86215]]}},{"type":"Feature","properties":{"kind":"piste","difficulty":"intermediate","name":"Piengabfahrt","aerialway":null,"osm":"way/771724371"},"geometry":{"type":"LineString","coordinates":[[10.54756,46.87525],[10.54777,46.87544],[10.54787,46.87621],[10.54903,46.87672],[10.54906,46.87684],[10.54879,46.87684]]}},{"type":"Feature","properties":{"kind":"piste","difficulty":"easy","name":"Piengabfahrt","aerialway":null,"osm":"way/771724372"},"geometry":{"type":"LineString","coordinates":[[10.54786,46.87652],[10.54686,46.87631]]}},{"type":"Feature","properties":{"kind":"piste","difficulty":"easy","name":"Piengabfahrt","aerialway":null,"osm":"way/771724373"},"geometry":{"type":"LineString","coordinates":[[10.54686,46.87631],[10.54596,46.87633]]}},{"type":"Feature","properties":{"kind":"piste","difficulty":"intermediate","name":"Piengabfahrt","aerialway":null,"osm":"way/771724374"},"geometry":{"type":"LineString","coordinates":[[10.54755,46.87566],[10.54732,46.87599],[10.54686,46.87631]]}},{"type":"Feature","properties":{"kind":"piste","difficulty":"intermediate","name":"Piengabfahrt","aerialway":null,"osm":"way/771724375"},"geometry":{"type":"LineString","coordinates":[[10.5483,46.87219],[10.54829,46.87257],[10.54809,46.87296],[10.54647,46.87454],[10.54646,46.87469],[10.54666,46.87481],[10.54741,46.87508],[10.54756,46.87525],[10.54755,46.87566]]}},{"type":"Feature","properties":{"kind":"piste","difficulty":"intermediate","name":"Jagerhüttlabfahrt","aerialway":null,"osm":"way/771724839"},"geometry":{"type":"LineString","coordinates":[[10.55219,46.86671],[10.55149,46.86669],[10.54842,46.86588],[10.54685,46.86619],[10.54626,46.86612],[10.54566,46.86653]]}},{"type":"Feature","properties":{"kind":"piste","difficulty":"easy","name":"Goldseeabfahrt","aerialway":null,"osm":"way/771725408"},"geometry":{"type":"LineString","coordinates":[[10.54313,46.8632],[10.54299,46.86368],[10.54204,46.86461],[10.53906,46.8665],[10.53846,46.86651]]}},{"type":"Feature","properties":{"kind":"piste","difficulty":"easy","name":"Übungspiste","aerialway":null,"osm":"way/771728024"},"geometry":{"type":"LineString","coordinates":[[10.51427,46.87382],[10.514,46.87375],[10.51348,46.8739],[10.5104,46.87502],[10.5099,46.87527],[10.50989,46.87549]]}},{"type":"Feature","properties":{"kind":"piste","difficulty":"freeride","name":"Down under","aerialway":null,"osm":"way/773858563"},"geometry":{"type":"LineString","coordinates":[[10.55249,46.86709],[10.55238,46.86731],[10.55176,46.8678],[10.55058,46.86954],[10.5506,46.87001]]}},{"type":"Feature","properties":{"kind":"piste","difficulty":"freeride","name":"Südwest","aerialway":null,"osm":"way/773862249"},"geometry":{"type":"LineString","coordinates":[[10.54417,46.85308],[10.54225,46.85256],[10.54003,46.85257],[10.5371,46.85329],[10.5359,46.85325],[10.53528,46.85306]]}},{"type":"Feature","properties":{"kind":"piste","difficulty":"advanced","name":"Hilfsabfahrt","aerialway":null,"osm":"way/787233127"},"geometry":{"type":"LineString","coordinates":[[10.57675,46.88484],[10.57652,46.88467],[10.57662,46.88521],[10.57632,46.88591],[10.57576,46.88594],[10.57551,46.88565],[10.57534,46.88567],[10.57358,46.88724]]}},{"type":"Feature","properties":{"kind":"piste","difficulty":"freeride","name":"Gueser Kopf","aerialway":null,"osm":"way/787233128"},"geometry":{"type":"LineString","coordinates":[[10.57675,46.88484],[10.57653,46.88444],[10.57663,46.88414],[10.57706,46.88385],[10.57724,46.88298],[10.57641,46.88196],[10.57292,46.8805],[10.56994,46.8797],[10.56637,46.87934],[10.56416,46.87857]]}},{"type":"Feature","properties":{"kind":"piste","difficulty":"intermediate","name":"Hilfsabfahrt","aerialway":null,"osm":"way/787233129"},"geometry":{"type":"LineString","coordinates":[[10.5705,46.88862],[10.57336,46.88724],[10.57358,46.88724]]}},{"type":"Feature","properties":{"kind":"piste","difficulty":"easy","name":"13","aerialway":null,"osm":"way/1050331511"},"geometry":{"type":"LineString","coordinates":[[10.48953,46.81787],[10.48955,46.81795]]}},{"type":"Feature","properties":{"kind":"piste","difficulty":"advanced","name":"6 Almabfahrt Steilhang","aerialway":null,"osm":"way/1054180958"},"geometry":{"type":"LineString","coordinates":[[10.54475,46.85264],[10.54407,46.85262]]}},{"type":"Feature","properties":{"kind":"piste","difficulty":"intermediate","name":"Talabfahrt Bergkastel","aerialway":null,"osm":"way/1054180959"},"geometry":{"type":"LineString","coordinates":[[10.52187,46.86405],[10.52188,46.86378],[10.52163,46.86348],[10.52178,46.8633],[10.52134,46.86313]]}},{"type":"Feature","properties":{"kind":"piste","difficulty":"intermediate","name":"Talabfahrt Bergkastel","aerialway":null,"osm":"way/1054180961"},"geometry":{"type":"LineString","coordinates":[[10.52173,46.8636],[10.52186,46.86344]]}},{"type":"Feature","properties":{"kind":"piste","difficulty":"easy","name":null,"aerialway":null,"osm":"way/1054180964"},"geometry":{"type":"LineString","coordinates":[[10.54038,46.86308],[10.54046,46.863]]}},{"type":"Feature","properties":{"kind":"piste","difficulty":"easy","name":null,"aerialway":null,"osm":"way/1054180966"},"geometry":{"type":"LineString","coordinates":[[10.54029,46.86298],[10.54047,46.86296]]}},{"type":"Feature","properties":{"kind":"piste","difficulty":"easy","name":"Zirmabfahrt West","aerialway":null,"osm":"way/1054180967"},"geometry":{"type":"LineString","coordinates":[[10.54052,46.86289],[10.54072,46.8625]]}},{"type":"Feature","properties":{"kind":"piste","difficulty":"easy","name":"Zirmabfahrt West","aerialway":null,"osm":"way/1054180970"},"geometry":{"type":"LineString","coordinates":[[10.53981,46.86299],[10.54052,46.86289]]}},{"type":"Feature","properties":{"kind":"piste","difficulty":"intermediate","name":"Stieralmabfahrt II","aerialway":null,"osm":"way/1130713542"},"geometry":{"type":"LineString","coordinates":[[10.53196,46.85613],[10.53174,46.85636],[10.53178,46.8567],[10.53292,46.85742],[10.53311,46.86015],[10.53393,46.86119],[10.53395,46.86215],[10.53371,46.86209],[10.53309,46.86157]]}},{"type":"Feature","properties":{"kind":"piste","difficulty":"intermediate","name":"17 Tscheyeckabfahrt","aerialway":null,"osm":"way/1130713545"},"geometry":{"type":"LineString","coordinates":[[10.54879,46.87684],[10.54847,46.87675],[10.54841,46.87683]]}},{"type":"Feature","properties":{"kind":"piste","difficulty":"intermediate","name":"Piengabfahrt","aerialway":null,"osm":"way/1130713546"},"geometry":{"type":"LineString","coordinates":[[10.54879,46.87684],[10.54831,46.87669]]}},{"type":"Feature","properties":{"kind":"piste","difficulty":"intermediate","name":"Hilfsabfahrt","aerialway":null,"osm":"way/1130713547"},"geometry":{"type":"LineString","coordinates":[[10.57358,46.88724],[10.57264,46.88675],[10.57191,46.88598]]}},{"type":"Feature","properties":{"kind":"piste","difficulty":"intermediate","name":"1 Talabfahrt Bergkastel","aerialway":null,"osm":"way/1130713549"},"geometry":{"type":"LineString","coordinates":[[10.53947,46.86496],[10.53902,46.86632],[10.53865,46.86656],[10.53846,46.86651]]}},{"type":"Feature","properties":{"kind":"piste","difficulty":"intermediate","name":"Nauderixbahn","aerialway":null,"osm":"way/1130713552"},"geometry":{"type":"LineString","coordinates":[[10.54431,46.85966],[10.5443,46.85943],[10.54454,46.85959],[10.54444,46.85981],[10.54466,46.85991],[10.54454,46.8601],[10.54463,46.86038],[10.54439,46.8605],[10.54441,46.86098],[10.54388,46.86166],[10.54407,46.86189],[10.54394,46.8621],[10.54439,46.86228],[10.54412,46.86261],[10.54414,46.86282],[10.54359,46.86309],[10.54349,46.8634],[10.54358,46.86371],[10.54329,46.86402],[10.5431,46.86458],[10.54293,46.86473],[10.54048,46.86554]]}},{"type":"Feature","properties":{"kind":"piste","difficulty":"easy","name":"Waldabfahrt","aerialway":null,"osm":"way/1130713556"},"geometry":{"type":"LineString","coordinates":[[10.54746,46.87186],[10.54829,46.87257]]}},{"type":"Feature","properties":{"kind":"piste","difficulty":"intermediate","name":"Almabfahrt Alpboden","aerialway":null,"osm":"way/1130713568"},"geometry":{"type":"LineString","coordinates":[[10.53637,46.85412],[10.53554,46.85364],[10.5349,46.85198],[10.53473,46.85186]]}},{"type":"Feature","properties":{"kind":"piste","difficulty":"intermediate","name":"Tscheyeckabfahrt","aerialway":null,"osm":"way/1130713572"},"geometry":{"type":"LineString","coordinates":[[10.57027,46.88856],[10.5705,46.88862],[10.57162,46.88752],[10.57189,46.88706],[10.57203,46.88635],[10.57191,46.88598]]}},{"type":"Feature","properties":{"kind":"piste","difficulty":"intermediate","name":"Westabfahrt","aerialway":null,"osm":"way/1130713573"},"geometry":{"type":"LineString","coordinates":[[10.53287,46.85099],[10.53275,46.85141],[10.53313,46.8519],[10.53204,46.85255]]}},{"type":"Feature","properties":{"kind":"piste","difficulty":"intermediate","name":"Almabfahrt Almboden","aerialway":null,"osm":"way/1130713574"},"geometry":{"type":"LineString","coordinates":[[10.53287,46.85099],[10.5327,46.85095],[10.53271,46.85081]]}},{"type":"Feature","properties":{"kind":"piste","difficulty":"easy","name":null,"aerialway":null,"osm":"way/1131180918"},"geometry":{"type":"LineString","coordinates":[[10.54786,46.87652],[10.54802,46.87672],[10.54623,46.87659]]}},{"type":"Feature","properties":{"kind":"piste","difficulty":"intermediate","name":"Talabfahrt Bergkastel","aerialway":null,"osm":"way/1131198493"},"geometry":{"type":"LineString","coordinates":[[10.53949,46.86357],[10.54019,46.86365],[10.54104,46.86352]]}},{"type":"Feature","properties":{"kind":"piste","difficulty":"easy","name":"Talabfahrt Bergkastel","aerialway":null,"osm":"way/1131198494"},"geometry":{"type":"LineString","coordinates":[[10.54047,46.86296],[10.53922,46.86331]]}},{"type":"Feature","properties":{"kind":"piste","difficulty":"easy","name":"Talabfahrt Bergkastel","aerialway":null,"osm":"way/1131198495"},"geometry":{"type":"LineString","coordinates":[[10.53922,46.86331],[10.53949,46.86357]]}},{"type":"Feature","properties":{"kind":"piste","difficulty":"intermediate","name":"Talabfahrt Bergkastel","aerialway":null,"osm":"way/1131198496"},"geometry":{"type":"LineString","coordinates":[[10.54147,46.86282],[10.54145,46.8631],[10.54111,46.86325],[10.54091,46.8632]]}},{"type":"Feature","properties":{"kind":"piste","difficulty":"intermediate","name":"Talabfahrt Bergkastel","aerialway":null,"osm":"way/1131198498"},"geometry":{"type":"LineString","coordinates":[[10.54091,46.8632],[10.54111,46.86346]]}},{"type":"Feature","properties":{"kind":"piste","difficulty":"easy","name":"Waldabfahrt","aerialway":null,"osm":"way/1131198502"},"geometry":{"type":"LineString","coordinates":[[10.5483,46.87219],[10.54741,46.87221]]}},{"type":"Feature","properties":{"kind":"piste","difficulty":"easy","name":"Waldabfahrt","aerialway":null,"osm":"way/1131198503"},"geometry":{"type":"LineString","coordinates":[[10.54809,46.87296],[10.54696,46.87331]]}},{"type":"Feature","properties":{"kind":"piste","difficulty":"easy","name":"Waldabfahrt","aerialway":null,"osm":"way/1131198504"},"geometry":{"type":"LineString","coordinates":[[10.54715,46.87296],[10.5474,46.87361]]}},{"type":"Feature","properties":{"kind":"piste","difficulty":"intermediate","name":"Piengabfahrt","aerialway":null,"osm":"way/1131198507"},"geometry":{"type":"LineString","coordinates":[[10.5507,46.86647],[10.55006,46.86682]]}},{"type":"Feature","properties":{"kind":"piste","difficulty":"intermediate","name":"Stieralmabfahrt I","aerialway":null,"osm":"way/1235252322"},"geometry":{"type":"LineString","coordinates":[[10.53265,46.85269],[10.53142,46.85326],[10.53107,46.85401],[10.53115,46.85505],[10.53196,46.85613]]}},{"type":"Feature","properties":{"kind":"piste","difficulty":"intermediate","name":"Westabfahrt","aerialway":null,"osm":"way/1235252329"},"geometry":{"type":"LineString","coordinates":[[10.52173,46.86301],[10.52186,46.86344]]}},{"type":"Feature","properties":{"kind":"piste","difficulty":"intermediate","name":"Talabfahrt Bergkastel","aerialway":null,"osm":"way/1235252330"},"geometry":{"type":"LineString","coordinates":[[10.52173,46.86301],[10.51916,46.86378],[10.51896,46.86404],[10.5189,46.86438],[10.51933,46.86548],[10.51871,46.86665],[10.51853,46.8675],[10.51816,46.86827],[10.51709,46.86938],[10.51656,46.87025],[10.51669,46.87074],[10.5172,46.87143],[10.5172,46.87166],[10.51705,46.87188],[10.51615,46.87228],[10.51511,46.87298]]}},{"type":"Feature","properties":{"kind":"piste","difficulty":"easy","name":null,"aerialway":null,"osm":"way/1235289060"},"geometry":{"type":"LineString","coordinates":[[10.54047,46.86296],[10.54052,46.86289]]}},{"type":"Feature","properties":{"kind":"piste","difficulty":"easy","name":"Zirmabfahrt West","aerialway":null,"osm":"way/1235289061"},"geometry":{"type":"LineString","coordinates":[[10.54038,46.86308],[10.54052,46.86289]]}},{"type":"Feature","properties":{"kind":"piste","difficulty":"intermediate","name":null,"aerialway":null,"osm":"way/1486334396"},"geometry":{"type":"LineString","coordinates":[[10.57179,46.88603],[10.5715,46.88607],[10.57149,46.88639],[10.57117,46.8871],[10.57009,46.88807],[10.57011,46.88834],[10.57041,46.88851],[10.57035,46.88874],[10.57068,46.88874],[10.57231,46.8878],[10.57217,46.88598],[10.57179,46.88603]]}},{"type":"Feature","properties":{"kind":"piste","difficulty":"intermediate","name":null,"aerialway":null,"osm":"way/1486334397"},"geometry":{"type":"LineString","coordinates":[[10.56528,46.88507],[10.56276,46.88352],[10.56179,46.88313],[10.5535,46.8806],[10.55119,46.87911],[10.55206,46.87909],[10.55305,46.87984],[10.55332,46.88024],[10.55366,46.88038],[10.55573,46.88087],[10.55672,46.88133],[10.55817,46.88159],[10.56134,46.88258],[10.56298,46.88325],[10.56536,46.88475],[10.56528,46.88507]]}},{"type":"Feature","properties":{"kind":"piste","difficulty":"intermediate","name":null,"aerialway":null,"osm":"way/1486334398"},"geometry":{"type":"LineString","coordinates":[[10.56528,46.88507],[10.5693,46.88605],[10.57026,46.88606],[10.56536,46.88475],[10.56528,46.88507]]}},{"type":"Feature","properties":{"kind":"piste","difficulty":"intermediate","name":null,"aerialway":null,"osm":"way/1486334399"},"geometry":{"type":"LineString","coordinates":[[10.54947,46.87775],[10.55105,46.87806],[10.55129,46.87824],[10.5516,46.87886],[10.55206,46.87909],[10.55119,46.87911],[10.55128,46.87856],[10.55062,46.87819],[10.54909,46.87795],[10.54906,46.8778],[10.54947,46.87775]]}},{"type":"Feature","properties":{"kind":"piste","difficulty":"advanced","name":null,"aerialway":null,"osm":"way/1486334400"},"geometry":{"type":"LineString","coordinates":[[10.55119,46.87911],[10.5509,46.87897],[10.55008,46.87913],[10.54937,46.8786],[10.54909,46.87795],[10.54939,46.878],[10.55012,46.87898],[10.55097,46.87881],[10.55124,46.87893],[10.55119,46.87911]]}},{"type":"Feature","properties":{"kind":"piste","difficulty":"intermediate","name":null,"aerialway":null,"osm":"way/1486334401"},"geometry":{"type":"LineString","coordinates":[[10.56972,46.88452],[10.57041,46.88499],[10.57139,46.88541],[10.57217,46.88598],[10.5715,46.88607],[10.57148,46.88587],[10.57107,46.88548],[10.57006,46.88489],[10.56972,46.88452]]}},{"type":"Feature","properties":{"kind":"piste","difficulty":"intermediate","name":null,"aerialway":null,"osm":"way/1486334402"},"geometry":{"type":"LineString","coordinates":[[10.5598,46.87641],[10.5606,46.87682],[10.56172,46.87792],[10.56046,46.87698],[10.55932,46.87646],[10.5598,46.87641]]}},{"type":"Feature","properties":{"kind":"piste","difficulty":"intermediate","name":null,"aerialway":null,"osm":"way/1486334403"},"geometry":{"type":"LineString","coordinates":[[10.56088,46.8762],[10.56098,46.87645],[10.56183,46.87701],[10.56234,46.87755],[10.56265,46.87752],[10.56256,46.87737],[10.56274,46.87713],[10.56138,46.87656],[10.56088,46.8762]]}},{"type":"Feature","properties":{"kind":"piste","difficulty":"intermediate","name":null,"aerialway":null,"osm":"way/1486334404"},"geometry":{"type":"LineString","coordinates":[[10.56234,46.87755],[10.56246,46.87777],[10.56408,46.87861],[10.56711,46.88065],[10.56912,46.88209],[10.56959,46.88259],[10.56981,46.8825],[10.56893,46.88155],[10.56588,46.87952],[10.56411,46.87804],[10.56274,46.87713],[10.56263,46.87727],[10.56291,46.87747],[10.56234,46.87755]]}},{"type":"Feature","properties":{"kind":"piste","difficulty":"advanced","name":null,"aerialway":null,"osm":"way/1486334405"},"geometry":{"type":"LineString","coordinates":[[10.56658,46.88183],[10.5652,46.88137],[10.56537,46.88176],[10.5695,46.88306],[10.56961,46.88274],[10.56658,46.88183]]}},{"type":"Feature","properties":{"kind":"piste","difficulty":"advanced","name":null,"aerialway":null,"osm":"way/1486334406"},"geometry":{"type":"LineString","coordinates":[[10.56969,46.88297],[10.56507,46.88152]]}},{"type":"Feature","properties":{"kind":"piste","difficulty":"advanced","name":null,"aerialway":null,"osm":"way/1486334407"},"geometry":{"type":"LineString","coordinates":[[10.56537,46.88176],[10.56204,46.88056],[10.56113,46.87962],[10.56054,46.87926],[10.55906,46.87912],[10.55908,46.87899],[10.56014,46.87895],[10.56086,46.87919],[10.56242,46.8804],[10.5652,46.88137],[10.56537,46.88176]]}},{"type":"Feature","properties":{"kind":"piste","difficulty":"advanced","name":"Die Schwarze","aerialway":null,"osm":"way/1486334408"},"geometry":{"type":"LineString","coordinates":[[10.57027,46.88856],[10.57037,46.88861],[10.57028,46.88869],[10.57005,46.88861],[10.56921,46.88775],[10.56651,46.88602],[10.56558,46.88529],[10.56532,46.88388],[10.56531,46.88207],[10.56507,46.88152]]}},{"type":"Feature","properties":{"kind":"piste","difficulty":"intermediate","name":null,"aerialway":null,"osm":"way/1486334409"},"geometry":{"type":"LineString","coordinates":[[10.55206,46.86698],[10.55035,46.86704],[10.54983,46.8678],[10.54987,46.86853],[10.54976,46.86903],[10.54937,46.86936],[10.54915,46.86974],[10.5486,46.87177],[10.54801,46.87187],[10.54812,46.8709],[10.54849,46.8695],[10.54892,46.86891],[10.54923,46.86875],[10.54948,46.86829],[10.54933,46.86694],[10.5499,46.86656],[10.55038,46.86651],[10.55161,46.86675],[10.55206,46.86698]]}},{"type":"Feature","properties":{"kind":"piste","difficulty":"intermediate","name":null,"aerialway":null,"osm":"way/1486334410"},"geometry":{"type":"LineString","coordinates":[[10.55401,46.86765],[10.55348,46.86828],[10.55108,46.86958],[10.5486,46.87177],[10.54905,46.87203],[10.55007,46.87078],[10.55114,46.86983],[10.55373,46.8683],[10.55429,46.86772],[10.55401,46.86765]]}},{"type":"Feature","properties":{"kind":"piste","difficulty":"easy","name":null,"aerialway":null,"osm":"way/1486334411"},"geometry":{"type":"LineString","coordinates":[[10.54905,46.87203],[10.54862,46.87235],[10.54748,46.87398],[10.54681,46.87445],[10.5468,46.87473],[10.54709,46.87481],[10.54692,46.875],[10.54606,46.87466],[10.54608,46.87443],[10.54684,46.87339],[10.54782,46.87302],[10.54801,46.87275],[10.54788,46.87232],[10.54801,46.87187],[10.5486,46.87177],[10.54905,46.87203]]}},{"type":"Feature","properties":{"kind":"piste","difficulty":"easy","name":null,"aerialway":null,"osm":"way/1486334412"},"geometry":{"type":"LineString","coordinates":[[10.54801,46.87187],[10.54738,46.87197],[10.54684,46.87339],[10.54745,46.87315],[10.54728,46.87286],[10.54747,46.87229],[10.54788,46.87232],[10.54801,46.87187]]}},{"type":"Feature","properties":{"kind":"piste","difficulty":"intermediate","name":null,"aerialway":null,"osm":"way/1486334413"},"geometry":{"type":"LineString","coordinates":[[10.54692,46.875],[10.54731,46.87523],[10.54739,46.87546],[10.5471,46.87588],[10.54743,46.87609],[10.54793,46.87545],[10.54774,46.87509],[10.54736,46.87488],[10.54709,46.87481],[10.54692,46.875]]}},{"type":"Feature","properties":{"kind":"piste","difficulty":"intermediate","name":null,"aerialway":null,"osm":"way/1486334414"},"geometry":{"type":"LineString","coordinates":[[10.55553,46.87041],[10.55612,46.86969],[10.55678,46.86919],[10.55699,46.86927],[10.55581,46.87037],[10.55402,46.87259],[10.55202,46.87465],[10.5507,46.87522],[10.55022,46.87515],[10.54903,46.87547],[10.54845,46.87533],[10.54793,46.87545],[10.54774,46.87509],[10.54901,46.87519],[10.55061,46.87503],[10.55118,46.87477],[10.55165,46.87397],[10.55315,46.87244],[10.55553,46.87041]]}},{"type":"Feature","properties":{"kind":"piste","difficulty":"intermediate","name":null,"aerialway":null,"osm":"way/1486334415"},"geometry":{"type":"LineString","coordinates":[[10.55206,46.86698],[10.55241,46.86662],[10.5504,46.86644],[10.54924,46.86599],[10.54822,46.86578],[10.54648,46.86609],[10.54612,46.86602],[10.54593,46.86608],[10.54583,46.86646],[10.54616,46.86627],[10.54756,46.86608],[10.54896,46.86604],[10.5499,46.86656],[10.55085,46.8666],[10.55161,46.86675],[10.55206,46.86698]]}},{"type":"Feature","properties":{"kind":"piste","difficulty":"easy","name":null,"aerialway":null,"osm":"way/1486359290"},"geometry":{"type":"LineString","coordinates":[[10.54409,46.85975],[10.54393,46.85971],[10.54276,46.86089],[10.54247,46.86169],[10.54158,46.86263],[10.54275,46.86232],[10.54283,46.86308],[10.54346,46.86324],[10.54438,46.86013],[10.544,46.85994],[10.54409,46.85975]]}},{"type":"Feature","properties":{"kind":"piste","difficulty":"easy","name":null,"aerialway":null,"osm":"way/1486359291"},"geometry":{"type":"LineString","coordinates":[[10.54283,46.86308],[10.54232,46.86411],[10.54102,46.86498],[10.53984,46.86524],[10.53855,46.86658],[10.53877,46.86662],[10.5394,46.8664],[10.54078,46.86552],[10.54278,46.86454],[10.54349,46.86367],[10.54346,46.86324],[10.54283,46.86308]]}},{"type":"Feature","properties":{"kind":"piste","difficulty":"novice","name":null,"aerialway":null,"osm":"way/1486359292"},"geometry":{"type":"LineString","coordinates":[[10.54275,46.86232],[10.54233,46.86243],[10.54227,46.86286],[10.54173,46.86307],[10.54134,46.8634],[10.54134,46.86355],[10.54262,46.86352],[10.54286,46.86285],[10.54275,46.86232]]}},{"type":"Feature","properties":{"kind":"piste","difficulty":"intermediate","name":null,"aerialway":null,"osm":"way/1486359293"},"geometry":{"type":"LineString","coordinates":[[10.54134,46.86355],[10.54056,46.86424],[10.54031,46.86516],[10.53984,46.86524],[10.53893,46.86614],[10.53695,46.86623],[10.53697,46.86612],[10.53774,46.86595],[10.53824,46.8656],[10.53938,46.86439],[10.54024,46.86376],[10.54134,46.86355]]}},{"type":"Feature","properties":{"kind":"piste","difficulty":"easy","name":null,"aerialway":null,"osm":"way/1486359297"},"geometry":{"type":"LineString","coordinates":[[10.54088,46.85907],[10.54109,46.85843],[10.54174,46.85765],[10.54207,46.85612],[10.54388,46.85283],[10.54443,46.85235],[10.54528,46.85208],[10.54589,46.85211],[10.54635,46.85243],[10.54682,46.85291],[10.5451,46.85333],[10.54404,46.85476],[10.54243,46.85963],[10.54088,46.85907]]}},{"type":"Feature","properties":{"kind":"piste","difficulty":"easy","name":null,"aerialway":null,"osm":"way/1486359298"},"geometry":{"type":"LineString","coordinates":[[10.54088,46.85907],[10.54106,46.86009],[10.54067,46.86076],[10.54062,46.86114],[10.54091,46.86186],[10.5409,46.86213],[10.54137,46.8622],[10.54111,46.86168],[10.54107,46.86105],[10.54137,46.86055],[10.54243,46.85963],[10.54088,46.85907]]}},{"type":"Feature","properties":{"kind":"piste","difficulty":"intermediate","name":null,"aerialway":null,"osm":"way/1486359299"},"geometry":{"type":"LineString","coordinates":[[10.54631,46.85305],[10.5451,46.85333],[10.54404,46.85476],[10.54243,46.85963],[10.54276,46.86089],[10.54339,46.86028],[10.54338,46.85914],[10.54376,46.85773],[10.54464,46.85622],[10.54557,46.85403],[10.54591,46.85354],[10.54635,46.85326],[10.54631,46.85305]]}},{"type":"Feature","properties":{"kind":"piste","difficulty":"advanced","name":null,"aerialway":null,"osm":"way/1486359300"},"geometry":{"type":"LineString","coordinates":[[10.53647,46.85394],[10.53756,46.85384],[10.54002,46.85331],[10.54235,46.85302],[10.54375,46.85302],[10.54363,46.8532],[10.5428,46.85317],[10.54034,46.85348],[10.53679,46.85412],[10.53647,46.85394]]}},{"type":"Feature","properties":{"kind":"piste","difficulty":"intermediate","name":null,"aerialway":null,"osm":"way/1486359301"},"geometry":{"type":"LineString","coordinates":[[10.53441,46.85182],[10.53469,46.85199],[10.53208,46.85302],[10.53166,46.85329],[10.53169,46.85299],[10.53441,46.85182]]}},{"type":"Feature","properties":{"kind":"piste","difficulty":"advanced","name":null,"aerialway":null,"osm":"way/1486359302"},"geometry":{"type":"LineString","coordinates":[[10.53478,46.85161],[10.53515,46.8519],[10.53736,46.85145],[10.53923,46.85143],[10.53978,46.85153],[10.54035,46.85182],[10.54299,46.85239],[10.54379,46.8527],[10.544,46.85272],[10.54421,46.85254],[10.54136,46.85144],[10.54004,46.85109],[10.5375,46.8511],[10.53478,46.85161]]}},{"type":"Feature","properties":{"kind":"piste","difficulty":"advanced","name":null,"aerialway":null,"osm":"way/1486359303"},"geometry":{"type":"LineString","coordinates":[[10.54324,46.85216],[10.54354,46.85215],[10.54488,46.85141],[10.54587,46.85118],[10.54363,46.85232],[10.54324,46.85216]]}},{"type":"Feature","properties":{"kind":"piste","difficulty":"intermediate","name":null,"aerialway":null,"osm":"way/1486359304"},"geometry":{"type":"LineString","coordinates":[[10.54587,46.85118],[10.54615,46.85116],[10.54528,46.85208],[10.54443,46.85235],[10.54587,46.85118]]}},{"type":"Feature","properties":{"kind":"piste","difficulty":"novice","name":null,"aerialway":null,"osm":"way/1486359305"},"geometry":{"type":"LineString","coordinates":[[10.54484,46.8522],[10.54475,46.85264]]}},{"type":"Feature","properties":{"kind":"piste","difficulty":"intermediate","name":null,"aerialway":null,"osm":"way/1486359306"},"geometry":{"type":"LineString","coordinates":[[10.53469,46.85199],[10.53515,46.8519],[10.53478,46.85161],[10.5339,46.8511],[10.53276,46.85086],[10.53271,46.85098],[10.5329,46.85112],[10.53374,46.85138],[10.53469,46.85199]]}},{"type":"Feature","properties":{"kind":"piste","difficulty":"intermediate","name":null,"aerialway":null,"osm":"way/1486359307"},"geometry":{"type":"LineString","coordinates":[[10.53292,46.85251],[10.5312,46.85239],[10.53002,46.85259],[10.52727,46.85363],[10.5265,46.85428],[10.52679,46.85432],[10.52809,46.85347],[10.53061,46.85265],[10.53243,46.8527],[10.53292,46.85251]]}},{"type":"Feature","properties":{"kind":"piste","difficulty":"intermediate","name":null,"aerialway":null,"osm":"way/1486359308"},"geometry":{"type":"LineString","coordinates":[[10.53169,46.85299],[10.53166,46.85329],[10.53123,46.85399],[10.53121,46.85434],[10.531,46.85435],[10.53113,46.85356],[10.53133,46.85315],[10.53169,46.85299]]}},{"type":"Feature","properties":{"kind":"piste","difficulty":"intermediate","name":null,"aerialway":null,"osm":"way/1486359309"},"geometry":{"type":"LineString","coordinates":[[10.53173,46.8559],[10.53082,46.85614],[10.52988,46.85621],[10.52939,46.85589],[10.52881,46.85503],[10.52679,46.85432],[10.52664,46.85449],[10.52856,46.85504],[10.5293,46.85604],[10.52978,46.85631],[10.53056,46.85636],[10.53171,46.85619],[10.53173,46.8559]]}},{"type":"Feature","properties":{"kind":"piste","difficulty":"intermediate","name":null,"aerialway":null,"osm":"way/1486359310"},"geometry":{"type":"LineString","coordinates":[[10.5265,46.85428],[10.52499,46.85495],[10.52461,46.85532],[10.52455,46.85609],[10.52465,46.85662],[10.52448,46.85715],[10.52476,46.8578],[10.52529,46.85822],[10.52529,46.85834],[10.52489,46.85866],[10.52343,46.85899],[10.52314,46.85921],[10.52216,46.86112],[10.52154,46.8618],[10.52159,46.86268],[10.52182,46.8626],[10.52171,46.8619],[10.52182,46.86162],[10.5222,46.86123],[10.52323,46.85934],[10.5237,46.85903],[10.52482,46.85883],[10.52541,46.85848],[10.52542,46.8582],[10.52463,46.85729],[10.52483,46.8567],[10.52484,46.85542],[10.52513,46.85508],[10.52664,46.85449],[10.52679,46.85432],[10.5265,46.85428]]}},{"type":"Feature","properties":{"kind":"piste","difficulty":"advanced","name":null,"aerialway":null,"osm":"way/1486361124"},"geometry":{"type":"LineString","coordinates":[[10.53154,46.8598],[10.53069,46.8595],[10.52841,46.85944],[10.52752,46.85966],[10.52692,46.8601],[10.52671,46.86006],[10.52798,46.85935],[10.53003,46.85927],[10.5317,46.85966],[10.53189,46.8602],[10.53234,46.86074],[10.5321,46.86075],[10.53154,46.8598]]}},{"type":"Feature","properties":{"kind":"piste","difficulty":"intermediate","name":null,"aerialway":null,"osm":"way/1486361125"},"geometry":{"type":"LineString","coordinates":[[10.53267,46.86125],[10.52794,46.86246],[10.52432,46.86271],[10.52186,46.86316],[10.52159,46.86268],[10.528,46.86204],[10.53227,46.86094],[10.53267,46.86125]]}},{"type":"Feature","properties":{"kind":"piste","difficulty":"intermediate","name":null,"aerialway":null,"osm":"way/1486361126"},"geometry":{"type":"LineString","coordinates":[[10.52692,46.8601],[10.52863,46.86045],[10.53011,46.86098],[10.53119,46.86094],[10.5321,46.86075],[10.53227,46.86094],[10.53141,46.86115],[10.53053,46.86115],[10.52969,46.86098],[10.52858,46.86056],[10.52686,46.86022],[10.52692,46.8601]]}},{"type":"Feature","properties":{"kind":"piste","difficulty":"intermediate","name":null,"aerialway":null,"osm":"way/1486361127"},"geometry":{"type":"LineString","coordinates":[[10.53366,46.86279],[10.53368,46.86424],[10.53397,46.86474],[10.5361,46.86602],[10.53695,46.86623],[10.53697,46.86612],[10.53592,46.86578],[10.53431,46.86468],[10.53389,46.86379],[10.53379,46.86277],[10.53366,46.86279]]}},{"type":"Feature","properties":{"kind":"piste","difficulty":"intermediate","name":null,"aerialway":null,"osm":"way/1486361128"},"geometry":{"type":"LineString","coordinates":[[10.52159,46.86268],[10.51963,46.86339],[10.51887,46.8639],[10.51884,46.86448],[10.51923,46.8654],[10.51903,46.866],[10.51853,46.8667],[10.51842,46.86734],[10.51805,46.86828],[10.51661,46.86968],[10.51645,46.87017],[10.517,46.87156],[10.51668,46.87193],[10.5158,46.87234],[10.51514,46.87284],[10.51579,46.87269],[10.51616,46.87233],[10.5171,46.87201],[10.51734,46.87177],[10.51728,46.87142],[10.51671,46.87063],[10.51672,46.87016],[10.51752,46.86905],[10.51812,46.86858],[10.51862,46.8676],[10.5188,46.8668],[10.51939,46.86556],[10.51902,46.86459],[10.51906,46.8641],[10.51927,46.86389],[10.52186,46.86316],[10.52159,46.86268]]}},{"type":"Feature","properties":{"kind":"piste","difficulty":"easy","name":null,"aerialway":null,"osm":"way/1486361129"},"geometry":{"type":"LineString","coordinates":[[10.51514,46.87284],[10.5145,46.8733],[10.51125,46.87458],[10.51003,46.8747],[10.50977,46.87516],[10.50978,46.87538],[10.51034,46.8753],[10.51471,46.87362],[10.51533,46.873],[10.51599,46.87289],[10.51579,46.87269],[10.51514,46.87284]]}},{"type":"Feature","properties":{"kind":"piste","difficulty":"easy","name":null,"aerialway":null,"osm":"way/1486361130"},"geometry":{"type":"LineString","coordinates":[[10.51586,46.87277],[10.51758,46.87259],[10.51953,46.87172],[10.5224,46.87173],[10.524,46.87148],[10.52505,46.87114],[10.52696,46.8713],[10.52895,46.87165],[10.53023,46.87213],[10.52972,46.87213],[10.5288,46.87174],[10.5252,46.87127],[10.52395,46.87166],[10.52281,46.87184],[10.51951,46.87181],[10.51733,46.87276],[10.51599,46.87289],[10.51586,46.87277]]}},{"type":"Feature","properties":{"kind":"piste","difficulty":"intermediate","name":"Piengabfahrt","aerialway":null,"osm":"way/1486361131"},"geometry":{"type":"LineString","coordinates":[[10.54831,46.87669],[10.54786,46.87652]]}},{"type":"Feature","properties":{"kind":"piste","difficulty":"intermediate","name":null,"aerialway":null,"osm":"way/1486361132"},"geometry":{"type":"LineString","coordinates":[[10.54706,46.87595],[10.54676,46.87626],[10.54618,46.87653],[10.5467,46.87664],[10.54743,46.87609],[10.54706,46.87595]]}},{"type":"Feature","properties":{"kind":"lift","difficulty":null,"name":"Bergbahn Schöneben - Cabinovia Belpiano","aerialway":"gondola","osm":"way/34714184"},"geometry":{"type":"LineString","coordinates":[[10.50884,46.8217],[10.49172,46.80497]]}},{"type":"Feature","properties":{"kind":"lift","difficulty":null,"name":"Zirmbahn","aerialway":"chair_lift","osm":"way/50998012"},"geometry":{"type":"LineString","coordinates":[[10.54072,46.8625],[10.54683,46.85317]]}},{"type":"Feature","properties":{"kind":"lift","difficulty":null,"name":"Almlift","aerialway":"t-bar","osm":"way/50998013"},"geometry":{"type":"LineString","coordinates":[[10.53271,46.85081],[10.54685,46.85113]]}},{"type":"Feature","properties":{"kind":"lift","difficulty":null,"name":"Gaislochbahn","aerialway":"chair_lift","osm":"way/50998068"},"geometry":{"type":"LineString","coordinates":[[10.54596,46.87633],[10.55251,46.86681]]}},{"type":"Feature","properties":{"kind":"lift","difficulty":null,"name":"Tscheyeckbahn","aerialway":"chair_lift","osm":"way/50999750"},"geometry":{"type":"LineString","coordinates":[[10.54841,46.87683],[10.57027,46.88856]]}},{"type":"Feature","properties":{"kind":"lift","difficulty":null,"name":"Bergkastelbahn","aerialway":"gondola","osm":"way/60825907"},"geometry":{"type":"LineString","coordinates":[[10.50892,46.87546],[10.54022,46.86317]]}},{"type":"Feature","properties":{"kind":"lift","difficulty":null,"name":"Mutzkopf","aerialway":"chair_lift","osm":"way/66906864"},"geometry":{"type":"LineString","coordinates":[[10.49624,46.88892],[10.48903,46.88246]]}},{"type":"Feature","properties":{"kind":"lift","difficulty":null,"name":"Lärchenhanglift I","aerialway":"chair_lift","osm":"way/136207691"},"geometry":{"type":"LineString","coordinates":[[10.50938,46.87504],[10.52187,46.86405]]}},{"type":"Feature","properties":{"kind":"lift","difficulty":null,"name":"Lärchenhanglift II","aerialway":"chair_lift","osm":"way/136207693"},"geometry":{"type":"LineString","coordinates":[[10.52186,46.86344],[10.53981,46.86299]]}},{"type":"Feature","properties":{"kind":"lift","difficulty":null,"name":"Tallift","aerialway":"platter","osm":"way/136207694"},"geometry":{"type":"LineString","coordinates":[[10.50989,46.87549],[10.51455,46.87371]]}},{"type":"Feature","properties":{"kind":"lift","difficulty":null,"name":"Ganderbildlift","aerialway":"t-bar","osm":"way/136491885"},"geometry":{"type":"LineString","coordinates":[[10.54601,46.86252],[10.54447,46.859]]}},{"type":"Feature","properties":{"kind":"lift","difficulty":null,"name":"Panoramalift","aerialway":"t-bar","osm":"way/156255222"},"geometry":{"type":"LineString","coordinates":[[10.57358,46.88724],[10.57727,46.88446]]}},{"type":"Feature","properties":{"kind":"lift","difficulty":null,"name":"Pofellift","aerialway":"platter","osm":"way/326639621"},"geometry":{"type":"LineString","coordinates":[[10.5105,46.83281],[10.50297,46.83241]]}},{"type":"Feature","properties":{"kind":"lift","difficulty":null,"name":null,"aerialway":"magic_carpet","osm":"way/348096208"},"geometry":{"type":"LineString","coordinates":[[10.53797,46.86346],[10.53864,46.86345]]}},{"type":"Feature","properties":{"kind":"lift","difficulty":null,"name":null,"aerialway":"magic_carpet","osm":"way/348096209"},"geometry":{"type":"LineString","coordinates":[[10.5389,46.86341],[10.53922,46.86331]]}},{"type":"Feature","properties":{"kind":"lift","difficulty":null,"name":"Goldseebahn","aerialway":"chair_lift","osm":"way/947198514"},"geometry":{"type":"LineString","coordinates":[[10.53846,46.86651],[10.54431,46.85966]]}},{"type":"Feature","properties":{"kind":"lift","difficulty":null,"name":null,"aerialway":"magic_carpet","osm":"way/1235252324"},"geometry":{"type":"LineString","coordinates":[[10.54265,46.86286],[10.54271,46.86236]]}},{"type":"Feature","properties":{"kind":"lift","difficulty":null,"name":null,"aerialway":"magic_carpet","osm":"way/1235289054"},"geometry":{"type":"LineString","coordinates":[[10.53927,46.86372],[10.53945,46.86364]]}},{"type":"Feature","properties":{"kind":"lift","difficulty":null,"name":null,"aerialway":"magic_carpet","osm":"way/1235289055"},"geometry":{"type":"LineString","coordinates":[[10.53906,46.86349],[10.53927,46.86341]]}},{"type":"Feature","properties":{"kind":"lift","difficulty":null,"name":"Winterwunderwelt Nauders","aerialway":"magic_carpet","osm":"way/1296702220"},"geometry":{"type":"LineString","coordinates":[[10.50266,46.88786],[10.50288,46.88758]]}},{"type":"Feature","properties":{"kind":"lift","difficulty":null,"name":null,"aerialway":"magic_carpet","osm":"way/1486359294"},"geometry":{"type":"LineString","coordinates":[[10.5383,46.86358],[10.53853,46.86357]]}},{"type":"Feature","properties":{"kind":"lift","difficulty":null,"name":null,"aerialway":"magic_carpet","osm":"way/1486359295"},"geometry":{"type":"LineString","coordinates":[[10.54164,46.86348],[10.54146,46.86333]]}},{"type":"Feature","properties":{"kind":"lift","difficulty":null,"name":null,"aerialway":"magic_carpet","osm":"way/1486359296"},"geometry":{"type":"LineString","coordinates":[[10.54207,46.86346],[10.54172,46.86314]]}}]}