{"type":"FeatureCollection","features":[{"type":"Feature","properties":{"kind":"lift","difficulty":null,"name":"Wildstättlift","aerialway":"t-bar","osm":"way/123556786"},"geometry":{"type":"LineString","coordinates":[[11.61283,47.2748],[11.61747,47.27371]]}},{"type":"Feature","properties":{"kind":"piste","difficulty":"easy","name":null,"aerialway":null,"osm":"way/417712930"},"geometry":{"type":"LineString","coordinates":[[11.61703,47.27381],[11.61679,47.27373],[11.61546,47.27381],[11.61335,47.27447],[11.6129,47.27478]]}}]}