{"type":"FeatureCollection","features":[{"type":"Feature","properties":{"kind":"lift","difficulty":null,"name":"Moosetal-Leisach","aerialway":"platter","osm":"way/19832389"},"geometry":{"type":"LineString","coordinates":[[12.74755,46.80607],[12.73956,46.80587]]}},{"type":"Feature","properties":{"kind":"lift","difficulty":null,"name":"Hochstein 2","aerialway":"chair_lift","osm":"way/19844106"},"geometry":{"type":"LineString","coordinates":[[12.74075,46.8265],[12.72726,46.81765]]}},{"type":"Feature","properties":{"kind":"lift","difficulty":null,"name":"Schlossbergbahn","aerialway":"mixed_lift","osm":"way/19844107"},"geometry":{"type":"LineString","coordinates":[[12.75341,46.83086],[12.74164,46.82691]]}},{"type":"Feature","properties":{"kind":"lift","difficulty":null,"name":"Hochstein III","aerialway":"t-bar","osm":"way/19844108"},"geometry":{"type":"LineString","coordinates":[[12.72696,46.81656],[12.70516,46.81818]]}},{"type":"Feature","properties":{"kind":"lift","difficulty":null,"name":"Taxermoos","aerialway":"platter","osm":"way/295470072"},"geometry":{"type":"LineString","coordinates":[[12.74,46.82656],[12.73573,46.82535]]}},{"type":"Feature","properties":{"kind":"piste","difficulty":"easy","name":null,"aerialway":null,"osm":"way/417818995"},"geometry":{"type":"LineString","coordinates":[[12.73583,46.82538],[12.7385,46.82566],[12.73984,46.8263],[12.73996,46.82648],[12.7408,46.82664]]}},{"type":"Feature","properties":{"kind":"piste","difficulty":"advanced","name":null,"aerialway":null,"osm":"way/417819002"},"geometry":{"type":"LineString","coordinates":[[12.74098,46.82657],[12.74112,46.82606],[12.74148,46.82556],[12.74259,46.82508],[12.74514,46.82458],[12.7468,46.82457]]}},{"type":"Feature","properties":{"kind":"piste","difficulty":"advanced","name":null,"aerialway":null,"osm":"way/417819010"},"geometry":{"type":"LineString","coordinates":[[12.72726,46.81765],[12.72673,46.81727],[12.72691,46.81713],[12.72819,46.81746],[12.72873,46.81795],[12.73017,46.81792],[12.73167,46.81832],[12.73455,46.81782],[12.73904,46.81829],[12.74014,46.81892],[12.74177,46.82048],[12.74372,46.8217],[12.744,46.82241],[12.74505,46.82304],[12.7468,46.82457],[12.74925,46.8258],[12.74983,46.82643],[12.75015,46.82781],[12.7505,46.82816],[12.75078,46.82901],[12.75146,46.8294],[12.75338,46.83002],[12.75357,46.8305],[12.75341,46.83086]]}},{"type":"Feature","properties":{"kind":"piste","difficulty":"advanced","name":null,"aerialway":null,"osm":"way/417819019"},"geometry":{"type":"LineString","coordinates":[[12.7408,46.82664],[12.74098,46.82657],[12.74163,46.82706],[12.74217,46.82722],[12.74303,46.82722],[12.74433,46.82754],[12.74498,46.82781],[12.74552,46.82835],[12.74621,46.82859],[12.74698,46.82863],[12.74791,46.82911],[12.74965,46.82934],[12.74997,46.82908],[12.75078,46.82901]]}},{"type":"Feature","properties":{"kind":"piste","difficulty":"intermediate","name":null,"aerialway":null,"osm":"way/417819028"},"geometry":{"type":"LineString","coordinates":[[12.70575,46.81813],[12.70639,46.81826],[12.70704,46.81814],[12.70851,46.81832],[12.70998,46.81825],[12.71068,46.81848],[12.71154,46.81847],[12.71301,46.81813],[12.7155,46.81823],[12.71841,46.81786],[12.71906,46.81815],[12.72063,46.81837],[12.7219,46.81875],[12.72315,46.81895],[12.72427,46.81884],[12.72873,46.81795]]}},{"type":"Feature","properties":{"kind":"piste","difficulty":"intermediate","name":null,"aerialway":null,"osm":"way/417819039"},"geometry":{"type":"LineString","coordinates":[[12.70575,46.81813],[12.70967,46.81692],[12.71,46.81707],[12.71022,46.81751],[12.71061,46.81762],[12.71115,46.81755],[12.71207,46.817],[12.71324,46.81689],[12.71413,46.81718],[12.7145,46.81709],[12.71465,46.81652],[12.71564,46.81685],[12.71602,46.81685],[12.71621,46.81666],[12.7162,46.81649],[12.71577,46.81593],[12.71581,46.81575],[12.71655,46.81539],[12.71711,46.81529],[12.71898,46.81422],[12.72187,46.81421],[12.72324,46.81432],[12.72435,46.81465],[12.72506,46.81498],[12.72655,46.81618],[12.72691,46.81713]]}},{"type":"Feature","properties":{"kind":"piste","difficulty":"intermediate","name":null,"aerialway":null,"osm":"way/417819054"},"geometry":{"type":"LineString","coordinates":[[12.72552,46.81859],[12.72588,46.81787],[12.72568,46.81738],[12.72684,46.81657]]}},{"type":"Feature","properties":{"kind":"piste","difficulty":"easy","name":null,"aerialway":null,"osm":"way/417819060"},"geometry":{"type":"LineString","coordinates":[[12.74177,46.82048],[12.74126,46.82203],[12.74121,46.82267],[12.74164,46.82337],[12.7416,46.82379],[12.74051,46.82516],[12.7403,46.82603],[12.74101,46.82645]]}},{"type":"Feature","properties":{"kind":"piste","difficulty":"easy","name":null,"aerialway":null,"osm":"way/417841856"},"geometry":{"type":"LineString","coordinates":[[12.73956,46.80587],[12.73999,46.80571],[12.74562,46.80566],[12.74734,46.80591],[12.74755,46.80607]]}},{"type":"Feature","properties":{"kind":"piste","difficulty":"easy","name":null,"aerialway":null,"osm":"way/1054820336"},"geometry":{"type":"LineString","coordinates":[[12.74007,46.8265],[12.74,46.82656]]}},{"type":"Feature","properties":{"kind":"piste","difficulty":"easy","name":null,"aerialway":null,"osm":"way/1247007088"},"geometry":{"type":"LineString","coordinates":[[12.73948,46.81855],[12.739,46.81976],[12.73855,46.82021],[12.73829,46.82069],[12.73819,46.82133],[12.7379,46.82172],[12.73783,46.82246],[12.73613,46.82403],[12.73597,46.82472],[12.73643,46.82539]]}}]}