{"type":"FeatureCollection","features":[{"type":"Feature","properties":{"kind":"lift","difficulty":null,"name":"Gföllberglift","aerialway":"t-bar","osm":"way/177368993"},"geometry":{"type":"LineString","coordinates":[[10.34224,47.26112],[10.33253,47.26289]]}},{"type":"Feature","properties":{"kind":"piste","difficulty":"intermediate","name":null,"aerialway":null,"osm":"way/200657226"},"geometry":{"type":"LineString","coordinates":[[10.33286,47.2624],[10.33291,47.26225],[10.33351,47.26239],[10.33413,47.26224],[10.3347,47.26163],[10.33598,47.26159],[10.33681,47.26126],[10.34059,47.26126],[10.34203,47.26095],[10.34224,47.26112]]}},{"type":"Feature","properties":{"kind":"piste","difficulty":"easy","name":null,"aerialway":null,"osm":"way/1425950907"},"geometry":{"type":"LineString","coordinates":[[10.33338,47.26274],[10.3329,47.26236],[10.33281,47.26204],[10.33227,47.26169],[10.33229,47.26125],[10.33153,47.26041],[10.33049,47.25994],[10.3315,47.25966],[10.33165,47.2595],[10.33313,47.25984],[10.33439,47.25976],[10.33621,47.26008],[10.33722,47.26002],[10.33821,47.26043],[10.33991,47.26077],[10.34012,47.26075],[10.34027,47.26048],[10.34045,47.26045],[10.34209,47.26083],[10.34224,47.26112],[10.34255,47.26101],[10.34271,47.26064],[10.34224,47.26052],[10.34146,47.26063],[10.34036,47.26029],[10.33997,47.26036],[10.33968,47.2606],[10.33811,47.2602],[10.33738,47.25987],[10.33574,47.2599],[10.33482,47.25966],[10.33326,47.25966],[10.33162,47.25937],[10.33139,47.25959],[10.3303,47.25974],[10.33024,47.25987],[10.33153,47.26052],[10.33181,47.26092],[10.33184,47.26157],[10.33299,47.26258],[10.33338,47.26274]]}},{"type":"Feature","properties":{"kind":"piste","difficulty":"intermediate","name":null,"aerialway":null,"osm":"way/1425950908"},"geometry":{"type":"LineString","coordinates":[[10.3329,47.26236],[10.33334,47.26248],[10.33392,47.26242],[10.33444,47.26221],[10.3348,47.26172],[10.33592,47.26168],[10.33694,47.2613],[10.33856,47.26132],[10.3392,47.26146],[10.34111,47.26127],[10.34195,47.26106],[10.34224,47.26112],[10.34224,47.26099],[10.34195,47.26082],[10.34066,47.26119],[10.33999,47.2611],[10.33792,47.26128],[10.33675,47.26118],[10.33578,47.26155],[10.33466,47.26153],[10.3341,47.26213],[10.33364,47.26229],[10.33322,47.26226],[10.33281,47.26204],[10.3329,47.26236]]}},{"type":"Feature","properties":{"kind":"piste","difficulty":"easy","name":null,"aerialway":null,"osm":"relation/2696069"},"geometry":{"type":"LineString","coordinates":[[10.33338,47.26274],[10.33293,47.26247],[10.33212,47.26167],[10.33193,47.26096],[10.33154,47.26048],[10.33042,47.25992],[10.33072,47.25973],[10.33145,47.25962],[10.33165,47.25944],[10.33309,47.25973],[10.33441,47.25968],[10.3358,47.25997],[10.33729,47.25995],[10.33818,47.26031],[10.33972,47.26067],[10.33997,47.26063],[10.34015,47.26041],[10.34045,47.26038],[10.34136,47.26067],[10.34227,47.26073],[10.34235,47.2608],[10.34224,47.26112]]}}]}