{"type":"FeatureCollection","features":[{"type":"Feature","properties":{"kind":"lift","difficulty":null,"name":"Muldenlift","aerialway":"t-bar","osm":"way/23009409"},"geometry":{"type":"LineString","coordinates":[[15.42918,47.63223],[15.42753,47.63537]]}},{"type":"Feature","properties":{"kind":"lift","difficulty":null,"name":"Sonnkogellift","aerialway":"t-bar","osm":"way/23009410"},"geometry":{"type":"LineString","coordinates":[[15.42395,47.63167],[15.41448,47.63757]]}},{"type":"Feature","properties":{"kind":"lift","difficulty":null,"name":"Brunnalmlift","aerialway":"t-bar","osm":"way/23009414"},"geometry":{"type":"LineString","coordinates":[[15.42713,47.63441],[15.42213,47.64073]]}},{"type":"Feature","properties":{"kind":"lift","difficulty":null,"name":"Panorama 4er Sesselift","aerialway":"chair_lift","osm":"way/94230658"},"geometry":{"type":"LineString","coordinates":[[15.42866,47.63235],[15.41586,47.63858]]}},{"type":"Feature","properties":{"kind":"piste","difficulty":"intermediate","name":"Kanonenrücken","aerialway":null,"osm":"way/127812718"},"geometry":{"type":"LineString","coordinates":[[15.41586,47.63858],[15.41575,47.63849],[15.41643,47.63818],[15.41712,47.63756],[15.41767,47.63687],[15.41905,47.63557],[15.42002,47.63439],[15.4214,47.63355],[15.42233,47.63332],[15.42386,47.63259],[15.42432,47.63217],[15.42432,47.63188],[15.42401,47.63171]]}},{"type":"Feature","properties":{"kind":"piste","difficulty":"freeride","name":"Sonnkogel Route","aerialway":null,"osm":"way/127812719"},"geometry":{"type":"LineString","coordinates":[[15.41513,47.63716],[15.41506,47.63694],[15.41591,47.63614],[15.41615,47.63456],[15.41661,47.63404],[15.41802,47.63404],[15.41966,47.63374],[15.42084,47.63301],[15.42231,47.63231],[15.42361,47.63183],[15.42398,47.63157],[15.42417,47.63157],[15.4241,47.63171]]}},{"type":"Feature","properties":{"kind":"piste","difficulty":"advanced","name":"Pachlerrinne","aerialway":null,"osm":"way/127812720"},"geometry":{"type":"LineString","coordinates":[[15.42227,47.64015],[15.42293,47.63766]]}},{"type":"Feature","properties":{"kind":"piste","difficulty":"intermediate","name":"Familenabfahrt","aerialway":null,"osm":"way/564111505"},"geometry":{"type":"LineString","coordinates":[[15.41958,47.63741],[15.41999,47.63716],[15.4205,47.63656],[15.42127,47.63446],[15.42233,47.63332]]}},{"type":"Feature","properties":{"kind":"piste","difficulty":"easy","name":"Familenabfahrt","aerialway":null,"osm":"way/564111507"},"geometry":{"type":"LineString","coordinates":[[15.42254,47.64024],[15.41973,47.63935],[15.41923,47.63891],[15.41905,47.6381],[15.41917,47.63771],[15.41958,47.63741]]}},{"type":"Feature","properties":{"kind":"piste","difficulty":"easy","name":"Verbindungsweg zu Holterrinne","aerialway":null,"osm":"way/564111511"},"geometry":{"type":"LineString","coordinates":[[15.41776,47.63729],[15.41824,47.63719],[15.41958,47.63741],[15.42129,47.63713],[15.42173,47.63721],[15.42239,47.63767],[15.42293,47.63766]]}},{"type":"Feature","properties":{"kind":"piste","difficulty":"easy","name":"Brunnwiese","aerialway":null,"osm":"way/564111512"},"geometry":{"type":"LineString","coordinates":[[15.42304,47.63737],[15.42346,47.63671],[15.42495,47.6353]]}},{"type":"Feature","properties":{"kind":"piste","difficulty":"easy","name":"Nasshöhle","aerialway":null,"osm":"way/564111513"},"geometry":{"type":"LineString","coordinates":[[15.42495,47.6353],[15.42563,47.63531],[15.42636,47.63565],[15.42685,47.63561],[15.42713,47.63533],[15.42738,47.63479],[15.42713,47.63441]]}},{"type":"Feature","properties":{"kind":"piste","difficulty":"easy","name":"Muldenlift","aerialway":null,"osm":"way/564111514"},"geometry":{"type":"LineString","coordinates":[[15.42774,47.63495],[15.42738,47.6347],[15.42843,47.63333],[15.42889,47.63242],[15.42917,47.63224]]}},{"type":"Feature","properties":{"kind":"piste","difficulty":"easy","name":"Scheiklüberfahrt","aerialway":null,"osm":"way/564111515"},"geometry":{"type":"LineString","coordinates":[[15.42384,47.6326],[15.42505,47.63298],[15.42548,47.63327],[15.42567,47.63418]]}},{"type":"Feature","properties":{"kind":"piste","difficulty":"easy","name":"Holzerriegel","aerialway":null,"osm":"way/564111516"},"geometry":{"type":"LineString","coordinates":[[15.42566,47.63417],[15.42766,47.63356],[15.42897,47.63252],[15.42905,47.63228],[15.42866,47.63235]]}},{"type":"Feature","properties":{"kind":"piste","difficulty":"easy","name":"Sterndlweg Route","aerialway":null,"osm":"way/564116009"},"geometry":{"type":"LineString","coordinates":[[15.41649,47.63831],[15.41704,47.63829],[15.41777,47.63878],[15.41819,47.63889],[15.41866,47.6388],[15.42003,47.639],[15.42183,47.63835]]}},{"type":"Feature","properties":{"kind":"piste","difficulty":"advanced","name":"Holzerriegel","aerialway":null,"osm":"way/564116010"},"geometry":{"type":"LineString","coordinates":[[15.42495,47.6353],[15.42541,47.63485],[15.42567,47.63418]]}},{"type":"Feature","properties":{"kind":"piste","difficulty":"advanced","name":"Holterrinne","aerialway":null,"osm":"way/564116011"},"geometry":{"type":"LineString","coordinates":[[15.42092,47.63975],[15.42131,47.6388],[15.42199,47.63821],[15.42293,47.63766]]}},{"type":"Feature","properties":{"kind":"piste","difficulty":"intermediate","name":"Holterrinne","aerialway":null,"osm":"way/564116012"},"geometry":{"type":"LineString","coordinates":[[15.42293,47.63766],[15.42304,47.63737],[15.42293,47.63697],[15.423,47.6364],[15.4232,47.63605],[15.42375,47.63564],[15.42495,47.6353]]}},{"type":"Feature","properties":{"kind":"piste","difficulty":"intermediate","name":"Eschenriegel","aerialway":null,"osm":"way/564116013"},"geometry":{"type":"LineString","coordinates":[[15.41513,47.63716],[15.41514,47.63764],[15.41546,47.63857],[15.41563,47.63876],[15.41583,47.63871],[15.41586,47.63858]]}},{"type":"Feature","properties":{"kind":"piste","difficulty":"easy","name":"Kanonenrohr","aerialway":null,"osm":"way/564116014"},"geometry":{"type":"LineString","coordinates":[[15.41586,47.63858],[15.4164,47.6384],[15.41932,47.63586],[15.4206,47.63422],[15.42165,47.63357],[15.42233,47.63332]]}},{"type":"Feature","properties":{"kind":"piste","difficulty":"advanced","name":"Sterndlgassl","aerialway":null,"osm":"way/908546828"},"geometry":{"type":"LineString","coordinates":[[15.41515,47.63739],[15.41637,47.63794],[15.41676,47.63789]]}},{"type":"Feature","properties":{"kind":"lift","difficulty":null,"name":"Gamsmugel Kinderlift","aerialway":"magic_carpet","osm":"way/908546829"},"geometry":{"type":"LineString","coordinates":[[15.42954,47.63227],[15.42996,47.63236]]}},{"type":"Feature","properties":{"kind":"piste","difficulty":"novice","name":"Gamsmugl","aerialway":null,"osm":"way/908546830"},"geometry":{"type":"LineString","coordinates":[[15.42996,47.63236],[15.42954,47.63227]]}}]}