{"type":"FeatureCollection","features":[{"type":"Feature","properties":{"kind":"piste","difficulty":"easy","name":"4 Piste Krößbach","aerialway":null,"osm":"way/324494517"},"geometry":{"type":"LineString","coordinates":[[11.26668,47.07535],[11.26701,47.07531],[11.26697,47.07594],[11.2671,47.07651],[11.26648,47.07749],[11.26593,47.07757],[11.26552,47.07745],[11.26452,47.07876],[11.26409,47.07844],[11.26436,47.07826],[11.26444,47.07801],[11.26417,47.0782],[11.26408,47.07843],[11.26375,47.07809],[11.26386,47.07793],[11.26361,47.07771],[11.26438,47.07713],[11.26465,47.07709],[11.26466,47.07696],[11.26554,47.07625],[11.26604,47.07606],[11.26668,47.07535]]}},{"type":"Feature","properties":{"kind":"piste","difficulty":"easy","name":"4 Piste Krößbach","aerialway":null,"osm":"way/877656810"},"geometry":{"type":"LineString","coordinates":[[11.26688,47.07512],[11.26621,47.07646],[11.26538,47.07717],[11.26405,47.07786],[11.26358,47.07766]]}},{"type":"Feature","properties":{"kind":"lift","difficulty":null,"name":"Krößbachlift","aerialway":"platter","osm":"way/132799854"},"geometry":{"type":"LineString","coordinates":[[11.2635,47.07772],[11.26713,47.07493]]}},{"type":"Feature","properties":{"kind":"lift","difficulty":null,"name":"Babylift Krößbach","aerialway":"magic_carpet","osm":"way/324494516"},"geometry":{"type":"LineString","coordinates":[[11.26409,47.07844],[11.26444,47.07801]]}}]}