{"type":"FeatureCollection","features":[{"type":"Feature","properties":{"kind":"piste","difficulty":"easy","name":null,"aerialway":null,"osm":"way/23371634"},"geometry":{"type":"LineString","coordinates":[[9.99285,47.10826],[9.98828,47.10895],[9.98575,47.10963],[9.98519,47.10957],[9.98489,47.1094],[9.98497,47.10895]]}},{"type":"Feature","properties":{"kind":"piste","difficulty":"intermediate","name":null,"aerialway":null,"osm":"way/23371636"},"geometry":{"type":"LineString","coordinates":[[9.99286,47.10832],[9.99377,47.10824],[9.99466,47.108],[9.99546,47.10767],[9.99606,47.1072],[9.99589,47.10673],[9.99533,47.10641],[9.99474,47.10575],[9.994,47.10533],[9.99312,47.10561],[9.99025,47.10557],[9.98801,47.10674],[9.98703,47.1071],[9.98581,47.10714],[9.98332,47.10773]]}},{"type":"Feature","properties":{"kind":"piste","difficulty":"easy","name":null,"aerialway":null,"osm":"way/151474730"},"geometry":{"type":"LineString","coordinates":[[9.98488,47.10916],[9.9845,47.10926],[9.98419,47.10916],[9.98386,47.10863],[9.98319,47.1081],[9.98316,47.10793],[9.98332,47.10773]]}},{"type":"Feature","properties":{"kind":"piste","difficulty":"easy","name":null,"aerialway":null,"osm":"way/1455803351"},"geometry":{"type":"LineString","coordinates":[[9.98519,47.10957],[9.98419,47.10916]]}},{"type":"Feature","properties":{"kind":"piste","difficulty":"intermediate","name":null,"aerialway":null,"osm":"way/1455803353"},"geometry":{"type":"LineString","coordinates":[[9.99286,47.10832],[9.99456,47.10837],[9.99634,47.10783]]}},{"type":"Feature","properties":{"kind":"piste","difficulty":"intermediate","name":null,"aerialway":null,"osm":"way/1455803354"},"geometry":{"type":"LineString","coordinates":[[9.99634,47.10783],[9.99639,47.10763],[9.99607,47.10708]]}},{"type":"Feature","properties":{"kind":"piste","difficulty":"advanced","name":"Skiroute zur Talstation","aerialway":null,"osm":"way/1456075843"},"geometry":{"type":"LineString","coordinates":[[9.98613,47.10714],[9.98597,47.10703],[9.98599,47.10684],[9.98616,47.10617],[9.98646,47.10561],[9.98627,47.10485],[9.98632,47.10401],[9.98742,47.10273],[9.98812,47.10214],[9.98928,47.10196],[9.98942,47.10124],[9.98923,47.10107],[9.98728,47.10059],[9.98605,47.10107],[9.98624,47.10059],[9.98553,47.1003],[9.98384,47.10009],[9.98321,47.10016],[9.98267,47.1004],[9.98208,47.10041],[9.9806,47.09969],[9.97916,47.09969],[9.9788,47.09953],[9.9785,47.09906],[9.97842,47.0984],[9.97887,47.0983],[9.98,47.09746],[9.98041,47.09698],[9.98079,47.09685],[9.9807,47.09659],[9.98024,47.09645],[9.98066,47.09613],[9.98091,47.09574],[9.98074,47.09441]]}},{"type":"Feature","properties":{"kind":"piste","difficulty":"easy","name":null,"aerialway":null,"osm":"way/1460309614"},"geometry":{"type":"LineString","coordinates":[[10.00128,47.12192],[10.00114,47.12184]]}},{"type":"Feature","properties":{"kind":"piste","difficulty":"unknown","name":"Skiroute Sattel","aerialway":null,"osm":"relation/19915037"},"geometry":{"type":"LineString","coordinates":[[9.98575,47.10963],[9.9863,47.10995],[9.98761,47.10991],[9.98904,47.10969],[9.9897,47.10926],[9.99203,47.10892],[9.99537,47.10901],[9.99766,47.10847],[9.99613,47.10814],[9.99588,47.10795]]}},{"type":"Feature","properties":{"kind":"piste","difficulty":"easy","name":null,"aerialway":null,"osm":"relation/19915038"},"geometry":{"type":"MultiLineString","coordinates":[[[9.98284,47.10804],[9.98321,47.10784]],[[9.98463,47.1094],[9.98395,47.10939],[9.98227,47.10877],[9.98166,47.10869],[9.98284,47.10804]]]}},{"type":"Feature","properties":{"kind":"lift","difficulty":null,"name":"Kristberglift","aerialway":"t-bar","osm":"way/23371629"},"geometry":{"type":"LineString","coordinates":[[9.98332,47.10773],[9.98528,47.10952]]}},{"type":"Feature","properties":{"kind":"lift","difficulty":null,"name":"Sattellift","aerialway":"t-bar","osm":"way/23371630"},"geometry":{"type":"LineString","coordinates":[[9.98497,47.10895],[9.99349,47.10821]]}},{"type":"Feature","properties":{"kind":"lift","difficulty":null,"name":"Paludalift","aerialway":"t-bar","osm":"way/225792621"},"geometry":{"type":"LineString","coordinates":[[10.00114,47.12184],[10.0015,47.11502]]}},{"type":"Feature","properties":{"kind":"lift","difficulty":null,"name":"Kristbergbahn","aerialway":"gondola","osm":"way/364555677"},"geometry":{"type":"LineString","coordinates":[[9.9806,47.09451],[9.98689,47.10701]]}},{"type":"Feature","properties":{"kind":"piste","difficulty":"easy","name":"Skiroute R1e","aerialway":null,"osm":"way/100007388"},"geometry":{"type":"LineString","coordinates":[[9.94034,47.08341],[9.94119,47.08348],[9.94155,47.08364],[9.94218,47.08427],[9.94297,47.08467],[9.94307,47.08491],[9.9439,47.08531],[9.94423,47.08567],[9.9455,47.0861],[9.94595,47.08656],[9.94656,47.0868],[9.94745,47.08761],[9.94835,47.08808],[9.94888,47.08865],[9.94976,47.08909],[9.95086,47.08944],[9.95116,47.08967],[9.95196,47.08972],[9.95235,47.09031],[9.95286,47.09033],[9.95332,47.09018],[9.954,47.09032],[9.95468,47.09014],[9.95557,47.09037],[9.9568,47.08955],[9.95736,47.08939],[9.95715,47.09015],[9.95738,47.09044],[9.95758,47.09121],[9.957,47.09215],[9.95703,47.09243],[9.95719,47.09255],[9.95834,47.0928],[9.95994,47.0929],[9.9605,47.09282],[9.96063,47.09287],[9.96083,47.09347],[9.96119,47.09351],[9.96144,47.09336],[9.96139,47.09352],[9.96157,47.09369],[9.96231,47.09372],[9.96367,47.09433],[9.96373,47.09442],[9.9635,47.09476],[9.96361,47.09487],[9.9657,47.09469],[9.96631,47.09479],[9.96675,47.09516],[9.96693,47.09513]]}},{"type":"Feature","properties":{"kind":"piste","difficulty":"easy","name":"9","aerialway":null,"osm":"way/206377127"},"geometry":{"type":"LineString","coordinates":[[9.96661,47.07762],[9.96718,47.07776],[9.96793,47.07833],[9.96898,47.07851],[9.96967,47.0797],[9.97105,47.08039],[9.9693,47.08033],[9.96892,47.08],[9.96723,47.07978]]}},{"type":"Feature","properties":{"kind":"piste","difficulty":"easy","name":null,"aerialway":null,"osm":"way/478299234"},"geometry":{"type":"LineString","coordinates":[[9.9707,47.08045],[9.9706,47.08035]]}},{"type":"Feature","properties":{"kind":"lift","difficulty":null,"name":"Kapell Bahn","aerialway":"chair_lift","osm":"way/50300878"},"geometry":{"type":"LineString","coordinates":[[9.96693,47.09513],[9.9707,47.08045]]}}]}