{"type":"FeatureCollection","features":[{"type":"Feature","properties":{"kind":"piste","difficulty":"easy","name":"Prantnerabfahrt","aerialway":null,"osm":"way/23612231"},"geometry":{"type":"LineString","coordinates":[[11.18176,47.24217],[11.18543,47.24088],[11.18993,47.24116],[11.19118,47.24075],[11.19192,47.24097],[11.19251,47.24097],[11.19321,47.24042],[11.19374,47.24038],[11.19466,47.2406],[11.19499,47.24099],[11.19553,47.24108],[11.20069,47.2405]]}},{"type":"Feature","properties":{"kind":"lift","difficulty":null,"name":"Peter Anich I","aerialway":"gondola","osm":"way/26698910"},"geometry":{"type":"LineString","coordinates":[[11.23749,47.24571],[11.22142,47.23827]]}},{"type":"Feature","properties":{"kind":"lift","difficulty":null,"name":"Peter Anich II","aerialway":"gondola","osm":"way/26698926"},"geometry":{"type":"LineString","coordinates":[[11.22104,47.23825],[11.19985,47.24023]]}},{"type":"Feature","properties":{"kind":"lift","difficulty":null,"name":"Peter Anich III","aerialway":"mixed_lift","osm":"way/26698984"},"geometry":{"type":"LineString","coordinates":[[11.19927,47.24042],[11.18248,47.24233]]}},{"type":"Feature","properties":{"kind":"lift","difficulty":null,"name":"Egghoflift","aerialway":"platter","osm":"way/26699024"},"geometry":{"type":"LineString","coordinates":[[11.22756,47.23947],[11.21865,47.23884]]}},{"type":"Feature","properties":{"kind":"piste","difficulty":"intermediate","name":"Egghof – Umfahrung Talstation","aerialway":null,"osm":"way/576920078"},"geometry":{"type":"LineString","coordinates":[[11.22723,47.23913],[11.23332,47.23921],[11.23351,47.23952],[11.23353,47.23987],[11.23338,47.24022]]}},{"type":"Feature","properties":{"kind":"piste","difficulty":"intermediate","name":"Egghofpiste","aerialway":null,"osm":"way/576920079"},"geometry":{"type":"LineString","coordinates":[[11.2189,47.23886],[11.21904,47.2387],[11.22113,47.23876],[11.22723,47.23913],[11.22756,47.23947]]}},{"type":"Feature","properties":{"kind":"piste","difficulty":"advanced","name":"Egghof – Steilhang – Talstation","aerialway":null,"osm":"way/576920080"},"geometry":{"type":"LineString","coordinates":[[11.23156,47.23923],[11.23224,47.2397],[11.23326,47.24012],[11.23399,47.24096],[11.23491,47.2415],[11.2354,47.24199],[11.23789,47.24553]]}},{"type":"Feature","properties":{"kind":"piste","difficulty":"intermediate","name":"Panoramabfahrt","aerialway":null,"osm":"way/576920081"},"geometry":{"type":"LineString","coordinates":[[11.18248,47.24233],[11.18208,47.24217],[11.19553,47.24108]]}},{"type":"Feature","properties":{"kind":"piste","difficulty":"intermediate","name":"Piste 3 – Rangger Köpfl Abfahrt","aerialway":null,"osm":"way/576920082"},"geometry":{"type":"LineString","coordinates":[[11.18248,47.24233],[11.18206,47.24252],[11.18606,47.24278],[11.18693,47.24253],[11.19201,47.24197],[11.19246,47.24137]]}},{"type":"Feature","properties":{"kind":"lift","difficulty":null,"name":"Übungslift","aerialway":"drag_lift","osm":"way/576920206"},"geometry":{"type":"LineString","coordinates":[[11.22093,47.23798],[11.21955,47.23817]]}},{"type":"Feature","properties":{"kind":"piste","difficulty":"easy","name":null,"aerialway":null,"osm":"way/1060271261"},"geometry":{"type":"LineString","coordinates":[[11.22131,47.23822],[11.22134,47.23842],[11.22202,47.23879]]}},{"type":"Feature","properties":{"kind":"piste","difficulty":"easy","name":"Sulzstichpiste","aerialway":null,"osm":"way/1060271263"},"geometry":{"type":"LineString","coordinates":[[11.19985,47.24023],[11.19971,47.24025],[11.19974,47.24037],[11.20069,47.2405],[11.20599,47.23951],[11.21061,47.23948],[11.22074,47.23842],[11.22131,47.23822]]}},{"type":"Feature","properties":{"kind":"piste","difficulty":"novice","name":"Übungspiste","aerialway":null,"osm":"way/1347690688"},"geometry":{"type":"LineString","coordinates":[[11.21956,47.23826],[11.22113,47.23801],[11.22128,47.23822]]}},{"type":"Feature","properties":{"kind":"piste","difficulty":"easy","name":"Prantnerabfahrt","aerialway":null,"osm":"way/1352135790"},"geometry":{"type":"LineString","coordinates":[[11.18248,47.24233],[11.18176,47.24217]]}},{"type":"Feature","properties":{"kind":"piste","difficulty":"advanced","name":"Egghof – Steilhang – Talstation","aerialway":null,"osm":"way/1409254896"},"geometry":{"type":"LineString","coordinates":[[11.23789,47.24553],[11.23762,47.24565],[11.23762,47.24577],[11.23749,47.24571]]}}]}