{"type":"FeatureCollection","features":[{"type":"Feature","properties":{"kind":"piste","difficulty":"advanced","name":"Ostabfahrt","aerialway":null,"osm":"way/100703762"},"geometry":{"type":"LineString","coordinates":[[13.09625,47.38022],[13.09711,47.3804],[13.09792,47.37962],[13.09862,47.37948],[13.10033,47.38015],[13.10213,47.37865],[13.1028,47.37785],[13.10332,47.37745],[13.10354,47.37692],[13.10376,47.37676],[13.10429,47.37681],[13.10587,47.37729],[13.10648,47.37799],[13.10662,47.37841],[13.10641,47.37905],[13.10657,47.37922],[13.10885,47.38006]]}},{"type":"Feature","properties":{"kind":"piste","difficulty":"easy","name":"Familienabfahrt","aerialway":null,"osm":"way/144068783"},"geometry":{"type":"LineString","coordinates":[[13.07406,47.38578],[13.0737,47.38781],[13.07377,47.38803],[13.07415,47.38829],[13.07538,47.38828],[13.07782,47.38856],[13.079,47.38848],[13.08036,47.38899],[13.08296,47.38886],[13.08494,47.38901],[13.08831,47.38886],[13.08933,47.38861],[13.09122,47.38848],[13.09214,47.38821],[13.09286,47.3879],[13.09347,47.38745],[13.09417,47.38726],[13.09594,47.3874],[13.09722,47.38706],[13.09857,47.38705],[13.10021,47.38647],[13.102,47.38549]]}},{"type":"Feature","properties":{"kind":"piste","difficulty":"easy","name":"Skiweg ins Zentrum","aerialway":null,"osm":"way/642546121"},"geometry":{"type":"LineString","coordinates":[[13.10918,47.37966],[13.10982,47.37909],[13.11038,47.37892],[13.11091,47.37895],[13.1111,47.37914],[13.11185,47.37904],[13.11219,47.37924],[13.11264,47.37926],[13.11425,47.37799],[13.11547,47.37755],[13.11567,47.37729],[13.11665,47.37715],[13.11859,47.37724],[13.11962,47.37749],[13.12126,47.37736],[13.12193,47.37719],[13.1239,47.37716],[13.12428,47.37704],[13.12516,47.37645],[13.12725,47.37582],[13.12986,47.3756]]}},{"type":"Feature","properties":{"kind":"piste","difficulty":"easy","name":"Familienabfahrt","aerialway":null,"osm":"way/774530716"},"geometry":{"type":"LineString","coordinates":[[13.102,47.38549],[13.10269,47.38458],[13.10318,47.3834],[13.10386,47.38292]]}},{"type":"Feature","properties":{"kind":"piste","difficulty":"easy","name":"Familienabfahrt","aerialway":null,"osm":"way/1283281946"},"geometry":{"type":"LineString","coordinates":[[13.10703,47.38106],[13.10885,47.38006],[13.10908,47.37991],[13.10918,47.37966]]}},{"type":"Feature","properties":{"kind":"piste","difficulty":"easy","name":"Familienabfahrt","aerialway":null,"osm":"way/1283281947"},"geometry":{"type":"LineString","coordinates":[[13.10386,47.38292],[13.10563,47.38206],[13.10608,47.38164],[13.10703,47.38106]]}},{"type":"Feature","properties":{"kind":"lift","difficulty":null,"name":"Karbachalm","aerialway":"gondola","osm":"way/31990725"},"geometry":{"type":"LineString","coordinates":[[13.10918,47.37966],[13.08625,47.37582]]}},{"type":"Feature","properties":{"kind":"lift","difficulty":null,"name":"Griesfeldlift","aerialway":"t-bar","osm":"way/47896911"},"geometry":{"type":"LineString","coordinates":[[13.12025,47.40408],[13.12286,47.40809]]}},{"type":"Feature","properties":{"kind":"piste","difficulty":"easy","name":"Grießfeld","aerialway":null,"osm":"way/47897335"},"geometry":{"type":"LineString","coordinates":[[13.12286,47.40809],[13.123,47.40761],[13.12231,47.40626],[13.12147,47.40498],[13.12087,47.40434],[13.12051,47.40402],[13.12025,47.40408]]}},{"type":"Feature","properties":{"kind":"lift","difficulty":null,"name":"Arthurhauslift","aerialway":"platter","osm":"way/47897409"},"geometry":{"type":"LineString","coordinates":[[13.13157,47.4105],[13.13446,47.40833]]}},{"type":"Feature","properties":{"kind":"piste","difficulty":"easy","name":"Abahrt Arthurhaus","aerialway":null,"osm":"way/47897453"},"geometry":{"type":"LineString","coordinates":[[13.1342,47.40852],[13.13333,47.40863],[13.13182,47.40977],[13.13134,47.41037],[13.1315,47.41049],[13.13166,47.41043]]}},{"type":"Feature","properties":{"kind":"piste","difficulty":"easy","name":"Skiweg Richtung Roßwieslift","aerialway":null,"osm":"way/47898866"},"geometry":{"type":"LineString","coordinates":[[13.12869,47.40913],[13.12768,47.40843],[13.12739,47.40784],[13.12705,47.40751]]}},{"type":"Feature","properties":{"kind":"lift","difficulty":null,"name":"Roßwieslift","aerialway":"t-bar","osm":"way/47898900"},"geometry":{"type":"LineString","coordinates":[[13.12729,47.40758],[13.13725,47.40139]]}},{"type":"Feature","properties":{"kind":"piste","difficulty":"intermediate","name":"Hochkeilpiste","aerialway":null,"osm":"way/47899049"},"geometry":{"type":"LineString","coordinates":[[13.13425,47.40472],[13.13386,47.40503],[13.13373,47.40578],[13.13386,47.40671],[13.13385,47.40804],[13.13333,47.40863]]}},{"type":"Feature","properties":{"kind":"lift","difficulty":null,"name":"Saukarlift","aerialway":"t-bar","osm":"way/77425022"},"geometry":{"type":"LineString","coordinates":[[13.11677,47.40007],[13.13219,47.40014]]}},{"type":"Feature","properties":{"kind":"piste","difficulty":"advanced","name":"Roßwies Alternative","aerialway":null,"osm":"way/143583244"},"geometry":{"type":"LineString","coordinates":[[13.13132,47.40013],[13.13143,47.40119],[13.13135,47.40201],[13.131,47.40231],[13.13083,47.40265],[13.13149,47.40338],[13.13066,47.40417],[13.12889,47.40486],[13.12877,47.40521],[13.12781,47.40608],[13.12688,47.40668],[13.12691,47.40692]]}},{"type":"Feature","properties":{"kind":"piste","difficulty":"intermediate","name":"Saukarabfahrt","aerialway":null,"osm":"way/143583246"},"geometry":{"type":"LineString","coordinates":[[13.13055,47.39942],[13.13009,47.39933],[13.12952,47.39887],[13.1295,47.39827],[13.12887,47.39754],[13.1268,47.39677],[13.12527,47.39664],[13.12337,47.39618],[13.12244,47.39634],[13.12083,47.39752],[13.11781,47.3988],[13.11685,47.39953],[13.11677,47.40007]]}},{"type":"Feature","properties":{"kind":"piste","difficulty":"intermediate","name":null,"aerialway":null,"osm":"way/143583251"},"geometry":{"type":"LineString","coordinates":[[13.13132,47.40013],[13.13141,47.39988],[13.13119,47.39958],[13.13055,47.39942]]}},{"type":"Feature","properties":{"kind":"piste","difficulty":"easy","name":"Knappensteig","aerialway":null,"osm":"way/152504732"},"geometry":{"type":"LineString","coordinates":[[13.17421,47.40762],[13.17752,47.40776],[13.17831,47.40808],[13.17908,47.40811],[13.17976,47.40793],[13.18126,47.40781],[13.18378,47.40659]]}},{"type":"Feature","properties":{"kind":"piste","difficulty":"easy","name":"Knappensteig","aerialway":null,"osm":"way/152504743"},"geometry":{"type":"LineString","coordinates":[[13.18738,47.40565],[13.18857,47.40448],[13.18885,47.40382],[13.18903,47.40381]]}},{"type":"Feature","properties":{"kind":"piste","difficulty":"easy","name":"Knappensteig","aerialway":null,"osm":"way/152511033"},"geometry":{"type":"LineString","coordinates":[[13.16092,47.4109],[13.16259,47.41103],[13.16315,47.41095],[13.16359,47.41035],[13.16476,47.40964],[13.16556,47.40939],[13.16588,47.40892],[13.1695,47.40885],[13.17049,47.40855],[13.17078,47.40828],[13.17244,47.40749],[13.17421,47.40762]]}},{"type":"Feature","properties":{"kind":"piste","difficulty":"easy","name":"Mühlenweg","aerialway":null,"osm":"way/153975901"},"geometry":{"type":"LineString","coordinates":[[13.20539,47.41016],[13.20659,47.40992]]}},{"type":"Feature","properties":{"kind":"piste","difficulty":"easy","name":null,"aerialway":null,"osm":"way/155173750"},"geometry":{"type":"LineString","coordinates":[[13.12705,47.40751],[13.12699,47.40742],[13.12712,47.40733],[13.12738,47.40752]]}},{"type":"Feature","properties":{"kind":"piste","difficulty":"advanced","name":null,"aerialway":null,"osm":"way/155173753"},"geometry":{"type":"LineString","coordinates":[[13.12691,47.40692],[13.12728,47.40709],[13.12712,47.40733]]}},{"type":"Feature","properties":{"kind":"piste","difficulty":"easy","name":null,"aerialway":null,"osm":"way/397708000"},"geometry":{"type":"LineString","coordinates":[[13.13421,47.40629],[13.1354,47.40668],[13.13904,47.40707],[13.13959,47.40736],[13.14245,47.40788],[13.14325,47.4084]]}},{"type":"Feature","properties":{"kind":"piste","difficulty":"easy","name":"Knappensteig","aerialway":null,"osm":"way/397708214"},"geometry":{"type":"LineString","coordinates":[[13.14646,47.40808],[13.14535,47.40851],[13.14544,47.40866],[13.14782,47.40862],[13.15102,47.40926],[13.15377,47.40944],[13.15456,47.40892],[13.155,47.40893],[13.15668,47.41],[13.15798,47.41029],[13.15888,47.41006],[13.15973,47.41029],[13.16033,47.4107],[13.16092,47.4109]]}},{"type":"Feature","properties":{"kind":"piste","difficulty":"easy","name":null,"aerialway":null,"osm":"way/397711021"},"geometry":{"type":"LineString","coordinates":[[13.19271,47.40561],[13.19343,47.40556],[13.19425,47.40584],[13.19497,47.40624],[13.19471,47.40685],[13.19475,47.407],[13.19612,47.40704],[13.19661,47.40719],[13.19989,47.40919],[13.20324,47.40974],[13.20446,47.41012],[13.20539,47.41016]]}},{"type":"Feature","properties":{"kind":"piste","difficulty":"easy","name":"Skiweg Richtung Griesfeldlift","aerialway":null,"osm":"way/430635913"},"geometry":{"type":"LineString","coordinates":[[13.13148,47.41017],[13.13058,47.41058],[13.12768,47.41045],[13.12702,47.41018],[13.12568,47.40991],[13.12357,47.40856],[13.12334,47.4082],[13.12286,47.40809]]}},{"type":"Feature","properties":{"kind":"piste","difficulty":"easy","name":"Übungswiese Mahdlift","aerialway":null,"osm":"way/449366961"},"geometry":{"type":"LineString","coordinates":[[13.13058,47.41181],[13.13039,47.41165],[13.13048,47.41132],[13.13134,47.41053],[13.1315,47.41068]]}},{"type":"Feature","properties":{"kind":"lift","difficulty":null,"name":"Mahdlift","aerialway":"rope_tow","osm":"way/449366962"},"geometry":{"type":"LineString","coordinates":[[13.1315,47.41068],[13.13058,47.41181]]}},{"type":"Feature","properties":{"kind":"piste","difficulty":"intermediate","name":"Roßwiesabfahrt","aerialway":null,"osm":"way/453784368"},"geometry":{"type":"LineString","coordinates":[[13.13687,47.40163],[13.13575,47.40164],[13.13435,47.40133],[13.1334,47.4002],[13.13163,47.39939],[13.13055,47.39942]]}},{"type":"Feature","properties":{"kind":"piste","difficulty":"advanced","name":"Roßwies Alternative","aerialway":null,"osm":"way/552087333"},"geometry":{"type":"LineString","coordinates":[[13.13435,47.40133],[13.13275,47.40134],[13.13135,47.40201]]}},{"type":"Feature","properties":{"kind":"piste","difficulty":"intermediate","name":"Hochkeilpiste","aerialway":null,"osm":"way/552087334"},"geometry":{"type":"LineString","coordinates":[[13.13382,47.40807],[13.13296,47.40834],[13.13241,47.40867],[13.13205,47.40914],[13.13182,47.40977]]}},{"type":"Feature","properties":{"kind":"piste","difficulty":"easy","name":"Skiweg Richtung Griesfeldlift","aerialway":null,"osm":"way/552087335"},"geometry":{"type":"LineString","coordinates":[[13.13148,47.41017],[13.13003,47.40997],[13.12869,47.40913]]}},{"type":"Feature","properties":{"kind":"piste","difficulty":"intermediate","name":"Hochkeilpiste","aerialway":null,"osm":"way/552087342"},"geometry":{"type":"LineString","coordinates":[[13.13421,47.40629],[13.13409,47.4069],[13.13388,47.40719]]}},{"type":"Feature","properties":{"kind":"piste","difficulty":"intermediate","name":"Hochkeilpiste","aerialway":null,"osm":"way/552087343"},"geometry":{"type":"LineString","coordinates":[[13.13687,47.40163],[13.13673,47.40209],[13.13611,47.40247],[13.13585,47.40317],[13.13425,47.40472]]}},{"type":"Feature","properties":{"kind":"piste","difficulty":"easy","name":null,"aerialway":null,"osm":"way/552087367"},"geometry":{"type":"LineString","coordinates":[[13.14396,47.40848],[13.14484,47.40806],[13.14646,47.40808]]}},{"type":"Feature","properties":{"kind":"piste","difficulty":"intermediate","name":"Hochkeilpiste","aerialway":null,"osm":"way/552087371"},"geometry":{"type":"LineString","coordinates":[[13.13425,47.40472],[13.13421,47.40629]]}},{"type":"Feature","properties":{"kind":"piste","difficulty":"easy","name":null,"aerialway":null,"osm":"way/552087374"},"geometry":{"type":"LineString","coordinates":[[13.18955,47.40471],[13.19015,47.40592],[13.1905,47.4061],[13.19158,47.40602],[13.19271,47.40561]]}},{"type":"Feature","properties":{"kind":"piste","difficulty":"easy","name":null,"aerialway":null,"osm":"way/552087375"},"geometry":{"type":"LineString","coordinates":[[13.18903,47.40381],[13.18955,47.40471]]}},{"type":"Feature","properties":{"kind":"piste","difficulty":"easy","name":"Knappensteig","aerialway":null,"osm":"way/552087376"},"geometry":{"type":"LineString","coordinates":[[13.18378,47.40659],[13.1845,47.40629],[13.18738,47.40565]]}},{"type":"Feature","properties":{"kind":"piste","difficulty":"easy","name":null,"aerialway":null,"osm":"way/642546989"},"geometry":{"type":"LineString","coordinates":[[13.12051,47.40402],[13.1192,47.4033],[13.11909,47.40279],[13.11828,47.40234],[13.11675,47.40026],[13.11677,47.40007]]}},{"type":"Feature","properties":{"kind":"piste","difficulty":"intermediate","name":"Skiroute Knappensteig","aerialway":null,"osm":"way/737467013"},"geometry":{"type":"LineString","coordinates":[[13.13421,47.40629],[13.13509,47.40672],[13.13817,47.40701],[13.13896,47.40713],[13.1395,47.40744],[13.14029,47.40743],[13.14239,47.40782],[13.1427,47.40814],[13.14372,47.40848],[13.14404,47.4085],[13.14472,47.40813],[13.14639,47.40811],[13.14529,47.40852],[13.14526,47.40864],[13.14551,47.40872],[13.14767,47.40865],[13.14896,47.40895],[13.14999,47.40903],[13.15095,47.40932],[13.1532,47.40948],[13.154,47.4094],[13.15446,47.40895],[13.15463,47.40893],[13.15661,47.41006],[13.15777,47.41029],[13.15869,47.41013],[13.15963,47.41036],[13.161,47.41095],[13.16278,47.41106],[13.16318,47.41101],[13.16377,47.41029],[13.16438,47.41001],[13.16465,47.40974],[13.16564,47.40945],[13.16579,47.40897],[13.16962,47.40887],[13.17053,47.4086],[13.17068,47.40835],[13.17242,47.40756],[13.17737,47.40783],[13.17819,47.40815],[13.17869,47.40818],[13.17977,47.40798],[13.18078,47.40795],[13.18138,47.40778],[13.18358,47.40666],[13.1845,47.40634],[13.18739,47.40567],[13.18874,47.40451],[13.18903,47.40381],[13.19002,47.40539],[13.1902,47.40587],[13.19048,47.40602],[13.19083,47.40609],[13.19307,47.40548],[13.19411,47.40586],[13.19504,47.40638],[13.19486,47.40698],[13.19632,47.40703],[13.19721,47.40746],[13.19964,47.40915],[13.2046,47.41009],[13.20759,47.4098],[13.20805,47.41017],[13.20813,47.41039],[13.20811,47.41062],[13.20766,47.41116],[13.20829,47.41165],[13.20951,47.41214],[13.21048,47.41207],[13.21269,47.41218],[13.21425,47.41337],[13.21535,47.41334]]}}]}