{"type":"FeatureCollection","features":[{"type":"Feature","properties":{"kind":"piste","difficulty":"advanced","name":"Roteckpiste","aerialway":null,"osm":"way/302138937"},"geometry":{"type":"LineString","coordinates":[[10.51744,47.11905],[10.51759,47.11911],[10.51741,47.11967],[10.51727,47.12188],[10.51634,47.12309],[10.51614,47.12312]]}},{"type":"Feature","properties":{"kind":"piste","difficulty":"intermediate","name":"Neuraut","aerialway":null,"osm":"way/528293951"},"geometry":{"type":"LineString","coordinates":[[10.51744,47.11905],[10.51771,47.11916],[10.51756,47.11974],[10.51854,47.12055],[10.51893,47.12075],[10.51958,47.12086],[10.52068,47.12177],[10.51961,47.12315],[10.51614,47.12312]]}},{"type":"Feature","properties":{"kind":"piste","difficulty":"easy","name":"Familienabfahrt","aerialway":null,"osm":"way/528293999"},"geometry":{"type":"LineString","coordinates":[[10.51744,47.11905],[10.51161,47.11834],[10.51106,47.11869],[10.51144,47.1197],[10.51281,47.12071],[10.51375,47.12086],[10.51453,47.12147],[10.51675,47.12209],[10.51631,47.12305],[10.51614,47.12312]]}},{"type":"Feature","properties":{"kind":"lift","difficulty":null,"name":"Rotecklift","aerialway":"t-bar","osm":"way/254962139"},"geometry":{"type":"LineString","coordinates":[[10.51614,47.12312],[10.51744,47.11905]]}}]}