{"type":"FeatureCollection","features":[{"type":"Feature","properties":{"kind":"lift","difficulty":null,"name":"Weissensee Bergbahn","aerialway":"chair_lift","osm":"way/37036711"},"geometry":{"type":"LineString","coordinates":[[13.29514,46.70928],[13.30667,46.70112]]}},{"type":"Feature","properties":{"kind":"piste","difficulty":"easy","name":"Familienabfahrt","aerialway":null,"osm":"way/143311434"},"geometry":{"type":"LineString","coordinates":[[13.3068,46.70109],[13.30674,46.70148],[13.30521,46.70218],[13.30471,46.70315],[13.30447,46.70329],[13.30377,46.70338],[13.30345,46.70328],[13.30353,46.70244],[13.30229,46.70247],[13.30105,46.70312],[13.30028,46.70392],[13.29986,46.70558],[13.29946,46.70578],[13.29903,46.70568],[13.29878,46.70523],[13.29878,46.70482],[13.29837,46.70463],[13.29661,46.70536],[13.29543,46.70563],[13.29522,46.70599],[13.29518,46.70636],[13.29543,46.70752],[13.2953,46.70819],[13.29511,46.70857],[13.29441,46.70924],[13.29443,46.7094],[13.29492,46.70941]]}},{"type":"Feature","properties":{"kind":"lift","difficulty":null,"name":"Verbindungslift Naggler Alm","aerialway":"platter","osm":"way/143311441"},"geometry":{"type":"LineString","coordinates":[[13.31071,46.7001],[13.31003,46.69939]]}},{"type":"Feature","properties":{"kind":"lift","difficulty":null,"name":"Seewiese","aerialway":"platter","osm":"way/143312157"},"geometry":{"type":"LineString","coordinates":[[13.28501,46.7136],[13.28406,46.71109]]}},{"type":"Feature","properties":{"kind":"piste","difficulty":"novice","name":null,"aerialway":null,"osm":"way/143312165"},"geometry":{"type":"LineString","coordinates":[[13.28439,46.7111],[13.28519,46.71341],[13.28543,46.71332],[13.28452,46.71105],[13.28439,46.7111]]}},{"type":"Feature","properties":{"kind":"piste","difficulty":"novice","name":null,"aerialway":null,"osm":"way/143312168"},"geometry":{"type":"LineString","coordinates":[[13.28346,46.71134],[13.2841,46.71358],[13.28464,46.7135],[13.2838,46.71119],[13.28346,46.71134]]}},{"type":"Feature","properties":{"kind":"piste","difficulty":"easy","name":null,"aerialway":null,"osm":"way/143318030"},"geometry":{"type":"LineString","coordinates":[[13.3068,46.70109],[13.3074,46.7008],[13.3082,46.70074],[13.30931,46.70019],[13.31069,46.70008]]}},{"type":"Feature","properties":{"kind":"piste","difficulty":"easy","name":null,"aerialway":null,"osm":"way/143318034"},"geometry":{"type":"LineString","coordinates":[[13.31003,46.69939],[13.31163,46.69931],[13.31236,46.69888],[13.31295,46.69871],[13.31244,46.69953],[13.31063,46.70014]]}},{"type":"Feature","properties":{"kind":"piste","difficulty":"easy","name":null,"aerialway":null,"osm":"way/143318036"},"geometry":{"type":"LineString","coordinates":[[13.31003,46.69939],[13.3091,46.69929],[13.30759,46.69953],[13.30678,46.69993],[13.30646,46.70038],[13.30524,46.70067]]}},{"type":"Feature","properties":{"kind":"lift","difficulty":null,"name":"Schulernöckl","aerialway":"t-bar","osm":"way/233621484"},"geometry":{"type":"LineString","coordinates":[[13.30031,46.70343],[13.30502,46.69939]]}},{"type":"Feature","properties":{"kind":"lift","difficulty":null,"name":"Sonnenlift Naggler Alm","aerialway":"platter","osm":"way/233621486"},"geometry":{"type":"LineString","coordinates":[[13.3142,46.69903],[13.31568,46.69672]]}},{"type":"Feature","properties":{"kind":"piste","difficulty":"easy","name":null,"aerialway":null,"osm":"way/599043759"},"geometry":{"type":"LineString","coordinates":[[13.31471,46.69709],[13.31443,46.69783],[13.3142,46.69903]]}},{"type":"Feature","properties":{"kind":"piste","difficulty":"intermediate","name":"Nöckl","aerialway":null,"osm":"way/1248940994"},"geometry":{"type":"LineString","coordinates":[[13.30474,46.69969],[13.30506,46.69958],[13.30542,46.69963],[13.3055,46.70025],[13.30494,46.70103],[13.30394,46.70192]]}},{"type":"Feature","properties":{"kind":"piste","difficulty":"freeride","name":null,"aerialway":null,"osm":"way/1480678529"},"geometry":{"type":"LineString","coordinates":[[13.3156,46.69688],[13.31588,46.69706],[13.31564,46.69854],[13.31526,46.69883],[13.31455,46.6989],[13.31431,46.69914],[13.3141,46.69914],[13.31419,46.69902]]}},{"type":"Feature","properties":{"kind":"piste","difficulty":"advanced","name":"Steilhang","aerialway":null,"osm":"way/1480678530"},"geometry":{"type":"LineString","coordinates":[[13.29889,46.70551],[13.29831,46.70585],[13.29751,46.70702],[13.29728,46.70797],[13.29673,46.70901],[13.29505,46.70949],[13.29492,46.70941]]}},{"type":"Feature","properties":{"kind":"piste","difficulty":"intermediate","name":"FIS Abfahrt","aerialway":null,"osm":"way/1480678531"},"geometry":{"type":"LineString","coordinates":[[13.30677,46.70142],[13.30394,46.70192],[13.30229,46.70247]]}},{"type":"Feature","properties":{"kind":"piste","difficulty":"easy","name":null,"aerialway":null,"osm":"way/1481409130"},"geometry":{"type":"LineString","coordinates":[[13.31532,46.69694],[13.31424,46.69726],[13.31368,46.69784],[13.31324,46.69808],[13.31295,46.69871],[13.31347,46.69877],[13.31386,46.69914],[13.31419,46.69902]]}},{"type":"Feature","properties":{"kind":"piste","difficulty":"advanced","name":null,"aerialway":null,"osm":"way/1481409131"},"geometry":{"type":"LineString","coordinates":[[13.29821,46.70694],[13.29891,46.7061],[13.29936,46.70581],[13.29899,46.70571],[13.29861,46.70582],[13.29835,46.70606],[13.29822,46.7063],[13.29821,46.70694]]}},{"type":"Feature","properties":{"kind":"piste","difficulty":"advanced","name":null,"aerialway":null,"osm":"way/1481409132"},"geometry":{"type":"LineString","coordinates":[[13.29861,46.70582],[13.29899,46.70571],[13.29872,46.70533],[13.29855,46.70542],[13.29807,46.7059],[13.29778,46.70647],[13.29665,46.70752],[13.29658,46.70812],[13.29682,46.70843],[13.29679,46.70871],[13.29731,46.70859],[13.2975,46.70834],[13.29821,46.70694],[13.29822,46.7063],[13.29861,46.70582]]}},{"type":"Feature","properties":{"kind":"piste","difficulty":"easy","name":null,"aerialway":null,"osm":"way/1481409133"},"geometry":{"type":"LineString","coordinates":[[13.30666,46.70139],[13.30683,46.7012],[13.30696,46.70122],[13.30659,46.70171],[13.30532,46.70223],[13.30511,46.70247],[13.30484,46.70321],[13.30399,46.70343],[13.30348,46.70336],[13.30336,46.70321],[13.30354,46.7025],[13.3033,46.70247],[13.30095,46.70348],[13.30076,46.70365],[13.30047,46.70452],[13.29985,46.70574],[13.29956,46.70582],[13.29899,46.70571],[13.29879,46.70554],[13.29873,46.70498],[13.29848,46.70469],[13.29656,46.70551],[13.29562,46.70567],[13.29546,46.70611],[13.29567,46.70758],[13.29553,46.70806],[13.29515,46.70884],[13.29451,46.70922],[13.29443,46.70947],[13.29432,46.70939],[13.29439,46.70905],[13.29468,46.7088],[13.29524,46.70768],[13.29502,46.70684],[13.29502,46.70626],[13.29529,46.70562],[13.29846,46.70458],[13.29879,46.70471],[13.29899,46.70553],[13.29956,46.70564],[13.29978,46.70527],[13.29987,46.70414],[13.30003,46.70379],[13.30101,46.70303],[13.30217,46.70235],[13.30354,46.70236],[13.3037,46.70253],[13.30353,46.70325],[13.30372,46.70336],[13.30445,46.70319],[13.30524,46.70203],[13.30666,46.70139]]}},{"type":"Feature","properties":{"kind":"piste","difficulty":"intermediate","name":null,"aerialway":null,"osm":"way/1481409134"},"geometry":{"type":"LineString","coordinates":[[13.3035,46.7018],[13.30498,46.70075],[13.30539,46.70027],[13.30545,46.69996],[13.30485,46.6996],[13.30502,46.69944],[13.30537,46.69953],[13.3057,46.69979],[13.30569,46.7003],[13.30446,46.70169],[13.3035,46.7018]]}},{"type":"Feature","properties":{"kind":"piste","difficulty":"intermediate","name":null,"aerialway":null,"osm":"way/1481409135"},"geometry":{"type":"LineString","coordinates":[[13.30422,46.7021],[13.30325,46.70237],[13.30217,46.70235],[13.3035,46.7018],[13.30653,46.70146],[13.30524,46.70203],[13.30422,46.7021]]}}]}