{"type":"FeatureCollection","features":[{"type":"Feature","properties":{"kind":"piste","difficulty":"easy","name":"Schoberbahn (Almanger)","aerialway":null,"osm":"way/24271038"},"geometry":{"type":"LineString","coordinates":[[13.59387,47.35554],[13.59378,47.35573],[13.59406,47.35607],[13.5944,47.35704],[13.5978,47.35882],[13.60033,47.36091],[13.60052,47.3613],[13.60225,47.36172],[13.60358,47.36178],[13.60412,47.36143],[13.60413,47.36128],[13.60373,47.36108]]}},{"type":"Feature","properties":{"kind":"lift","difficulty":null,"name":"Silver Jet","aerialway":"gondola","osm":"way/37600517"},"geometry":{"type":"LineString","coordinates":[[13.59766,47.38847],[13.59173,47.37252]]}},{"type":"Feature","properties":{"kind":"lift","difficulty":null,"name":"Gasselhöhe II","aerialway":"chair_lift","osm":"way/37600588"},"geometry":{"type":"LineString","coordinates":[[13.59151,47.37193],[13.58948,47.35889]]}},{"type":"Feature","properties":{"kind":"lift","difficulty":null,"name":"Muldenlift II","aerialway":"t-bar","osm":"way/37600620"},"geometry":{"type":"LineString","coordinates":[[13.58992,47.37207],[13.58958,47.36266]]}},{"type":"Feature","properties":{"kind":"lift","difficulty":null,"name":"Muldenlift I","aerialway":"t-bar","osm":"way/37600634"},"geometry":{"type":"LineString","coordinates":[[13.58986,47.37207],[13.58951,47.36267]]}},{"type":"Feature","properties":{"kind":"lift","difficulty":null,"name":"Hasecklift II","aerialway":"platter","osm":"way/37600719"},"geometry":{"type":"LineString","coordinates":[[13.59204,47.37526],[13.59049,47.37251]]}},{"type":"Feature","properties":{"kind":"lift","difficulty":null,"name":"Reiteralm I","aerialway":"chair_lift","osm":"way/38537124"},"geometry":{"type":"LineString","coordinates":[[13.61243,47.38626],[13.60103,47.3733]]}},{"type":"Feature","properties":{"kind":"lift","difficulty":null,"name":"Sepp'n Jet Reiteralm II","aerialway":"chair_lift","osm":"way/38537151"},"geometry":{"type":"LineString","coordinates":[[13.6017,47.37321],[13.59541,47.35978]]}},{"type":"Feature","properties":{"kind":"piste","difficulty":"intermediate","name":"Muldenliftabfahrt","aerialway":null,"osm":"way/48000172"},"geometry":{"type":"LineString","coordinates":[[13.58959,47.36303],[13.58759,47.36357],[13.58748,47.3643],[13.58811,47.36582],[13.58817,47.36776],[13.5886,47.36888],[13.58916,47.36983],[13.58938,47.37192],[13.58954,47.37212],[13.58994,47.37224]]}},{"type":"Feature","properties":{"kind":"piste","difficulty":"advanced","name":"Gasselhöhe-Abfahrt 3a - Black Power","aerialway":null,"osm":"way/48003081"},"geometry":{"type":"LineString","coordinates":[[13.58915,47.35917],[13.58839,47.35975],[13.58624,47.36049],[13.58652,47.36076],[13.58799,47.3608],[13.58833,47.36103],[13.58759,47.36357]]}},{"type":"Feature","properties":{"kind":"piste","difficulty":"advanced","name":"Hahnl Piste - Black Rose","aerialway":null,"osm":"way/48003103"},"geometry":{"type":"LineString","coordinates":[[13.58943,47.35874],[13.58941,47.35818],[13.59151,47.35819],[13.59237,47.35844],[13.59324,47.35915]]}},{"type":"Feature","properties":{"kind":"piste","difficulty":"easy","name":"Gleiming Talabfahrt","aerialway":null,"osm":"way/48041405"},"geometry":{"type":"LineString","coordinates":[[13.59173,47.37252],[13.59154,47.37233],[13.59108,47.37244]]}},{"type":"Feature","properties":{"kind":"piste","difficulty":"advanced","name":"Rauner - Black Horse","aerialway":null,"osm":"way/48041426"},"geometry":{"type":"LineString","coordinates":[[13.60541,47.38128],[13.60571,47.38179],[13.60569,47.38228],[13.60585,47.3824],[13.60666,47.38246]]}},{"type":"Feature","properties":{"kind":"piste","difficulty":"intermediate","name":"Schnepfn-Abfahrt","aerialway":null,"osm":"way/48041431"},"geometry":{"type":"LineString","coordinates":[[13.60302,47.37672],[13.6012,47.37839],[13.60101,47.37884],[13.60103,47.37937],[13.60129,47.37979],[13.60227,47.38049],[13.60356,47.38101],[13.60425,47.38103],[13.60464,47.38119]]}},{"type":"Feature","properties":{"kind":"piste","difficulty":"intermediate","name":"Finale Grande - Talabfahrt","aerialway":null,"osm":"way/48041441"},"geometry":{"type":"LineString","coordinates":[[13.60464,47.38119],[13.60434,47.38139],[13.60228,47.38158],[13.60124,47.38193],[13.601,47.38219],[13.6008,47.38275],[13.60041,47.38481],[13.59998,47.38603],[13.59948,47.38661],[13.59831,47.38756],[13.59781,47.38841]]}},{"type":"Feature","properties":{"kind":"lift","difficulty":null,"name":"Hochwurzen 2","aerialway":"chair_lift","osm":"way/51510455"},"geometry":{"type":"LineString","coordinates":[[13.63205,47.37547],[13.63903,47.3601]]}},{"type":"Feature","properties":{"kind":"lift","difficulty":null,"name":"Hochwurzen 1","aerialway":"gondola","osm":"way/51566461"},"geometry":{"type":"LineString","coordinates":[[13.61289,47.38586],[13.63266,47.37537]]}},{"type":"Feature","properties":{"kind":"piste","difficulty":"intermediate","name":"FIS Abfahrt","aerialway":null,"osm":"way/82261474"},"geometry":{"type":"LineString","coordinates":[[13.63903,47.3601],[13.63932,47.3602],[13.63879,47.36037],[13.63802,47.36107],[13.63716,47.3622],[13.63636,47.3645],[13.63547,47.36554],[13.6352,47.36677],[13.63482,47.36713],[13.63291,47.36795],[13.6326,47.36837],[13.63262,47.3686],[13.63337,47.36941],[13.63401,47.36985],[13.63518,47.37025],[13.63757,47.372],[13.63787,47.37235],[13.63793,47.37267],[13.63783,47.3729],[13.63644,47.37411],[13.63594,47.37469],[13.63562,47.3754],[13.63353,47.37548],[13.63257,47.37572],[13.63195,47.3757],[13.63205,47.37547]]}},{"type":"Feature","properties":{"kind":"lift","difficulty":null,"name":"Preunegg Jet","aerialway":"gondola","osm":"way/90590135"},"geometry":{"type":"LineString","coordinates":[[13.61355,47.37468],[13.59595,47.35974]]}},{"type":"Feature","properties":{"kind":"piste","difficulty":"easy","name":"Skiweg Almboden","aerialway":null,"osm":"way/91236007"},"geometry":{"type":"LineString","coordinates":[[13.5917,47.36116],[13.59236,47.36133],[13.59268,47.36119],[13.59258,47.36021],[13.59274,47.35922],[13.59324,47.35915],[13.59541,47.35949]]}},{"type":"Feature","properties":{"kind":"lift","difficulty":null,"name":"Verbindungslift","aerialway":"platter","osm":"way/91254453"},"geometry":{"type":"LineString","coordinates":[[13.59402,47.37197],[13.59765,47.37267]]}},{"type":"Feature","properties":{"kind":"lift","difficulty":null,"name":"Übungslift","aerialway":"platter","osm":"way/91254456"},"geometry":{"type":"LineString","coordinates":[[13.6008,47.37316],[13.59714,47.37297]]}},{"type":"Feature","properties":{"kind":"piste","difficulty":"easy","name":"Verbindungspisten","aerialway":null,"osm":"way/91254457"},"geometry":{"type":"LineString","coordinates":[[13.59713,47.37257],[13.59722,47.37272],[13.59687,47.37269],[13.59419,47.3721],[13.59385,47.37218],[13.59411,47.37199]]}},{"type":"Feature","properties":{"kind":"piste","difficulty":"easy","name":"Verbindungspisten","aerialway":null,"osm":"way/91254459"},"geometry":{"type":"LineString","coordinates":[[13.59769,47.37299],[13.59722,47.37272],[13.59831,47.37273],[13.59941,47.37298],[13.60098,47.37307]]}},{"type":"Feature","properties":{"kind":"piste","difficulty":"easy","name":"Verbindungsabfahrt","aerialway":null,"osm":"way/91414498"},"geometry":{"type":"LineString","coordinates":[[13.6449,47.37025],[13.64419,47.37103],[13.64205,47.37254],[13.64113,47.37338],[13.63878,47.37433],[13.63706,47.37524],[13.63562,47.3754]]}},{"type":"Feature","properties":{"kind":"piste","difficulty":"intermediate","name":"FIS Abfahrt","aerialway":null,"osm":"way/91414568"},"geometry":{"type":"LineString","coordinates":[[13.63536,47.3663],[13.63589,47.36653],[13.63632,47.36648],[13.63828,47.36586],[13.63973,47.36605]]}},{"type":"Feature","properties":{"kind":"piste","difficulty":"advanced","name":"Finale Grande - Black Queen","aerialway":null,"osm":"way/91605282"},"geometry":{"type":"LineString","coordinates":[[13.60227,47.38049],[13.60186,47.38167]]}},{"type":"Feature","properties":{"kind":"piste","difficulty":"intermediate","name":"Preunegg Abfahrt","aerialway":null,"osm":"way/94172472"},"geometry":{"type":"LineString","coordinates":[[13.59931,47.36858],[13.60033,47.36926],[13.60115,47.3707],[13.60142,47.37093],[13.60253,47.37111],[13.60297,47.37102],[13.60429,47.37039],[13.60469,47.37039],[13.605,47.37054],[13.60534,47.37093],[13.60592,47.37185],[13.6063,47.37207],[13.60721,47.37228]]}},{"type":"Feature","properties":{"kind":"piste","difficulty":"intermediate","name":"Abfahrt Pichl","aerialway":null,"osm":"way/144844041"},"geometry":{"type":"LineString","coordinates":[[13.62444,47.37889],[13.62493,47.37919],[13.62501,47.37938],[13.62319,47.38001],[13.62182,47.37993],[13.6205,47.37949],[13.62034,47.37985],[13.62048,47.38031],[13.6212,47.38104],[13.62278,47.38186],[13.62496,47.38239],[13.62599,47.38229],[13.62606,47.38245],[13.62506,47.38272],[13.62116,47.38273]]}},{"type":"Feature","properties":{"kind":"piste","difficulty":"easy","name":"Verbindungsabfahrt","aerialway":null,"osm":"way/147250728"},"geometry":{"type":"LineString","coordinates":[[13.63562,47.3754],[13.6355,47.37565],[13.63557,47.37587],[13.63619,47.37621]]}},{"type":"Feature","properties":{"kind":"piste","difficulty":"easy","name":"Märchenpiste","aerialway":null,"osm":"way/196755662"},"geometry":{"type":"LineString","coordinates":[[13.59385,47.37218],[13.59332,47.37235],[13.59315,47.37286],[13.59348,47.3748],[13.59244,47.37522]]}},{"type":"Feature","properties":{"kind":"piste","difficulty":"easy","name":"Almanger","aerialway":null,"osm":"way/196755672"},"geometry":{"type":"LineString","coordinates":[[13.5944,47.35704],[13.59426,47.35733],[13.59449,47.35883],[13.59517,47.35921],[13.59541,47.35949],[13.59587,47.35939],[13.59733,47.35856]]}},{"type":"Feature","properties":{"kind":"lift","difficulty":null,"name":"Kinderland-Lift","aerialway":"magic_carpet","osm":"way/196987618"},"geometry":{"type":"LineString","coordinates":[[13.58988,47.37256],[13.58928,47.3726]]}},{"type":"Feature","properties":{"kind":"piste","difficulty":"easy","name":"Kinderland-Piste - Übungswiese","aerialway":null,"osm":"way/196987620"},"geometry":{"type":"LineString","coordinates":[[13.58928,47.3726],[13.58971,47.37247],[13.58988,47.37256]]}},{"type":"Feature","properties":{"kind":"piste","difficulty":"easy","name":null,"aerialway":null,"osm":"way/196987621"},"geometry":{"type":"LineString","coordinates":[[13.59244,47.37522],[13.59201,47.37521]]}},{"type":"Feature","properties":{"kind":"piste","difficulty":"intermediate","name":null,"aerialway":null,"osm":"way/196987634"},"geometry":{"type":"LineString","coordinates":[[13.60762,47.38262],[13.60864,47.38227],[13.60876,47.38202],[13.60912,47.38199],[13.60939,47.38218],[13.60939,47.3827],[13.60956,47.38294]]}},{"type":"Feature","properties":{"kind":"piste","difficulty":"intermediate","name":"Gleiming - Talabfahrt","aerialway":null,"osm":"way/197541351"},"geometry":{"type":"LineString","coordinates":[[13.59108,47.37244],[13.59244,47.37522],[13.59145,47.37594],[13.59133,47.37619],[13.59139,47.37725],[13.5913,47.37733],[13.59086,47.37736],[13.58953,47.37693],[13.58893,47.37736],[13.58906,47.37781],[13.59043,47.37859],[13.5906,47.37884],[13.59048,47.37896],[13.58939,47.3787],[13.58932,47.37885],[13.58976,47.37983],[13.58977,47.38087],[13.5899,47.38122],[13.59089,47.38246],[13.59135,47.38272],[13.59162,47.38308],[13.59172,47.38356],[13.59199,47.3838],[13.59341,47.38435],[13.59373,47.38461],[13.594,47.38497],[13.59403,47.38532],[13.59532,47.3865],[13.59551,47.38851],[13.59591,47.38869],[13.59791,47.38856]]}},{"type":"Feature","properties":{"kind":"piste","difficulty":"easy","name":"Haseckpiste","aerialway":null,"osm":"way/197541352"},"geometry":{"type":"LineString","coordinates":[[13.59166,47.37237],[13.59305,47.37223],[13.59272,47.3724],[13.59236,47.3729],[13.59277,47.3746],[13.59244,47.37522]]}},{"type":"Feature","properties":{"kind":"piste","difficulty":"intermediate","name":"Holzerabfahrt","aerialway":null,"osm":"way/197541355"},"geometry":{"type":"LineString","coordinates":[[13.59604,47.3593],[13.59651,47.35946],[13.59761,47.36105]]}},{"type":"Feature","properties":{"kind":"piste","difficulty":"intermediate","name":"Reiteralm Talabfahrt (Pichl)","aerialway":null,"osm":"way/197541389"},"geometry":{"type":"LineString","coordinates":[[13.60464,47.38119],[13.60541,47.38128],[13.60687,47.38101],[13.60754,47.38106],[13.60788,47.38138],[13.60686,47.38219],[13.60666,47.38246],[13.60675,47.38255],[13.60875,47.38276],[13.61036,47.38324],[13.6109,47.3839],[13.61137,47.38479],[13.61141,47.38507],[13.61081,47.38538],[13.61089,47.38562],[13.61237,47.38636],[13.61268,47.38631],[13.61275,47.38609]]}},{"type":"Feature","properties":{"kind":"piste","difficulty":"intermediate","name":"Reiteralm-Abfahrt","aerialway":null,"osm":"way/197541390"},"geometry":{"type":"LineString","coordinates":[[13.59541,47.35949],[13.59503,47.35959],[13.59499,47.36002],[13.5971,47.36403],[13.59712,47.36423],[13.59663,47.36516],[13.59662,47.36585],[13.59708,47.36628],[13.59822,47.36694],[13.59931,47.36858],[13.59934,47.36907],[13.59901,47.36971],[13.5986,47.37015],[13.59717,47.37069],[13.59702,47.37087],[13.59703,47.37114],[13.59785,47.37173],[13.59915,47.37239],[13.60098,47.37307]]}},{"type":"Feature","properties":{"kind":"piste","difficulty":"easy","name":"Skiweg Finale Grande","aerialway":null,"osm":"way/197541394"},"geometry":{"type":"LineString","coordinates":[[13.59385,47.37218],[13.59443,47.37272],[13.59441,47.37309],[13.59475,47.37362],[13.59651,47.37476],[13.59737,47.37505],[13.59837,47.37571],[13.60017,47.37621],[13.60254,47.37626]]}},{"type":"Feature","properties":{"kind":"piste","difficulty":"easy","name":"Skiweg Holzerabfahrt zu Seppn Jet Tal","aerialway":null,"osm":"way/197541395"},"geometry":{"type":"LineString","coordinates":[[13.60592,47.36637],[13.60388,47.36683],[13.60376,47.36784],[13.60391,47.36834],[13.60372,47.3689],[13.60333,47.36919],[13.60309,47.3706],[13.60357,47.37084],[13.60358,47.37119],[13.60238,47.37307],[13.60204,47.37324],[13.60156,47.37325]]}},{"type":"Feature","properties":{"kind":"piste","difficulty":"easy","name":"Skiweg Rauner","aerialway":null,"osm":"way/197541396"},"geometry":{"type":"LineString","coordinates":[[13.60687,47.38259],[13.60397,47.38333],[13.60334,47.38369],[13.60041,47.38481]]}},{"type":"Feature","properties":{"kind":"piste","difficulty":"easy","name":null,"aerialway":null,"osm":"way/197541401"},"geometry":{"type":"LineString","coordinates":[[13.58994,47.37224],[13.59205,47.37102],[13.59302,47.3712],[13.59358,47.37149],[13.59385,47.37218]]}},{"type":"Feature","properties":{"kind":"piste","difficulty":"easy","name":null,"aerialway":null,"osm":"way/197541403"},"geometry":{"type":"LineString","coordinates":[[13.59595,47.35974],[13.59541,47.35949]]}},{"type":"Feature","properties":{"kind":"piste","difficulty":"easy","name":null,"aerialway":null,"osm":"way/197541404"},"geometry":{"type":"LineString","coordinates":[[13.59541,47.35978],[13.59541,47.35949]]}},{"type":"Feature","properties":{"kind":"piste","difficulty":"easy","name":null,"aerialway":null,"osm":"way/197541407"},"geometry":{"type":"LineString","coordinates":[[13.60098,47.37307],[13.60069,47.37315]]}},{"type":"Feature","properties":{"kind":"piste","difficulty":"easy","name":null,"aerialway":null,"osm":"way/197541408"},"geometry":{"type":"LineString","coordinates":[[13.59046,47.37241],[13.58988,47.37256]]}},{"type":"Feature","properties":{"kind":"piste","difficulty":"easy","name":null,"aerialway":null,"osm":"way/197541409"},"geometry":{"type":"LineString","coordinates":[[13.59305,47.37223],[13.59385,47.37218]]}},{"type":"Feature","properties":{"kind":"piste","difficulty":"easy","name":null,"aerialway":null,"osm":"way/197541411"},"geometry":{"type":"LineString","coordinates":[[13.60098,47.37307],[13.60131,47.37305],[13.60151,47.37324],[13.6017,47.37321]]}},{"type":"Feature","properties":{"kind":"piste","difficulty":"easy","name":null,"aerialway":null,"osm":"way/197541413"},"geometry":{"type":"LineString","coordinates":[[13.59108,47.37244],[13.59046,47.37241]]}},{"type":"Feature","properties":{"kind":"piste","difficulty":"intermediate","name":"Gasselhöhe-Piste, Weltcupstrecke","aerialway":null,"osm":"way/197541414"},"geometry":{"type":"LineString","coordinates":[[13.58948,47.35889],[13.58943,47.35874],[13.58921,47.35877],[13.58909,47.35901],[13.58915,47.35917],[13.5903,47.35973],[13.59109,47.36035],[13.5917,47.36116],[13.59168,47.36157],[13.59185,47.36188],[13.59315,47.36218],[13.5936,47.36244],[13.59427,47.36351],[13.59618,47.36523],[13.59662,47.36585],[13.5965,47.36615],[13.59587,47.36657],[13.59378,47.36748],[13.59271,47.36853],[13.59084,47.36987],[13.5906,47.37023],[13.59041,47.37157],[13.59135,47.37208]]}},{"type":"Feature","properties":{"kind":"piste","difficulty":"intermediate","name":"Muldenliftabfahrt","aerialway":null,"osm":"way/198963076"},"geometry":{"type":"LineString","coordinates":[[13.58953,47.36312],[13.58911,47.36317]]}},{"type":"Feature","properties":{"kind":"piste","difficulty":"easy","name":null,"aerialway":null,"osm":"way/198963093"},"geometry":{"type":"LineString","coordinates":[[13.59188,47.37232],[13.5919,47.37224],[13.59126,47.37211],[13.59149,47.37205],[13.59151,47.37193]]}},{"type":"Feature","properties":{"kind":"piste","difficulty":"easy","name":null,"aerialway":null,"osm":"way/198963110"},"geometry":{"type":"LineString","coordinates":[[13.60117,47.37346],[13.60098,47.37307]]}},{"type":"Feature","properties":{"kind":"piste","difficulty":"easy","name":null,"aerialway":null,"osm":"way/198963112"},"geometry":{"type":"LineString","coordinates":[[13.59221,47.37525],[13.59204,47.37533],[13.59196,47.37522]]}},{"type":"Feature","properties":{"kind":"piste","difficulty":"intermediate","name":"Holzerabfahrt","aerialway":null,"osm":"way/206998797"},"geometry":{"type":"LineString","coordinates":[[13.61275,47.37384],[13.61369,47.37463],[13.61366,47.37477]]}},{"type":"Feature","properties":{"kind":"piste","difficulty":"intermediate","name":"Holzerabfahrt","aerialway":null,"osm":"way/206998798"},"geometry":{"type":"LineString","coordinates":[[13.59541,47.35949],[13.59611,47.36026],[13.59785,47.36117],[13.59876,47.36135],[13.60052,47.3613],[13.60094,47.36226],[13.60219,47.36306],[13.6041,47.36499],[13.60575,47.36613],[13.60717,47.37006],[13.60739,47.37033],[13.60684,47.37169],[13.60721,47.37228],[13.61207,47.37319],[13.6124,47.37332],[13.61271,47.37368],[13.61286,47.37475],[13.61345,47.37488],[13.61366,47.37477],[13.61355,47.37468]]}},{"type":"Feature","properties":{"kind":"piste","difficulty":"easy","name":null,"aerialway":null,"osm":"way/220473928"},"geometry":{"type":"LineString","coordinates":[[13.64034,47.35948],[13.64136,47.36036]]}},{"type":"Feature","properties":{"kind":"piste","difficulty":"intermediate","name":null,"aerialway":null,"osm":"way/266669838"},"geometry":{"type":"LineString","coordinates":[[13.60842,47.38237],[13.60888,47.38223]]}},{"type":"Feature","properties":{"kind":"piste","difficulty":"intermediate","name":"Gasselhöhe","aerialway":null,"osm":"way/266850748"},"geometry":{"type":"LineString","coordinates":[[13.58943,47.35874],[13.58993,47.35893],[13.5903,47.35973]]}},{"type":"Feature","properties":{"kind":"piste","difficulty":"easy","name":null,"aerialway":null,"osm":"way/266850753"},"geometry":{"type":"LineString","coordinates":[[13.59062,47.37286],[13.59051,47.37279],[13.59073,47.37274]]}},{"type":"Feature","properties":{"kind":"piste","difficulty":"easy","name":null,"aerialway":null,"osm":"way/266850759"},"geometry":{"type":"LineString","coordinates":[[13.59068,47.37284],[13.59113,47.37264]]}},{"type":"Feature","properties":{"kind":"lift","difficulty":null,"name":"Hasecklift I","aerialway":"platter","osm":"way/310143457"},"geometry":{"type":"LineString","coordinates":[[13.59199,47.37528],[13.59044,47.37253]]}},{"type":"Feature","properties":{"kind":"piste","difficulty":"intermediate","name":null,"aerialway":null,"osm":"way/387222341"},"geometry":{"type":"LineString","coordinates":[[13.58994,47.37224],[13.58992,47.37198]]}},{"type":"Feature","properties":{"kind":"piste","difficulty":"intermediate","name":null,"aerialway":null,"osm":"way/387222342"},"geometry":{"type":"LineString","coordinates":[[13.58994,47.37224],[13.5898,47.37208],[13.58986,47.37198]]}},{"type":"Feature","properties":{"kind":"piste","difficulty":"easy","name":null,"aerialway":null,"osm":"way/387226151"},"geometry":{"type":"LineString","coordinates":[[13.60159,47.37329],[13.60143,47.37336]]}},{"type":"Feature","properties":{"kind":"piste","difficulty":"easy","name":null,"aerialway":null,"osm":"way/389268158"},"geometry":{"type":"LineString","coordinates":[[13.59046,47.37241],[13.59236,47.3729]]}},{"type":"Feature","properties":{"kind":"piste","difficulty":"intermediate","name":"Mittelabfahrt","aerialway":null,"osm":"way/450680024"},"geometry":{"type":"LineString","coordinates":[[13.63868,47.36605],[13.63881,47.36639],[13.63871,47.36658],[13.6381,47.36703],[13.63801,47.36728],[13.63821,47.36888],[13.63814,47.36925],[13.63831,47.36961],[13.63868,47.36988],[13.63894,47.37027],[13.63787,47.37235]]}},{"type":"Feature","properties":{"kind":"piste","difficulty":"intermediate","name":"MIttelabfahrt","aerialway":null,"osm":"way/450680025"},"geometry":{"type":"LineString","coordinates":[[13.6411,47.36187],[13.6395,47.36268],[13.63854,47.36532],[13.63868,47.36605]]}},{"type":"Feature","properties":{"kind":"piste","difficulty":"easy","name":null,"aerialway":null,"osm":"way/450683810"},"geometry":{"type":"LineString","coordinates":[[13.58994,47.37224],[13.59046,47.37241]]}},{"type":"Feature","properties":{"kind":"piste","difficulty":"intermediate","name":"Gasselhöhe, Weltcupstrecke","aerialway":null,"osm":"way/450683811"},"geometry":{"type":"LineString","coordinates":[[13.59041,47.37157],[13.58994,47.37224]]}},{"type":"Feature","properties":{"kind":"piste","difficulty":"intermediate","name":"Reiteralm Talabfahrt (Mitte)","aerialway":null,"osm":"way/455044788"},"geometry":{"type":"LineString","coordinates":[[13.60098,47.37307],[13.6013,47.3732],[13.60208,47.37422],[13.60231,47.37478],[13.60219,47.37555],[13.60235,47.37607],[13.60483,47.37846],[13.60548,47.37891],[13.60605,47.37959],[13.60599,47.37986],[13.60464,47.38119]]}},{"type":"Feature","properties":{"kind":"piste","difficulty":"intermediate","name":"Reiteralm Talabfahrt (Mitte)","aerialway":null,"osm":"way/456994205"},"geometry":{"type":"LineString","coordinates":[[13.60098,47.37307],[13.6013,47.3732],[13.60208,47.37422],[13.60231,47.37478],[13.60219,47.37555],[13.60235,47.37607],[13.60483,47.37846],[13.60548,47.37891],[13.60605,47.37959],[13.60599,47.37986],[13.60464,47.38119]]}},{"type":"Feature","properties":{"kind":"piste","difficulty":"easy","name":"Skiweg Bänklinger zu Preunegg Jet Tal","aerialway":null,"osm":"way/456994214"},"geometry":{"type":"LineString","coordinates":[[13.60505,47.37863],[13.60635,47.37865],[13.60948,47.37817],[13.61075,47.37754],[13.61093,47.37728],[13.6117,47.37688],[13.61255,47.37667],[13.61276,47.3765],[13.61287,47.37637],[13.61284,47.37607],[13.61244,47.3758],[13.61232,47.37547],[13.61262,47.37507],[13.61303,47.37483]]}},{"type":"Feature","properties":{"kind":"piste","difficulty":"easy","name":"Skiweg Reiteralmabfahrt zu Weltcuppiste Gasselhöhe","aerialway":null,"osm":"way/456994229"},"geometry":{"type":"LineString","coordinates":[[13.59931,47.36858],[13.59831,47.3692],[13.5975,47.36939],[13.59653,47.36942],[13.59398,47.36869],[13.59271,47.36853]]}},{"type":"Feature","properties":{"kind":"piste","difficulty":"easy","name":"Skiweg zum Preunegg Jet ab Reiteralm Talabfahrt","aerialway":null,"osm":"way/456994230"},"geometry":{"type":"LineString","coordinates":[[13.60278,47.37649],[13.60537,47.3753],[13.60589,47.3746],[13.60617,47.37445],[13.60711,47.37434],[13.60791,47.37397],[13.60815,47.37379],[13.60811,47.37318],[13.60879,47.3726]]}},{"type":"Feature","properties":{"kind":"piste","difficulty":"intermediate","name":"Abfahrt Pichl","aerialway":null,"osm":"way/569745429"},"geometry":{"type":"LineString","coordinates":[[13.61675,47.38333],[13.61536,47.38404],[13.6144,47.38514],[13.61275,47.38609]]}},{"type":"Feature","properties":{"kind":"piste","difficulty":"intermediate","name":"Abfahrt Pichl","aerialway":null,"osm":"way/569745430"},"geometry":{"type":"LineString","coordinates":[[13.61694,47.38323],[13.61675,47.38333]]}},{"type":"Feature","properties":{"kind":"piste","difficulty":"intermediate","name":"Abfahrt Pichl","aerialway":null,"osm":"way/577860771"},"geometry":{"type":"LineString","coordinates":[[13.62437,47.37872],[13.62444,47.37889]]}},{"type":"Feature","properties":{"kind":"piste","difficulty":"intermediate","name":"Abfahrt Pichl","aerialway":null,"osm":"way/577860772"},"geometry":{"type":"LineString","coordinates":[[13.63195,47.3757],[13.63117,47.37567],[13.63042,47.37649],[13.62749,47.37793],[13.62706,47.37804],[13.62516,47.378],[13.62451,47.37836],[13.62437,47.37872]]}},{"type":"Feature","properties":{"kind":"lift","difficulty":null,"name":"Schoberbahn","aerialway":"chair_lift","osm":"way/777171482"},"geometry":{"type":"LineString","coordinates":[[13.60373,47.36108],[13.59387,47.35554]]}},{"type":"Feature","properties":{"kind":"piste","difficulty":"intermediate","name":"Abfahrt Pichl","aerialway":null,"osm":"way/1111089140"},"geometry":{"type":"LineString","coordinates":[[13.61729,47.38178],[13.61715,47.38291],[13.61694,47.38323]]}},{"type":"Feature","properties":{"kind":"piste","difficulty":"intermediate","name":"Abfahrt Pichl","aerialway":null,"osm":"way/1111089141"},"geometry":{"type":"LineString","coordinates":[[13.62116,47.38273],[13.61933,47.38283],[13.61951,47.38297],[13.62096,47.38331],[13.62082,47.38344],[13.61876,47.38338],[13.61776,47.38277],[13.61744,47.38185],[13.61729,47.38178]]}},{"type":"Feature","properties":{"kind":"piste","difficulty":"easy","name":null,"aerialway":null,"osm":"way/1492565380"},"geometry":{"type":"LineString","coordinates":[[13.60371,47.36173],[13.60491,47.36262],[13.60502,47.36296],[13.60495,47.36315],[13.60396,47.36317],[13.60293,47.36297],[13.60238,47.36322]]}}]}