{"type":"FeatureCollection","features":[{"type":"Feature","properties":{"kind":"lift","difficulty":null,"name":"Skilift Kronberg","aerialway":"t-bar","osm":"way/163636847"},"geometry":{"type":"LineString","coordinates":[[13.50105,47.90509],[13.49699,47.90292]]}},{"type":"Feature","properties":{"kind":"piste","difficulty":"easy","name":"Kronberg","aerialway":null,"osm":"way/1468669371"},"geometry":{"type":"LineString","coordinates":[[13.49699,47.90292],[13.49697,47.90316],[13.50078,47.90514],[13.50105,47.90509]]}},{"type":"Feature","properties":{"kind":"lift","difficulty":null,"name":"Kinderlift","aerialway":"rope_tow","osm":"way/1468669372"},"geometry":{"type":"LineString","coordinates":[[13.50142,47.90499],[13.50097,47.90459]]}},{"type":"Feature","properties":{"kind":"piste","difficulty":"novice","name":"Übungshang","aerialway":null,"osm":"way/1468669373"},"geometry":{"type":"LineString","coordinates":[[13.50097,47.90459],[13.50089,47.90466],[13.50142,47.90499]]}}]}