{"type":"FeatureCollection","features":[{"type":"Feature","properties":{"kind":"lift","difficulty":null,"name":"Skilift Tschardund","aerialway":"t-bar","osm":"way/128279904"},"geometry":{"type":"LineString","coordinates":[[9.67111,47.18064],[9.66793,47.1752]]}},{"type":"Feature","properties":{"kind":"piste","difficulty":"easy","name":null,"aerialway":null,"osm":"way/1070770858"},"geometry":{"type":"LineString","coordinates":[[9.66815,47.17558],[9.66926,47.17613],[9.66994,47.1772],[9.67141,47.18007],[9.67138,47.1804],[9.67107,47.18058]]}},{"type":"Feature","properties":{"kind":"piste","difficulty":"easy","name":null,"aerialway":null,"osm":"way/1442897875"},"geometry":{"type":"LineString","coordinates":[[9.66885,47.17678],[9.66882,47.17697],[9.67055,47.18021],[9.67077,47.18051],[9.67107,47.18058]]}}]}