{"type":"FeatureCollection","features":[{"type":"Feature","properties":{"kind":"lift","difficulty":null,"name":"Arabichllift","aerialway":"t-bar","osm":"way/251611480"},"geometry":{"type":"LineString","coordinates":[[15.9073,47.57366],[15.91167,47.56876]]}},{"type":"Feature","properties":{"kind":"piste","difficulty":"intermediate","name":null,"aerialway":null,"osm":"way/251611768"},"geometry":{"type":"LineString","coordinates":[[15.91167,47.56876],[15.91183,47.56922],[15.91163,47.57022],[15.91142,47.57077],[15.91086,47.57156],[15.90827,47.57375],[15.9073,47.57366]]}},{"type":"Feature","properties":{"kind":"piste","difficulty":"intermediate","name":null,"aerialway":null,"osm":"way/251611769"},"geometry":{"type":"LineString","coordinates":[[15.91174,47.56897],[15.91075,47.57024],[15.90758,47.57371]]}},{"type":"Feature","properties":{"kind":"piste","difficulty":"intermediate","name":null,"aerialway":null,"osm":"way/251611770"},"geometry":{"type":"LineString","coordinates":[[15.91177,47.56955],[15.90903,47.57274],[15.90758,47.57371]]}},{"type":"Feature","properties":{"kind":"piste","difficulty":"intermediate","name":null,"aerialway":null,"osm":"way/251611771"},"geometry":{"type":"LineString","coordinates":[[15.90979,47.57186],[15.90978,47.57253]]}},{"type":"Feature","properties":{"kind":"piste","difficulty":"intermediate","name":null,"aerialway":null,"osm":"way/251611772"},"geometry":{"type":"LineString","coordinates":[[15.90949,47.57277],[15.90847,47.57311]]}},{"type":"Feature","properties":{"kind":"piste","difficulty":"easy","name":null,"aerialway":null,"osm":"way/251611773"},"geometry":{"type":"LineString","coordinates":[[15.91167,47.56876],[15.91211,47.56892],[15.9125,47.56927],[15.91268,47.56964],[15.91222,47.57067],[15.91146,47.57132],[15.91086,47.57156]]}},{"type":"Feature","properties":{"kind":"piste","difficulty":"easy","name":null,"aerialway":null,"osm":"way/251612265"},"geometry":{"type":"LineString","coordinates":[[15.91167,47.56876],[15.91138,47.5688],[15.91068,47.56982],[15.90714,47.57136],[15.90519,47.57205],[15.9034,47.57214],[15.90313,47.57234],[15.90334,47.57295],[15.90399,47.57326],[15.90701,47.5737],[15.90752,47.57387],[15.90758,47.57371]]}},{"type":"Feature","properties":{"kind":"piste","difficulty":"easy","name":null,"aerialway":null,"osm":"way/251612347"},"geometry":{"type":"LineString","coordinates":[[15.91127,47.56955],[15.91068,47.56982]]}},{"type":"Feature","properties":{"kind":"piste","difficulty":"advanced","name":null,"aerialway":null,"osm":"way/251612413"},"geometry":{"type":"LineString","coordinates":[[15.90778,47.57106],[15.90783,47.57196],[15.90661,47.57268],[15.90637,47.57298],[15.9064,47.5733],[15.90701,47.5737]]}}]}