{"type":"FeatureCollection","features":[{"type":"Feature","properties":{"kind":"piste","difficulty":"easy","name":"Verbindungsweg","aerialway":null,"osm":"way/32014874"},"geometry":{"type":"LineString","coordinates":[[13.1504,47.1109],[13.15058,47.11111],[13.15044,47.11131],[13.1505,47.11149]]}},{"type":"Feature","properties":{"kind":"piste","difficulty":"intermediate","name":"Standard","aerialway":null,"osm":"way/34610498"},"geometry":{"type":"LineString","coordinates":[[13.16796,47.10647],[13.16841,47.10666],[13.16862,47.10694],[13.16794,47.1069],[13.1682,47.10724],[13.16771,47.10853],[13.16659,47.11032],[13.16495,47.11142],[13.16318,47.11349],[13.16221,47.1136],[13.16083,47.11442],[13.1586,47.11444],[13.15743,47.11382],[13.15618,47.11288],[13.15482,47.11315],[13.15313,47.11279],[13.15278,47.11262],[13.15168,47.11116],[13.1505,47.11149]]}},{"type":"Feature","properties":{"kind":"piste","difficulty":"intermediate","name":"Schachenbauer","aerialway":null,"osm":"way/34610753"},"geometry":{"type":"LineString","coordinates":[[13.15168,47.11116],[13.15141,47.1109],[13.15054,47.11062],[13.14667,47.10971],[13.14607,47.10974],[13.14404,47.11058],[13.14351,47.11126],[13.14332,47.11178],[13.14276,47.11242],[13.14234,47.1136],[13.14336,47.11513],[13.145,47.11602],[13.14535,47.11648]]}},{"type":"Feature","properties":{"kind":"piste","difficulty":"easy","name":null,"aerialway":null,"osm":"way/95506907"},"geometry":{"type":"LineString","coordinates":[[13.10988,47.10812],[13.11063,47.10879],[13.11144,47.11018],[13.11243,47.11135]]}},{"type":"Feature","properties":{"kind":"piste","difficulty":"advanced","name":"Toni-Sailer-Strecke","aerialway":null,"osm":"way/135161804"},"geometry":{"type":"LineString","coordinates":[[13.16652,47.10713],[13.1659,47.10704],[13.16459,47.10637],[13.16392,47.10644],[13.16364,47.10686],[13.16133,47.10686],[13.1611,47.10736],[13.16046,47.10715],[13.15904,47.10706],[13.15772,47.1073],[13.15719,47.10717],[13.15648,47.1073],[13.15499,47.1073],[13.1544,47.10714],[13.1539,47.10738],[13.15381,47.10884],[13.15225,47.10977],[13.15193,47.11026],[13.15168,47.11116],[13.15086,47.11112],[13.1505,47.11123]]}},{"type":"Feature","properties":{"kind":"piste","difficulty":"easy","name":"Familien","aerialway":null,"osm":"way/135162039"},"geometry":{"type":"LineString","coordinates":[[13.16595,47.11075],[13.16638,47.11149],[13.16664,47.11161],[13.16801,47.11154],[13.16846,47.11136],[13.16827,47.1117],[13.16663,47.11249],[13.16566,47.1127],[13.16526,47.11267],[13.1644,47.11304],[13.1643,47.11313],[13.1653,47.11351],[13.16442,47.11441],[13.16281,47.11431],[13.162,47.11463],[13.16074,47.11478],[13.16051,47.11494],[13.16072,47.11523],[13.15956,47.11509],[13.1608,47.11629],[13.16122,47.11632],[13.16122,47.11643],[13.16069,47.11646],[13.16015,47.11629],[13.15825,47.11612],[13.1562,47.11511],[13.15571,47.11438],[13.15532,47.11423],[13.15513,47.11401],[13.15495,47.11436],[13.15516,47.11476],[13.15462,47.11462],[13.15409,47.11427],[13.1537,47.11372],[13.15221,47.11306],[13.15093,47.11195]]}},{"type":"Feature","properties":{"kind":"piste","difficulty":"easy","name":null,"aerialway":null,"osm":"way/156098134"},"geometry":{"type":"LineString","coordinates":[[13.11245,47.11158],[13.11206,47.11164]]}},{"type":"Feature","properties":{"kind":"piste","difficulty":"easy","name":"Familien","aerialway":null,"osm":"way/168656892"},"geometry":{"type":"LineString","coordinates":[[13.15093,47.11195],[13.1505,47.11149],[13.15055,47.11139]]}},{"type":"Feature","properties":{"kind":"piste","difficulty":"intermediate","name":"Heimalm","aerialway":null,"osm":"way/177366763"},"geometry":{"type":"LineString","coordinates":[[13.1505,47.11149],[13.15005,47.11187],[13.14646,47.11304],[13.14578,47.11345],[13.14561,47.11369],[13.14564,47.11401],[13.14625,47.11504],[13.1462,47.11556],[13.14592,47.116],[13.14488,47.1168],[13.14383,47.11705],[13.14174,47.11711],[13.14115,47.11692],[13.14087,47.11657],[13.1399,47.11609]]}},{"type":"Feature","properties":{"kind":"piste","difficulty":"intermediate","name":"Heimalm","aerialway":null,"osm":"way/177366767"},"geometry":{"type":"LineString","coordinates":[[13.14568,47.10995],[13.14614,47.1117],[13.1465,47.11246],[13.14646,47.11304]]}},{"type":"Feature","properties":{"kind":"piste","difficulty":"easy","name":null,"aerialway":null,"osm":"way/194848497"},"geometry":{"type":"LineString","coordinates":[[13.13054,47.1099],[13.13105,47.10974]]}},{"type":"Feature","properties":{"kind":"piste","difficulty":"easy","name":null,"aerialway":null,"osm":"way/194848499"},"geometry":{"type":"LineString","coordinates":[[13.13082,47.11003],[13.13118,47.11031]]}},{"type":"Feature","properties":{"kind":"piste","difficulty":"intermediate","name":"Heimalm","aerialway":null,"osm":"way/448904603"},"geometry":{"type":"LineString","coordinates":[[13.1399,47.11609],[13.1398,47.11608]]}},{"type":"Feature","properties":{"kind":"piste","difficulty":"intermediate","name":"Standard","aerialway":null,"osm":"way/448904604"},"geometry":{"type":"LineString","coordinates":[[13.1634,47.11318],[13.16297,47.11308]]}},{"type":"Feature","properties":{"kind":"piste","difficulty":"easy","name":null,"aerialway":null,"osm":"way/656469995"},"geometry":{"type":"LineString","coordinates":[[13.131,47.10949],[13.13119,47.10949],[13.13126,47.10936],[13.13194,47.10951],[13.13153,47.11],[13.1308,47.10993],[13.12911,47.10951],[13.12807,47.10909],[13.12808,47.10858],[13.12791,47.10821],[13.12722,47.10826],[13.12637,47.10755],[13.12644,47.10729],[13.12627,47.10691],[13.12577,47.10666],[13.12571,47.10613],[13.12509,47.10555],[13.12515,47.10545],[13.12548,47.1054],[13.12598,47.10573],[13.12627,47.10615],[13.12944,47.10882],[13.13059,47.10953],[13.131,47.10949]]}},{"type":"Feature","properties":{"kind":"piste","difficulty":"intermediate","name":null,"aerialway":null,"osm":"way/663570070"},"geometry":{"type":"LineString","coordinates":[[13.12609,47.1133],[13.12454,47.11333],[13.12431,47.1135],[13.12394,47.11348],[13.12382,47.11325],[13.12305,47.11286],[13.12163,47.11296],[13.12168,47.11334],[13.12219,47.11336],[13.12278,47.11319],[13.12368,47.11349],[13.12379,47.11376],[13.12592,47.11366],[13.12625,47.1138],[13.12609,47.1133]]}},{"type":"Feature","properties":{"kind":"piste","difficulty":"easy","name":null,"aerialway":null,"osm":"way/663570089"},"geometry":{"type":"LineString","coordinates":[[13.11721,47.10943],[13.11758,47.10946],[13.1178,47.10931],[13.11796,47.10978],[13.11694,47.11],[13.11721,47.10943]]}},{"type":"Feature","properties":{"kind":"piste","difficulty":"easy","name":"Almabfahrt","aerialway":null,"osm":"way/663570091"},"geometry":{"type":"LineString","coordinates":[[13.11201,47.1124],[13.11217,47.11159],[13.11269,47.11153],[13.11252,47.11174],[13.11254,47.11249],[13.11313,47.11261],[13.11356,47.11229],[13.11399,47.11222],[13.11456,47.11192],[13.11495,47.11142],[13.11583,47.11083],[13.11645,47.11012],[13.11714,47.10871],[13.11738,47.10847],[13.11766,47.10841],[13.11861,47.10908],[13.11864,47.10933],[13.11901,47.10966],[13.11974,47.11011],[13.12009,47.11072],[13.11997,47.11114],[13.12056,47.11209],[13.12066,47.11244],[13.12057,47.11272],[13.1208,47.11305],[13.12111,47.11307],[13.1214,47.11288],[13.12156,47.11113],[13.12177,47.11058],[13.12255,47.10977],[13.1223,47.10834],[13.12241,47.10772],[13.12262,47.10771],[13.12349,47.10827],[13.12461,47.11039],[13.12513,47.11097],[13.12546,47.11168],[13.12589,47.11209],[13.12648,47.11326],[13.12654,47.11399],[13.12691,47.11413],[13.12712,47.11447],[13.12791,47.11463],[13.12838,47.11252],[13.12767,47.11164],[13.12805,47.11139],[13.1277,47.10994],[13.12775,47.10913],[13.12807,47.10909],[13.12911,47.10951],[13.13153,47.11],[13.13067,47.1102],[13.13005,47.11057],[13.12803,47.11088],[13.12858,47.11266],[13.12819,47.11409],[13.12815,47.11495],[13.12771,47.11518],[13.12652,47.11459],[13.12586,47.11258],[13.12499,47.11124],[13.1245,47.11072],[13.12324,47.1084],[13.12275,47.10814],[13.1225,47.10827],[13.12279,47.10987],[13.12258,47.11036],[13.12176,47.11112],[13.12168,47.11334],[13.12147,47.11372],[13.1209,47.1137],[13.12065,47.11334],[13.12006,47.11156],[13.11975,47.1112],[13.11973,47.1107],[13.11866,47.1099],[13.11796,47.10978],[13.11764,47.10878],[13.11747,47.10885],[13.11694,47.11],[13.11632,47.11088],[13.11487,47.11188],[13.11468,47.11225],[13.11367,47.11253],[13.1131,47.11303],[13.11283,47.11306],[13.11201,47.1124]]}},{"type":"Feature","properties":{"kind":"piste","difficulty":"easy","name":null,"aerialway":null,"osm":"way/1057994343"},"geometry":{"type":"LineString","coordinates":[[13.11245,47.11158],[13.11248,47.11244],[13.11285,47.11268],[13.11327,47.11264],[13.11425,47.11229],[13.11613,47.11074],[13.11707,47.10973],[13.11809,47.10954],[13.11845,47.10961],[13.11888,47.10973],[13.11982,47.11055],[13.11986,47.11117],[13.12054,47.1124],[13.1205,47.11281],[13.12087,47.11332],[13.12126,47.11337],[13.1215,47.11326],[13.12167,47.11102],[13.12267,47.10996],[13.12244,47.10818],[13.12275,47.10805],[13.12323,47.10828],[13.12368,47.1089],[13.12465,47.11059],[13.12621,47.1129],[13.12638,47.11333],[13.1264,47.11388],[13.12686,47.11468],[13.12753,47.11498],[13.128,47.11494],[13.12847,47.11255]]}},{"type":"Feature","properties":{"kind":"piste","difficulty":"intermediate","name":null,"aerialway":null,"osm":"way/1057994344"},"geometry":{"type":"LineString","coordinates":[[13.12785,47.11016],[13.12853,47.11005],[13.13103,47.11018],[13.13118,47.11031]]}},{"type":"Feature","properties":{"kind":"piste","difficulty":"easy","name":null,"aerialway":null,"osm":"way/1057994345"},"geometry":{"type":"LineString","coordinates":[[13.12525,47.10555],[13.12586,47.10575],[13.12629,47.10663],[13.12685,47.10732],[13.12819,47.10804],[13.12945,47.10919],[13.13027,47.10965],[13.13105,47.10974]]}},{"type":"Feature","properties":{"kind":"piste","difficulty":"easy","name":null,"aerialway":null,"osm":"way/1109010382"},"geometry":{"type":"LineString","coordinates":[[13.13027,47.10965],[13.13082,47.11003]]}},{"type":"Feature","properties":{"kind":"piste","difficulty":"intermediate","name":null,"aerialway":null,"osm":"way/1109055516"},"geometry":{"type":"LineString","coordinates":[[13.12975,47.11013],[13.13054,47.1099]]}},{"type":"Feature","properties":{"kind":"piste","difficulty":"easy","name":null,"aerialway":null,"osm":"way/1162628191"},"geometry":{"type":"LineString","coordinates":[[13.12805,47.11089],[13.12782,47.10994],[13.12789,47.1095],[13.12808,47.10927],[13.12865,47.10932],[13.13054,47.1099]]}},{"type":"Feature","properties":{"kind":"piste","difficulty":"easy","name":null,"aerialway":null,"osm":"way/1162628193"},"geometry":{"type":"LineString","coordinates":[[13.12847,47.11255],[13.12806,47.11198],[13.12805,47.11089]]}},{"type":"Feature","properties":{"kind":"piste","difficulty":"easy","name":null,"aerialway":null,"osm":"way/1317593354"},"geometry":{"type":"LineString","coordinates":[[13.11244,47.11141],[13.11245,47.11158]]}},{"type":"Feature","properties":{"kind":"piste","difficulty":"easy","name":null,"aerialway":null,"osm":"way/1317593355"},"geometry":{"type":"LineString","coordinates":[[13.11243,47.11135],[13.11244,47.11141]]}},{"type":"Feature","properties":{"kind":"lift","difficulty":null,"name":"Reichebenlift","aerialway":"t-bar","osm":"way/32014886"},"geometry":{"type":"LineString","coordinates":[[13.16297,47.11308],[13.16796,47.10647]]}},{"type":"Feature","properties":{"kind":"lift","difficulty":null,"name":"ESL Bellevuealm","aerialway":"chair_lift","osm":"way/99059608"},"geometry":{"type":"LineString","coordinates":[[13.1319,47.11641],[13.1268,47.11562]]}},{"type":"Feature","properties":{"kind":"lift","difficulty":null,"name":"Stubnerkogelbahn I","aerialway":"gondola","osm":"way/187714641"},"geometry":{"type":"LineString","coordinates":[[13.1315,47.11051],[13.11214,47.1114]]}},{"type":"Feature","properties":{"kind":"lift","difficulty":null,"name":"Graukogel II","aerialway":"chair_lift","osm":"way/187922256"},"geometry":{"type":"LineString","coordinates":[[13.15055,47.11139],[13.16646,47.10714]]}},{"type":"Feature","properties":{"kind":"lift","difficulty":null,"name":"Graukogel I","aerialway":"chair_lift","osm":"way/443576005"},"geometry":{"type":"LineString","coordinates":[[13.1398,47.11608],[13.1504,47.1109]]}},{"type":"Feature","properties":{"kind":"lift","difficulty":null,"name":"Bucheben","aerialway":"chair_lift","osm":"way/448912799"},"geometry":{"type":"LineString","coordinates":[[13.13105,47.10974],[13.12525,47.10555]]}},{"type":"Feature","properties":{"kind":"lift","difficulty":null,"name":"Übungslift Rossalm","aerialway":"rope_tow","osm":"way/463998027"},"geometry":{"type":"LineString","coordinates":[[13.12921,47.10945],[13.12862,47.1089]]}},{"type":"Feature","properties":{"kind":"lift","difficulty":null,"name":"Flying Waters Seilbahn (fun ride)","aerialway":"zip_line","osm":"way/591249916"},"geometry":{"type":"LineString","coordinates":[[13.1349,47.11643],[13.13762,47.11462]]}},{"type":"Feature","properties":{"kind":"piste","difficulty":"intermediate","name":"Standard","aerialway":null,"osm":"way/34611565"},"geometry":{"type":"LineString","coordinates":[[13.16646,47.10714],[13.16771,47.10853]]}},{"type":"Feature","properties":{"kind":"piste","difficulty":"advanced","name":"Toni-Sailer-Strecke","aerialway":null,"osm":"way/135161803"},"geometry":{"type":"LineString","coordinates":[[13.16794,47.1069],[13.16741,47.1069],[13.16644,47.10655]]}},{"type":"Feature","properties":{"kind":"piste","difficulty":"advanced","name":"Toni-Sailer-Strecke / Zirbenweg","aerialway":null,"osm":"way/605871518"},"geometry":{"type":"LineString","coordinates":[[13.16644,47.10655],[13.16459,47.10637]]}}]}