{"type":"FeatureCollection","features":[{"type":"Feature","properties":{"kind":"piste","difficulty":"intermediate","name":null,"aerialway":null,"osm":"way/29895583"},"geometry":{"type":"LineString","coordinates":[[12.13786,47.22719],[12.13793,47.2279],[12.13837,47.22911],[12.13903,47.23001],[12.13894,47.23074],[12.13837,47.232],[12.13911,47.23569],[12.13813,47.23655]]}},{"type":"Feature","properties":{"kind":"piste","difficulty":"easy","name":null,"aerialway":null,"osm":"way/29895604"},"geometry":{"type":"LineString","coordinates":[[12.1357,47.22678],[12.13565,47.22666],[12.13499,47.2269],[12.13477,47.22782],[12.13506,47.22882],[12.13535,47.2296],[12.13587,47.23031],[12.13699,47.23419],[12.13771,47.23582],[12.13845,47.23687],[12.13878,47.237],[12.13884,47.23683]]}},{"type":"Feature","properties":{"kind":"piste","difficulty":"easy","name":null,"aerialway":null,"osm":"way/51110772"},"geometry":{"type":"LineString","coordinates":[[12.13739,47.22619],[12.13733,47.2261],[12.13746,47.22608],[12.13824,47.22618],[12.14094,47.22726],[12.14361,47.22882],[12.14459,47.22905],[12.14797,47.22941],[12.14872,47.22962]]}},{"type":"Feature","properties":{"kind":"piste","difficulty":"intermediate","name":null,"aerialway":null,"osm":"way/94828588"},"geometry":{"type":"LineString","coordinates":[[12.13762,47.22613],[12.14131,47.22778],[12.1421,47.22838],[12.1459,47.23035],[12.14669,47.23087],[12.14787,47.23239],[12.14821,47.23256],[12.15051,47.23271],[12.15174,47.23236],[12.15228,47.23251]]}},{"type":"Feature","properties":{"kind":"piste","difficulty":"easy","name":null,"aerialway":null,"osm":"way/138959925"},"geometry":{"type":"LineString","coordinates":[[12.13978,47.22861],[12.14177,47.22916],[12.14289,47.22973],[12.14352,47.23042],[12.14357,47.23075],[12.14338,47.23159],[12.14529,47.23414],[12.14535,47.23439],[12.14507,47.23451]]}},{"type":"Feature","properties":{"kind":"piste","difficulty":"intermediate","name":null,"aerialway":null,"osm":"way/138959937"},"geometry":{"type":"LineString","coordinates":[[12.13682,47.2265],[12.13709,47.22651],[12.13759,47.2269],[12.13891,47.22822],[12.14067,47.229],[12.14109,47.22935],[12.1427,47.23243],[12.14328,47.23329],[12.14529,47.23414]]}},{"type":"Feature","properties":{"kind":"piste","difficulty":"intermediate","name":null,"aerialway":null,"osm":"way/138959939"},"geometry":{"type":"LineString","coordinates":[[12.13891,47.22822],[12.14011,47.22963],[12.14063,47.23153],[12.142,47.23311],[12.14276,47.23376],[12.14469,47.23397]]}},{"type":"Feature","properties":{"kind":"piste","difficulty":"easy","name":"72","aerialway":null,"osm":"way/138962459"},"geometry":{"type":"LineString","coordinates":[[12.13412,47.22425],[12.13425,47.22421],[12.13423,47.22442],[12.13262,47.2253],[12.13134,47.22714]]}},{"type":"Feature","properties":{"kind":"piste","difficulty":"easy","name":null,"aerialway":null,"osm":"way/138962462"},"geometry":{"type":"LineString","coordinates":[[12.13549,47.22606],[12.13524,47.22631],[12.13499,47.2269]]}},{"type":"Feature","properties":{"kind":"piste","difficulty":"intermediate","name":null,"aerialway":null,"osm":"way/138962465"},"geometry":{"type":"LineString","coordinates":[[12.13535,47.2296],[12.1349,47.23119],[12.13511,47.23247],[12.13495,47.23283],[12.13554,47.23399],[12.13544,47.23448],[12.13599,47.23522],[12.13659,47.23573],[12.13813,47.23655]]}},{"type":"Feature","properties":{"kind":"piste","difficulty":"intermediate","name":null,"aerialway":null,"osm":"way/304347780"},"geometry":{"type":"LineString","coordinates":[[12.13134,47.22714],[12.13192,47.22756],[12.1308,47.2298]]}},{"type":"Feature","properties":{"kind":"piste","difficulty":"intermediate","name":null,"aerialway":null,"osm":"way/326603501"},"geometry":{"type":"LineString","coordinates":[[12.13592,47.22721],[12.13589,47.22752],[12.13807,47.23488],[12.13771,47.23582]]}},{"type":"Feature","properties":{"kind":"piste","difficulty":"intermediate","name":null,"aerialway":null,"osm":"way/981050112"},"geometry":{"type":"LineString","coordinates":[[12.14468,47.23401],[12.14438,47.23363],[12.14303,47.23263],[12.14255,47.23164],[12.14238,47.23099],[12.14137,47.22919],[12.14072,47.22869],[12.139,47.22796],[12.13814,47.22692],[12.13809,47.22722],[12.13842,47.2284],[12.13867,47.22834],[12.13992,47.22881],[12.14069,47.22931],[12.14143,47.23053],[12.14164,47.23127],[12.14242,47.23275],[12.14293,47.23339],[12.14384,47.2338],[12.14468,47.23401]]}},{"type":"Feature","properties":{"kind":"piste","difficulty":"intermediate","name":null,"aerialway":null,"osm":"way/981050117"},"geometry":{"type":"LineString","coordinates":[[12.14468,47.23401],[12.14267,47.23362],[12.14222,47.23288],[12.14078,47.23143],[12.14027,47.22951],[12.13933,47.22867],[12.13867,47.22834],[12.13842,47.2284],[12.13888,47.22866],[12.13978,47.2295],[12.13987,47.23013],[12.14038,47.23163],[12.14181,47.23326],[12.14272,47.23387],[12.14468,47.23401]]}},{"type":"Feature","properties":{"kind":"piste","difficulty":"easy","name":null,"aerialway":null,"osm":"way/1016663866"},"geometry":{"type":"LineString","coordinates":[[12.13423,47.22442],[12.13433,47.22497],[12.13581,47.22626],[12.13682,47.2265],[12.138,47.22611]]}},{"type":"Feature","properties":{"kind":"piste","difficulty":"easy","name":"72","aerialway":null,"osm":"way/1016663867"},"geometry":{"type":"LineString","coordinates":[[12.13417,47.22419],[12.13393,47.2241],[12.13383,47.2242],[12.13366,47.22473]]}},{"type":"Feature","properties":{"kind":"piste","difficulty":"easy","name":null,"aerialway":null,"osm":"way/1016670950"},"geometry":{"type":"LineString","coordinates":[[12.13765,47.22609],[12.1376,47.22624],[12.1377,47.22629],[12.13787,47.22621],[12.14099,47.22752],[12.14228,47.22838],[12.14377,47.22908],[12.14509,47.22938],[12.14807,47.22962],[12.14878,47.22979],[12.15047,47.23054],[12.15122,47.23093],[12.15198,47.23159],[12.15191,47.23198],[12.15202,47.23254],[12.15229,47.23263],[12.15243,47.23259],[12.15296,47.23176],[12.15322,47.23166],[12.1548,47.23202],[12.15518,47.23193],[12.15508,47.23176],[12.15175,47.23053],[12.15169,47.2306],[12.14855,47.22936],[12.14411,47.22882],[12.14283,47.22817],[12.14159,47.22718],[12.13926,47.22643],[12.13842,47.226],[12.13765,47.22609]]}},{"type":"Feature","properties":{"kind":"piste","difficulty":"intermediate","name":null,"aerialway":null,"osm":"way/1016670951"},"geometry":{"type":"LineString","coordinates":[[12.1384,47.2288],[12.13842,47.2284],[12.13809,47.22722],[12.13814,47.22692],[12.13746,47.22643],[12.13707,47.22662],[12.13759,47.22716],[12.13771,47.22791],[12.13813,47.22906],[12.13882,47.23],[12.13882,47.23057],[12.13815,47.2322],[12.13848,47.2334],[12.13859,47.23472],[12.13889,47.23536],[12.13884,47.23559],[12.13835,47.23606],[12.1386,47.23672],[12.13859,47.23624],[12.13917,47.23571],[12.13888,47.2344],[12.13859,47.23193],[12.13882,47.23157],[12.13889,47.23109],[12.13932,47.23047],[12.13918,47.22999],[12.1384,47.2288]]}},{"type":"Feature","properties":{"kind":"piste","difficulty":"intermediate","name":null,"aerialway":null,"osm":"way/1016670953"},"geometry":{"type":"LineString","coordinates":[[12.13565,47.22666],[12.13581,47.22683],[12.13577,47.22753],[12.13637,47.22979],[12.13758,47.2334],[12.13798,47.23338],[12.13777,47.23314],[12.13725,47.23117],[12.13672,47.22976],[12.13612,47.22774],[12.13609,47.22703],[12.13588,47.22667],[12.13565,47.22666]]}},{"type":"Feature","properties":{"kind":"piste","difficulty":"easy","name":null,"aerialway":null,"osm":"way/1016670955"},"geometry":{"type":"LineString","coordinates":[[12.13862,47.23695],[12.13798,47.23684],[12.13757,47.2366],[12.13633,47.2338],[12.13578,47.23061],[12.13465,47.22898],[12.1343,47.22806],[12.13436,47.22749],[12.13458,47.22702],[12.135,47.2268],[12.13565,47.22666],[12.13515,47.22783],[12.13527,47.22828],[12.13556,47.22908],[12.13637,47.23017],[12.13667,47.2308],[12.1367,47.2316],[12.13747,47.23416],[12.13745,47.2344],[12.1378,47.23484],[12.13821,47.23572],[12.13862,47.23695]]}},{"type":"Feature","properties":{"kind":"piste","difficulty":"easy","name":"Skiweg Duxer 6er","aerialway":null,"osm":"way/1259204618"},"geometry":{"type":"LineString","coordinates":[[12.1308,47.2298],[12.13396,47.2302],[12.13572,47.23011]]}},{"type":"Feature","properties":{"kind":"piste","difficulty":"easy","name":null,"aerialway":null,"osm":"way/1260597704"},"geometry":{"type":"LineString","coordinates":[[12.13499,47.2269],[12.13192,47.22756],[12.13044,47.22763]]}},{"type":"Feature","properties":{"kind":"piste","difficulty":"easy","name":null,"aerialway":null,"osm":"way/1260597705"},"geometry":{"type":"LineString","coordinates":[[12.13824,47.22618],[12.13823,47.22652],[12.13786,47.22719],[12.13665,47.22791],[12.13615,47.22836],[12.13263,47.22965],[12.13032,47.23031]]}},{"type":"Feature","properties":{"kind":"piste","difficulty":"easy","name":null,"aerialway":null,"osm":"way/1358100887"},"geometry":{"type":"LineString","coordinates":[[12.13776,47.22623],[12.13698,47.2271],[12.13637,47.22744],[12.13196,47.22842],[12.13018,47.22824],[12.12942,47.22844]]}},{"type":"Feature","properties":{"kind":"piste","difficulty":"easy","name":null,"aerialway":null,"osm":"way/1371206540"},"geometry":{"type":"LineString","coordinates":[[12.13637,47.2264],[12.13613,47.22663],[12.13565,47.22666]]}},{"type":"Feature","properties":{"kind":"piste","difficulty":"easy","name":null,"aerialway":null,"osm":"way/1460366256"},"geometry":{"type":"LineString","coordinates":[[12.13663,47.22625],[12.13631,47.22624],[12.13637,47.2264]]}},{"type":"Feature","properties":{"kind":"piste","difficulty":"easy","name":null,"aerialway":null,"osm":"way/1460366257"},"geometry":{"type":"LineString","coordinates":[[12.13762,47.22613],[12.13761,47.22631],[12.13726,47.22646],[12.13613,47.22663]]}},{"type":"Feature","properties":{"kind":"piste","difficulty":"intermediate","name":null,"aerialway":null,"osm":"way/1473348409"},"geometry":{"type":"LineString","coordinates":[[12.13151,47.22798],[12.13069,47.22962],[12.12893,47.23187],[12.12776,47.23369],[12.12672,47.23489],[12.1261,47.23512],[12.12713,47.23487],[12.12753,47.23451],[12.12887,47.23252],[12.1312,47.2295],[12.13204,47.22766],[12.13162,47.22771],[12.13151,47.22798]]}},{"type":"Feature","properties":{"kind":"piste","difficulty":"easy","name":null,"aerialway":null,"osm":"way/1473348410"},"geometry":{"type":"LineString","coordinates":[[12.14141,47.22914],[12.1423,47.22955],[12.14324,47.23043],[12.14336,47.23093],[12.14313,47.23169],[12.14413,47.23304],[12.14438,47.23363],[12.14467,47.2332],[12.14374,47.23183],[12.1436,47.23142],[12.14379,47.23089],[12.14379,47.23046],[12.14338,47.22987],[12.14218,47.22916],[12.14072,47.22869],[12.14141,47.22914]]}},{"type":"Feature","properties":{"kind":"piste","difficulty":"intermediate","name":null,"aerialway":null,"osm":"way/1473348411"},"geometry":{"type":"LineString","coordinates":[[12.14477,47.22933],[12.14504,47.22966],[12.14685,47.23072],[12.14767,47.23158],[12.14796,47.2322],[12.14826,47.23247],[12.15043,47.23264],[12.15116,47.23245],[12.15133,47.23255],[12.15019,47.23285],[12.14762,47.23254],[12.14746,47.2321],[12.14683,47.23137],[12.1458,47.23054],[12.14358,47.22951],[12.14138,47.2282],[12.14079,47.22765],[12.1377,47.22629],[12.13787,47.22621],[12.14099,47.22752],[12.14228,47.22838],[12.14377,47.22908],[12.14477,47.22933]]}},{"type":"Feature","properties":{"kind":"piste","difficulty":"easy","name":null,"aerialway":null,"osm":"way/1473348425"},"geometry":{"type":"LineString","coordinates":[[12.13637,47.2264],[12.13445,47.22686],[12.13403,47.22713]]}},{"type":"Feature","properties":{"kind":"piste","difficulty":"intermediate","name":null,"aerialway":null,"osm":"way/1473348427"},"geometry":{"type":"LineString","coordinates":[[12.13565,47.22666],[12.13581,47.22668],[12.13592,47.22721],[12.13694,47.22721],[12.13773,47.22703]]}},{"type":"Feature","properties":{"kind":"piste","difficulty":"easy","name":null,"aerialway":null,"osm":"way/1473359397"},"geometry":{"type":"LineString","coordinates":[[12.13405,47.22721],[12.13273,47.22758],[12.13074,47.22779],[12.13151,47.22749],[12.135,47.2268],[12.13405,47.22721]]}},{"type":"Feature","properties":{"kind":"piste","difficulty":"easy","name":null,"aerialway":null,"osm":"way/1473359406"},"geometry":{"type":"LineString","coordinates":[[12.13613,47.22663],[12.1359,47.22694]]}},{"type":"Feature","properties":{"kind":"piste","difficulty":"intermediate","name":"SkiMovie Slalom","aerialway":null,"osm":"way/1473359407"},"geometry":{"type":"LineString","coordinates":[[12.13767,47.23329],[12.13794,47.23337],[12.13789,47.2336],[12.13807,47.2338],[12.13797,47.23408],[12.13815,47.2342],[12.13808,47.2344],[12.13827,47.23457],[12.13819,47.23477],[12.13834,47.23492],[12.13829,47.23514],[12.13855,47.23571],[12.13854,47.23616]]}},{"type":"Feature","properties":{"kind":"piste","difficulty":"easy","name":null,"aerialway":null,"osm":"relation/13612546"},"geometry":{"type":"MultiLineString","coordinates":[[[12.12396,47.23532],[12.12271,47.23622],[12.12235,47.23624],[12.12178,47.23585],[12.12133,47.23571],[12.12185,47.23512],[12.12251,47.2347],[12.12279,47.23472],[12.12318,47.23448],[12.12332,47.23459],[12.12382,47.23433],[12.12449,47.23365],[12.12467,47.23306],[12.12564,47.23176],[12.12746,47.22989],[12.12839,47.22863],[12.12901,47.22806],[12.13075,47.22716],[12.13139,47.22664],[12.13253,47.22508],[12.13362,47.22434],[12.13385,47.22405],[12.13396,47.22413],[12.13371,47.22457],[12.1338,47.22463],[12.13411,47.22439],[12.13424,47.22454],[12.13304,47.22546],[12.13151,47.22749],[12.13028,47.2281],[12.12952,47.22936],[12.1285,47.22955],[12.12738,47.2306],[12.12552,47.23295],[12.12487,47.2343],[12.12396,47.23532]],[[12.12217,47.23588],[12.12238,47.23607],[12.12273,47.23606],[12.12365,47.23471],[12.12274,47.23521],[12.12217,47.23588]]]}},{"type":"Feature","properties":{"kind":"lift","difficulty":null,"name":"Speedy Filzsteinbahn","aerialway":"chair_lift","osm":"way/25478842"},"geometry":{"type":"LineString","coordinates":[[12.15209,47.23268],[12.13739,47.22619]]}},{"type":"Feature","properties":{"kind":"lift","difficulty":null,"name":"Plattenkogel X-Press II","aerialway":"chair_lift","osm":"way/25478934"},"geometry":{"type":"LineString","coordinates":[[12.12242,47.23586],[12.13412,47.22425]]}},{"type":"Feature","properties":{"kind":"lift","difficulty":null,"name":"Duxer 6er Bubble","aerialway":"chair_lift","osm":"way/29714039"},"geometry":{"type":"LineString","coordinates":[[12.13884,47.23683],[12.1357,47.22678]]}},{"type":"Feature","properties":{"kind":"lift","difficulty":null,"name":"Duxer-X-Press","aerialway":"chair_lift","osm":"way/1124890649"},"geometry":{"type":"LineString","coordinates":[[12.14507,47.23451],[12.13663,47.22625]]}},{"type":"Feature","properties":{"kind":"lift","difficulty":null,"name":"Handlalmlift","aerialway":"t-bar","osm":"way/29714156"},"geometry":{"type":"LineString","coordinates":[[12.15226,47.22606],[12.14297,47.22694]]}},{"type":"Feature","properties":{"kind":"piste","difficulty":"advanced","name":null,"aerialway":null,"osm":"way/29714171"},"geometry":{"type":"LineString","coordinates":[[12.14386,47.22686],[12.14389,47.22663],[12.14476,47.22623],[12.14577,47.22605],[12.1484,47.226],[12.14911,47.22623],[12.14931,47.22646],[12.15054,47.22652],[12.15084,47.22664]]}},{"type":"Feature","properties":{"kind":"piste","difficulty":"intermediate","name":null,"aerialway":null,"osm":"way/29714183"},"geometry":{"type":"LineString","coordinates":[[12.14386,47.22686],[12.14392,47.22713],[12.14423,47.22741],[12.14497,47.22803],[12.14554,47.22827],[12.14806,47.22845],[12.14857,47.22832],[12.14881,47.2276],[12.14965,47.22697],[12.15141,47.22654],[12.15106,47.22536],[12.1514,47.22537],[12.15181,47.22563],[12.15216,47.22607]]}},{"type":"Feature","properties":{"kind":"piste","difficulty":"easy","name":null,"aerialway":null,"osm":"way/132105161"},"geometry":{"type":"LineString","coordinates":[[12.15103,47.2306],[12.1518,47.23077]]}},{"type":"Feature","properties":{"kind":"lift","difficulty":null,"name":"Filzstein I","aerialway":"platter","osm":"way/132105166"},"geometry":{"type":"LineString","coordinates":[[12.15535,47.23179],[12.14812,47.22912]]}},{"type":"Feature","properties":{"kind":"lift","difficulty":null,"name":"Duxerlift","aerialway":"platter","osm":"way/138959924"},"geometry":{"type":"LineString","coordinates":[[12.14632,47.23427],[12.14454,47.2319]]}},{"type":"Feature","properties":{"kind":"lift","difficulty":null,"name":"Filzstein II","aerialway":"platter","osm":"way/138959928"},"geometry":{"type":"LineString","coordinates":[[12.15535,47.23182],[12.15143,47.23037]]}},{"type":"Feature","properties":{"kind":"piste","difficulty":"advanced","name":null,"aerialway":null,"osm":"way/138959929"},"geometry":{"type":"LineString","coordinates":[[12.1484,47.226],[12.14963,47.22526],[12.15066,47.22509],[12.15117,47.22532]]}},{"type":"Feature","properties":{"kind":"piste","difficulty":"easy","name":null,"aerialway":null,"osm":"way/138959935"},"geometry":{"type":"LineString","coordinates":[[12.14856,47.22928],[12.14872,47.22962],[12.15103,47.2306],[12.1519,47.23118],[12.15236,47.2319],[12.15229,47.23266],[12.15209,47.23268]]}},{"type":"Feature","properties":{"kind":"piste","difficulty":"easy","name":null,"aerialway":null,"osm":"way/138959941"},"geometry":{"type":"LineString","coordinates":[[12.15174,47.23049],[12.1518,47.23077],[12.15434,47.23169],[12.15518,47.23193],[12.15535,47.23179]]}},{"type":"Feature","properties":{"kind":"lift","difficulty":null,"name":null,"aerialway":"magic_carpet","osm":"way/344895260"},"geometry":{"type":"LineString","coordinates":[[12.15365,47.23205],[12.15328,47.23188]]}},{"type":"Feature","properties":{"kind":"piste","difficulty":"easy","name":null,"aerialway":null,"osm":"way/981050114"},"geometry":{"type":"LineString","coordinates":[[12.14528,47.23357],[12.14529,47.23414],[12.14591,47.23438]]}},{"type":"Feature","properties":{"kind":"lift","difficulty":null,"name":null,"aerialway":"magic_carpet","osm":"way/991919362"},"geometry":{"type":"LineString","coordinates":[[12.14639,47.23423],[12.14622,47.23401]]}},{"type":"Feature","properties":{"kind":"piste","difficulty":"easy","name":null,"aerialway":null,"osm":"way/1016670948"},"geometry":{"type":"LineString","coordinates":[[12.15536,47.23186],[12.15535,47.23182]]}},{"type":"Feature","properties":{"kind":"piste","difficulty":"easy","name":null,"aerialway":null,"osm":"way/1016670949"},"geometry":{"type":"LineString","coordinates":[[12.14454,47.2319],[12.14443,47.23205],[12.14452,47.23251],[12.14528,47.23357],[12.14591,47.23438],[12.14632,47.23427]]}},{"type":"Feature","properties":{"kind":"piste","difficulty":"intermediate","name":null,"aerialway":null,"osm":"way/1259807291"},"geometry":{"type":"LineString","coordinates":[[12.14131,47.22778],[12.14205,47.22789],[12.14255,47.22778],[12.14272,47.22708],[12.14392,47.22713]]}},{"type":"Feature","properties":{"kind":"piste","difficulty":"intermediate","name":null,"aerialway":null,"osm":"way/1259807292"},"geometry":{"type":"LineString","coordinates":[[12.14386,47.22686],[12.14392,47.22713]]}},{"type":"Feature","properties":{"kind":"piste","difficulty":"easy","name":null,"aerialway":null,"osm":"way/1259807293"},"geometry":{"type":"LineString","coordinates":[[12.14392,47.22713],[12.14419,47.22827],[12.1448,47.22907]]}},{"type":"Feature","properties":{"kind":"lift","difficulty":null,"name":null,"aerialway":"magic_carpet","osm":"way/1347404793"},"geometry":{"type":"LineString","coordinates":[[12.15428,47.23262],[12.15409,47.23257]]}},{"type":"Feature","properties":{"kind":"piste","difficulty":"easy","name":null,"aerialway":null,"osm":"way/1370943396"},"geometry":{"type":"LineString","coordinates":[[12.15183,47.23238],[12.15329,47.23185],[12.15434,47.23169]]}},{"type":"Feature","properties":{"kind":"piste","difficulty":"easy","name":null,"aerialway":null,"osm":"way/1370945035"},"geometry":{"type":"LineString","coordinates":[[12.15328,47.23188],[12.15344,47.23207],[12.15365,47.23205]]}},{"type":"Feature","properties":{"kind":"piste","difficulty":"easy","name":null,"aerialway":null,"osm":"way/1370945036"},"geometry":{"type":"LineString","coordinates":[[12.15328,47.23188],[12.15365,47.23205]]}},{"type":"Feature","properties":{"kind":"piste","difficulty":"unknown","name":null,"aerialway":null,"osm":"way/1429940211"},"geometry":{"type":"LineString","coordinates":[[12.14591,47.23438],[12.14589,47.2345],[12.14549,47.23459]]}},{"type":"Feature","properties":{"kind":"piste","difficulty":"intermediate","name":null,"aerialway":null,"osm":"way/1473348413"},"geometry":{"type":"LineString","coordinates":[[12.15128,47.22605],[12.15164,47.22589],[12.15205,47.22594]]}},{"type":"Feature","properties":{"kind":"piste","difficulty":"intermediate","name":null,"aerialway":null,"osm":"way/1473348414"},"geometry":{"type":"LineString","coordinates":[[12.14736,47.22835],[12.1477,47.22825],[12.1482,47.22773],[12.14881,47.2276]]}},{"type":"Feature","properties":{"kind":"piste","difficulty":"intermediate","name":null,"aerialway":null,"osm":"way/1473348415"},"geometry":{"type":"LineString","coordinates":[[12.14429,47.22899],[12.14515,47.22836],[12.14554,47.22827]]}},{"type":"Feature","properties":{"kind":"piste","difficulty":"intermediate","name":null,"aerialway":null,"osm":"way/1473348416"},"geometry":{"type":"LineString","coordinates":[[12.14407,47.22735],[12.1447,47.22798],[12.14568,47.2284],[12.14781,47.22846],[12.14791,47.22833],[12.14562,47.22821],[12.14494,47.2279],[12.14402,47.22716],[12.14407,47.22735]]}},{"type":"Feature","properties":{"kind":"piste","difficulty":"intermediate","name":null,"aerialway":null,"osm":"way/1473348417"},"geometry":{"type":"LineString","coordinates":[[12.14791,47.22833],[12.14838,47.22834],[12.14864,47.22804],[12.14867,47.22771],[12.14894,47.22767],[12.14857,47.2284],[12.14801,47.2285],[12.14781,47.22846],[12.14791,47.22833]]}},{"type":"Feature","properties":{"kind":"piste","difficulty":"intermediate","name":null,"aerialway":null,"osm":"way/1473348418"},"geometry":{"type":"LineString","coordinates":[[12.14743,47.22824],[12.14772,47.22812],[12.14814,47.22768],[12.14876,47.22753],[12.14867,47.22771],[12.14803,47.22804],[12.14791,47.22833],[12.14743,47.22824]]}},{"type":"Feature","properties":{"kind":"piste","difficulty":"intermediate","name":null,"aerialway":null,"osm":"way/1473348419"},"geometry":{"type":"LineString","coordinates":[[12.14867,47.22771],[12.14961,47.22687],[12.151,47.22662],[12.15102,47.22674],[12.15001,47.22694],[12.14894,47.22767],[12.14867,47.22771]]}},{"type":"Feature","properties":{"kind":"piste","difficulty":"intermediate","name":null,"aerialway":null,"osm":"way/1473348420"},"geometry":{"type":"LineString","coordinates":[[12.151,47.22662],[12.15135,47.22644],[12.15125,47.22606],[12.15135,47.22604],[12.15157,47.22659],[12.15102,47.22674],[12.151,47.22662]]}},{"type":"Feature","properties":{"kind":"piste","difficulty":"intermediate","name":null,"aerialway":null,"osm":"way/1473348421"},"geometry":{"type":"LineString","coordinates":[[12.15135,47.22604],[12.15204,47.22596],[12.15184,47.22576],[12.15151,47.2257],[12.15132,47.22585],[12.15135,47.22604]]}},{"type":"Feature","properties":{"kind":"piste","difficulty":"easy","name":null,"aerialway":null,"osm":"way/1473348422"},"geometry":{"type":"LineString","coordinates":[[12.15125,47.22606],[12.15098,47.2254],[12.15117,47.22528],[12.15158,47.22544],[12.15212,47.22597],[12.15122,47.22536],[12.1511,47.22543],[12.15135,47.22604],[12.15125,47.22606]]}},{"type":"Feature","properties":{"kind":"piste","difficulty":"advanced","name":null,"aerialway":null,"osm":"way/1473348423"},"geometry":{"type":"LineString","coordinates":[[12.14428,47.22632],[12.14388,47.22653],[12.14399,47.2267],[12.14609,47.22611],[12.14842,47.22611],[12.14864,47.22597],[12.1476,47.22579],[12.14573,47.22591],[12.14485,47.22602],[12.14428,47.22632]]}},{"type":"Feature","properties":{"kind":"piste","difficulty":"advanced","name":null,"aerialway":null,"osm":"way/1473348424"},"geometry":{"type":"LineString","coordinates":[[12.14864,47.22597],[12.14927,47.22639],[12.15031,47.2264],[12.151,47.22662],[12.14935,47.22653],[12.14904,47.22628],[12.14842,47.22611],[12.14864,47.22597]]}},{"type":"Feature","properties":{"kind":"piste","difficulty":"easy","name":null,"aerialway":null,"osm":"way/1473348428"},"geometry":{"type":"LineString","coordinates":[[12.14438,47.23363],[12.14467,47.2332],[12.14546,47.23342],[12.14633,47.23438],[12.1458,47.23448],[12.1457,47.23436],[12.14525,47.23449],[12.14518,47.23427],[12.14468,47.23401],[12.14438,47.23363]]}},{"type":"Feature","properties":{"kind":"piste","difficulty":"easy","name":null,"aerialway":null,"osm":"way/1473348429"},"geometry":{"type":"LineString","coordinates":[[12.14424,47.23256],[12.14431,47.23202],[12.14446,47.23191],[12.14546,47.23342],[12.14467,47.2332],[12.14424,47.23256]]}},{"type":"Feature","properties":{"kind":"piste","difficulty":"novice","name":null,"aerialway":null,"osm":"way/1473348430"},"geometry":{"type":"LineString","coordinates":[[12.14637,47.23385],[12.14618,47.23398],[12.1464,47.23429],[12.14633,47.23438],[12.1467,47.23425],[12.14637,47.23385]]}},{"type":"Feature","properties":{"kind":"piste","difficulty":"novice","name":null,"aerialway":null,"osm":"way/1473359405"},"geometry":{"type":"LineString","coordinates":[[12.15425,47.23194],[12.15354,47.23231],[12.15285,47.23195],[12.15296,47.23176],[12.15322,47.23166],[12.15425,47.23194]]}},{"type":"Feature","properties":{"kind":"piste","difficulty":"advanced","name":null,"aerialway":null,"osm":"way/1473669885"},"geometry":{"type":"LineString","coordinates":[[12.14272,47.22708],[12.1428,47.22684],[12.14299,47.22674],[12.14389,47.22663]]}}]}