{"type":"FeatureCollection","features":[{"type":"Feature","properties":{"kind":"lift","difficulty":null,"name":"Marienbergbahn II","aerialway":"chair_lift","osm":"way/40454994"},"geometry":{"type":"LineString","coordinates":[[10.88821,47.36571],[10.89391,47.35301]]}},{"type":"Feature","properties":{"kind":"piste","difficulty":"easy","name":null,"aerialway":null,"osm":"way/84622131"},"geometry":{"type":"LineString","coordinates":[[10.89995,47.34896],[10.90032,47.34923],[10.90029,47.34964]]}},{"type":"Feature","properties":{"kind":"lift","difficulty":null,"name":null,"aerialway":"magic_carpet","osm":"way/84622138"},"geometry":{"type":"LineString","coordinates":[[10.88943,47.37296],[10.88903,47.37205]]}},{"type":"Feature","properties":{"kind":"lift","difficulty":null,"name":"Almlift","aerialway":"t-bar","osm":"way/84622139"},"geometry":{"type":"LineString","coordinates":[[10.89975,47.34242],[10.89995,47.3494]]}},{"type":"Feature","properties":{"kind":"lift","difficulty":null,"name":"Schöner Hanglift","aerialway":"t-bar","osm":"way/84622151"},"geometry":{"type":"LineString","coordinates":[[10.8888,47.36686],[10.89325,47.36034]]}},{"type":"Feature","properties":{"kind":"lift","difficulty":null,"name":"Jochlift","aerialway":"t-bar","osm":"way/84622162"},"geometry":{"type":"LineString","coordinates":[[10.89173,47.35136],[10.90159,47.3499]]}},{"type":"Feature","properties":{"kind":"lift","difficulty":null,"name":"Marienbergbahn I","aerialway":"chair_lift","osm":"way/153416509"},"geometry":{"type":"LineString","coordinates":[[10.89116,47.37372],[10.88782,47.36559]]}},{"type":"Feature","properties":{"kind":"piste","difficulty":"easy","name":"Almliftabfahrt","aerialway":null,"osm":"way/331407122"},"geometry":{"type":"LineString","coordinates":[[10.89995,47.34896],[10.89843,47.34846],[10.89901,47.34795],[10.89928,47.34727],[10.899,47.34614],[10.89874,47.3432],[10.89971,47.3423]]}},{"type":"Feature","properties":{"kind":"piste","difficulty":"easy","name":"Almliftabfahrt","aerialway":null,"osm":"way/331407123"},"geometry":{"type":"LineString","coordinates":[[10.90096,47.35],[10.90099,47.34954],[10.9007,47.34919],[10.90051,47.3486],[10.90027,47.34845],[10.89919,47.34835],[10.89843,47.34846]]}},{"type":"Feature","properties":{"kind":"piste","difficulty":"easy","name":"Almliftabfahrt","aerialway":null,"osm":"way/331407124"},"geometry":{"type":"LineString","coordinates":[[10.89928,47.34727],[10.89972,47.34675],[10.90024,47.34574],[10.90031,47.34486],[10.90103,47.34289],[10.90098,47.34232],[10.89993,47.34212],[10.89971,47.3423]]}},{"type":"Feature","properties":{"kind":"piste","difficulty":"easy","name":"Gratabfahrt","aerialway":null,"osm":"way/331407125"},"geometry":{"type":"LineString","coordinates":[[10.90097,47.34985],[10.90029,47.34964],[10.89895,47.35076],[10.89548,47.35196],[10.8938,47.35282],[10.89353,47.35244],[10.89269,47.35212],[10.89178,47.35195],[10.89133,47.35159],[10.89142,47.35135],[10.89159,47.35132]]}},{"type":"Feature","properties":{"kind":"piste","difficulty":"easy","name":null,"aerialway":null,"osm":"way/331407130"},"geometry":{"type":"LineString","coordinates":[[10.88938,47.37139],[10.88851,47.37244]]}},{"type":"Feature","properties":{"kind":"piste","difficulty":"easy","name":null,"aerialway":null,"osm":"way/331407131"},"geometry":{"type":"LineString","coordinates":[[10.88737,47.36613],[10.8888,47.36686]]}},{"type":"Feature","properties":{"kind":"piste","difficulty":"intermediate","name":"Jochliftabfahrt","aerialway":null,"osm":"way/396611617"},"geometry":{"type":"LineString","coordinates":[[10.89996,47.34999],[10.8967,47.35049],[10.89448,47.35054],[10.89175,47.35118],[10.89159,47.35132]]}},{"type":"Feature","properties":{"kind":"piste","difficulty":"advanced","name":"Kreuzbodenroute","aerialway":null,"osm":"way/1025940950"},"geometry":{"type":"LineString","coordinates":[[10.89895,47.35076],[10.89892,47.35099],[10.8986,47.35105],[10.89702,47.35359],[10.89657,47.35397],[10.89606,47.35498],[10.89576,47.35532]]}},{"type":"Feature","properties":{"kind":"piste","difficulty":"advanced","name":"Kreuzbodenroute","aerialway":null,"osm":"way/1025940959"},"geometry":{"type":"LineString","coordinates":[[10.89554,47.35601],[10.89463,47.35689],[10.8943,47.35757]]}},{"type":"Feature","properties":{"kind":"piste","difficulty":"easy","name":"Talabfahrt","aerialway":null,"osm":"way/1025940966"},"geometry":{"type":"LineString","coordinates":[[10.89325,47.36034],[10.89279,47.36029]]}},{"type":"Feature","properties":{"kind":"piste","difficulty":"intermediate","name":null,"aerialway":null,"osm":"way/1362551013"},"geometry":{"type":"LineString","coordinates":[[10.89968,47.34993],[10.89874,47.35016],[10.89644,47.35027],[10.89609,47.3504],[10.89553,47.35038],[10.89545,47.35021],[10.89375,47.35043],[10.89208,47.35076],[10.89151,47.35108],[10.8918,47.35129],[10.89545,47.35061],[10.89603,47.35068],[10.89969,47.35015],[10.89968,47.34993]]}},{"type":"Feature","properties":{"kind":"piste","difficulty":"easy","name":null,"aerialway":null,"osm":"way/1362551014"},"geometry":{"type":"LineString","coordinates":[[10.89381,47.35288],[10.89629,47.35197],[10.89716,47.35145],[10.89831,47.35104],[10.8989,47.35097],[10.89881,47.3507],[10.89764,47.35119],[10.89635,47.35134],[10.89531,47.35187],[10.89486,47.35193],[10.89468,47.3522],[10.8943,47.35236],[10.89181,47.35175],[10.89145,47.35131],[10.89095,47.35146],[10.8918,47.35216],[10.89284,47.35241],[10.89381,47.35288]]}},{"type":"Feature","properties":{"kind":"piste","difficulty":"unknown","name":null,"aerialway":null,"osm":"way/1468468547"},"geometry":{"type":"LineString","coordinates":[[10.91807,47.34391],[10.9203,47.34282],[10.92283,47.34221],[10.92755,47.34183],[10.92979,47.34128],[10.93026,47.3414]]}},{"type":"Feature","properties":{"kind":"piste","difficulty":"unknown","name":"Knäbleslochabfahrt","aerialway":null,"osm":"relation/13736836"},"geometry":{"type":"MultiLineString","coordinates":[[[10.89566,47.35449],[10.89546,47.35568],[10.89554,47.35601]],[[10.89395,47.35885],[10.89279,47.36029]],[[10.89554,47.35601],[10.89689,47.35624],[10.89727,47.35668],[10.89727,47.35719],[10.89705,47.35738],[10.89567,47.3579],[10.89395,47.35885]],[[10.89477,47.35544],[10.89518,47.35588],[10.89554,47.35601]],[[10.89566,47.35449],[10.89622,47.35473],[10.89668,47.35521],[10.89477,47.35544]],[[10.89146,47.3545],[10.8922,47.35492],[10.89242,47.35492],[10.89458,47.35419],[10.89528,47.35422],[10.89566,47.35449]],[[10.8938,47.35282],[10.89182,47.35393],[10.89146,47.3545]]]}},{"type":"Feature","properties":{"kind":"piste","difficulty":"intermediate","name":"Standardabfahrt","aerialway":null,"osm":"relation/13736837"},"geometry":{"type":"MultiLineString","coordinates":[[[10.88774,47.36479],[10.88834,47.3653],[10.88843,47.36557],[10.88829,47.36579]],[[10.89279,47.36029],[10.89032,47.36319],[10.88851,47.36418],[10.88774,47.36479]],[[10.89395,47.35885],[10.89279,47.36029]],[[10.89554,47.35601],[10.8964,47.35625],[10.89643,47.35647],[10.89606,47.3568],[10.8943,47.35757],[10.89395,47.35885]],[[10.89477,47.35544],[10.89518,47.35588],[10.89554,47.35601]],[[10.89146,47.3545],[10.89122,47.35525],[10.89133,47.3556],[10.89154,47.3557],[10.89223,47.35578],[10.894,47.35565],[10.89477,47.35544]],[[10.8938,47.35282],[10.89303,47.35283],[10.89198,47.3531],[10.89119,47.35364],[10.89112,47.35384],[10.89146,47.3545]]]}},{"type":"Feature","properties":{"kind":"piste","difficulty":"easy","name":"Talabfahrt","aerialway":null,"osm":"relation/13736838"},"geometry":{"type":"MultiLineString","coordinates":[[[10.88744,47.36566],[10.88734,47.36718],[10.88853,47.36907],[10.88938,47.37139],[10.89083,47.37379],[10.89116,47.37372]],[[10.88774,47.36479],[10.88735,47.36513],[10.88744,47.36566]],[[10.89279,47.36029],[10.89032,47.36319],[10.88851,47.36418],[10.88774,47.36479]]]}}]}