{"type":"FeatureCollection","features":[{"type":"Feature","properties":{"kind":"piste","difficulty":"intermediate","name":"Bubble Piste","aerialway":null,"osm":"way/30765847"},"geometry":{"type":"LineString","coordinates":[[13.34661,47.29375],[13.34628,47.29417],[13.34551,47.29424],[13.34318,47.29315],[13.3406,47.2925],[13.34009,47.29192],[13.34011,47.29149],[13.33937,47.28999],[13.33934,47.28949],[13.33968,47.28913],[13.33821,47.28788]]}},{"type":"Feature","properties":{"kind":"piste","difficulty":"easy","name":null,"aerialway":null,"osm":"way/32654053"},"geometry":{"type":"LineString","coordinates":[[13.39254,47.29679],[13.3924,47.29696]]}},{"type":"Feature","properties":{"kind":"piste","difficulty":"easy","name":"Family Run Sunshine","aerialway":null,"osm":"way/32654054"},"geometry":{"type":"LineString","coordinates":[[13.38074,47.306],[13.38138,47.3055],[13.3821,47.30449],[13.3821,47.30416],[13.38246,47.30385],[13.38253,47.30344],[13.38199,47.30301],[13.38172,47.30245],[13.38199,47.30253],[13.38222,47.30291],[13.38321,47.30316],[13.38358,47.30345],[13.38416,47.30341],[13.38428,47.30329],[13.38419,47.30277],[13.38433,47.30188],[13.38502,47.30126],[13.38805,47.29976],[13.38908,47.29869],[13.3911,47.29797],[13.39236,47.29691],[13.39209,47.29691]]}},{"type":"Feature","properties":{"kind":"piste","difficulty":"easy","name":"Family Run Absolut - Family","aerialway":null,"osm":"way/32654056"},"geometry":{"type":"LineString","coordinates":[[13.38074,47.306],[13.38089,47.30628],[13.38083,47.30651],[13.38106,47.3066]]}},{"type":"Feature","properties":{"kind":"piste","difficulty":"easy","name":"Family Run Absolut - Family","aerialway":null,"osm":"way/32654057"},"geometry":{"type":"LineString","coordinates":[[13.37757,47.30504],[13.37937,47.30541],[13.38074,47.306]]}},{"type":"Feature","properties":{"kind":"piste","difficulty":"easy","name":"Family Run Absolut - Family","aerialway":null,"osm":"way/32654058"},"geometry":{"type":"LineString","coordinates":[[13.36041,47.30412],[13.3602,47.30413],[13.35971,47.30371],[13.35797,47.30346],[13.3568,47.30297],[13.35589,47.30238],[13.35474,47.30124],[13.35443,47.30119]]}},{"type":"Feature","properties":{"kind":"piste","difficulty":"easy","name":"Family Run Absolut - Family","aerialway":null,"osm":"way/32654059"},"geometry":{"type":"LineString","coordinates":[[13.35474,47.30124],[13.35478,47.30104]]}},{"type":"Feature","properties":{"kind":"piste","difficulty":"easy","name":"Powder Piste","aerialway":null,"osm":"way/32654061"},"geometry":{"type":"LineString","coordinates":[[13.35289,47.30079],[13.3545,47.30135],[13.35474,47.30124]]}},{"type":"Feature","properties":{"kind":"piste","difficulty":"intermediate","name":"Family Piste Steilhang","aerialway":null,"osm":"way/32654063"},"geometry":{"type":"LineString","coordinates":[[13.3602,47.30413],[13.36179,47.30489],[13.36322,47.30499],[13.3634,47.30486],[13.36324,47.30383],[13.36358,47.30329],[13.36528,47.30296],[13.36594,47.30311]]}},{"type":"Feature","properties":{"kind":"piste","difficulty":"easy","name":"Family Run Absolut - Family","aerialway":null,"osm":"way/32654065"},"geometry":{"type":"LineString","coordinates":[[13.35023,47.30592],[13.35021,47.30607],[13.35043,47.30611],[13.35109,47.30561],[13.35203,47.3053],[13.353,47.3053],[13.35932,47.30458],[13.3602,47.30413]]}},{"type":"Feature","properties":{"kind":"piste","difficulty":"intermediate","name":"Absolut Piste am Park","aerialway":null,"osm":"way/32654066"},"geometry":{"type":"LineString","coordinates":[[13.35021,47.30601],[13.35015,47.30589],[13.3503,47.30582],[13.35049,47.30525],[13.35025,47.3039],[13.35074,47.30343],[13.35223,47.30318],[13.35536,47.30296],[13.35636,47.30271]]}},{"type":"Feature","properties":{"kind":"piste","difficulty":"intermediate","name":"Family Piste Steilhang","aerialway":null,"osm":"way/32654067"},"geometry":{"type":"LineString","coordinates":[[13.36594,47.30311],[13.3691,47.30476],[13.3698,47.30482],[13.37102,47.30463],[13.37403,47.30544],[13.37585,47.30543],[13.3768,47.30508],[13.37854,47.30493],[13.3797,47.30505],[13.38227,47.30481]]}},{"type":"Feature","properties":{"kind":"piste","difficulty":"easy","name":"Absolut Piste","aerialway":null,"osm":"way/32654069"},"geometry":{"type":"LineString","coordinates":[[13.35636,47.30271],[13.3606,47.30055],[13.36095,47.30045],[13.36097,47.30059]]}},{"type":"Feature","properties":{"kind":"piste","difficulty":"easy","name":"Family Run Powder","aerialway":null,"osm":"way/32654070"},"geometry":{"type":"LineString","coordinates":[[13.34779,47.29419],[13.34711,47.29442]]}},{"type":"Feature","properties":{"kind":"piste","difficulty":"easy","name":"Family Run Powder","aerialway":null,"osm":"way/32654071"},"geometry":{"type":"LineString","coordinates":[[13.34661,47.29375],[13.34711,47.29442]]}},{"type":"Feature","properties":{"kind":"piste","difficulty":"easy","name":"Family Run Powder","aerialway":null,"osm":"way/32654072"},"geometry":{"type":"LineString","coordinates":[[13.34711,47.29442],[13.34721,47.29484],[13.34709,47.29546],[13.34617,47.29667],[13.34581,47.29753],[13.34597,47.29878],[13.34623,47.29957],[13.34658,47.30016],[13.34708,47.30067],[13.34823,47.30124],[13.34887,47.30132],[13.35204,47.30083],[13.35289,47.30079],[13.35478,47.30104]]}},{"type":"Feature","properties":{"kind":"piste","difficulty":"intermediate","name":"Powder Piste","aerialway":null,"osm":"way/32654073"},"geometry":{"type":"LineString","coordinates":[[13.34584,47.29771],[13.34749,47.29882],[13.34823,47.29949],[13.34897,47.29991],[13.35078,47.30022],[13.35289,47.30079]]}},{"type":"Feature","properties":{"kind":"piste","difficulty":"easy","name":"Family Run Powder","aerialway":null,"osm":"way/32654084"},"geometry":{"type":"LineString","coordinates":[[13.34588,47.29625],[13.34593,47.29648],[13.34617,47.29667]]}},{"type":"Feature","properties":{"kind":"piste","difficulty":"intermediate","name":"Fürstwand Piste","aerialway":null,"osm":"way/32654086"},"geometry":{"type":"LineString","coordinates":[[13.34588,47.29625],[13.34563,47.29606],[13.34448,47.29595],[13.34338,47.29477],[13.34191,47.2938],[13.34085,47.29377],[13.34033,47.29349],[13.3392,47.29378],[13.33895,47.29373],[13.33873,47.29337],[13.33799,47.29323],[13.337,47.29336],[13.33656,47.29372],[13.33586,47.29357],[13.33547,47.29365],[13.33471,47.29451],[13.33317,47.2953],[13.33256,47.29585],[13.33218,47.2959]]}},{"type":"Feature","properties":{"kind":"piste","difficulty":"easy","name":"Family Run Kleinarl","aerialway":null,"osm":"way/32654088"},"geometry":{"type":"LineString","coordinates":[[13.34397,47.29538],[13.3432,47.29528],[13.3425,47.29542],[13.34114,47.29601],[13.33938,47.29648],[13.33693,47.29667],[13.3342,47.2961],[13.33182,47.29584],[13.33123,47.29556],[13.3309,47.29484],[13.33076,47.29367],[13.3316,47.29247],[13.33155,47.29192],[13.33174,47.29138],[13.33359,47.2885],[13.33356,47.28832],[13.33304,47.28788],[13.33285,47.28754],[13.33248,47.28541],[13.33224,47.28483],[13.33224,47.28406]]}},{"type":"Feature","properties":{"kind":"piste","difficulty":"advanced","name":"Champion Piste","aerialway":null,"osm":"way/32654093"},"geometry":{"type":"LineString","coordinates":[[13.33224,47.28406],[13.33126,47.2839],[13.33087,47.28371],[13.33081,47.28302],[13.33043,47.28285],[13.3301,47.28284],[13.32874,47.28375],[13.32495,47.28323],[13.32334,47.28275],[13.32273,47.28236],[13.32194,47.28094],[13.32162,47.28096],[13.32119,47.28131],[13.32103,47.28196],[13.32067,47.28237],[13.3196,47.28208],[13.31941,47.28193],[13.31941,47.2818],[13.31952,47.28183]]}},{"type":"Feature","properties":{"kind":"piste","difficulty":"easy","name":"Beginner Area Kleinarl","aerialway":null,"osm":"way/449399878"},"geometry":{"type":"LineString","coordinates":[[13.32067,47.28237],[13.32031,47.28258],[13.32005,47.28297],[13.31907,47.28328],[13.3186,47.28366],[13.31772,47.28371],[13.31732,47.28335],[13.31629,47.28326]]}},{"type":"Feature","properties":{"kind":"piste","difficulty":"easy","name":"Beginner Area Flachauwinkl","aerialway":null,"osm":"way/449400838"},"geometry":{"type":"LineString","coordinates":[[13.38897,47.29876],[13.39064,47.29842],[13.39158,47.29847],[13.39188,47.29868]]}},{"type":"Feature","properties":{"kind":"piste","difficulty":"intermediate","name":"Sunshine Piste","aerialway":null,"osm":"way/449510923"},"geometry":{"type":"LineString","coordinates":[[13.38227,47.30481],[13.3833,47.30428],[13.38388,47.30377],[13.38389,47.30253],[13.38421,47.30171],[13.38456,47.30127],[13.3857,47.30047],[13.38777,47.29942],[13.38866,47.2988],[13.38897,47.29876],[13.38949,47.29828],[13.39109,47.29782],[13.39197,47.29732],[13.3924,47.29696],[13.39228,47.29684],[13.39209,47.29691]]}},{"type":"Feature","properties":{"kind":"piste","difficulty":"easy","name":"Family Run Absolut - Family","aerialway":null,"osm":"way/449513590"},"geometry":{"type":"LineString","coordinates":[[13.35478,47.30104],[13.35589,47.30126],[13.35779,47.30125],[13.35821,47.30144],[13.35952,47.30157],[13.36053,47.30211],[13.36129,47.30197],[13.36437,47.30271],[13.36526,47.30334],[13.36602,47.30411],[13.3667,47.30445],[13.36703,47.30476],[13.367,47.30436],[13.36716,47.30406],[13.36764,47.3037],[13.36847,47.30342],[13.3686,47.3031],[13.36856,47.30282],[13.36986,47.30187],[13.37014,47.30185],[13.37084,47.30254],[13.3712,47.30324],[13.37128,47.3039],[13.37162,47.30376],[13.37228,47.30309],[13.37205,47.30257],[13.37205,47.3024],[13.37215,47.30239],[13.37291,47.30268],[13.37368,47.30395],[13.37433,47.30452],[13.37506,47.30493],[13.37503,47.3055],[13.37465,47.30606],[13.37464,47.30632],[13.37538,47.30718],[13.37547,47.30713],[13.37538,47.30674],[13.37555,47.30638],[13.37626,47.30613],[13.37712,47.30552],[13.37724,47.30561],[13.37695,47.30626],[13.37784,47.30698],[13.37811,47.30621],[13.37894,47.30577],[13.38074,47.306]]}},{"type":"Feature","properties":{"kind":"piste","difficulty":"easy","name":"Family Run Sunshine","aerialway":null,"osm":"way/449513591"},"geometry":{"type":"LineString","coordinates":[[13.38118,47.30593],[13.38074,47.306]]}},{"type":"Feature","properties":{"kind":"piste","difficulty":"easy","name":"Family Piste","aerialway":null,"osm":"way/449513593"},"geometry":{"type":"LineString","coordinates":[[13.35882,47.3015],[13.36005,47.30136],[13.36147,47.30145],[13.36461,47.30241],[13.36594,47.30311]]}},{"type":"Feature","properties":{"kind":"piste","difficulty":"easy","name":"Family Run Kleinarl","aerialway":null,"osm":"way/449516523"},"geometry":{"type":"LineString","coordinates":[[13.34721,47.29484],[13.34622,47.29503],[13.34545,47.29444]]}},{"type":"Feature","properties":{"kind":"piste","difficulty":"easy","name":"Family Run Kleinarl","aerialway":null,"osm":"way/449516524"},"geometry":{"type":"LineString","coordinates":[[13.34661,47.29375],[13.3466,47.29418],[13.34545,47.29444],[13.34524,47.29431],[13.3451,47.29445],[13.34504,47.29483],[13.34478,47.29475],[13.34383,47.29398],[13.34357,47.29402],[13.34318,47.29493],[13.3425,47.29542]]}},{"type":"Feature","properties":{"kind":"piste","difficulty":"intermediate","name":"Bubble Piste","aerialway":null,"osm":"way/449517692"},"geometry":{"type":"LineString","coordinates":[[13.3445,47.29372],[13.34198,47.29347],[13.33991,47.29308],[13.33837,47.29308],[13.33814,47.29296],[13.33817,47.29253],[13.33913,47.29128],[13.33902,47.29111],[13.33789,47.29123],[13.33756,47.29116],[13.33747,47.29095],[13.33761,47.29059],[13.33842,47.28958],[13.33858,47.28857],[13.33821,47.28788],[13.33755,47.28732],[13.33384,47.28482],[13.3327,47.28413],[13.33224,47.28406],[13.33211,47.28346],[13.33235,47.2834]]}},{"type":"Feature","properties":{"kind":"piste","difficulty":"intermediate","name":"Champions Piste","aerialway":null,"osm":"way/452476376"},"geometry":{"type":"LineString","coordinates":[[13.3318,47.2842],[13.33224,47.28406]]}},{"type":"Feature","properties":{"kind":"piste","difficulty":"easy","name":"Absolut Panoramapiste","aerialway":null,"osm":"way/454835832"},"geometry":{"type":"LineString","coordinates":[[13.35023,47.30592],[13.35034,47.30609],[13.35104,47.30557],[13.35198,47.30523],[13.35305,47.30521],[13.35578,47.30469],[13.35817,47.30457],[13.3602,47.30413]]}},{"type":"Feature","properties":{"kind":"piste","difficulty":"easy","name":"Family Run Kleinarl","aerialway":null,"osm":"way/464896075"},"geometry":{"type":"LineString","coordinates":[[13.33224,47.28406],[13.33151,47.28479],[13.33005,47.28749],[13.32874,47.2885],[13.32721,47.28836],[13.32658,47.28847],[13.32561,47.28884],[13.32493,47.28948],[13.32277,47.28968],[13.322,47.28988],[13.32124,47.2905],[13.32097,47.29001],[13.32099,47.28973],[13.32124,47.2894],[13.32127,47.28888],[13.32149,47.28845],[13.32131,47.28838],[13.32015,47.28884],[13.32005,47.28878],[13.3206,47.288],[13.32053,47.2879],[13.31966,47.28823],[13.31978,47.28751],[13.32026,47.28717],[13.31966,47.28656],[13.31978,47.28621],[13.32028,47.28574],[13.32075,47.28502],[13.32076,47.28432],[13.32057,47.28403],[13.32103,47.28342],[13.32093,47.28298],[13.32075,47.28283],[13.31964,47.28313],[13.31949,47.28299],[13.31952,47.28204]]}},{"type":"Feature","properties":{"kind":"piste","difficulty":"easy","name":null,"aerialway":null,"osm":"way/553083876"},"geometry":{"type":"LineString","coordinates":[[13.34654,47.29526],[13.34665,47.29536],[13.34655,47.29545],[13.34632,47.29539],[13.34592,47.29489]]}},{"type":"Feature","properties":{"kind":"piste","difficulty":"easy","name":"Fürstwand Piste","aerialway":null,"osm":"way/553083877"},"geometry":{"type":"LineString","coordinates":[[13.34665,47.29536],[13.34666,47.29559],[13.34545,47.29585],[13.34518,47.29603]]}},{"type":"Feature","properties":{"kind":"piste","difficulty":"easy","name":null,"aerialway":null,"osm":"way/553083878"},"geometry":{"type":"LineString","coordinates":[[13.34709,47.29546],[13.34666,47.29559],[13.34669,47.29598]]}},{"type":"Feature","properties":{"kind":"piste","difficulty":"advanced","name":null,"aerialway":null,"osm":"way/553083879"},"geometry":{"type":"LineString","coordinates":[[13.34479,47.2973],[13.34378,47.29779],[13.34245,47.29767],[13.34126,47.29727],[13.33955,47.29775],[13.33746,47.29779],[13.3358,47.29805],[13.33368,47.29797],[13.33254,47.29778],[13.33218,47.29741],[13.33207,47.29643],[13.33141,47.29572]]}},{"type":"Feature","properties":{"kind":"piste","difficulty":"advanced","name":null,"aerialway":null,"osm":"way/553083880"},"geometry":{"type":"LineString","coordinates":[[13.32775,47.28363],[13.32767,47.28255],[13.32832,47.28141],[13.32895,47.28069],[13.32867,47.28036],[13.32758,47.27959],[13.32544,47.27851],[13.32216,47.27782],[13.32171,47.27802],[13.32122,47.27868],[13.31979,47.28115],[13.31942,47.28114]]}},{"type":"Feature","properties":{"kind":"piste","difficulty":"advanced","name":null,"aerialway":null,"osm":"way/553085471"},"geometry":{"type":"LineString","coordinates":[[13.34779,47.29419],[13.3477,47.29403],[13.34781,47.29399],[13.34904,47.2951],[13.35054,47.29613],[13.35171,47.29647],[13.35233,47.29706],[13.35258,47.29828],[13.35377,47.30024],[13.35445,47.30098]]}},{"type":"Feature","properties":{"kind":"piste","difficulty":"advanced","name":null,"aerialway":null,"osm":"way/553085472"},"geometry":{"type":"LineString","coordinates":[[13.34752,47.2942],[13.34795,47.29499],[13.34796,47.29579],[13.34833,47.29639]]}},{"type":"Feature","properties":{"kind":"piste","difficulty":"advanced","name":null,"aerialway":null,"osm":"way/553085473"},"geometry":{"type":"LineString","coordinates":[[13.34833,47.29639],[13.34961,47.29736],[13.35151,47.29729],[13.35217,47.29769],[13.35258,47.29828]]}},{"type":"Feature","properties":{"kind":"piste","difficulty":"advanced","name":null,"aerialway":null,"osm":"way/553085474"},"geometry":{"type":"LineString","coordinates":[[13.34833,47.29639],[13.34911,47.29774],[13.34928,47.29832],[13.34988,47.29913],[13.35153,47.30039]]}},{"type":"Feature","properties":{"kind":"piste","difficulty":"advanced","name":"Champion Piste","aerialway":null,"osm":"way/766353374"},"geometry":{"type":"LineString","coordinates":[[13.31952,47.28183],[13.31958,47.28183]]}},{"type":"Feature","properties":{"kind":"piste","difficulty":"intermediate","name":null,"aerialway":null,"osm":"way/833630329"},"geometry":{"type":"LineString","coordinates":[[13.3309,47.29484],[13.33024,47.29471],[13.32892,47.29415],[13.32642,47.29218],[13.32483,47.29159],[13.32448,47.29133],[13.32394,47.29003],[13.3234,47.28963]]}},{"type":"Feature","properties":{"kind":"piste","difficulty":"advanced","name":null,"aerialway":null,"osm":"way/833630330"},"geometry":{"type":"LineString","coordinates":[[13.36048,47.30424],[13.36213,47.30422],[13.36565,47.30481],[13.36901,47.30506],[13.37805,47.30631]]}},{"type":"Feature","properties":{"kind":"piste","difficulty":"advanced","name":null,"aerialway":null,"osm":"way/833630331"},"geometry":{"type":"LineString","coordinates":[[13.35034,47.30567],[13.35292,47.30472],[13.35636,47.30271]]}},{"type":"Feature","properties":{"kind":"piste","difficulty":"advanced","name":null,"aerialway":null,"osm":"way/833630335"},"geometry":{"type":"LineString","coordinates":[[13.32874,47.28375],[13.32725,47.2841],[13.32352,47.28327],[13.32229,47.2836],[13.32177,47.28388],[13.32138,47.28356],[13.32103,47.28348]]}},{"type":"Feature","properties":{"kind":"piste","difficulty":"easy","name":null,"aerialway":null,"osm":"way/1035580811"},"geometry":{"type":"LineString","coordinates":[[13.34517,47.29764],[13.34519,47.29746],[13.34479,47.2973],[13.3443,47.29663],[13.34385,47.29571],[13.34397,47.29538]]}},{"type":"Feature","properties":{"kind":"piste","difficulty":"easy","name":"Family Run Kleinarl","aerialway":null,"osm":"way/1191715530"},"geometry":{"type":"LineString","coordinates":[[13.32277,47.28968],[13.32204,47.29017],[13.32147,47.29095]]}},{"type":"Feature","properties":{"kind":"piste","difficulty":"easy","name":"Family Run Kleinarl","aerialway":null,"osm":"way/1362618531"},"geometry":{"type":"LineString","coordinates":[[13.34397,47.29538],[13.3422,47.29566],[13.34108,47.29615],[13.3395,47.29661],[13.33687,47.29683],[13.33482,47.29634],[13.33177,47.29601],[13.33126,47.29582],[13.33084,47.29514],[13.33064,47.29378],[13.33072,47.29347],[13.33148,47.29263],[13.3314,47.2921],[13.33151,47.29159],[13.3324,47.29006],[13.3331,47.28918],[13.33325,47.28874],[13.33347,47.28856],[13.33348,47.2884],[13.33278,47.28769],[13.33245,47.28581],[13.3321,47.28476],[13.3322,47.28432],[13.33213,47.28408],[13.33237,47.28423],[13.33241,47.28505],[13.33293,47.28755],[13.33358,47.28825],[13.33364,47.28851],[13.33323,47.28928],[13.33244,47.29027],[13.33167,47.29172],[13.33164,47.29267],[13.33087,47.29372],[13.33112,47.29512],[13.33127,47.29539],[13.33181,47.29572],[13.33436,47.29598],[13.33581,47.29641],[13.33697,47.29654],[13.33966,47.29633],[13.34108,47.29591],[13.34305,47.29495],[13.34397,47.29538]]}},{"type":"Feature","properties":{"kind":"piste","difficulty":"advanced","name":"Champion Piste","aerialway":null,"osm":"way/1362618532"},"geometry":{"type":"LineString","coordinates":[[13.33176,47.28454],[13.33105,47.28436],[13.33087,47.28371]]}},{"type":"Feature","properties":{"kind":"piste","difficulty":"easy","name":"Family Run Kleinarl","aerialway":null,"osm":"way/1362618533"},"geometry":{"type":"LineString","coordinates":[[13.33224,47.28483],[13.33176,47.28454]]}},{"type":"Feature","properties":{"kind":"piste","difficulty":"intermediate","name":"Bubble Piste","aerialway":null,"osm":"way/1362618534"},"geometry":{"type":"LineString","coordinates":[[13.33999,47.29127],[13.33911,47.29113]]}},{"type":"Feature","properties":{"kind":"piste","difficulty":"intermediate","name":"Bubble Piste","aerialway":null,"osm":"way/1362618535"},"geometry":{"type":"LineString","coordinates":[[13.33911,47.29113],[13.33932,47.28972]]}},{"type":"Feature","properties":{"kind":"piste","difficulty":"intermediate","name":"Bubble Piste","aerialway":null,"osm":"way/1363329938"},"geometry":{"type":"LineString","coordinates":[[13.33224,47.28406],[13.33275,47.2838],[13.33358,47.28405],[13.33922,47.28811],[13.34001,47.28908],[13.33959,47.28939],[13.33947,47.28965],[13.34068,47.29235],[13.34097,47.29251],[13.34278,47.29267],[13.34431,47.29338],[13.34547,47.29409],[13.34573,47.29415],[13.3464,47.29397],[13.34661,47.29375],[13.3465,47.29405],[13.34636,47.2942],[13.34544,47.29433],[13.3431,47.29345],[13.34115,47.29309],[13.34015,47.29278],[13.33971,47.2923],[13.33974,47.29103],[13.33923,47.2897],[13.33935,47.28908],[13.33814,47.28832],[13.33724,47.28743],[13.33562,47.28626],[13.33385,47.28527],[13.33279,47.28484],[13.33238,47.2848],[13.33237,47.28423],[13.33224,47.28406]]}},{"type":"Feature","properties":{"kind":"piste","difficulty":"intermediate","name":null,"aerialway":null,"osm":"way/1363329939"},"geometry":{"type":"LineString","coordinates":[[13.33083,47.29469],[13.32922,47.29407],[13.32773,47.29307],[13.32662,47.29206],[13.32463,47.29135],[13.32379,47.28967],[13.32326,47.28977],[13.32376,47.28999],[13.32443,47.29157],[13.32591,47.29216],[13.32914,47.29441],[13.3308,47.29496],[13.33083,47.29469]]}},{"type":"Feature","properties":{"kind":"piste","difficulty":"intermediate","name":null,"aerialway":null,"osm":"way/1363329940"},"geometry":{"type":"LineString","coordinates":[[13.33873,47.29337],[13.33837,47.29308]]}},{"type":"Feature","properties":{"kind":"piste","difficulty":"intermediate","name":null,"aerialway":null,"osm":"way/1363329941"},"geometry":{"type":"LineString","coordinates":[[13.33871,47.29312],[13.33799,47.29323]]}},{"type":"Feature","properties":{"kind":"piste","difficulty":"easy","name":"Family Run Kleinarl","aerialway":null,"osm":"way/1363329942"},"geometry":{"type":"LineString","coordinates":[[13.34661,47.29375],[13.34668,47.29428],[13.3457,47.29452],[13.34544,47.29433],[13.34636,47.2942],[13.34661,47.29375]]}},{"type":"Feature","properties":{"kind":"piste","difficulty":"intermediate","name":"Fürstwand Piste","aerialway":null,"osm":"way/1363329943"},"geometry":{"type":"LineString","coordinates":[[13.34327,47.29453],[13.34292,47.29442],[13.34183,47.29369],[13.34109,47.29378],[13.34042,47.29342],[13.34013,47.29341],[13.33907,47.2937],[13.3387,47.29322],[13.33782,47.29318],[13.33694,47.29332],[13.3364,47.29368],[13.33591,47.29353],[13.3354,47.29361],[13.3347,47.29435],[13.33322,47.29515],[13.33248,47.29576],[13.33281,47.29578],[13.33359,47.29513],[13.33492,47.29454],[13.33566,47.29367],[13.3365,47.29379],[13.33711,47.29337],[13.33837,47.2933],[13.33863,47.29338],[13.33886,47.29374],[13.33927,47.29383],[13.34042,47.29356],[13.34099,47.29385],[13.34182,47.29389],[13.34316,47.2947],[13.34327,47.29453]]}},{"type":"Feature","properties":{"kind":"piste","difficulty":"intermediate","name":null,"aerialway":null,"osm":"way/1363329944"},"geometry":{"type":"LineString","coordinates":[[13.34401,47.29368],[13.34372,47.29377],[13.34357,47.29402]]}},{"type":"Feature","properties":{"kind":"piste","difficulty":"intermediate","name":null,"aerialway":null,"osm":"way/1363329945"},"geometry":{"type":"LineString","coordinates":[[13.34383,47.29398],[13.3433,47.29362]]}},{"type":"Feature","properties":{"kind":"piste","difficulty":"easy","name":"Family Run Kleinarl","aerialway":null,"osm":"way/1363329946"},"geometry":{"type":"LineString","coordinates":[[13.3457,47.29452],[13.34553,47.29459],[13.34525,47.29439],[13.34522,47.29482],[13.34495,47.29489],[13.34366,47.2941],[13.34339,47.29465],[13.34326,47.29469],[13.34348,47.29389],[13.34397,47.29392],[13.34486,47.29465],[13.34515,47.29425],[13.3457,47.29452]]}},{"type":"Feature","properties":{"kind":"piste","difficulty":"easy","name":"Family Run Kleinarl","aerialway":null,"osm":"way/1363329947"},"geometry":{"type":"LineString","coordinates":[[13.34326,47.29469],[13.34305,47.29495],[13.34328,47.29506],[13.34339,47.29465],[13.34326,47.29469]]}},{"type":"Feature","properties":{"kind":"piste","difficulty":"intermediate","name":"Fürstwand Piste","aerialway":null,"osm":"way/1363329948"},"geometry":{"type":"LineString","coordinates":[[13.34397,47.29538],[13.34405,47.29532],[13.34339,47.29465],[13.34328,47.29506],[13.34397,47.29538]]}},{"type":"Feature","properties":{"kind":"piste","difficulty":"intermediate","name":"Bubble Piste","aerialway":null,"osm":"way/1363335079"},"geometry":{"type":"LineString","coordinates":[[13.33814,47.28832],[13.33835,47.28884],[13.33833,47.28926],[13.33732,47.2908],[13.3373,47.29104],[13.3378,47.2913],[13.33903,47.29125],[13.33906,47.29096],[13.33771,47.291],[13.33779,47.29061],[13.33863,47.28954],[13.33886,47.2888],[13.33814,47.28832]]}},{"type":"Feature","properties":{"kind":"piste","difficulty":"intermediate","name":"Bubble Piste","aerialway":null,"osm":"way/1363335080"},"geometry":{"type":"LineString","coordinates":[[13.3443,47.29385],[13.34348,47.29389],[13.34183,47.29369],[13.34145,47.29378],[13.34042,47.29342],[13.33977,47.29352],[13.33882,47.29339],[13.3387,47.29322],[13.33812,47.29307],[13.33797,47.29278],[13.33836,47.29202],[13.33886,47.29159],[13.33911,47.29113],[13.3393,47.29125],[13.33924,47.29144],[13.33852,47.29211],[13.33822,47.29271],[13.33824,47.29291],[13.33965,47.29291],[13.34021,47.29279],[13.34115,47.29309],[13.3431,47.29345],[13.3443,47.29385]]}},{"type":"Feature","properties":{"kind":"piste","difficulty":"advanced","name":"Champion Piste","aerialway":null,"osm":"way/1363335081"},"geometry":{"type":"LineString","coordinates":[[13.33224,47.28406],[13.33113,47.28373],[13.331,47.28359],[13.33103,47.283],[13.33031,47.28273],[13.33002,47.28272],[13.32935,47.28308],[13.32867,47.28363],[13.32509,47.2831],[13.32362,47.28268],[13.3227,47.28204],[13.32217,47.28093],[13.32198,47.28078],[13.32171,47.28079],[13.32117,47.28107],[13.32096,47.28134],[13.32092,47.28189],[13.32067,47.28237],[13.32096,47.28231],[13.32115,47.28201],[13.3212,47.28151],[13.32156,47.28111],[13.32178,47.28105],[13.32188,47.28108],[13.32217,47.28199],[13.32268,47.28265],[13.32322,47.28289],[13.32505,47.28337],[13.32859,47.28388],[13.32875,47.28388],[13.33013,47.28297],[13.33063,47.28311],[13.33076,47.28378],[13.33099,47.28391],[13.33224,47.28406]]}},{"type":"Feature","properties":{"kind":"piste","difficulty":"advanced","name":"Champion Piste","aerialway":null,"osm":"way/1363335082"},"geometry":{"type":"LineString","coordinates":[[13.33176,47.28454],[13.33113,47.28425],[13.33099,47.28391],[13.33076,47.28378],[13.33098,47.28444],[13.33151,47.2846],[13.33176,47.28454]]}},{"type":"Feature","properties":{"kind":"piste","difficulty":"easy","name":null,"aerialway":null,"osm":"way/1363341520"},"geometry":{"type":"LineString","coordinates":[[13.33191,47.28409],[13.33169,47.28448],[13.33176,47.28454],[13.33213,47.28408],[13.33191,47.28409]]}},{"type":"Feature","properties":{"kind":"piste","difficulty":"easy","name":null,"aerialway":null,"osm":"way/1363341521"},"geometry":{"type":"LineString","coordinates":[[13.33275,47.2838],[13.33225,47.28344],[13.33228,47.28334],[13.33206,47.28339],[13.33198,47.2839],[13.33224,47.28406],[13.33275,47.2838]]}},{"type":"Feature","properties":{"kind":"piste","difficulty":"easy","name":null,"aerialway":null,"osm":"way/1363341522"},"geometry":{"type":"LineString","coordinates":[[13.33216,47.28503],[13.33192,47.28481],[13.33175,47.28481],[13.33176,47.28454],[13.33219,47.28429],[13.33216,47.28503]]}},{"type":"Feature","properties":{"kind":"piste","difficulty":"easy","name":"Family Run Kleinarl","aerialway":null,"osm":"way/1363341523"},"geometry":{"type":"LineString","coordinates":[[13.33151,47.2846],[13.33176,47.28454],[13.33175,47.28481],[13.33043,47.28695],[13.33022,47.28749],[13.33004,47.28771],[13.32863,47.28856],[13.32712,47.28843],[13.32616,47.28868],[13.32497,47.28955],[13.32238,47.28981],[13.32208,47.28991],[13.32122,47.29057],[13.32088,47.28993],[13.32136,47.28844],[13.32014,47.28888],[13.32002,47.28872],[13.32048,47.28799],[13.31967,47.28835],[13.31951,47.28829],[13.31969,47.28751],[13.32014,47.28711],[13.31971,47.28671],[13.31957,47.28635],[13.32032,47.28551],[13.32067,47.28485],[13.32054,47.28398],[13.32094,47.28338],[13.3207,47.28294],[13.3199,47.28323],[13.31942,47.28312],[13.31941,47.2821],[13.31952,47.28204],[13.31968,47.28217],[13.31967,47.28301],[13.31985,47.28306],[13.32065,47.2827],[13.32097,47.28281],[13.3211,47.28307],[13.32116,47.28346],[13.32078,47.28399],[13.32092,47.28488],[13.32055,47.28566],[13.31986,47.28643],[13.31986,47.28657],[13.32029,47.28689],[13.32038,47.2871],[13.31988,47.28759],[13.31972,47.28814],[13.32045,47.28783],[13.32071,47.28788],[13.32024,47.28872],[13.32129,47.28831],[13.32161,47.28837],[13.32139,47.28886],[13.32139,47.28929],[13.32104,47.28992],[13.32124,47.29036],[13.32193,47.28984],[13.32273,47.28958],[13.32416,47.28937],[13.32478,47.28941],[13.32555,47.28876],[13.32633,47.28843],[13.32734,47.28827],[13.32874,47.28834],[13.32981,47.28765],[13.33081,47.28603],[13.33151,47.2846]]}},{"type":"Feature","properties":{"kind":"piste","difficulty":"easy","name":"Family Run Kleinarl","aerialway":null,"osm":"way/1363341524"},"geometry":{"type":"LineString","coordinates":[[13.32238,47.28981],[13.32136,47.29092],[13.32186,47.29063],[13.32221,47.29009],[13.32277,47.28977],[13.32238,47.28981]]}},{"type":"Feature","properties":{"kind":"piste","difficulty":"intermediate","name":null,"aerialway":null,"osm":"way/1363341525"},"geometry":{"type":"LineString","coordinates":[[13.33906,47.29096],[13.33974,47.29103],[13.33974,47.29134],[13.3393,47.29125],[13.33906,47.29096]]}},{"type":"Feature","properties":{"kind":"lift","difficulty":null,"name":"Champion Shuttle","aerialway":"chair_lift","osm":"way/30765841"},"geometry":{"type":"LineString","coordinates":[[13.31958,47.28183],[13.3318,47.2842]]}},{"type":"Feature","properties":{"kind":"lift","difficulty":null,"name":"Bubble Shuttle","aerialway":"chair_lift","osm":"way/30765843"},"geometry":{"type":"LineString","coordinates":[[13.33235,47.2834],[13.34661,47.29375]]}},{"type":"Feature","properties":{"kind":"lift","difficulty":null,"name":"Family Shuttle","aerialway":"chair_lift","osm":"way/30765845"},"geometry":{"type":"LineString","coordinates":[[13.38106,47.3066],[13.36041,47.30412]]}},{"type":"Feature","properties":{"kind":"lift","difficulty":null,"name":"Sunshine Shuttle","aerialway":"chair_lift","osm":"way/150970670"},"geometry":{"type":"LineString","coordinates":[[13.39209,47.29691],[13.38118,47.30593]]}},{"type":"Feature","properties":{"kind":"lift","difficulty":null,"name":"Absolut Shuttle","aerialway":"chair_lift","osm":"way/159142564"},"geometry":{"type":"LineString","coordinates":[[13.36097,47.30059],[13.35023,47.30592]]}},{"type":"Feature","properties":{"kind":"lift","difficulty":null,"name":"Powder Shuttle","aerialway":"chair_lift","osm":"way/159142594"},"geometry":{"type":"LineString","coordinates":[[13.35443,47.30119],[13.34779,47.29419]]}},{"type":"Feature","properties":{"kind":"lift","difficulty":null,"name":"Beginnerlift Kleinarl","aerialway":"t-bar","osm":"way/449399879"},"geometry":{"type":"LineString","coordinates":[[13.31629,47.28326],[13.31772,47.28371]]}},{"type":"Feature","properties":{"kind":"lift","difficulty":null,"name":"Beginnerlift Flachauwinkl","aerialway":"rope_tow","osm":"way/449400837"},"geometry":{"type":"LineString","coordinates":[[13.39188,47.29868],[13.38897,47.29876]]}},{"type":"Feature","properties":{"kind":"lift","difficulty":null,"name":"Lumberjack Shuttle","aerialway":"chair_lift","osm":"way/553078197"},"geometry":{"type":"LineString","coordinates":[[13.32147,47.29095],[13.34654,47.29526]]}},{"type":"Feature","properties":{"kind":"lift","difficulty":null,"name":"Panorama Link","aerialway":"gondola","osm":"way/810834060"},"geometry":{"type":"LineString","coordinates":[[13.34368,47.32568],[13.34492,47.29776]]}}]}