{"type":"FeatureCollection","features":[{"type":"Feature","properties":{"kind":"lift","difficulty":null,"name":"Höfener Almbahn","aerialway":"chair_lift","osm":"way/29069650"},"geometry":{"type":"LineString","coordinates":[[10.65585,47.47516],[10.64218,47.47723]]}},{"type":"Feature","properties":{"kind":"lift","difficulty":null,"name":"Hahnenkammbahn Höfen","aerialway":"gondola","osm":"way/116493747"},"geometry":{"type":"LineString","coordinates":[[10.67871,47.47692],[10.64649,47.47489]]}},{"type":"Feature","properties":{"kind":"piste","difficulty":"intermediate","name":"Hauptabfahrt","aerialway":null,"osm":"way/268901240"},"geometry":{"type":"LineString","coordinates":[[10.64626,47.47487],[10.64623,47.47464],[10.64693,47.47465],[10.64907,47.47402],[10.65556,47.47474],[10.6568,47.47515],[10.65733,47.47562],[10.65792,47.47526],[10.65872,47.47511],[10.65975,47.47524],[10.66084,47.4756],[10.66102,47.47552],[10.66099,47.47481],[10.66117,47.47461],[10.66251,47.47429],[10.66394,47.47451],[10.66509,47.47511],[10.66556,47.47583],[10.66669,47.47668],[10.66655,47.47705],[10.66702,47.47737],[10.66803,47.4775],[10.66918,47.47783],[10.67044,47.47846],[10.6742,47.47968],[10.67471,47.47955],[10.67582,47.47873],[10.67824,47.47777],[10.67868,47.47704]]}},{"type":"Feature","properties":{"kind":"piste","difficulty":"easy","name":"Muldenabfahrt","aerialway":null,"osm":"way/268901241"},"geometry":{"type":"LineString","coordinates":[[10.64626,47.47487],[10.64613,47.47467],[10.64639,47.47418],[10.64759,47.47378],[10.64908,47.4736],[10.65112,47.47385],[10.65212,47.47412],[10.65426,47.47361],[10.65446,47.47364],[10.65327,47.4743],[10.65366,47.47447],[10.65605,47.47434],[10.65656,47.47456],[10.6568,47.47515]]}},{"type":"Feature","properties":{"kind":"piste","difficulty":"intermediate","name":null,"aerialway":null,"osm":"way/403079487"},"geometry":{"type":"LineString","coordinates":[[10.64211,47.4772],[10.642,47.47715],[10.6421,47.4769],[10.64299,47.47542],[10.64359,47.47507],[10.64626,47.47487]]}},{"type":"Feature","properties":{"kind":"piste","difficulty":"intermediate","name":null,"aerialway":null,"osm":"way/403079488"},"geometry":{"type":"LineString","coordinates":[[10.6453,47.47639],[10.64751,47.47695],[10.65193,47.4769],[10.65215,47.47662],[10.65213,47.47615],[10.65263,47.47581],[10.65304,47.475],[10.65362,47.4745]]}},{"type":"Feature","properties":{"kind":"piste","difficulty":"intermediate","name":null,"aerialway":null,"osm":"way/403079489"},"geometry":{"type":"LineString","coordinates":[[10.64211,47.4772],[10.64204,47.47727],[10.64216,47.47731],[10.64287,47.47736],[10.64352,47.47774],[10.64413,47.47785],[10.64429,47.47769],[10.64431,47.47708],[10.64395,47.47662],[10.644,47.47649],[10.6453,47.47639],[10.64593,47.47608],[10.64663,47.47565],[10.64666,47.47512],[10.64656,47.475]]}},{"type":"Feature","properties":{"kind":"piste","difficulty":"intermediate","name":null,"aerialway":null,"osm":"way/403079490"},"geometry":{"type":"LineString","coordinates":[[10.642,47.47715],[10.64163,47.47651],[10.6417,47.47583],[10.64142,47.47557],[10.64184,47.47505],[10.64191,47.47444],[10.64225,47.47346],[10.64271,47.47308],[10.64498,47.47205],[10.64557,47.47197],[10.64813,47.47209],[10.64885,47.47181],[10.64981,47.47168],[10.65053,47.47289],[10.65155,47.47365],[10.65171,47.47401]]}},{"type":"Feature","properties":{"kind":"piste","difficulty":"intermediate","name":null,"aerialway":null,"osm":"way/403079491"},"geometry":{"type":"LineString","coordinates":[[10.64254,47.47618],[10.644,47.47649]]}},{"type":"Feature","properties":{"kind":"piste","difficulty":"intermediate","name":null,"aerialway":null,"osm":"way/403079493"},"geometry":{"type":"LineString","coordinates":[[10.64665,47.47537],[10.65009,47.47595],[10.65281,47.47545]]}},{"type":"Feature","properties":{"kind":"piste","difficulty":"expert","name":null,"aerialway":null,"osm":"way/403100184"},"geometry":{"type":"LineString","coordinates":[[10.64225,47.47346],[10.6456,47.47395],[10.64673,47.47394],[10.64759,47.47378]]}}]}