{"type":"FeatureCollection","features":[{"type":"Feature","properties":{"kind":"piste","difficulty":"easy","name":null,"aerialway":null,"osm":"way/23404324"},"geometry":{"type":"LineString","coordinates":[[13.15335,47.22523],[13.15481,47.22511],[13.15666,47.22573],[13.15764,47.22637],[13.16482,47.22797],[13.16616,47.22804],[13.16728,47.22839],[13.16803,47.22818]]}},{"type":"Feature","properties":{"kind":"piste","difficulty":"intermediate","name":null,"aerialway":null,"osm":"way/23404361"},"geometry":{"type":"LineString","coordinates":[[13.14339,47.23491],[13.14337,47.23518],[13.14281,47.23614],[13.143,47.2367],[13.14393,47.2372],[13.14393,47.23826],[13.14357,47.23914],[13.14319,47.23923],[13.14356,47.23829],[13.14355,47.23761],[13.14329,47.23737],[13.14249,47.23743],[13.14138,47.23773],[13.14092,47.23818],[13.1407,47.2385],[13.14065,47.23899],[13.1409,47.23964],[13.14053,47.23965],[13.14062,47.23952],[13.14052,47.23857],[13.14148,47.23644],[13.14057,47.23594],[13.14005,47.23583],[13.13871,47.23596],[13.13794,47.23617],[13.1376,47.23603],[13.13775,47.23582],[13.14055,47.23554],[13.14127,47.23598],[13.14163,47.23606],[13.14253,47.23577],[13.14293,47.23541],[13.14288,47.23495],[13.14339,47.23491]]}},{"type":"Feature","properties":{"kind":"piste","difficulty":"intermediate","name":null,"aerialway":null,"osm":"way/23404362"},"geometry":{"type":"LineString","coordinates":[[13.14687,47.23791],[13.14752,47.23922],[13.14661,47.24079],[13.14507,47.24167],[13.14323,47.24146],[13.14231,47.24153],[13.14044,47.24098],[13.14,47.24061],[13.13965,47.23988],[13.13922,47.23957],[13.1391,47.23929],[13.13975,47.23955],[13.13973,47.23975],[13.13994,47.23994],[13.14019,47.24063],[13.14091,47.24103],[13.14119,47.24096],[13.14209,47.24126],[13.14435,47.24067],[13.14527,47.24074],[13.14634,47.23998],[13.14671,47.23939],[13.14634,47.238],[13.14687,47.23791]]}},{"type":"Feature","properties":{"kind":"piste","difficulty":"easy","name":null,"aerialway":null,"osm":"way/23404585"},"geometry":{"type":"LineString","coordinates":[[13.16716,47.23254],[13.16658,47.23243],[13.16561,47.23161],[13.16275,47.23142],[13.16149,47.2315],[13.16073,47.23187],[13.16036,47.23191],[13.15995,47.23236]]}},{"type":"Feature","properties":{"kind":"piste","difficulty":"easy","name":"Bergstraße","aerialway":null,"osm":"way/23404623"},"geometry":{"type":"LineString","coordinates":[[13.16177,47.23186],[13.16263,47.23199],[13.1641,47.23279],[13.16423,47.23334],[13.16522,47.23431],[13.16546,47.23496],[13.16595,47.23542],[13.16579,47.23549],[13.1635,47.23456],[13.16257,47.23474],[13.16252,47.23489],[13.16315,47.23501],[13.16358,47.23535],[13.16389,47.23589],[13.1646,47.23649],[13.16606,47.23728],[13.16736,47.23823],[13.16805,47.23851],[13.16826,47.23875],[13.16839,47.23932],[13.16865,47.23963],[13.16991,47.23993],[13.17032,47.24015],[13.17097,47.24016],[13.17291,47.24093],[13.17295,47.24104],[13.17283,47.24109],[13.17226,47.24101],[13.17108,47.24127],[13.17102,47.24143],[13.17184,47.24137],[13.17292,47.24177],[13.17319,47.24201],[13.17342,47.2425],[13.17496,47.24317]]}},{"type":"Feature","properties":{"kind":"piste","difficulty":"intermediate","name":null,"aerialway":null,"osm":"way/23404681"},"geometry":{"type":"LineString","coordinates":[[13.17069,47.23433],[13.17061,47.23549],[13.17003,47.2361],[13.16967,47.23705],[13.17023,47.23898],[13.172,47.24035],[13.1724,47.24102],[13.17245,47.24161]]}},{"type":"Feature","properties":{"kind":"piste","difficulty":"intermediate","name":null,"aerialway":null,"osm":"way/23404741"},"geometry":{"type":"LineString","coordinates":[[13.1843,47.24113],[13.18371,47.24132],[13.1837,47.24164],[13.18343,47.24205],[13.18312,47.24197],[13.18623,47.24324],[13.18702,47.24312],[13.18782,47.24208],[13.18869,47.24014],[13.18862,47.23971],[13.18896,47.23952],[13.19065,47.23992],[13.19401,47.23966],[13.19419,47.23979],[13.19431,47.24019],[13.19397,47.24092],[13.19383,47.24163],[13.19418,47.2418],[13.19504,47.24156]]}},{"type":"Feature","properties":{"kind":"piste","difficulty":"easy","name":null,"aerialway":null,"osm":"way/23404742"},"geometry":{"type":"LineString","coordinates":[[13.18224,47.24198],[13.18188,47.24284],[13.1832,47.24319],[13.18549,47.24336],[13.18586,47.2438],[13.18564,47.24441],[13.18601,47.24457],[13.18694,47.24445],[13.18659,47.24497],[13.18619,47.24527],[13.18622,47.24546],[13.18833,47.24534],[13.19041,47.2462],[13.19149,47.24642],[13.19205,47.24624],[13.19312,47.24518],[13.19373,47.24533]]}},{"type":"Feature","properties":{"kind":"piste","difficulty":"intermediate","name":null,"aerialway":null,"osm":"way/29553759"},"geometry":{"type":"LineString","coordinates":[[13.15304,47.22546],[13.15252,47.22575],[13.15194,47.22589],[13.15113,47.22587],[13.1498,47.2256],[13.14827,47.22556],[13.14459,47.22613],[13.14388,47.2261]]}},{"type":"Feature","properties":{"kind":"piste","difficulty":"intermediate","name":null,"aerialway":null,"osm":"way/29553761"},"geometry":{"type":"LineString","coordinates":[[13.15481,47.22511],[13.15539,47.22614],[13.15659,47.22736],[13.15698,47.22805],[13.15737,47.22837],[13.1581,47.22861],[13.15866,47.22896],[13.15905,47.22979],[13.15939,47.23002],[13.16029,47.2303],[13.16052,47.23061],[13.16054,47.23111],[13.16011,47.2315],[13.15999,47.23205]]}},{"type":"Feature","properties":{"kind":"piste","difficulty":"intermediate","name":null,"aerialway":null,"osm":"way/29553762"},"geometry":{"type":"LineString","coordinates":[[13.15539,47.22614],[13.15523,47.22654],[13.15456,47.2273],[13.15428,47.22841],[13.15436,47.22916],[13.15484,47.23036],[13.15473,47.23076],[13.15522,47.23158],[13.15567,47.23176],[13.1565,47.23165]]}},{"type":"Feature","properties":{"kind":"piste","difficulty":"intermediate","name":null,"aerialway":null,"osm":"way/29553765"},"geometry":{"type":"LineString","coordinates":[[13.15463,47.22976],[13.15566,47.22998],[13.15595,47.23034],[13.15612,47.23104],[13.15701,47.23131]]}},{"type":"Feature","properties":{"kind":"piste","difficulty":"intermediate","name":null,"aerialway":null,"osm":"way/29553767"},"geometry":{"type":"LineString","coordinates":[[13.15021,47.2293],[13.15293,47.23101]]}},{"type":"Feature","properties":{"kind":"piste","difficulty":"easy","name":null,"aerialway":null,"osm":"way/29576279"},"geometry":{"type":"LineString","coordinates":[[13.16841,47.22885],[13.16841,47.22966],[13.16865,47.23096],[13.16903,47.23178]]}},{"type":"Feature","properties":{"kind":"piste","difficulty":"intermediate","name":null,"aerialway":null,"osm":"way/31018702"},"geometry":{"type":"LineString","coordinates":[[13.1852,47.24274],[13.18549,47.24336],[13.18666,47.24383],[13.18707,47.24381],[13.18935,47.24315],[13.1912,47.24294],[13.19181,47.24301],[13.1931,47.24274],[13.19389,47.24232],[13.19418,47.2418]]}},{"type":"Feature","properties":{"kind":"piste","difficulty":"easy","name":null,"aerialway":null,"osm":"way/31018929"},"geometry":{"type":"LineString","coordinates":[[13.1238,47.24214],[13.12374,47.24252],[13.12493,47.2428],[13.12558,47.24318],[13.12577,47.24356],[13.12636,47.24417],[13.12607,47.24506],[13.12543,47.24534],[13.12484,47.24607],[13.12549,47.24687],[13.1272,47.24769],[13.12827,47.2479],[13.12853,47.2485],[13.1264,47.24875],[13.12344,47.24935],[13.12277,47.24917],[13.12292,47.24891],[13.12377,47.24882],[13.12477,47.24835],[13.12665,47.24829],[13.1271,47.2482],[13.12725,47.24801],[13.12601,47.24766],[13.12501,47.24707],[13.12458,47.24654],[13.12393,47.24618],[13.12475,47.24496],[13.12549,47.24464],[13.12584,47.2443],[13.12537,47.24327],[13.12433,47.24281],[13.12353,47.24277],[13.12295,47.24248],[13.12302,47.24201],[13.1238,47.24214]]}},{"type":"Feature","properties":{"kind":"piste","difficulty":"intermediate","name":null,"aerialway":null,"osm":"way/31019103"},"geometry":{"type":"LineString","coordinates":[[13.18927,47.24697],[13.18971,47.24727],[13.19134,47.24746],[13.19216,47.24748],[13.19337,47.24722],[13.19379,47.24704],[13.19405,47.2466],[13.19439,47.24543]]}},{"type":"Feature","properties":{"kind":"piste","difficulty":"intermediate","name":null,"aerialway":null,"osm":"way/32479733"},"geometry":{"type":"LineString","coordinates":[[13.16852,47.22844],[13.16889,47.22796],[13.17121,47.22781],[13.17201,47.22763],[13.17257,47.22773],[13.17342,47.22844],[13.17478,47.22895],[13.17592,47.22974],[13.17622,47.23025],[13.17595,47.23108],[13.17679,47.2317],[13.17717,47.23216],[13.17901,47.23297]]}},{"type":"Feature","properties":{"kind":"piste","difficulty":"intermediate","name":null,"aerialway":null,"osm":"way/32479735"},"geometry":{"type":"LineString","coordinates":[[13.17386,47.22865],[13.1744,47.2296],[13.17524,47.22999],[13.17595,47.23108]]}},{"type":"Feature","properties":{"kind":"piste","difficulty":"intermediate","name":null,"aerialway":null,"osm":"way/32479740"},"geometry":{"type":"LineString","coordinates":[[13.13629,47.23461],[13.13565,47.2347],[13.13539,47.23493],[13.13536,47.23525],[13.1355,47.23569],[13.13721,47.23618],[13.137,47.23673],[13.13656,47.2372],[13.13715,47.2384],[13.13692,47.23898],[13.13818,47.23843],[13.13779,47.23828],[13.13737,47.23769],[13.13743,47.23703],[13.13775,47.23668],[13.13794,47.23617],[13.13625,47.23569],[13.13612,47.23533],[13.13629,47.23461]]}},{"type":"Feature","properties":{"kind":"piste","difficulty":"intermediate","name":null,"aerialway":null,"osm":"way/51706170"},"geometry":{"type":"LineString","coordinates":[[13.1572,47.22608],[13.15716,47.2262],[13.15539,47.22614]]}},{"type":"Feature","properties":{"kind":"piste","difficulty":"unknown","name":null,"aerialway":null,"osm":"way/92908758"},"geometry":{"type":"LineString","coordinates":[[13.17182,47.24268],[13.17253,47.24275]]}},{"type":"Feature","properties":{"kind":"piste","difficulty":"intermediate","name":null,"aerialway":null,"osm":"way/92908763"},"geometry":{"type":"LineString","coordinates":[[13.14922,47.23075],[13.14911,47.23038],[13.14951,47.22953],[13.14931,47.22821],[13.14977,47.22716],[13.14963,47.22662]]}},{"type":"Feature","properties":{"kind":"piste","difficulty":"unknown","name":"Bergstraße","aerialway":null,"osm":"way/92908769"},"geometry":{"type":"LineString","coordinates":[[13.16544,47.23034],[13.16584,47.23033],[13.16623,47.23051],[13.16661,47.23168],[13.16716,47.23254]]}},{"type":"Feature","properties":{"kind":"piste","difficulty":"easy","name":null,"aerialway":null,"osm":"way/98497722"},"geometry":{"type":"LineString","coordinates":[[13.19312,47.24518],[13.19446,47.24355],[13.19418,47.2422],[13.19469,47.2417],[13.19504,47.24156]]}},{"type":"Feature","properties":{"kind":"piste","difficulty":"intermediate","name":null,"aerialway":null,"osm":"way/133151339"},"geometry":{"type":"LineString","coordinates":[[13.146,47.23528],[13.1465,47.23535],[13.14737,47.23493],[13.14762,47.23497],[13.14767,47.23512],[13.14752,47.23518],[13.14768,47.23571],[13.14682,47.23663],[13.14687,47.23791],[13.14573,47.23806],[13.14541,47.23854],[13.14496,47.23869],[13.14409,47.23926],[13.14374,47.23984],[13.14089,47.24004],[13.13845,47.23896],[13.13782,47.23888],[13.13712,47.23946],[13.13506,47.23991],[13.13471,47.2395],[13.13512,47.23938],[13.13622,47.23936],[13.13818,47.23843],[13.13887,47.23856],[13.13934,47.23906],[13.14053,47.23965],[13.14174,47.23959],[13.14386,47.23904],[13.14461,47.23836],[13.14562,47.23772],[13.1463,47.23702],[13.14605,47.23648],[13.14632,47.23581],[13.146,47.23528]]}},{"type":"Feature","properties":{"kind":"piste","difficulty":"easy","name":null,"aerialway":null,"osm":"way/133151340"},"geometry":{"type":"LineString","coordinates":[[13.13521,47.23399],[13.13509,47.23378],[13.13477,47.23388],[13.13425,47.23377],[13.13323,47.23334],[13.13168,47.23301],[13.12993,47.23234],[13.12933,47.23198],[13.12907,47.23205],[13.12878,47.23267],[13.13006,47.23416],[13.13071,47.23472],[13.13096,47.23517],[13.13107,47.23573],[13.13066,47.2366],[13.13089,47.23704],[13.13043,47.23766],[13.13004,47.23791],[13.12715,47.23888],[13.12661,47.23922],[13.12686,47.23959],[13.1266,47.24],[13.12553,47.24019],[13.12451,47.24142],[13.12379,47.24173],[13.1229,47.24184],[13.12302,47.24201],[13.1238,47.24214],[13.12527,47.24168],[13.12604,47.24179],[13.12544,47.24165],[13.12524,47.24136],[13.12617,47.24067],[13.12717,47.24034],[13.12728,47.24065],[13.12712,47.24111],[13.12667,47.24134],[13.12647,47.24167],[13.126,47.2417],[13.12604,47.24179],[13.12684,47.24178],[13.1277,47.24069],[13.12752,47.24014],[13.12756,47.23896],[13.12889,47.23836],[13.1305,47.238],[13.13111,47.23722],[13.13093,47.23683],[13.13092,47.23651],[13.13117,47.23579],[13.13103,47.23477],[13.13012,47.23398],[13.12899,47.23269],[13.12915,47.23257],[13.13037,47.23281],[13.13142,47.2333],[13.13241,47.2334],[13.13391,47.23385],[13.13446,47.23415],[13.13521,47.23399]]}},{"type":"Feature","properties":{"kind":"piste","difficulty":"easy","name":null,"aerialway":null,"osm":"way/173342330"},"geometry":{"type":"LineString","coordinates":[[13.12378,47.24976],[13.1188,47.24937],[13.11621,47.24826],[13.11542,47.2482],[13.11525,47.24812],[13.11512,47.24777],[13.11352,47.24716]]}},{"type":"Feature","properties":{"kind":"piste","difficulty":"easy","name":null,"aerialway":null,"osm":"way/178987969"},"geometry":{"type":"LineString","coordinates":[[13.17534,47.24328],[13.17559,47.2427],[13.17631,47.24193],[13.17715,47.24149],[13.17911,47.24134],[13.18012,47.24158]]}},{"type":"Feature","properties":{"kind":"piste","difficulty":"easy","name":"Bergstraße","aerialway":null,"osm":"way/178988001"},"geometry":{"type":"LineString","coordinates":[[13.16903,47.23178],[13.16863,47.23178],[13.1682,47.23159],[13.1663,47.23038],[13.16581,47.23026],[13.16436,47.23055],[13.16251,47.23047],[13.16152,47.23064],[13.16054,47.23111],[13.15951,47.23134]]}},{"type":"Feature","properties":{"kind":"piste","difficulty":"intermediate","name":null,"aerialway":null,"osm":"way/178988017"},"geometry":{"type":"LineString","coordinates":[[13.15995,47.23236],[13.15956,47.23254],[13.15932,47.23244]]}},{"type":"Feature","properties":{"kind":"piste","difficulty":"intermediate","name":null,"aerialway":null,"osm":"way/178988020"},"geometry":{"type":"LineString","coordinates":[[13.15492,47.23239],[13.15544,47.23237],[13.1565,47.23165]]}},{"type":"Feature","properties":{"kind":"piste","difficulty":"intermediate","name":null,"aerialway":null,"osm":"way/178988021"},"geometry":{"type":"LineString","coordinates":[[13.1565,47.23165],[13.15728,47.23102],[13.15759,47.23091],[13.15833,47.23094],[13.15951,47.23134]]}},{"type":"Feature","properties":{"kind":"piste","difficulty":"intermediate","name":null,"aerialway":null,"osm":"way/178988024"},"geometry":{"type":"LineString","coordinates":[[13.15951,47.23134],[13.15999,47.23205],[13.15995,47.23236],[13.16026,47.2325],[13.16043,47.23239]]}},{"type":"Feature","properties":{"kind":"piste","difficulty":"easy","name":null,"aerialway":null,"osm":"way/178996841"},"geometry":{"type":"LineString","coordinates":[[13.14726,47.23496],[13.14773,47.23413],[13.14762,47.23401],[13.1462,47.23522],[13.14603,47.23518],[13.14649,47.23454],[13.14674,47.23375],[13.14722,47.23305],[13.14822,47.23229],[13.14888,47.23154]]}},{"type":"Feature","properties":{"kind":"piste","difficulty":"easy","name":null,"aerialway":null,"osm":"way/178996913"},"geometry":{"type":"LineString","coordinates":[[13.1525,47.22603],[13.15267,47.22616]]}},{"type":"Feature","properties":{"kind":"piste","difficulty":"intermediate","name":null,"aerialway":null,"osm":"way/178996914"},"geometry":{"type":"LineString","coordinates":[[13.13446,47.23415],[13.13521,47.23399],[13.13535,47.23417],[13.13505,47.23426],[13.13519,47.23444],[13.13553,47.23449],[13.13565,47.2347],[13.13539,47.23493],[13.13471,47.23453],[13.13434,47.23485],[13.13398,47.23568],[13.13121,47.2382],[13.12978,47.23849],[13.12908,47.23838],[13.12884,47.23845],[13.12795,47.2393],[13.12792,47.23986],[13.12821,47.24011],[13.12877,47.24019],[13.12915,47.24045],[13.12684,47.24178],[13.1277,47.24069],[13.12752,47.24014],[13.12756,47.23896],[13.12889,47.23836],[13.1305,47.238],[13.13255,47.23553],[13.13325,47.23499],[13.13391,47.23385],[13.13446,47.23415]]}},{"type":"Feature","properties":{"kind":"piste","difficulty":"intermediate","name":null,"aerialway":null,"osm":"way/178996915"},"geometry":{"type":"LineString","coordinates":[[13.15259,47.22607],[13.15269,47.22591],[13.15252,47.22575]]}},{"type":"Feature","properties":{"kind":"piste","difficulty":"intermediate","name":null,"aerialway":null,"osm":"way/178996922"},"geometry":{"type":"LineString","coordinates":[[13.14774,47.23406],[13.14816,47.23286],[13.14902,47.23172],[13.14914,47.23113]]}},{"type":"Feature","properties":{"kind":"piste","difficulty":"intermediate","name":null,"aerialway":null,"osm":"way/178996923"},"geometry":{"type":"LineString","coordinates":[[13.15232,47.22647],[13.14963,47.22662],[13.14713,47.22622],[13.14416,47.22636],[13.14385,47.22622],[13.14379,47.22597]]}},{"type":"Feature","properties":{"kind":"piste","difficulty":"intermediate","name":null,"aerialway":null,"osm":"way/178996924"},"geometry":{"type":"LineString","coordinates":[[13.14914,47.23113],[13.15003,47.23132],[13.15137,47.23103],[13.15293,47.23101],[13.15492,47.23239]]}},{"type":"Feature","properties":{"kind":"piste","difficulty":"easy","name":null,"aerialway":null,"osm":"way/179001992"},"geometry":{"type":"LineString","coordinates":[[13.17069,47.23433],[13.17213,47.23429],[13.17271,47.23353],[13.17386,47.23328],[13.17502,47.23332],[13.17684,47.2348],[13.17805,47.23535],[13.17866,47.23552],[13.18054,47.23535]]}},{"type":"Feature","properties":{"kind":"piste","difficulty":"intermediate","name":null,"aerialway":null,"osm":"way/198062468"},"geometry":{"type":"LineString","coordinates":[[13.17094,47.24656],[13.17081,47.2463],[13.17083,47.24593],[13.17041,47.24517],[13.17054,47.24471],[13.1704,47.24416],[13.16992,47.24334],[13.16953,47.24307],[13.16961,47.24284],[13.16952,47.24234],[13.16975,47.24223],[13.17031,47.24246],[13.17182,47.24268]]}},{"type":"Feature","properties":{"kind":"piste","difficulty":"intermediate","name":"Bergstraße","aerialway":null,"osm":"way/198062479"},"geometry":{"type":"LineString","coordinates":[[13.17253,47.24275],[13.17382,47.24328],[13.17509,47.24416],[13.17661,47.24424],[13.17682,47.24352],[13.17682,47.2429],[13.17728,47.24237],[13.17874,47.24216],[13.17966,47.24254],[13.18091,47.24243],[13.18128,47.24254]]}},{"type":"Feature","properties":{"kind":"piste","difficulty":"easy","name":"Bergstraße","aerialway":null,"osm":"way/198062481"},"geometry":{"type":"LineString","coordinates":[[13.17496,47.24317],[13.17534,47.24328]]}},{"type":"Feature","properties":{"kind":"piste","difficulty":"intermediate","name":null,"aerialway":null,"osm":"way/207245772"},"geometry":{"type":"LineString","coordinates":[[13.14374,47.23984],[13.14274,47.23999],[13.1427,47.24117],[13.14435,47.24067],[13.14374,47.23984]]}},{"type":"Feature","properties":{"kind":"piste","difficulty":"advanced","name":null,"aerialway":null,"osm":"way/237141968"},"geometry":{"type":"LineString","coordinates":[[13.13121,47.2382],[13.12978,47.23849],[13.12992,47.23898],[13.12877,47.24019],[13.12915,47.24045],[13.13121,47.2382]]}},{"type":"Feature","properties":{"kind":"piste","difficulty":"easy","name":null,"aerialway":null,"osm":"way/285018671"},"geometry":{"type":"LineString","coordinates":[[13.12827,47.2479],[13.1297,47.24768],[13.13147,47.24839],[13.13147,47.24861],[13.13174,47.2488],[13.13366,47.24896],[13.13395,47.24919],[13.13338,47.24814],[13.13267,47.24769],[13.13302,47.2474],[13.13585,47.24828],[13.13531,47.24801],[13.13476,47.24739],[13.13464,47.24643],[13.13431,47.24619],[13.13424,47.24592],[13.13338,47.24569],[13.13289,47.24537],[13.13221,47.24528],[13.132,47.24491],[13.13143,47.24449],[13.12979,47.24431],[13.12887,47.24398],[13.1285,47.24372],[13.12826,47.24377],[13.12823,47.24352],[13.12897,47.24391],[13.13003,47.24423],[13.13163,47.2444],[13.13244,47.2452],[13.13311,47.2453],[13.1335,47.24558],[13.13442,47.2458],[13.13449,47.24613],[13.13481,47.24644],[13.13493,47.24736],[13.13553,47.24801],[13.13614,47.24826],[13.13596,47.24841],[13.13575,47.24838],[13.13305,47.24752],[13.13288,47.24763],[13.13291,47.24775],[13.13361,47.24819],[13.1338,47.24864],[13.13422,47.24913],[13.13408,47.24936],[13.13316,47.24898],[13.13162,47.24886],[13.13134,47.24872],[13.1313,47.24846],[13.12967,47.24778],[13.12849,47.24796],[13.12853,47.2485],[13.12827,47.2479]]}},{"type":"Feature","properties":{"kind":"piste","difficulty":"easy","name":null,"aerialway":null,"osm":"way/386979718"},"geometry":{"type":"LineString","coordinates":[[13.14301,47.23483],[13.14375,47.23464],[13.14502,47.23406],[13.1459,47.23316],[13.14608,47.23274],[13.14829,47.23171],[13.14899,47.23107],[13.14939,47.23124],[13.14727,47.23306],[13.1468,47.23379],[13.14651,47.23462],[13.14611,47.23512],[13.14761,47.23395],[13.14785,47.23404],[13.14736,47.23476],[13.1477,47.23457],[13.1478,47.23473],[13.14714,47.23498],[13.14756,47.23421],[13.14749,47.23416],[13.14613,47.23532],[13.14596,47.23517],[13.14637,47.23467],[13.1467,47.23374],[13.14719,47.23305],[13.14815,47.2323],[13.14879,47.2316],[13.14866,47.23155],[13.14622,47.23279],[13.14598,47.23324],[13.14516,47.23407],[13.14374,47.23484],[13.14339,47.23491],[13.14288,47.23495],[13.14176,47.23468],[13.14118,47.23472],[13.14073,47.23455],[13.14019,47.23463],[13.13937,47.23449],[13.13859,47.23461],[13.13671,47.23452],[13.13565,47.2347],[13.13509,47.23378],[13.1353,47.23352],[13.1356,47.23411],[13.13591,47.23435],[13.13707,47.23424],[13.13767,47.23435],[13.14143,47.23444],[13.14301,47.23483]]}},{"type":"Feature","properties":{"kind":"piste","difficulty":"intermediate","name":null,"aerialway":null,"osm":"way/386993461"},"geometry":{"type":"LineString","coordinates":[[13.17001,47.23226],[13.16951,47.232],[13.16983,47.23154]]}},{"type":"Feature","properties":{"kind":"piste","difficulty":"intermediate","name":null,"aerialway":null,"osm":"way/387026149"},"geometry":{"type":"LineString","coordinates":[[13.12684,47.24178],[13.12868,47.24163],[13.12946,47.24106],[13.13179,47.24049],[13.13388,47.24039],[13.13506,47.23991],[13.13494,47.23967],[13.13365,47.24004],[13.12951,47.24079],[13.12915,47.24045],[13.12684,47.24178]]}},{"type":"Feature","properties":{"kind":"piste","difficulty":"easy","name":null,"aerialway":null,"osm":"way/387712019"},"geometry":{"type":"LineString","coordinates":[[13.1264,47.24875],[13.12669,47.249],[13.12665,47.24912],[13.12617,47.249],[13.12546,47.2496],[13.12348,47.24981],[13.11968,47.24949],[13.11902,47.24954],[13.1172,47.24875],[13.11524,47.24814],[13.11515,47.24793],[13.11477,47.2477],[13.11378,47.24728],[13.11176,47.24685],[13.11137,47.24637],[13.11053,47.24597],[13.11025,47.24563],[13.11024,47.24532],[13.10989,47.24512],[13.11,47.24504],[13.1112,47.24545],[13.11139,47.24601],[13.11207,47.24648],[13.11571,47.24807],[13.11697,47.24843],[13.11803,47.24889],[13.11976,47.24914],[13.12137,47.24956],[13.12334,47.24972],[13.12344,47.24935],[13.1264,47.24875]]}},{"type":"Feature","properties":{"kind":"piste","difficulty":"intermediate","name":null,"aerialway":null,"osm":"way/387712020"},"geometry":{"type":"LineString","coordinates":[[13.1272,47.24769],[13.12618,47.24721],[13.12668,47.24559],[13.12651,47.2451],[13.12607,47.24506],[13.12636,47.24417],[13.12671,47.24413],[13.12724,47.24345],[13.12684,47.24178],[13.12868,47.24163],[13.12805,47.24226],[13.12792,47.24293],[13.12826,47.24377],[13.1281,47.24404],[13.12765,47.24656],[13.1294,47.24697],[13.12927,47.24749],[13.12874,47.24786],[13.12827,47.2479],[13.12852,47.24752],[13.12887,47.24735],[13.12891,47.24703],[13.12874,47.24688],[13.12765,47.2467],[13.1272,47.24769]]}},{"type":"Feature","properties":{"kind":"piste","difficulty":"intermediate","name":null,"aerialway":null,"osm":"way/449377707"},"geometry":{"type":"LineString","coordinates":[[13.18224,47.24198],[13.18291,47.24153],[13.18338,47.24143],[13.18392,47.24103],[13.1843,47.24113]]}},{"type":"Feature","properties":{"kind":"piste","difficulty":"easy","name":null,"aerialway":null,"osm":"way/449377708"},"geometry":{"type":"LineString","coordinates":[[13.16728,47.22839],[13.1684,47.22858]]}},{"type":"Feature","properties":{"kind":"piste","difficulty":"easy","name":null,"aerialway":null,"osm":"way/449379352"},"geometry":{"type":"LineString","coordinates":[[13.16451,47.22808],[13.16482,47.22797]]}},{"type":"Feature","properties":{"kind":"piste","difficulty":"advanced","name":null,"aerialway":null,"osm":"way/449379353"},"geometry":{"type":"LineString","coordinates":[[13.1629,47.22748],[13.16321,47.22803],[13.16431,47.22928],[13.16606,47.23092],[13.16604,47.23133],[13.16561,47.23161]]}},{"type":"Feature","properties":{"kind":"piste","difficulty":"easy","name":null,"aerialway":null,"osm":"way/449379354"},"geometry":{"type":"LineString","coordinates":[[13.1535,47.22502],[13.15331,47.22498],[13.15335,47.22523]]}},{"type":"Feature","properties":{"kind":"piste","difficulty":"easy","name":null,"aerialway":null,"osm":"way/449809803"},"geometry":{"type":"LineString","coordinates":[[13.16273,47.22719],[13.1629,47.22748]]}},{"type":"Feature","properties":{"kind":"piste","difficulty":"easy","name":null,"aerialway":null,"osm":"way/449812427"},"geometry":{"type":"LineString","coordinates":[[13.16841,47.22885],[13.16855,47.22916],[13.16883,47.22926],[13.16952,47.22866],[13.16967,47.2287],[13.16932,47.23015],[13.16949,47.23089],[13.16928,47.23112],[13.16903,47.23178]]}},{"type":"Feature","properties":{"kind":"piste","difficulty":"intermediate","name":null,"aerialway":null,"osm":"way/449812430"},"geometry":{"type":"LineString","coordinates":[[13.16841,47.22885],[13.169,47.22902],[13.16938,47.22882],[13.17021,47.22791]]}},{"type":"Feature","properties":{"kind":"piste","difficulty":"easy","name":null,"aerialway":null,"osm":"way/449812432"},"geometry":{"type":"LineString","coordinates":[[13.1684,47.22858],[13.16841,47.22885]]}},{"type":"Feature","properties":{"kind":"piste","difficulty":"intermediate","name":null,"aerialway":null,"osm":"way/449818260"},"geometry":{"type":"LineString","coordinates":[[13.17057,47.23328],[13.17213,47.23429],[13.1732,47.23445],[13.17521,47.23533],[13.1764,47.23609],[13.17672,47.23692],[13.1765,47.23771],[13.18123,47.24146],[13.18224,47.24198]]}},{"type":"Feature","properties":{"kind":"piste","difficulty":"intermediate","name":null,"aerialway":null,"osm":"way/449818261"},"geometry":{"type":"LineString","coordinates":[[13.18166,47.24114],[13.18224,47.24198],[13.18312,47.24197]]}},{"type":"Feature","properties":{"kind":"piste","difficulty":"intermediate","name":null,"aerialway":null,"osm":"way/449821609"},"geometry":{"type":"LineString","coordinates":[[13.18952,47.24596],[13.18924,47.24665],[13.18927,47.24697]]}},{"type":"Feature","properties":{"kind":"piste","difficulty":"intermediate","name":null,"aerialway":null,"osm":"way/449821610"},"geometry":{"type":"LineString","coordinates":[[13.18666,47.24383],[13.18788,47.24445],[13.18839,47.24504],[13.18858,47.24547],[13.19055,47.24638],[13.19056,47.2471],[13.1908,47.24733]]}},{"type":"Feature","properties":{"kind":"piste","difficulty":"easy","name":null,"aerialway":null,"osm":"way/449823756"},"geometry":{"type":"LineString","coordinates":[[13.1532,47.22551],[13.15309,47.22533],[13.15267,47.22616],[13.15068,47.2286],[13.14922,47.23075]]}},{"type":"Feature","properties":{"kind":"piste","difficulty":"intermediate","name":null,"aerialway":null,"osm":"way/449830576"},"geometry":{"type":"LineString","coordinates":[[13.13676,47.23699],[13.13574,47.23679],[13.13551,47.23662],[13.13536,47.23606],[13.1355,47.23569],[13.13536,47.23525],[13.13504,47.23552],[13.13524,47.23692],[13.13656,47.2372],[13.13676,47.23699]]}},{"type":"Feature","properties":{"kind":"piste","difficulty":"easy","name":null,"aerialway":null,"osm":"way/451394471"},"geometry":{"type":"LineString","coordinates":[[13.11122,47.24465],[13.1104,47.2443],[13.11012,47.24404],[13.10952,47.24302]]}},{"type":"Feature","properties":{"kind":"piste","difficulty":"intermediate","name":null,"aerialway":null,"osm":"way/453775551"},"geometry":{"type":"LineString","coordinates":[[13.16951,47.232],[13.16945,47.23226],[13.16991,47.23297],[13.17057,47.23328],[13.17077,47.23382],[13.17069,47.23433]]}},{"type":"Feature","properties":{"kind":"piste","difficulty":"intermediate","name":null,"aerialway":null,"osm":"way/453776872"},"geometry":{"type":"LineString","coordinates":[[13.16903,47.23178],[13.17,47.23151],[13.17091,47.23164],[13.17202,47.23231],[13.17271,47.23353],[13.17363,47.23212],[13.17901,47.23297],[13.17841,47.23348],[13.17892,47.23423],[13.18041,47.23498],[13.18054,47.23535]]}},{"type":"Feature","properties":{"kind":"piste","difficulty":"easy","name":"Fischbacherwiese","aerialway":null,"osm":"way/453777508"},"geometry":{"type":"LineString","coordinates":[[13.19557,47.24819],[13.1963,47.24854],[13.197,47.24906],[13.19761,47.24974],[13.19786,47.25015],[13.1978,47.25033],[13.19754,47.25043]]}},{"type":"Feature","properties":{"kind":"piste","difficulty":"intermediate","name":null,"aerialway":null,"osm":"way/573518842"},"geometry":{"type":"LineString","coordinates":[[13.14852,47.23232],[13.1493,47.23222],[13.14974,47.23194],[13.14988,47.23157],[13.15137,47.23103]]}},{"type":"Feature","properties":{"kind":"piste","difficulty":"easy","name":null,"aerialway":null,"osm":"way/649984045"},"geometry":{"type":"LineString","coordinates":[[13.18012,47.24158],[13.18018,47.24187],[13.18065,47.24204],[13.18224,47.24198]]}},{"type":"Feature","properties":{"kind":"piste","difficulty":"easy","name":"Bergstraße","aerialway":null,"osm":"way/649984052"},"geometry":{"type":"LineString","coordinates":[[13.15999,47.23205],[13.16177,47.23186]]}},{"type":"Feature","properties":{"kind":"piste","difficulty":"intermediate","name":null,"aerialway":null,"osm":"way/651701814"},"geometry":{"type":"LineString","coordinates":[[13.14634,47.23998],[13.14569,47.23951],[13.14533,47.2389],[13.14541,47.23854],[13.14496,47.23869],[13.14534,47.23948],[13.14534,47.2398],[13.14574,47.24036],[13.14634,47.23998]]}},{"type":"Feature","properties":{"kind":"piste","difficulty":"advanced","name":null,"aerialway":null,"osm":"way/651706585"},"geometry":{"type":"LineString","coordinates":[[13.143,47.2367],[13.14586,47.23573],[13.14632,47.23581],[13.14605,47.23648],[13.14393,47.2372],[13.143,47.2367]]}},{"type":"Feature","properties":{"kind":"piste","difficulty":"novice","name":"Fischbacherwiese","aerialway":null,"osm":"way/749197897"},"geometry":{"type":"LineString","coordinates":[[13.19628,47.24853],[13.1963,47.2487],[13.19606,47.24888],[13.19645,47.24958]]}},{"type":"Feature","properties":{"kind":"piste","difficulty":"novice","name":null,"aerialway":null,"osm":"way/759129160"},"geometry":{"type":"LineString","coordinates":[[13.19666,47.2496],[13.19645,47.24958]]}},{"type":"Feature","properties":{"kind":"piste","difficulty":"easy","name":null,"aerialway":null,"osm":"way/784444495"},"geometry":{"type":"LineString","coordinates":[[13.19452,47.24185],[13.19522,47.24175]]}},{"type":"Feature","properties":{"kind":"piste","difficulty":"novice","name":"Fischbacherwiese","aerialway":null,"osm":"way/912864135"},"geometry":{"type":"LineString","coordinates":[[13.19645,47.24958],[13.19686,47.25026]]}},{"type":"Feature","properties":{"kind":"piste","difficulty":"easy","name":null,"aerialway":null,"osm":"way/1053039619"},"geometry":{"type":"LineString","coordinates":[[13.14888,47.23154],[13.1487,47.23147]]}},{"type":"Feature","properties":{"kind":"piste","difficulty":"easy","name":null,"aerialway":null,"osm":"way/1053039620"},"geometry":{"type":"LineString","coordinates":[[13.14914,47.23113],[13.1487,47.23147]]}},{"type":"Feature","properties":{"kind":"piste","difficulty":"easy","name":null,"aerialway":null,"osm":"way/1053039622"},"geometry":{"type":"LineString","coordinates":[[13.14767,47.23475],[13.14726,47.23496]]}},{"type":"Feature","properties":{"kind":"piste","difficulty":"easy","name":null,"aerialway":null,"osm":"way/1053039623"},"geometry":{"type":"LineString","coordinates":[[13.14788,47.2348],[13.14767,47.23475]]}},{"type":"Feature","properties":{"kind":"piste","difficulty":"easy","name":null,"aerialway":null,"osm":"way/1053039624"},"geometry":{"type":"LineString","coordinates":[[13.1487,47.23147],[13.14714,47.23237],[13.14636,47.23266],[13.14513,47.23403],[13.14366,47.23477]]}},{"type":"Feature","properties":{"kind":"piste","difficulty":"easy","name":null,"aerialway":null,"osm":"way/1053039626"},"geometry":{"type":"LineString","coordinates":[[13.14366,47.23477],[13.1429,47.23486],[13.14057,47.23449],[13.1395,47.23444],[13.13696,47.2344],[13.13575,47.23453]]}},{"type":"Feature","properties":{"kind":"piste","difficulty":"intermediate","name":null,"aerialway":null,"osm":"way/1053039627"},"geometry":{"type":"LineString","coordinates":[[13.13518,47.23352],[13.13546,47.2335],[13.13555,47.23364],[13.13541,47.23397],[13.13575,47.23453],[13.13591,47.23546],[13.13616,47.23569],[13.13749,47.23624],[13.13753,47.23647],[13.1372,47.23702],[13.13745,47.23819],[13.13746,47.23884]]}},{"type":"Feature","properties":{"kind":"piste","difficulty":"intermediate","name":null,"aerialway":null,"osm":"way/1053039628"},"geometry":{"type":"LineString","coordinates":[[13.13588,47.23507],[13.13535,47.23568],[13.13531,47.23659],[13.13549,47.23683],[13.13676,47.23712],[13.13723,47.23743]]}},{"type":"Feature","properties":{"kind":"piste","difficulty":"intermediate","name":null,"aerialway":null,"osm":"way/1053039629"},"geometry":{"type":"LineString","coordinates":[[13.14726,47.23496],[13.14707,47.23561],[13.14647,47.23649],[13.14655,47.23723],[13.14606,47.23782],[13.14547,47.23802],[13.1453,47.2383],[13.1434,47.23946],[13.14154,47.23988],[13.14044,47.23971],[13.13841,47.23883],[13.1379,47.23873],[13.13746,47.23884],[13.13704,47.23917],[13.13643,47.23941],[13.13539,47.23959],[13.1349,47.23955],[13.1348,47.2394]]}},{"type":"Feature","properties":{"kind":"piste","difficulty":"intermediate","name":null,"aerialway":null,"osm":"way/1053039630"},"geometry":{"type":"LineString","coordinates":[[13.14646,47.23562],[13.14676,47.2361]]}},{"type":"Feature","properties":{"kind":"piste","difficulty":"intermediate","name":null,"aerialway":null,"osm":"way/1053039632"},"geometry":{"type":"LineString","coordinates":[[13.14366,47.23477],[13.14335,47.23488],[13.14289,47.23575],[13.14254,47.23611],[13.14217,47.23714]]}},{"type":"Feature","properties":{"kind":"piste","difficulty":"intermediate","name":null,"aerialway":null,"osm":"way/1053039633"},"geometry":{"type":"LineString","coordinates":[[13.14217,47.23714],[13.14159,47.23738],[13.14106,47.23784],[13.14067,47.23839],[13.1406,47.23876],[13.14073,47.23976]]}},{"type":"Feature","properties":{"kind":"piste","difficulty":"intermediate","name":null,"aerialway":null,"osm":"way/1053039634"},"geometry":{"type":"LineString","coordinates":[[13.14364,47.23933],[13.14352,47.23924],[13.14377,47.23792],[13.14368,47.23752],[13.14308,47.23721],[13.14217,47.23714]]}},{"type":"Feature","properties":{"kind":"piste","difficulty":"intermediate","name":null,"aerialway":null,"osm":"way/1053039635"},"geometry":{"type":"LineString","coordinates":[[13.14217,47.23714],[13.14144,47.23623],[13.14067,47.23581],[13.14014,47.23573],[13.13816,47.23596],[13.13749,47.23624]]}},{"type":"Feature","properties":{"kind":"piste","difficulty":"easy","name":null,"aerialway":null,"osm":"way/1053039636"},"geometry":{"type":"LineString","coordinates":[[13.14649,47.23731],[13.14704,47.23918],[13.14622,47.24061],[13.14508,47.24138],[13.14423,47.24146],[13.14322,47.24131],[13.14229,47.24134],[13.14073,47.24102],[13.14014,47.24066],[13.13986,47.23992],[13.13926,47.2392]]}},{"type":"Feature","properties":{"kind":"piste","difficulty":"intermediate","name":null,"aerialway":null,"osm":"way/1053039637"},"geometry":{"type":"LineString","coordinates":[[13.14586,47.23789],[13.1452,47.23871],[13.14533,47.23925],[13.14622,47.24061]]}},{"type":"Feature","properties":{"kind":"piste","difficulty":"intermediate","name":null,"aerialway":null,"osm":"way/1053039638"},"geometry":{"type":"LineString","coordinates":[[13.14364,47.23933],[13.14267,47.24133]]}},{"type":"Feature","properties":{"kind":"piste","difficulty":"easy","name":null,"aerialway":null,"osm":"way/1053039639"},"geometry":{"type":"LineString","coordinates":[[13.14591,47.24082],[13.14428,47.24085],[13.14349,47.24105],[13.14322,47.24131]]}},{"type":"Feature","properties":{"kind":"piste","difficulty":"intermediate","name":null,"aerialway":null,"osm":"way/1053039640"},"geometry":{"type":"LineString","coordinates":[[13.13539,47.23959],[13.13343,47.24019],[13.12936,47.24089],[13.12674,47.2417]]}},{"type":"Feature","properties":{"kind":"piste","difficulty":"intermediate","name":null,"aerialway":null,"osm":"way/1053039641"},"geometry":{"type":"LineString","coordinates":[[13.12785,47.24144],[13.12749,47.24225],[13.12774,47.24304],[13.1278,47.24375],[13.12694,47.24737],[13.12736,47.24793]]}},{"type":"Feature","properties":{"kind":"piste","difficulty":"easy","name":null,"aerialway":null,"osm":"way/1053039642"},"geometry":{"type":"LineString","coordinates":[[13.13553,47.23371],[13.13472,47.23395],[13.1332,47.23345],[13.13164,47.23319],[13.13029,47.23267],[13.12914,47.23244],[13.12892,47.2327],[13.13031,47.2343],[13.13084,47.2347],[13.13113,47.2358],[13.13084,47.23657],[13.13106,47.2372],[13.13013,47.238],[13.12725,47.23899],[13.12713,47.23982],[13.12681,47.24017],[13.12591,47.24052],[13.12449,47.24163],[13.12365,47.24191],[13.12284,47.24181],[13.12283,47.24163]]}},{"type":"Feature","properties":{"kind":"piste","difficulty":"intermediate","name":null,"aerialway":null,"osm":"way/1053039643"},"geometry":{"type":"LineString","coordinates":[[13.13553,47.23371],[13.13295,47.23567],[13.13123,47.23765],[13.13049,47.23814],[13.12903,47.23831],[13.12775,47.23921],[13.12771,47.23978],[13.1279,47.24029],[13.12819,47.24056],[13.12785,47.24144]]}},{"type":"Feature","properties":{"kind":"piste","difficulty":"easy","name":null,"aerialway":null,"osm":"way/1053039644"},"geometry":{"type":"LineString","coordinates":[[13.12673,47.23907],[13.12721,47.2393]]}},{"type":"Feature","properties":{"kind":"piste","difficulty":"easy","name":null,"aerialway":null,"osm":"way/1053039645"},"geometry":{"type":"LineString","coordinates":[[13.12713,47.23982],[13.12741,47.24067],[13.12674,47.2417],[13.12641,47.24177]]}},{"type":"Feature","properties":{"kind":"piste","difficulty":"easy","name":null,"aerialway":null,"osm":"way/1053039646"},"geometry":{"type":"LineString","coordinates":[[13.12641,47.24177],[13.12449,47.24163],[13.1236,47.24219],[13.12357,47.24251],[13.12527,47.24314],[13.12551,47.24332],[13.12605,47.24435],[13.12589,47.24478],[13.1247,47.24557],[13.1246,47.24591],[13.12471,47.24623],[13.12549,47.24701],[13.1276,47.248],[13.1278,47.24827],[13.12751,47.2484],[13.12542,47.24863],[13.1228,47.2492],[13.12262,47.24914],[13.12266,47.24906]]}},{"type":"Feature","properties":{"kind":"piste","difficulty":"easy","name":null,"aerialway":null,"osm":"way/1053039647"},"geometry":{"type":"LineString","coordinates":[[13.12664,47.24916],[13.12646,47.24898],[13.12542,47.24863]]}},{"type":"Feature","properties":{"kind":"piste","difficulty":"easy","name":null,"aerialway":null,"osm":"way/1053039648"},"geometry":{"type":"LineString","coordinates":[[13.12464,47.24882],[13.12419,47.24945],[13.12378,47.24976]]}},{"type":"Feature","properties":{"kind":"piste","difficulty":"easy","name":null,"aerialway":null,"osm":"way/1053039649"},"geometry":{"type":"LineString","coordinates":[[13.11352,47.24716],[13.11226,47.2468],[13.11098,47.246],[13.11062,47.24547],[13.11048,47.24469]]}},{"type":"Feature","properties":{"kind":"piste","difficulty":"easy","name":null,"aerialway":null,"osm":"way/1053039650"},"geometry":{"type":"LineString","coordinates":[[13.11055,47.2449],[13.11018,47.24501]]}},{"type":"Feature","properties":{"kind":"piste","difficulty":"easy","name":null,"aerialway":null,"osm":"way/1053039651"},"geometry":{"type":"LineString","coordinates":[[13.11098,47.24456],[13.11048,47.24469]]}},{"type":"Feature","properties":{"kind":"piste","difficulty":"easy","name":null,"aerialway":null,"osm":"way/1053039652"},"geometry":{"type":"LineString","coordinates":[[13.11048,47.24469],[13.11044,47.24432]]}},{"type":"Feature","properties":{"kind":"piste","difficulty":"easy","name":null,"aerialway":null,"osm":"way/1053039653"},"geometry":{"type":"LineString","coordinates":[[13.11061,47.24507],[13.11096,47.24482],[13.11103,47.24458]]}},{"type":"Feature","properties":{"kind":"piste","difficulty":"advanced","name":null,"aerialway":null,"osm":"way/1053420096"},"geometry":{"type":"LineString","coordinates":[[13.13049,47.23814],[13.13035,47.23877],[13.12884,47.24037],[13.12819,47.24056]]}},{"type":"Feature","properties":{"kind":"piste","difficulty":"advanced","name":null,"aerialway":null,"osm":"way/1053420097"},"geometry":{"type":"LineString","coordinates":[[13.14698,47.23577],[13.14264,47.23718]]}},{"type":"Feature","properties":{"kind":"piste","difficulty":"novice","name":"Fischbacherwiese","aerialway":null,"osm":"way/1080719669"},"geometry":{"type":"LineString","coordinates":[[13.19686,47.25026],[13.19723,47.25031]]}},{"type":"Feature","properties":{"kind":"piste","difficulty":"easy","name":null,"aerialway":null,"osm":"way/1125802938"},"geometry":{"type":"LineString","coordinates":[[13.14888,47.23154],[13.14914,47.23113]]}},{"type":"Feature","properties":{"kind":"piste","difficulty":"intermediate","name":null,"aerialway":null,"osm":"way/1125871842"},"geometry":{"type":"LineString","coordinates":[[13.13043,47.23781],[13.13049,47.23814]]}},{"type":"Feature","properties":{"kind":"piste","difficulty":"intermediate","name":null,"aerialway":null,"osm":"way/1125949961"},"geometry":{"type":"LineString","coordinates":[[13.18312,47.24197],[13.18303,47.24233],[13.18286,47.24241]]}},{"type":"Feature","properties":{"kind":"piste","difficulty":"easy","name":null,"aerialway":null,"osm":"way/1125949962"},"geometry":{"type":"LineString","coordinates":[[13.16903,47.23178],[13.16951,47.232]]}},{"type":"Feature","properties":{"kind":"piste","difficulty":"intermediate","name":null,"aerialway":null,"osm":"way/1185556357"},"geometry":{"type":"LineString","coordinates":[[13.19376,47.2396],[13.19394,47.23902],[13.19469,47.23853],[13.19539,47.23781],[13.1962,47.23723],[13.19644,47.23726]]}},{"type":"Feature","properties":{"kind":"piste","difficulty":"easy","name":null,"aerialway":null,"osm":"way/1185556358"},"geometry":{"type":"LineString","coordinates":[[13.16594,47.23546],[13.16632,47.23586],[13.16779,47.23649],[13.16906,47.23754],[13.16985,47.23771]]}},{"type":"Feature","properties":{"kind":"piste","difficulty":"easy","name":null,"aerialway":null,"osm":"way/1185556359"},"geometry":{"type":"LineString","coordinates":[[13.16951,47.232],[13.16768,47.23299]]}},{"type":"Feature","properties":{"kind":"piste","difficulty":"intermediate","name":null,"aerialway":null,"osm":"way/1185556360"},"geometry":{"type":"LineString","coordinates":[[13.16768,47.23299],[13.16735,47.23309]]}},{"type":"Feature","properties":{"kind":"piste","difficulty":"intermediate","name":null,"aerialway":null,"osm":"way/1185556361"},"geometry":{"type":"LineString","coordinates":[[13.1486,47.23241],[13.14883,47.23211],[13.14928,47.2321],[13.14957,47.23191],[13.14937,47.23155],[13.14943,47.23111],[13.15115,47.2306],[13.15163,47.23059],[13.15177,47.23045],[13.15021,47.2295],[13.15056,47.22913],[13.15098,47.22925],[13.15193,47.22994],[13.15227,47.23053],[13.15349,47.23077],[13.1546,47.23033],[13.15485,47.23039],[13.15486,47.2308],[13.15504,47.2311],[13.15554,47.2313],[13.15596,47.23137],[13.15694,47.23115],[13.1574,47.23085],[13.1581,47.23083],[13.15958,47.23125],[13.15938,47.23145],[13.15829,47.23097],[13.15757,47.231],[13.15537,47.23239],[13.15405,47.23248],[13.15353,47.23191],[13.15295,47.2316],[13.15198,47.23121],[13.15136,47.23116],[13.15012,47.23167],[13.14989,47.23201],[13.14935,47.23237],[13.1486,47.23241]]}},{"type":"Feature","properties":{"kind":"piste","difficulty":"intermediate","name":null,"aerialway":null,"osm":"way/1185556362"},"geometry":{"type":"LineString","coordinates":[[13.14343,47.22606],[13.14361,47.22631],[13.14391,47.22642],[13.14496,47.22648],[13.14729,47.22629],[13.14963,47.22662],[13.15207,47.22663],[13.1525,47.22616],[13.15226,47.22614],[13.15224,47.22599],[13.15252,47.22599],[13.15276,47.22563],[13.14904,47.22542],[13.14664,47.22561],[13.14403,47.2261],[13.14372,47.22611],[13.14368,47.22597],[13.14343,47.22606]]}},{"type":"Feature","properties":{"kind":"piste","difficulty":"easy","name":null,"aerialway":null,"osm":"way/1185556363"},"geometry":{"type":"LineString","coordinates":[[13.18054,47.23535],[13.1812,47.23599],[13.18131,47.23678],[13.18181,47.23733],[13.18181,47.23833],[13.18252,47.23977],[13.18252,47.24007],[13.18142,47.24038],[13.1811,47.24067],[13.18125,47.24102],[13.18166,47.24114]]}},{"type":"Feature","properties":{"kind":"piste","difficulty":"intermediate","name":null,"aerialway":null,"osm":"way/1185556364"},"geometry":{"type":"LineString","coordinates":[[13.17232,47.23439],[13.17306,47.23412],[13.17358,47.23428],[13.1736,47.2345],[13.17457,47.23474],[13.17649,47.23571],[13.17711,47.2366],[13.177,47.23717],[13.17729,47.23808],[13.18066,47.24068],[13.18034,47.24113],[13.17934,47.24104],[13.17913,47.2402],[13.17645,47.23811],[13.1761,47.2374],[13.17636,47.23672],[13.17634,47.23639],[13.17606,47.2361],[13.17471,47.23524],[13.17261,47.23458],[13.17232,47.23439]]}},{"type":"Feature","properties":{"kind":"piste","difficulty":"intermediate","name":null,"aerialway":null,"osm":"way/1185556365"},"geometry":{"type":"LineString","coordinates":[[13.16768,47.23299],[13.16866,47.2338],[13.16939,47.23414],[13.17069,47.23433]]}},{"type":"Feature","properties":{"kind":"piste","difficulty":"intermediate","name":null,"aerialway":null,"osm":"way/1185556368"},"geometry":{"type":"LineString","coordinates":[[13.17057,47.23328],[13.17116,47.23312],[13.17139,47.23284],[13.17139,47.23228],[13.17161,47.232]]}},{"type":"Feature","properties":{"kind":"piste","difficulty":"intermediate","name":null,"aerialway":null,"osm":"way/1185556379"},"geometry":{"type":"LineString","coordinates":[[13.16934,47.23422],[13.16979,47.23445],[13.16995,47.23474],[13.16991,47.23563],[13.16901,47.23625],[13.16898,47.23699],[13.16879,47.23724],[13.16889,47.23762],[13.16926,47.23809],[13.16963,47.23906],[13.17102,47.24004],[13.1718,47.24044],[13.17194,47.24165],[13.17245,47.24186],[13.17272,47.24079],[13.17239,47.24061],[13.17242,47.24042],[13.17213,47.23994],[13.17062,47.23885],[13.1703,47.23782],[13.17038,47.23732],[13.17119,47.23562],[13.17191,47.23445],[13.16934,47.23422]]}},{"type":"Feature","properties":{"kind":"piste","difficulty":"intermediate","name":null,"aerialway":null,"osm":"way/1185556380"},"geometry":{"type":"LineString","coordinates":[[13.19252,47.23999],[13.19239,47.24009],[13.19073,47.24014],[13.18887,47.23973],[13.18875,47.2398],[13.1887,47.24011],[13.18833,47.23974],[13.18852,47.23916],[13.19075,47.23982],[13.19258,47.23977],[13.1936,47.23939],[13.19388,47.23882],[13.19468,47.23847],[13.19513,47.23793],[13.19627,47.23708],[13.19645,47.23717],[13.19402,47.23927],[13.19438,47.2402],[13.1939,47.2414],[13.19392,47.2419],[13.19382,47.2414],[13.19426,47.2402],[13.19414,47.2398],[13.19252,47.23999]]}},{"type":"Feature","properties":{"kind":"piste","difficulty":"intermediate","name":null,"aerialway":null,"osm":"way/1185556381"},"geometry":{"type":"LineString","coordinates":[[13.19181,47.24301],[13.19282,47.24396],[13.19312,47.24518]]}},{"type":"Feature","properties":{"kind":"piste","difficulty":"easy","name":null,"aerialway":null,"osm":"way/1185556382"},"geometry":{"type":"LineString","coordinates":[[13.18569,47.24401],[13.18544,47.24454],[13.18608,47.24472],[13.18664,47.24449],[13.18683,47.24454],[13.18599,47.24538],[13.18619,47.24563],[13.18823,47.2455],[13.19093,47.24657],[13.19177,47.24664],[13.19208,47.24647],[13.19296,47.24556],[13.19479,47.24565],[13.19479,47.24525],[13.19461,47.24518],[13.19474,47.24466],[13.1938,47.24448],[13.19461,47.24344],[13.19439,47.24224],[13.19455,47.242],[13.19503,47.2418],[13.19484,47.24174],[13.19484,47.24163],[13.1939,47.2416],[13.19392,47.2419],[13.19421,47.24223],[13.19448,47.24314],[13.19445,47.24344],[13.19342,47.24475],[13.19177,47.24615],[13.19019,47.24587],[13.18922,47.2454],[13.18779,47.24527],[13.18644,47.24535],[13.18721,47.24463],[13.18665,47.24435],[13.18578,47.24432],[13.1858,47.2442],[13.18617,47.24409],[13.18568,47.24355],[13.18447,47.24318],[13.18386,47.24314],[13.18395,47.24289],[13.18422,47.24281],[13.18455,47.24296],[13.18434,47.24278],[13.18411,47.24274],[13.18316,47.24309],[13.18238,47.24292],[13.18221,47.24268],[13.18128,47.24254],[13.18126,47.2427],[13.1826,47.24333],[13.18389,47.2434],[13.18512,47.24396],[13.18569,47.24401]]}},{"type":"Feature","properties":{"kind":"piste","difficulty":"intermediate","name":null,"aerialway":null,"osm":"way/1185556383"},"geometry":{"type":"LineString","coordinates":[[13.17107,47.23149],[13.17171,47.23178],[13.17228,47.23246],[13.17304,47.23253],[13.17367,47.23188],[13.17842,47.23241],[13.17901,47.23297],[13.17885,47.23402],[13.17894,47.23418],[13.18048,47.23498],[13.18033,47.23501],[13.17864,47.23416],[13.17864,47.23395],[13.17732,47.23293],[13.17401,47.23287],[13.17298,47.23337],[13.1727,47.23372],[13.17217,47.23397],[13.17247,47.23363],[13.17236,47.23312],[13.17188,47.23237],[13.17164,47.23235],[13.17153,47.2329],[13.17121,47.23321],[13.17105,47.23309],[13.17132,47.23283],[13.17133,47.23226],[13.171,47.23198],[13.1704,47.23176],[13.16975,47.23171],[13.16974,47.23139],[13.17107,47.23149]]}},{"type":"Feature","properties":{"kind":"piste","difficulty":"intermediate","name":null,"aerialway":null,"osm":"way/1185556385"},"geometry":{"type":"LineString","coordinates":[[13.17014,47.233],[13.17044,47.23313],[13.17105,47.23309],[13.17217,47.23397],[13.1719,47.23433],[13.17016,47.23415],[13.1703,47.23373],[13.17017,47.23329],[13.17001,47.2332],[13.17014,47.233]]}},{"type":"Feature","properties":{"kind":"piste","difficulty":"intermediate","name":null,"aerialway":null,"osm":"way/1185556389"},"geometry":{"type":"LineString","coordinates":[[13.16862,47.22804],[13.16905,47.22786],[13.17064,47.22779],[13.17189,47.22714],[13.17226,47.22747],[13.17273,47.22759],[13.17284,47.22777],[13.17584,47.22956],[13.17641,47.23007],[13.17603,47.23097],[13.17613,47.23119],[13.1759,47.23114],[13.17477,47.22994],[13.17382,47.22941],[13.17222,47.22784],[13.17187,47.22782],[13.17107,47.22828],[13.16973,47.22859],[13.16955,47.22852],[13.16968,47.22824],[13.16956,47.22813],[13.16911,47.22807],[13.16856,47.22822],[13.16862,47.22804]]}},{"type":"Feature","properties":{"kind":"piste","difficulty":"advanced","name":null,"aerialway":null,"osm":"way/1185605635"},"geometry":{"type":"LineString","coordinates":[[13.16209,47.22769],[13.16267,47.22797],[13.16361,47.22873],[13.16499,47.23044],[13.16543,47.23028],[13.16429,47.22909],[13.16365,47.22795],[13.16209,47.22769]]}},{"type":"Feature","properties":{"kind":"piste","difficulty":"easy","name":null,"aerialway":null,"osm":"way/1185605636"},"geometry":{"type":"LineString","coordinates":[[13.15303,47.22541],[13.15313,47.22564],[13.15272,47.22651],[13.15205,47.22706],[13.15161,47.22779],[13.14997,47.22981],[13.14939,47.23124],[13.14899,47.23107],[13.14922,47.23051],[13.15055,47.22854],[13.15139,47.22768],[13.15276,47.22563],[13.15303,47.22541]]}},{"type":"Feature","properties":{"kind":"piste","difficulty":"intermediate","name":null,"aerialway":null,"osm":"way/1185605637"},"geometry":{"type":"LineString","coordinates":[[13.14761,47.23395],[13.14785,47.23404],[13.1481,47.23367],[13.14823,47.23289],[13.14937,47.23155],[13.14939,47.23124],[13.14877,47.23176],[13.14879,47.23188],[13.14809,47.23263],[13.14761,47.23395]]}},{"type":"Feature","properties":{"kind":"piste","difficulty":"intermediate","name":null,"aerialway":null,"osm":"way/1185605639"},"geometry":{"type":"LineString","coordinates":[[13.19421,47.24223],[13.19392,47.2419],[13.19357,47.24222],[13.19144,47.24287],[13.18962,47.24303],[13.18693,47.24378],[13.18755,47.24403],[13.18854,47.24356],[13.18964,47.24328],[13.19173,47.24324],[13.1927,47.24398],[13.1933,47.24487],[13.19342,47.24475],[13.19285,47.24382],[13.1929,47.24369],[13.194,47.24408],[13.19427,47.2437],[13.19225,47.24309],[13.19314,47.24284],[13.19421,47.24223]]}},{"type":"Feature","properties":{"kind":"piste","difficulty":"intermediate","name":null,"aerialway":null,"osm":"way/1185605640"},"geometry":{"type":"LineString","coordinates":[[13.18617,47.24409],[13.18696,47.24443],[13.18825,47.24529],[13.18922,47.2454],[13.18893,47.24506],[13.18755,47.24403],[13.18693,47.24378],[13.18683,47.24309],[13.1845,47.24209],[13.1836,47.24189],[13.1837,47.24164],[13.18319,47.24257],[13.18401,47.24255],[13.18455,47.24296],[13.18447,47.24318],[13.18568,47.24355],[13.18617,47.24409]]}},{"type":"Feature","properties":{"kind":"piste","difficulty":"intermediate","name":null,"aerialway":null,"osm":"way/1185605643"},"geometry":{"type":"LineString","coordinates":[[13.19011,47.24628],[13.19028,47.24711],[13.18965,47.24707],[13.18957,47.24676],[13.18972,47.24612],[13.18924,47.24592],[13.18911,47.24706],[13.18929,47.2472],[13.1909,47.24752],[13.19222,47.2475],[13.19385,47.24705],[13.19412,47.24662],[13.19425,47.24598],[13.19451,47.24567],[13.19422,47.24563],[13.19375,47.24699],[13.19221,47.24734],[13.1912,47.24727],[13.19087,47.24692],[13.19093,47.24657],[13.19011,47.24628]]}},{"type":"Feature","properties":{"kind":"piste","difficulty":"easy","name":null,"aerialway":null,"osm":"way/1185605644"},"geometry":{"type":"LineString","coordinates":[[13.17826,47.24131],[13.17731,47.24138],[13.17648,47.24173],[13.17551,47.24266],[13.17507,47.24332],[13.17348,47.24274],[13.17298,47.24204],[13.17178,47.24159],[13.17099,47.24161],[13.17188,47.24128],[13.17077,47.24158],[13.17084,47.2417],[13.17175,47.24167],[13.17284,47.24211],[13.17314,47.24267],[13.17345,47.24288],[13.17528,47.24358],[13.17549,47.24331],[13.1754,47.24323],[13.1755,47.24301],[13.17646,47.2419],[13.17734,47.24153],[13.17879,47.24147],[13.17972,47.24186],[13.17961,47.2421],[13.18,47.24224],[13.18125,47.24236],[13.18128,47.24254],[13.18221,47.24268],[13.18267,47.24241],[13.18296,47.24256],[13.18303,47.24243],[13.18319,47.24257],[13.1836,47.24189],[13.18332,47.24159],[13.18301,47.242],[13.18238,47.24228],[13.18131,47.24187],[13.18039,47.24174],[13.18034,47.24113],[13.17934,47.24104],[13.17826,47.24131]]}},{"type":"Feature","properties":{"kind":"piste","difficulty":"intermediate","name":null,"aerialway":null,"osm":"way/1185605645"},"geometry":{"type":"LineString","coordinates":[[13.18121,47.24135],[13.18131,47.24187],[13.18238,47.24228],[13.18301,47.242],[13.18332,47.24159],[13.18321,47.24136],[13.18192,47.241],[13.18121,47.24135]]}},{"type":"Feature","properties":{"kind":"piste","difficulty":"intermediate","name":null,"aerialway":null,"osm":"way/1185605648"},"geometry":{"type":"LineString","coordinates":[[13.16477,47.24756],[13.16564,47.24706],[13.16689,47.24683],[13.16835,47.24704],[13.1693,47.24775],[13.17033,47.24677],[13.17086,47.24671],[13.17094,47.24656]]}},{"type":"Feature","properties":{"kind":"piste","difficulty":"intermediate","name":null,"aerialway":null,"osm":"way/1185605649"},"geometry":{"type":"LineString","coordinates":[[13.16424,47.24845],[13.16457,47.24812],[13.16477,47.24756]]}},{"type":"Feature","properties":{"kind":"piste","difficulty":"intermediate","name":null,"aerialway":null,"osm":"way/1185605652"},"geometry":{"type":"LineString","coordinates":[[13.18128,47.24254],[13.18198,47.24245]]}},{"type":"Feature","properties":{"kind":"piste","difficulty":"easy","name":null,"aerialway":null,"osm":"way/1185605653"},"geometry":{"type":"LineString","coordinates":[[13.1832,47.24319],[13.18425,47.24274],[13.18463,47.24273],[13.18549,47.24336]]}},{"type":"Feature","properties":{"kind":"piste","difficulty":"intermediate","name":null,"aerialway":null,"osm":"way/1186081617"},"geometry":{"type":"LineString","coordinates":[[13.15483,47.22522],[13.15509,47.22525],[13.15554,47.22608],[13.15737,47.22828],[13.1587,47.22894],[13.15934,47.22987],[13.1605,47.23018],[13.16066,47.23064],[13.16117,47.23081],[13.16027,47.2312],[13.1604,47.23095],[13.16021,47.23032],[13.15906,47.23002],[13.15798,47.22877],[13.15687,47.22818],[13.15521,47.22593],[13.15448,47.22525],[13.15483,47.22522]]}},{"type":"Feature","properties":{"kind":"piste","difficulty":"intermediate","name":null,"aerialway":null,"osm":"way/1186081618"},"geometry":{"type":"LineString","coordinates":[[13.15521,47.22593],[13.15551,47.22633],[13.15476,47.22733],[13.15449,47.22802],[13.1545,47.22919],[13.15469,47.22962],[13.1557,47.22986],[13.15592,47.23006],[13.15624,47.23098],[13.15659,47.23116],[13.15616,47.23132],[13.15588,47.23078],[13.15588,47.23053],[13.15549,47.23002],[13.15504,47.23008],[13.15485,47.23039],[13.1546,47.23033],[13.15466,47.23009],[13.15428,47.22917],[13.15425,47.22845],[13.1545,47.22728],[13.15521,47.22593]]}},{"type":"Feature","properties":{"kind":"piste","difficulty":"easy","name":null,"aerialway":null,"osm":"way/1186081619"},"geometry":{"type":"LineString","coordinates":[[13.15958,47.23125],[13.15936,47.2316],[13.15944,47.23175],[13.15982,47.23187],[13.15976,47.23207],[13.15939,47.23232],[13.15957,47.23252],[13.16015,47.23237],[13.16014,47.2322],[13.16047,47.23198],[13.16041,47.23179],[13.1606,47.2312],[13.1615,47.23069],[13.16257,47.23049],[13.16451,47.23058],[13.16582,47.23029],[13.16641,47.23047],[13.16793,47.23143],[13.16648,47.23043],[13.16577,47.23023],[13.16433,47.2305],[13.16253,47.23044],[13.1615,47.23061],[13.16027,47.2312],[13.15958,47.23125]]}},{"type":"Feature","properties":{"kind":"piste","difficulty":"easy","name":null,"aerialway":null,"osm":"way/1186233257"},"geometry":{"type":"LineString","coordinates":[[13.16674,47.23191],[13.16608,47.23192],[13.16584,47.23168],[13.165,47.23151],[13.16274,47.23139],[13.16165,47.23139],[13.16044,47.23188],[13.16047,47.23198],[13.16076,47.2319],[13.16179,47.23144],[13.16498,47.2316],[13.16579,47.23177],[13.16616,47.23223],[13.16735,47.23279],[13.16674,47.23191]]}},{"type":"Feature","properties":{"kind":"piste","difficulty":"advanced","name":null,"aerialway":null,"osm":"way/1186233258"},"geometry":{"type":"LineString","coordinates":[[13.1652,47.2305],[13.16589,47.23088],[13.16594,47.23117],[13.16559,47.23147],[13.16521,47.23154],[13.16584,47.23168],[13.1662,47.2313],[13.16606,47.23086],[13.16582,47.23052],[13.16552,47.23035],[13.1652,47.2305]]}},{"type":"Feature","properties":{"kind":"piste","difficulty":"easy","name":null,"aerialway":null,"osm":"way/1186233261"},"geometry":{"type":"LineString","coordinates":[[13.16875,47.22936],[13.16964,47.2287],[13.16922,47.23021],[13.16949,47.23096],[13.16932,47.23028],[13.16973,47.22859],[13.16955,47.22852],[13.16927,47.22891],[13.16902,47.22908],[13.16887,47.229],[13.16875,47.22936]]}},{"type":"Feature","properties":{"kind":"piste","difficulty":"intermediate","name":null,"aerialway":null,"osm":"way/1213805299"},"geometry":{"type":"LineString","coordinates":[[13.1837,47.24164],[13.18414,47.24153]]}},{"type":"Feature","properties":{"kind":"piste","difficulty":"intermediate","name":null,"aerialway":null,"osm":"way/1213805301"},"geometry":{"type":"LineString","coordinates":[[13.15396,47.24342],[13.15389,47.24363],[13.15548,47.24364],[13.15851,47.24469],[13.15968,47.24543],[13.16114,47.24751],[13.16198,47.24811],[13.16294,47.24852],[13.16424,47.24845]]}},{"type":"Feature","properties":{"kind":"piste","difficulty":"intermediate","name":null,"aerialway":null,"osm":"way/1213805302"},"geometry":{"type":"LineString","coordinates":[[13.18338,47.24143],[13.18412,47.24143],[13.18414,47.24153]]}},{"type":"Feature","properties":{"kind":"piste","difficulty":"intermediate","name":"11","aerialway":null,"osm":"way/1213805304"},"geometry":{"type":"LineString","coordinates":[[13.18198,47.24245],[13.18283,47.24257],[13.18306,47.24243],[13.18311,47.24228],[13.18303,47.24233]]}},{"type":"Feature","properties":{"kind":"piste","difficulty":"easy","name":null,"aerialway":null,"osm":"way/1213805306"},"geometry":{"type":"LineString","coordinates":[[13.19373,47.24533],[13.19439,47.24543],[13.19473,47.24477]]}},{"type":"Feature","properties":{"kind":"piste","difficulty":"easy","name":null,"aerialway":null,"osm":"way/1221079439"},"geometry":{"type":"LineString","coordinates":[[13.15332,47.24368],[13.15136,47.24255],[13.14962,47.24212],[13.1493,47.24178],[13.14875,47.24046],[13.14759,47.23942],[13.14702,47.23922]]}},{"type":"Feature","properties":{"kind":"piste","difficulty":"easy","name":null,"aerialway":null,"osm":"way/1274362568"},"geometry":{"type":"LineString","coordinates":[[13.19415,47.2447],[13.19473,47.24477]]}},{"type":"Feature","properties":{"kind":"piste","difficulty":"intermediate","name":null,"aerialway":null,"osm":"way/1274362569"},"geometry":{"type":"LineString","coordinates":[[13.19289,47.24423],[13.19415,47.2447]]}},{"type":"Feature","properties":{"kind":"piste","difficulty":"expert","name":"Heimalm","aerialway":null,"osm":"way/1324991883"},"geometry":{"type":"LineString","coordinates":[[13.1236,47.24219],[13.12215,47.24245],[13.12073,47.24252],[13.11989,47.24276],[13.11992,47.24328],[13.12026,47.24436],[13.12012,47.24503],[13.12019,47.24532],[13.12066,47.24581],[13.12062,47.24613],[13.11875,47.24713],[13.11714,47.24666],[13.11486,47.2465],[13.11322,47.24561],[13.1122,47.24537],[13.11137,47.24538],[13.11061,47.24507]]}},{"type":"Feature","properties":{"kind":"piste","difficulty":"easy","name":null,"aerialway":null,"osm":"way/1485137993"},"geometry":{"type":"LineString","coordinates":[[13.15396,47.24342],[13.15379,47.24366]]}},{"type":"Feature","properties":{"kind":"piste","difficulty":"easy","name":null,"aerialway":null,"osm":"way/1541351148"},"geometry":{"type":"LineString","coordinates":[[13.15379,47.24366],[13.15332,47.24368]]}},{"type":"Feature","properties":{"kind":"piste","difficulty":"easy","name":null,"aerialway":null,"osm":"relation/16028835"},"geometry":{"type":"MultiLineString","coordinates":[[[13.1719,47.23433],[13.17217,47.23397],[13.1727,47.23372],[13.17298,47.23337],[13.17401,47.23287],[13.17644,47.23299],[13.1767,47.23328],[13.17659,47.23404],[13.17669,47.23435],[13.17713,47.23463],[13.17814,47.23493],[13.18048,47.23498],[13.18117,47.23524],[13.18147,47.23585],[13.18138,47.23646],[13.18194,47.23724],[13.18185,47.23832],[13.18251,47.23947],[13.18264,47.23999],[13.18251,47.2403],[13.18151,47.24039],[13.18133,47.24081],[13.18183,47.24104],[13.18099,47.24143],[13.18053,47.24119],[13.18039,47.24141],[13.1803,47.24128],[13.18066,47.24068],[13.18133,47.24024],[13.18213,47.24018],[13.18246,47.23996],[13.18217,47.23908],[13.18162,47.23807],[13.18164,47.23739],[13.18061,47.23581],[13.17924,47.23576],[13.17664,47.23498],[13.17467,47.23408],[13.17419,47.23402],[13.17358,47.23428],[13.17306,47.23412],[13.17191,47.23445]],[[13.17191,47.23445],[13.16847,47.23413],[13.16753,47.23329],[13.16735,47.23279],[13.16674,47.23191],[13.16761,47.23178],[13.16793,47.23143],[13.16885,47.23187],[13.16951,47.232],[13.16999,47.23252],[13.17014,47.233],[13.17001,47.2332],[13.16917,47.23355],[13.16932,47.23392],[13.16954,47.23408],[13.1719,47.23433]]]}},{"type":"Feature","properties":{"kind":"piste","difficulty":"easy","name":null,"aerialway":null,"osm":"relation/16028837"},"geometry":{"type":"LineString","coordinates":[[13.15547,47.22524],[13.15505,47.22506],[13.15353,47.22513],[13.15328,47.22486],[13.15297,47.22514],[13.15311,47.22526],[13.15303,47.22541],[13.15311,47.22546],[13.15351,47.22531],[13.15509,47.22525],[13.15601,47.22558],[13.15777,47.22653],[13.1593,47.22685],[13.16071,47.22744],[13.16365,47.22795],[13.16462,47.22797],[13.16587,47.22834],[13.16756,47.22928],[13.16845,47.23057],[13.16801,47.23068],[13.16829,47.23091],[13.16824,47.23157],[13.16885,47.23187],[13.16947,47.23198],[13.16981,47.23226],[13.16999,47.23215],[13.16975,47.23171],[13.16974,47.23139],[13.1694,47.23129],[13.16949,47.23096],[13.16878,47.23011],[13.16867,47.22967],[13.16887,47.229],[13.16847,47.22855],[13.1687,47.22838],[13.16852,47.22814],[13.16787,47.22824],[13.16778,47.22843],[13.16732,47.22837],[13.16332,47.22743],[13.16337,47.22731],[13.1608,47.22661],[13.15997,47.2267],[13.15891,47.22658],[13.15729,47.226],[13.15636,47.22548],[13.15547,47.22524]]}},{"type":"Feature","properties":{"kind":"lift","difficulty":null,"name":"Gipfelbahn Fulseck I","aerialway":"gondola","osm":"way/23028822"},"geometry":{"type":"LineString","coordinates":[[13.11048,47.24469],[13.12591,47.24159]]}},{"type":"Feature","properties":{"kind":"lift","difficulty":null,"name":"Kühhageralm","aerialway":"chair_lift","osm":"way/23028823"},"geometry":{"type":"LineString","coordinates":[[13.14379,47.22597],[13.1525,47.22603]]}},{"type":"Feature","properties":{"kind":"lift","difficulty":null,"name":"4er Sonnenbahn","aerialway":"chair_lift","osm":"way/23028825"},"geometry":{"type":"LineString","coordinates":[[13.16735,47.23309],[13.16451,47.22808]]}},{"type":"Feature","properties":{"kind":"lift","difficulty":null,"name":"6er Panoramabahn Großarltal II","aerialway":"gondola","osm":"way/23028826"},"geometry":{"type":"LineString","coordinates":[[13.1843,47.24113],[13.16876,47.22866]]}},{"type":"Feature","properties":{"kind":"lift","difficulty":null,"name":"6er Harbachbahn","aerialway":"chair_lift","osm":"way/23028827"},"geometry":{"type":"LineString","coordinates":[[13.18286,47.24241],[13.17001,47.23226]]}},{"type":"Feature","properties":{"kind":"lift","difficulty":null,"name":"Gipfelexpress Fulseck","aerialway":"chair_lift","osm":"way/23403970"},"geometry":{"type":"LineString","coordinates":[[13.1348,47.2394],[13.14646,47.23562]]}},{"type":"Feature","properties":{"kind":"lift","difficulty":null,"name":"Doppelsessellift Kreuzkogel","aerialway":"chair_lift","osm":"way/29553760"},"geometry":{"type":"LineString","coordinates":[[13.15932,47.23244],[13.15295,47.22525]]}},{"type":"Feature","properties":{"kind":"lift","difficulty":null,"name":"Wengerhochalmbahn","aerialway":"chair_lift","osm":"way/29553786"},"geometry":{"type":"LineString","coordinates":[[13.12266,47.24906],[13.13518,47.23352]]}},{"type":"Feature","properties":{"kind":"lift","difficulty":null,"name":"Tellerlift Kreuzhöhe","aerialway":"platter","osm":"way/29980100"},"geometry":{"type":"LineString","coordinates":[[13.16803,47.22818],[13.16273,47.22719]]}},{"type":"Feature","properties":{"kind":"lift","difficulty":null,"name":"6er Kreuzkogelbahn","aerialway":"chair_lift","osm":"way/32479738"},"geometry":{"type":"LineString","coordinates":[[13.16043,47.23239],[13.1535,47.22502]]}},{"type":"Feature","properties":{"kind":"lift","difficulty":null,"name":"Mühlwinkl","aerialway":"chair_lift","osm":"way/147475696"},"geometry":{"type":"LineString","coordinates":[[13.11018,47.24501],[13.12664,47.24916]]}},{"type":"Feature","properties":{"kind":"lift","difficulty":null,"name":"Brandlalm","aerialway":"platter","osm":"way/235508797"},"geometry":{"type":"LineString","coordinates":[[13.12283,47.24163],[13.12702,47.23888]]}},{"type":"Feature","properties":{"kind":"lift","difficulty":null,"name":"Gipfelbahn Fulseck II","aerialway":"gondola","osm":"way/449384383"},"geometry":{"type":"LineString","coordinates":[[13.12591,47.24159],[13.14788,47.2348]]}},{"type":"Feature","properties":{"kind":"lift","difficulty":null,"name":"6er Panoramabahn Großarltal I","aerialway":"gondola","osm":"way/449812434"},"geometry":{"type":"LineString","coordinates":[[13.19504,47.24156],[13.1843,47.24113]]}},{"type":"Feature","properties":{"kind":"lift","difficulty":null,"name":"Tellerlift Fischbacherwiese","aerialway":"platter","osm":"way/453777507"},"geometry":{"type":"LineString","coordinates":[[13.19757,47.25046],[13.19557,47.24819]]}},{"type":"Feature","properties":{"kind":"lift","difficulty":null,"name":"Übungslift Rauchleit'n","aerialway":"platter","osm":"way/453779202"},"geometry":{"type":"LineString","coordinates":[[13.10952,47.24302],[13.11122,47.24465]]}},{"type":"Feature","properties":{"kind":"lift","difficulty":null,"name":"Alm Express (Förderband Fischbacherwiese)","aerialway":"magic_carpet","osm":"way/759129159"},"geometry":{"type":"LineString","coordinates":[[13.19723,47.25031],[13.19666,47.2496]]}},{"type":"Feature","properties":{"kind":"lift","difficulty":null,"name":"Tellerlift Fischbacherwiese","aerialway":"platter","osm":"way/912864134"},"geometry":{"type":"LineString","coordinates":[[13.19557,47.24819],[13.19545,47.24806]]}},{"type":"Feature","properties":{"kind":"lift","difficulty":null,"name":"10er Kieserlbahn I","aerialway":"gondola","osm":"way/1075282499"},"geometry":{"type":"LineString","coordinates":[[13.19514,47.24522],[13.18414,47.24153]]}},{"type":"Feature","properties":{"kind":"lift","difficulty":null,"name":"10er Kieserlbahn II","aerialway":"gondola","osm":"way/1115265790"},"geometry":{"type":"LineString","coordinates":[[13.18414,47.24153],[13.15396,47.24342]]}},{"type":"Feature","properties":{"kind":"lift","difficulty":null,"name":"Seillift Harbachgraben","aerialway":"rope_tow","osm":"way/1213805300"},"geometry":{"type":"LineString","coordinates":[[13.16995,47.24247],[13.17239,47.24283]]}}]}