{"type":"FeatureCollection","features":[{"type":"Feature","properties":{"kind":"lift","difficulty":null,"name":"Vögelsberg","aerialway":"platter","osm":"way/164793938"},"geometry":{"type":"LineString","coordinates":[[11.59253,47.2758],[11.58993,47.27308]]}},{"type":"Feature","properties":{"kind":"piste","difficulty":"easy","name":null,"aerialway":null,"osm":"way/417712936"},"geometry":{"type":"LineString","coordinates":[[11.58998,47.27313],[11.58984,47.27375],[11.59194,47.2757],[11.59235,47.27586],[11.59253,47.2758]]}},{"type":"Feature","properties":{"kind":"piste","difficulty":"easy","name":null,"aerialway":null,"osm":"way/417712943"},"geometry":{"type":"LineString","coordinates":[[11.5913,47.27506],[11.59214,47.27521],[11.59273,47.27568],[11.59253,47.2758]]}}]}