{"type":"FeatureCollection","features":[{"type":"Feature","properties":{"kind":"lift","difficulty":null,"name":"Skilift Hittisberg","aerialway":"t-bar","osm":"way/478657379"},"geometry":{"type":"LineString","coordinates":[[9.9765,47.45592],[9.98348,47.45018]]}},{"type":"Feature","properties":{"kind":"piste","difficulty":"intermediate","name":null,"aerialway":null,"osm":"way/877892001"},"geometry":{"type":"LineString","coordinates":[[9.98309,47.4505],[9.98311,47.45073],[9.98254,47.45181],[9.98148,47.45304],[9.98043,47.45381],[9.97701,47.45589],[9.9769,47.45623]]}},{"type":"Feature","properties":{"kind":"piste","difficulty":"intermediate","name":null,"aerialway":null,"osm":"way/1443003543"},"geometry":{"type":"LineString","coordinates":[[9.98311,47.45073],[9.98318,47.45127],[9.98308,47.45194],[9.98282,47.45244],[9.98158,47.45321],[9.9807,47.45439],[9.98024,47.45471],[9.97969,47.45535],[9.97706,47.45608],[9.97685,47.45632],[9.97676,47.45685]]}},{"type":"Feature","properties":{"kind":"piste","difficulty":"intermediate","name":null,"aerialway":null,"osm":"way/1443003544"},"geometry":{"type":"LineString","coordinates":[[9.98015,47.45483],[9.97845,47.4555],[9.97823,47.45571]]}},{"type":"Feature","properties":{"kind":"piste","difficulty":"intermediate","name":null,"aerialway":null,"osm":"way/1443003545"},"geometry":{"type":"LineString","coordinates":[[9.97969,47.45535],[9.97852,47.45547]]}},{"type":"Feature","properties":{"kind":"piste","difficulty":"intermediate","name":null,"aerialway":null,"osm":"way/1443003546"},"geometry":{"type":"LineString","coordinates":[[9.9769,47.45623],[9.97657,47.4562],[9.9765,47.4559]]}},{"type":"Feature","properties":{"kind":"piste","difficulty":"intermediate","name":null,"aerialway":null,"osm":"way/1443003547"},"geometry":{"type":"LineString","coordinates":[[9.98148,47.45304],[9.98172,47.45309]]}}]}