{"type":"FeatureCollection","features":[{"type":"Feature","properties":{"kind":"lift","difficulty":null,"name":"Kesselmannlift","aerialway":"t-bar","osm":"way/353077381"},"geometry":{"type":"LineString","coordinates":[[13.24646,47.78288],[13.25003,47.78185]]}},{"type":"Feature","properties":{"kind":"lift","difficulty":null,"name":null,"aerialway":"rope_tow","osm":"way/993359319"},"geometry":{"type":"LineString","coordinates":[[13.22842,47.77932],[13.22997,47.7788]]}},{"type":"Feature","properties":{"kind":"piste","difficulty":"unknown","name":null,"aerialway":null,"osm":"way/1004757547"},"geometry":{"type":"LineString","coordinates":[[13.2497,47.78195],[13.24952,47.78218],[13.24821,47.78273],[13.24679,47.78297],[13.24648,47.78287]]}},{"type":"Feature","properties":{"kind":"piste","difficulty":"unknown","name":null,"aerialway":null,"osm":"way/1004757548"},"geometry":{"type":"LineString","coordinates":[[13.2497,47.78195],[13.24947,47.78189],[13.24655,47.78273],[13.24648,47.78287]]}},{"type":"Feature","properties":{"kind":"lift","difficulty":null,"name":null,"aerialway":"rope_tow","osm":"way/1349194934"},"geometry":{"type":"LineString","coordinates":[[13.24635,47.78366],[13.24711,47.78334]]}},{"type":"Feature","properties":{"kind":"lift","difficulty":null,"name":null,"aerialway":"rope_tow","osm":"way/1349194935"},"geometry":{"type":"LineString","coordinates":[[13.24566,47.7831],[13.24559,47.78266]]}},{"type":"Feature","properties":{"kind":"lift","difficulty":null,"name":null,"aerialway":"magic_carpet","osm":"way/1349194936"},"geometry":{"type":"LineString","coordinates":[[13.24623,47.78278],[13.2461,47.78257]]}},{"type":"Feature","properties":{"kind":"lift","difficulty":null,"name":null,"aerialway":"magic_carpet","osm":"way/1349194937"},"geometry":{"type":"LineString","coordinates":[[13.24589,47.78295],[13.24568,47.78279]]}}]}