{"type":"FeatureCollection","features":[{"type":"Feature","properties":{"kind":"lift","difficulty":null,"name":"Bergeralmbahn","aerialway":"gondola","osm":"way/22715771"},"geometry":{"type":"LineString","coordinates":[[11.45974,47.08684],[11.45461,47.07621]]}},{"type":"Feature","properties":{"kind":"lift","difficulty":null,"name":"Kombibahn Hoher Turm","aerialway":"mixed_lift","osm":"way/22715772"},"geometry":{"type":"LineString","coordinates":[[11.44309,47.06031],[11.45385,47.07647]]}},{"type":"Feature","properties":{"kind":"lift","difficulty":null,"name":"Steinboden","aerialway":"chair_lift","osm":"way/22715773"},"geometry":{"type":"LineString","coordinates":[[11.4531,47.07617],[11.44888,47.06941]]}},{"type":"Feature","properties":{"kind":"lift","difficulty":null,"name":"Hochsonnlift","aerialway":"t-bar","osm":"way/22715774"},"geometry":{"type":"LineString","coordinates":[[11.45899,47.05856],[11.44451,47.05928]]}},{"type":"Feature","properties":{"kind":"lift","difficulty":null,"name":"3er Lift","aerialway":"platter","osm":"way/22715775"},"geometry":{"type":"LineString","coordinates":[[11.45291,47.0765],[11.44864,47.07581]]}},{"type":"Feature","properties":{"kind":"piste","difficulty":"intermediate","name":null,"aerialway":null,"osm":"way/22715837"},"geometry":{"type":"LineString","coordinates":[[11.4547,47.07589],[11.45513,47.07609],[11.45721,47.07588],[11.45828,47.07642],[11.46051,47.07696],[11.46071,47.07715],[11.46103,47.07808],[11.46127,47.07825],[11.46195,47.07833],[11.4627,47.0782],[11.46333,47.07834],[11.4636,47.07854],[11.46379,47.07972],[11.46322,47.08096]]}},{"type":"Feature","properties":{"kind":"piste","difficulty":"intermediate","name":null,"aerialway":null,"osm":"way/22715839"},"geometry":{"type":"LineString","coordinates":[[11.45987,47.08465],[11.45912,47.08494],[11.45691,47.08512],[11.45824,47.08591],[11.45879,47.08647]]}},{"type":"Feature","properties":{"kind":"piste","difficulty":"easy","name":null,"aerialway":null,"osm":"way/22715841"},"geometry":{"type":"LineString","coordinates":[[11.44925,47.07591],[11.44936,47.07581],[11.45131,47.07614]]}},{"type":"Feature","properties":{"kind":"piste","difficulty":"easy","name":null,"aerialway":null,"osm":"way/22715842"},"geometry":{"type":"LineString","coordinates":[[11.45308,47.07642],[11.4547,47.07589]]}},{"type":"Feature","properties":{"kind":"piste","difficulty":"intermediate","name":null,"aerialway":null,"osm":"way/22717686"},"geometry":{"type":"LineString","coordinates":[[11.44309,47.06031],[11.44349,47.06011],[11.44405,47.06114],[11.44589,47.06303],[11.44734,47.06379],[11.44945,47.06521],[11.44984,47.06562],[11.45035,47.06744],[11.45035,47.07026]]}},{"type":"Feature","properties":{"kind":"piste","difficulty":"easy","name":null,"aerialway":null,"osm":"way/22717687"},"geometry":{"type":"LineString","coordinates":[[11.44505,47.06227],[11.44907,47.06238],[11.45193,47.06105],[11.45321,47.06025],[11.45555,47.05914],[11.45841,47.05887],[11.459,47.05833]]}},{"type":"Feature","properties":{"kind":"piste","difficulty":"advanced","name":null,"aerialway":null,"osm":"way/22717688"},"geometry":{"type":"LineString","coordinates":[[11.44723,47.06567],[11.44834,47.06632]]}},{"type":"Feature","properties":{"kind":"piste","difficulty":"advanced","name":null,"aerialway":null,"osm":"way/22717690"},"geometry":{"type":"LineString","coordinates":[[11.44834,47.06632],[11.44707,47.06718],[11.44701,47.06744]]}},{"type":"Feature","properties":{"kind":"piste","difficulty":"intermediate","name":"2 - Nößlachjochabfahrt","aerialway":null,"osm":"way/22717691"},"geometry":{"type":"LineString","coordinates":[[11.44888,47.06941],[11.44905,47.0694],[11.44999,47.07015],[11.45035,47.07026]]}},{"type":"Feature","properties":{"kind":"piste","difficulty":"easy","name":null,"aerialway":null,"osm":"way/22717692"},"geometry":{"type":"LineString","coordinates":[[11.44888,47.06941],[11.4484,47.0695],[11.44788,47.06993],[11.4476,47.07068],[11.44764,47.07104],[11.44812,47.07163],[11.44921,47.07234],[11.44987,47.07308],[11.44996,47.07349],[11.44965,47.07477],[11.4498,47.07528],[11.45012,47.07551],[11.45195,47.07591],[11.45308,47.07642]]}},{"type":"Feature","properties":{"kind":"piste","difficulty":"intermediate","name":null,"aerialway":null,"osm":"way/22717693"},"geometry":{"type":"LineString","coordinates":[[11.45106,47.07221],[11.4508,47.07274],[11.44996,47.07349]]}},{"type":"Feature","properties":{"kind":"piste","difficulty":"easy","name":null,"aerialway":null,"osm":"way/22717694"},"geometry":{"type":"LineString","coordinates":[[11.44993,47.07542],[11.44961,47.07554],[11.44936,47.07581]]}},{"type":"Feature","properties":{"kind":"piste","difficulty":"intermediate","name":null,"aerialway":null,"osm":"way/22717695"},"geometry":{"type":"LineString","coordinates":[[11.45374,47.07532],[11.45388,47.07572],[11.45362,47.0761],[11.45365,47.07624]]}},{"type":"Feature","properties":{"kind":"piste","difficulty":"easy","name":null,"aerialway":null,"osm":"way/22717696"},"geometry":{"type":"LineString","coordinates":[[11.44747,47.059],[11.44776,47.05918],[11.44808,47.06017],[11.44818,47.06248],[11.44832,47.06322],[11.44857,47.06348],[11.4486,47.06373],[11.44836,47.06393],[11.44821,47.06438]]}},{"type":"Feature","properties":{"kind":"piste","difficulty":"easy","name":null,"aerialway":null,"osm":"way/22717698"},"geometry":{"type":"LineString","coordinates":[[11.4443,47.05927],[11.44453,47.05915],[11.44829,47.05896],[11.45108,47.05865],[11.45152,47.05834],[11.4519,47.05732],[11.45433,47.05642],[11.45453,47.05627],[11.45465,47.05587],[11.45527,47.05569],[11.45646,47.056],[11.45731,47.05679],[11.45874,47.05781],[11.459,47.05833],[11.45899,47.05856]]}},{"type":"Feature","properties":{"kind":"piste","difficulty":"easy","name":null,"aerialway":null,"osm":"way/22717699"},"geometry":{"type":"LineString","coordinates":[[11.44972,47.05884],[11.45008,47.05842],[11.45181,47.05752]]}},{"type":"Feature","properties":{"kind":"piste","difficulty":"easy","name":null,"aerialway":null,"osm":"way/22717700"},"geometry":{"type":"LineString","coordinates":[[11.45577,47.05909],[11.45622,47.05889],[11.45698,47.05897]]}},{"type":"Feature","properties":{"kind":"piste","difficulty":"easy","name":null,"aerialway":null,"osm":"way/22717701"},"geometry":{"type":"LineString","coordinates":[[11.4519,47.05732],[11.45206,47.05615],[11.45217,47.05596],[11.45253,47.0558],[11.45345,47.0558],[11.45481,47.05549],[11.45557,47.05569]]}},{"type":"Feature","properties":{"kind":"piste","difficulty":"intermediate","name":null,"aerialway":null,"osm":"way/24055990"},"geometry":{"type":"LineString","coordinates":[[11.45513,47.07609],[11.45667,47.07838],[11.45962,47.0798],[11.46224,47.08015],[11.46305,47.08064],[11.46322,47.08096],[11.46324,47.08185],[11.46297,47.08229],[11.46103,47.08406],[11.45987,47.08465],[11.45882,47.08628],[11.45879,47.08647],[11.4594,47.08685]]}},{"type":"Feature","properties":{"kind":"piste","difficulty":"easy","name":null,"aerialway":null,"osm":"way/88058118"},"geometry":{"type":"LineString","coordinates":[[11.45131,47.07614],[11.45308,47.07642],[11.45291,47.0765]]}},{"type":"Feature","properties":{"kind":"lift","difficulty":null,"name":"Schilift Trins","aerialway":"platter","osm":"way/151220848"},"geometry":{"type":"LineString","coordinates":[[11.41264,47.07685],[11.41494,47.07285]]}},{"type":"Feature","properties":{"kind":"piste","difficulty":"advanced","name":null,"aerialway":null,"osm":"way/152035512"},"geometry":{"type":"LineString","coordinates":[[11.44589,47.06303],[11.44596,47.0638],[11.44681,47.06466],[11.44718,47.06537],[11.44723,47.06567],[11.44655,47.06659],[11.44653,47.06679],[11.44768,47.06849],[11.44685,47.06951],[11.44658,47.07031],[11.44664,47.07073],[11.44695,47.07123],[11.44848,47.07185]]}},{"type":"Feature","properties":{"kind":"piste","difficulty":"intermediate","name":null,"aerialway":null,"osm":"way/152035516"},"geometry":{"type":"LineString","coordinates":[[11.44505,47.06227],[11.44355,47.06229],[11.44344,47.06243],[11.44395,47.0631],[11.44456,47.06354],[11.44358,47.06437],[11.44361,47.06471],[11.44445,47.06556],[11.44655,47.06659],[11.44759,47.06724],[11.44843,47.0675]]}},{"type":"Feature","properties":{"kind":"lift","difficulty":null,"name":"Zauberteppich 27m","aerialway":"magic_carpet","osm":"way/338712246"},"geometry":{"type":"LineString","coordinates":[[11.4548,47.07557],[11.45479,47.07532]]}},{"type":"Feature","properties":{"kind":"piste","difficulty":"intermediate","name":"WM-Piste Manni Pranger 1b","aerialway":null,"osm":"way/368538293"},"geometry":{"type":"LineString","coordinates":[[11.45667,47.07838],[11.45692,47.07879],[11.45678,47.07976],[11.4576,47.08191],[11.45959,47.08178],[11.46016,47.08191],[11.46324,47.08123]]}},{"type":"Feature","properties":{"kind":"piste","difficulty":"intermediate","name":null,"aerialway":null,"osm":"way/420101468"},"geometry":{"type":"LineString","coordinates":[[11.41494,47.07285],[11.41276,47.07489],[11.41245,47.07577],[11.41252,47.07676],[11.41264,47.07685]]}},{"type":"Feature","properties":{"kind":"piste","difficulty":"easy","name":"6b - Ehlers Stich","aerialway":null,"osm":"way/566447321"},"geometry":{"type":"LineString","coordinates":[[11.44309,47.06031],[11.44407,47.05976],[11.4443,47.05927]]}},{"type":"Feature","properties":{"kind":"piste","difficulty":"intermediate","name":null,"aerialway":null,"osm":"way/647901125"},"geometry":{"type":"LineString","coordinates":[[11.45035,47.07026],[11.4506,47.07127],[11.45143,47.07278],[11.45374,47.07532],[11.45449,47.07588],[11.4547,47.07589]]}},{"type":"Feature","properties":{"kind":"piste","difficulty":"advanced","name":"S - Skiroute","aerialway":null,"osm":"way/647901126"},"geometry":{"type":"LineString","coordinates":[[11.4576,47.08191],[11.45828,47.08347],[11.45943,47.08541]]}},{"type":"Feature","properties":{"kind":"piste","difficulty":"novice","name":null,"aerialway":null,"osm":"way/1124260101"},"geometry":{"type":"LineString","coordinates":[[11.49226,47.01986],[11.49039,47.02227],[11.49001,47.02287],[11.49,47.02314],[11.48824,47.02576],[11.48748,47.02621],[11.48725,47.02688],[11.48605,47.02767],[11.48409,47.02848],[11.48295,47.02922],[11.48219,47.02921],[11.48152,47.02968],[11.4816,47.03095],[11.47858,47.03252],[11.4781,47.03301],[11.47723,47.03352],[11.47636,47.03384],[11.47721,47.03382],[11.47776,47.03396],[11.47859,47.03277],[11.47912,47.03248],[11.48014,47.0322],[11.48099,47.03145],[11.48143,47.03125],[11.48172,47.03095],[11.48213,47.03014],[11.48415,47.02853],[11.48592,47.02798],[11.48675,47.02741],[11.48715,47.02736],[11.48777,47.02639],[11.48813,47.0262],[11.48896,47.02536],[11.48986,47.02404],[11.49046,47.02351],[11.49123,47.02199],[11.49289,47.02018],[11.49226,47.01986]]}},{"type":"Feature","properties":{"kind":"piste","difficulty":"easy","name":null,"aerialway":null,"osm":"way/1135692500"},"geometry":{"type":"LineString","coordinates":[[11.44877,47.06942],[11.44845,47.06957],[11.44798,47.07015],[11.44775,47.07059],[11.44778,47.07114],[11.44828,47.0716],[11.44889,47.07185],[11.45045,47.07292],[11.44996,47.07349],[11.4504,47.07364],[11.44986,47.07474],[11.44996,47.07514],[11.45018,47.07535],[11.45296,47.07622],[11.45279,47.07629],[11.44967,47.07538],[11.44952,47.07505],[11.44943,47.07345],[11.44907,47.07244],[11.44881,47.07209],[11.44767,47.07127],[11.44735,47.07082],[11.44737,47.07016],[11.44766,47.06962],[11.44877,47.06942]]}},{"type":"Feature","properties":{"kind":"piste","difficulty":"intermediate","name":null,"aerialway":null,"osm":"way/1135692502"},"geometry":{"type":"LineString","coordinates":[[11.44764,47.06413],[11.44631,47.06345],[11.44501,47.06253],[11.44362,47.06112],[11.4433,47.06031],[11.44315,47.06025],[11.44358,47.05993],[11.4438,47.06061],[11.44498,47.06188],[11.44788,47.064],[11.44933,47.06487],[11.44985,47.06505],[11.45021,47.06538],[11.45072,47.06719],[11.45053,47.0697],[11.45151,47.07239],[11.45193,47.07299],[11.45253,47.07348],[11.45459,47.07575],[11.45449,47.07588],[11.45362,47.0761],[11.45375,47.07585],[11.45115,47.07262],[11.45076,47.07338],[11.4504,47.07364],[11.44996,47.07349],[11.45072,47.07255],[11.45076,47.07229],[11.45028,47.07056],[11.44934,47.06967],[11.44888,47.06941],[11.44916,47.06938],[11.45015,47.07015],[11.44994,47.06784],[11.45012,47.06716],[11.44993,47.06632],[11.44963,47.06557],[11.44764,47.06413]]}},{"type":"Feature","properties":{"kind":"lift","difficulty":null,"name":"Schiwiese Gries","aerialway":"rope_tow","osm":"way/1344347062"},"geometry":{"type":"LineString","coordinates":[[11.48105,47.03745],[11.48217,47.03698]]}},{"type":"Feature","properties":{"kind":"piste","difficulty":"novice","name":null,"aerialway":null,"osm":"way/1344347063"},"geometry":{"type":"LineString","coordinates":[[11.48217,47.03698],[11.48218,47.03716],[11.48195,47.03736],[11.48138,47.03753],[11.48105,47.03745]]}},{"type":"Feature","properties":{"kind":"piste","difficulty":"easy","name":null,"aerialway":null,"osm":"way/1375635257"},"geometry":{"type":"LineString","coordinates":[[11.41494,47.07285],[11.41501,47.0735],[11.4155,47.07486],[11.41513,47.07547],[11.41454,47.07594],[11.41414,47.0761],[11.4132,47.07606]]}},{"type":"Feature","properties":{"kind":"piste","difficulty":"easy","name":null,"aerialway":null,"osm":"way/1375635258"},"geometry":{"type":"LineString","coordinates":[[11.41513,47.07547],[11.41378,47.07546],[11.4135,47.07556],[11.41288,47.07671]]}},{"type":"Feature","properties":{"kind":"piste","difficulty":"intermediate","name":null,"aerialway":null,"osm":"way/1375635259"},"geometry":{"type":"LineString","coordinates":[[11.41392,47.07375],[11.41335,47.0752],[11.41257,47.07642]]}},{"type":"Feature","properties":{"kind":"piste","difficulty":"intermediate","name":null,"aerialway":null,"osm":"way/1467896219"},"geometry":{"type":"LineString","coordinates":[[11.45908,47.08594],[11.4594,47.08685]]}},{"type":"Feature","properties":{"kind":"piste","difficulty":"intermediate","name":null,"aerialway":null,"osm":"way/1467896220"},"geometry":{"type":"LineString","coordinates":[[11.45667,47.07838],[11.45648,47.07847],[11.45676,47.07882],[11.45672,47.08036],[11.45747,47.08195],[11.45961,47.08183],[11.46019,47.08192],[11.46299,47.0813],[11.46297,47.08122],[11.46022,47.08187],[11.45949,47.08175],[11.45778,47.08181],[11.45698,47.07985],[11.45702,47.07866],[11.45667,47.07838]]}},{"type":"Feature","properties":{"kind":"piste","difficulty":"intermediate","name":null,"aerialway":null,"osm":"way/1467896221"},"geometry":{"type":"LineString","coordinates":[[11.45955,47.08475],[11.45872,47.08493],[11.4569,47.08504],[11.45688,47.08515],[11.45817,47.08597],[11.4589,47.08671],[11.4594,47.08685],[11.45835,47.08587],[11.45701,47.08509],[11.45905,47.08501],[11.45947,47.08492],[11.45955,47.08475]]}},{"type":"Feature","properties":{"kind":"piste","difficulty":"intermediate","name":null,"aerialway":null,"osm":"way/1467896222"},"geometry":{"type":"LineString","coordinates":[[11.45459,47.07575],[11.4553,47.07589],[11.45513,47.07609],[11.45581,47.07646],[11.45613,47.07722],[11.45685,47.07821],[11.45732,47.07848],[11.45981,47.07978],[11.46109,47.07981],[11.46253,47.08005],[11.46321,47.08054],[11.46361,47.08179],[11.46308,47.08246],[11.46228,47.08298],[11.46146,47.08391],[11.46003,47.08483],[11.45976,47.08513],[11.4593,47.08578],[11.45925,47.08635],[11.45935,47.08671],[11.45919,47.08662],[11.45907,47.08612],[11.4589,47.08636],[11.45867,47.08617],[11.45933,47.08545],[11.45937,47.08514],[11.45977,47.08448],[11.46115,47.08383],[11.46183,47.08293],[11.46273,47.08236],[11.46307,47.08169],[11.46283,47.08087],[11.46231,47.0804],[11.46162,47.08014],[11.45961,47.08],[11.45888,47.07952],[11.45802,47.07924],[11.45667,47.07838],[11.45648,47.07847],[11.4549,47.07619],[11.45466,47.07595],[11.45418,47.07596],[11.45459,47.07575]]}},{"type":"Feature","properties":{"kind":"piste","difficulty":"intermediate","name":null,"aerialway":null,"osm":"way/1467896223"},"geometry":{"type":"LineString","coordinates":[[11.46336,47.08044],[11.46349,47.08031],[11.46368,47.07934],[11.46347,47.07865],[11.46318,47.0784],[11.46278,47.07828],[11.46127,47.0784],[11.46096,47.07826],[11.46037,47.07705],[11.45849,47.07667],[11.45701,47.076],[11.45606,47.07613],[11.45513,47.07609],[11.4553,47.07589],[11.45724,47.07574],[11.45833,47.07637],[11.46064,47.07683],[11.46136,47.0781],[11.46193,47.0782],[11.46283,47.07803],[11.46335,47.07825],[11.46371,47.07852],[11.46399,47.07918],[11.46388,47.08001],[11.46332,47.08096],[11.46321,47.08054],[11.46336,47.08044]]}},{"type":"Feature","properties":{"kind":"piste","difficulty":"advanced","name":null,"aerialway":null,"osm":"way/1467896224"},"geometry":{"type":"LineString","coordinates":[[11.44575,47.06325],[11.4459,47.06391],[11.44673,47.06473],[11.44706,47.0654],[11.44694,47.06591],[11.44632,47.06634],[11.44622,47.06664],[11.44754,47.06837],[11.44747,47.06869],[11.44689,47.06916],[11.44663,47.0696],[11.44645,47.07049],[11.44667,47.07102],[11.44707,47.07134],[11.44848,47.07188],[11.4471,47.07112],[11.44676,47.07074],[11.44666,47.07041],[11.44675,47.07006],[11.44718,47.06924],[11.44766,47.06881],[11.44775,47.06844],[11.44776,47.06818],[11.44682,47.06711],[11.44666,47.06675],[11.44743,47.06562],[11.44688,47.06447],[11.44615,47.06391],[11.44604,47.06327],[11.44576,47.06308],[11.44575,47.06325]]}},{"type":"Feature","properties":{"kind":"piste","difficulty":"easy","name":null,"aerialway":null,"osm":"way/1467896225"},"geometry":{"type":"LineString","coordinates":[[11.45009,47.06748],[11.44881,47.06739],[11.44867,47.06747],[11.44898,47.06807],[11.44888,47.06863],[11.44824,47.0692],[11.44824,47.06939],[11.44837,47.06948],[11.44766,47.06962],[11.44839,47.06848],[11.44816,47.06748],[11.44875,47.06728],[11.45001,47.06727],[11.45012,47.06716],[11.45009,47.06748]]}},{"type":"Feature","properties":{"kind":"piste","difficulty":"easy","name":null,"aerialway":null,"osm":"way/1467896226"},"geometry":{"type":"LineString","coordinates":[[11.45308,47.07642],[11.44922,47.07586],[11.44923,47.07573],[11.44967,47.07538],[11.44996,47.0755],[11.44972,47.0755],[11.4497,47.07563],[11.45279,47.07629],[11.45296,47.07622],[11.45308,47.07642]]}},{"type":"Feature","properties":{"kind":"piste","difficulty":"expert","name":null,"aerialway":null,"osm":"way/1467896227"},"geometry":{"type":"LineString","coordinates":[[11.44888,47.07207],[11.4491,47.07283],[11.44932,47.07483],[11.44942,47.07505],[11.44993,47.07542]]}},{"type":"Feature","properties":{"kind":"piste","difficulty":"easy","name":null,"aerialway":null,"osm":"way/1467896228"},"geometry":{"type":"LineString","coordinates":[[11.45032,47.06722],[11.44998,47.06733],[11.44884,47.06733],[11.44843,47.0675],[11.44864,47.06847],[11.44794,47.06943],[11.44788,47.06993]]}},{"type":"Feature","properties":{"kind":"lift","difficulty":null,"name":"Zauberteppich 69m","aerialway":"magic_carpet","osm":"way/1468588719"},"geometry":{"type":"LineString","coordinates":[[11.45508,47.07556],[11.45523,47.07495]]}},{"type":"Feature","properties":{"kind":"piste","difficulty":"unknown","name":null,"aerialway":null,"osm":"way/1468588720"},"geometry":{"type":"LineString","coordinates":[[11.44967,47.07442],[11.45009,47.0752],[11.4503,47.07535],[11.45077,47.07545],[11.45227,47.07535],[11.45233,47.0755],[11.45199,47.07552],[11.45214,47.0754],[11.45222,47.07548]]}},{"type":"Feature","properties":{"kind":"piste","difficulty":"intermediate","name":null,"aerialway":null,"osm":"way/1468588723"},"geometry":{"type":"LineString","coordinates":[[11.44467,47.06225],[11.4432,47.0623],[11.44385,47.06317],[11.44441,47.06353],[11.4438,47.0639],[11.4433,47.06459],[11.44446,47.06584],[11.4448,47.066],[11.44522,47.066],[11.44622,47.06664],[11.44632,47.06634],[11.44486,47.06573],[11.44377,47.06461],[11.44391,47.06427],[11.44468,47.06361],[11.44399,47.06301],[11.44368,47.06245],[11.44392,47.06234],[11.44458,47.06238],[11.44476,47.06232],[11.44467,47.06225]]}},{"type":"Feature","properties":{"kind":"piste","difficulty":"easy","name":null,"aerialway":null,"osm":"way/1468588726"},"geometry":{"type":"LineString","coordinates":[[11.45345,47.0558],[11.45465,47.05587]]}},{"type":"Feature","properties":{"kind":"piste","difficulty":"easy","name":null,"aerialway":null,"osm":"way/1468588727"},"geometry":{"type":"LineString","coordinates":[[11.44451,47.05928],[11.44495,47.05868],[11.44584,47.05838],[11.44971,47.0576],[11.45197,47.0569]]}},{"type":"Feature","properties":{"kind":"lift","difficulty":null,"name":null,"aerialway":"magic_carpet","osm":"way/1468594126"},"geometry":{"type":"LineString","coordinates":[[11.41326,47.07674],[11.41336,47.07642]]}},{"type":"Feature","properties":{"kind":"piste","difficulty":"easy","name":null,"aerialway":null,"osm":"way/1468594127"},"geometry":{"type":"LineString","coordinates":[[11.41288,47.07671],[11.41285,47.07684],[11.41264,47.07685]]}},{"type":"Feature","properties":{"kind":"piste","difficulty":"unknown","name":null,"aerialway":null,"osm":"way/1524035871"},"geometry":{"type":"LineString","coordinates":[[11.4523,47.07555],[11.45286,47.0763]]}},{"type":"Feature","properties":{"kind":"piste","difficulty":"unknown","name":null,"aerialway":null,"osm":"way/1524035872"},"geometry":{"type":"LineString","coordinates":[[11.45222,47.07548],[11.4523,47.07555]]}},{"type":"Feature","properties":{"kind":"piste","difficulty":"advanced","name":null,"aerialway":null,"osm":"way/1552520693"},"geometry":{"type":"LineString","coordinates":[[11.44737,47.06381],[11.44681,47.06466]]}}]}