{"type":"FeatureCollection","features":[{"type":"Feature","properties":{"kind":"piste","difficulty":"intermediate","name":"19 Axamer Abfahrt","aerialway":null,"osm":"way/30926699"},"geometry":{"type":"LineString","coordinates":[[11.27558,47.2014],[11.27493,47.20141],[11.2739,47.20199],[11.27327,47.20259],[11.27247,47.20364],[11.27228,47.20419],[11.27228,47.20471],[11.27201,47.20521],[11.27163,47.20561],[11.27074,47.20612],[11.27052,47.20688],[11.27023,47.20722],[11.27031,47.20799],[11.27,47.20854],[11.27027,47.209],[11.2702,47.21014],[11.26997,47.21067],[11.26978,47.21199],[11.27019,47.21251],[11.27016,47.21365],[11.27032,47.21443],[11.26975,47.21529],[11.26966,47.21601],[11.26981,47.21627],[11.27018,47.21651],[11.2705,47.2172],[11.27178,47.21756],[11.27174,47.218],[11.2722,47.21829],[11.2723,47.2185],[11.27222,47.21895],[11.27171,47.21962],[11.27175,47.21977],[11.27229,47.22006],[11.27223,47.22039],[11.27156,47.2212],[11.27189,47.22139],[11.27228,47.2219],[11.27229,47.2223],[11.27206,47.22264],[11.27327,47.22557],[11.27425,47.22632],[11.27594,47.22681]]}},{"type":"Feature","properties":{"kind":"piste","difficulty":"easy","name":null,"aerialway":null,"osm":"way/30926975"},"geometry":{"type":"LineString","coordinates":[[11.28168,47.18293],[11.28108,47.18177],[11.28078,47.18079],[11.28086,47.17981],[11.28139,47.17895],[11.28228,47.17887],[11.28246,47.17905],[11.28254,47.17988],[11.28286,47.18008],[11.28432,47.17968],[11.28659,47.18005],[11.28763,47.18045],[11.28848,47.18061],[11.28881,47.18104],[11.28881,47.18152],[11.28909,47.18196],[11.28963,47.18239],[11.29124,47.18265],[11.29235,47.18308],[11.29377,47.18428],[11.29515,47.18615],[11.29599,47.18678],[11.2967,47.1871],[11.29882,47.18755],[11.30083,47.18818],[11.30152,47.18853],[11.30241,47.18924],[11.30336,47.19051],[11.30354,47.19202],[11.30312,47.1933],[11.30331,47.19352],[11.30312,47.19389],[11.30354,47.19407]]}},{"type":"Feature","properties":{"kind":"piste","difficulty":"easy","name":null,"aerialway":null,"osm":"way/60201295"},"geometry":{"type":"LineString","coordinates":[[11.32642,47.21161],[11.32672,47.21185],[11.32804,47.21239],[11.32884,47.21253],[11.32934,47.21249],[11.32993,47.21217],[11.33091,47.21193],[11.3315,47.21196],[11.33205,47.2118]]}},{"type":"Feature","properties":{"kind":"piste","difficulty":"advanced","name":null,"aerialway":null,"osm":"way/93697061"},"geometry":{"type":"LineString","coordinates":[[11.28168,47.18293],[11.28251,47.18316],[11.2828,47.18428],[11.28346,47.18522],[11.28382,47.18605],[11.28594,47.18679],[11.28807,47.18717],[11.28847,47.18768],[11.28849,47.18867],[11.28927,47.18907]]}},{"type":"Feature","properties":{"kind":"piste","difficulty":"easy","name":null,"aerialway":null,"osm":"way/93697062"},"geometry":{"type":"LineString","coordinates":[[11.2941,47.19564],[11.29403,47.19418],[11.29527,47.19421]]}},{"type":"Feature","properties":{"kind":"piste","difficulty":"intermediate","name":null,"aerialway":null,"osm":"way/93697063"},"geometry":{"type":"LineString","coordinates":[[11.28574,47.18965],[11.28755,47.19104],[11.28899,47.19291],[11.29051,47.19439]]}},{"type":"Feature","properties":{"kind":"piste","difficulty":"advanced","name":null,"aerialway":null,"osm":"way/93697064"},"geometry":{"type":"LineString","coordinates":[[11.28168,47.18293],[11.28337,47.17991]]}},{"type":"Feature","properties":{"kind":"piste","difficulty":"easy","name":null,"aerialway":null,"osm":"way/93697066"},"geometry":{"type":"LineString","coordinates":[[11.29837,47.19197],[11.29783,47.19318],[11.29527,47.19421]]}},{"type":"Feature","properties":{"kind":"piste","difficulty":"easy","name":null,"aerialway":null,"osm":"way/93697067"},"geometry":{"type":"LineString","coordinates":[[11.30648,47.19301],[11.30622,47.19333],[11.30336,47.19355]]}},{"type":"Feature","properties":{"kind":"piste","difficulty":"intermediate","name":null,"aerialway":null,"osm":"way/93697068"},"geometry":{"type":"LineString","coordinates":[[11.28767,47.19325],[11.29051,47.19439],[11.29232,47.19587],[11.2941,47.19564],[11.2947,47.19596],[11.29495,47.1962],[11.29514,47.19665],[11.29479,47.19751],[11.29478,47.19778],[11.29498,47.198],[11.29536,47.19806],[11.29715,47.19759],[11.29835,47.19704],[11.2985,47.19692],[11.29828,47.1964],[11.30013,47.19636]]}},{"type":"Feature","properties":{"kind":"piste","difficulty":"intermediate","name":null,"aerialway":null,"osm":"way/93697069"},"geometry":{"type":"LineString","coordinates":[[11.28262,47.18884],[11.28328,47.18889]]}},{"type":"Feature","properties":{"kind":"piste","difficulty":"easy","name":null,"aerialway":null,"osm":"way/93697070"},"geometry":{"type":"LineString","coordinates":[[11.29864,47.19562],[11.3008,47.19444],[11.30265,47.19259],[11.30331,47.19264]]}},{"type":"Feature","properties":{"kind":"piste","difficulty":"advanced","name":null,"aerialway":null,"osm":"way/93697072"},"geometry":{"type":"LineString","coordinates":[[11.28525,47.1954],[11.29205,47.19628]]}},{"type":"Feature","properties":{"kind":"piste","difficulty":"intermediate","name":null,"aerialway":null,"osm":"way/93697074"},"geometry":{"type":"LineString","coordinates":[[11.2787,47.19516],[11.28061,47.19593],[11.28332,47.19628],[11.2847,47.19601],[11.28652,47.19356],[11.28669,47.19287],[11.28767,47.19325],[11.28863,47.19418],[11.29054,47.19539],[11.29232,47.19587],[11.29205,47.19628]]}},{"type":"Feature","properties":{"kind":"piste","difficulty":"easy","name":null,"aerialway":null,"osm":"way/93697076"},"geometry":{"type":"LineString","coordinates":[[11.29044,47.192],[11.29051,47.19439]]}},{"type":"Feature","properties":{"kind":"piste","difficulty":"intermediate","name":null,"aerialway":null,"osm":"way/93697078"},"geometry":{"type":"LineString","coordinates":[[11.2873,47.18935],[11.28927,47.18907],[11.29075,47.18927],[11.29308,47.18999],[11.29553,47.19175],[11.29723,47.19212],[11.29837,47.19197],[11.29897,47.18912],[11.30042,47.18807]]}},{"type":"Feature","properties":{"kind":"piste","difficulty":"expert","name":"Olympia Riesenslalom Birgitzköpfl","aerialway":null,"osm":"way/93697079"},"geometry":{"type":"LineString","coordinates":[[11.31652,47.19478],[11.31498,47.1943],[11.31402,47.19429],[11.31249,47.19487],[11.3118,47.19486],[11.31083,47.19441],[11.30853,47.19367],[11.30354,47.19407]]}},{"type":"Feature","properties":{"kind":"piste","difficulty":"expert","name":"Olympiaslalom Birgitzköpfl","aerialway":null,"osm":"way/93697080"},"geometry":{"type":"LineString","coordinates":[[11.31083,47.19441],[11.30955,47.19508],[11.30878,47.19569],[11.30809,47.19575],[11.30502,47.19491],[11.30385,47.19401],[11.30354,47.19407]]}},{"type":"Feature","properties":{"kind":"piste","difficulty":"easy","name":null,"aerialway":null,"osm":"way/93697081"},"geometry":{"type":"LineString","coordinates":[[11.2967,47.1871],[11.29797,47.18693],[11.2978,47.18629],[11.29818,47.18619],[11.29968,47.18667],[11.30083,47.18818]]}},{"type":"Feature","properties":{"kind":"piste","difficulty":"intermediate","name":null,"aerialway":null,"osm":"way/93697083"},"geometry":{"type":"LineString","coordinates":[[11.28328,47.18889],[11.28477,47.18974],[11.2869,47.18941],[11.28809,47.18986],[11.28933,47.1911],[11.29044,47.192],[11.29243,47.19311],[11.2944,47.19338]]}},{"type":"Feature","properties":{"kind":"piste","difficulty":"intermediate","name":null,"aerialway":null,"osm":"way/93697085"},"geometry":{"type":"LineString","coordinates":[[11.28807,47.18717],[11.28967,47.1875],[11.29233,47.18763],[11.29774,47.18849],[11.29897,47.18912]]}},{"type":"Feature","properties":{"kind":"piste","difficulty":"easy","name":null,"aerialway":null,"osm":"way/93697086"},"geometry":{"type":"LineString","coordinates":[[11.30277,47.19421],[11.30238,47.19517]]}},{"type":"Feature","properties":{"kind":"piste","difficulty":"easy","name":null,"aerialway":null,"osm":"way/93697088"},"geometry":{"type":"LineString","coordinates":[[11.30648,47.19301],[11.30635,47.19282],[11.30605,47.19279],[11.30387,47.19314],[11.30342,47.1935]]}},{"type":"Feature","properties":{"kind":"piste","difficulty":"advanced","name":null,"aerialway":null,"osm":"way/93697089"},"geometry":{"type":"LineString","coordinates":[[11.28129,47.18343],[11.28121,47.18354],[11.28137,47.18368],[11.2828,47.18428]]}},{"type":"Feature","properties":{"kind":"piste","difficulty":"intermediate","name":null,"aerialway":null,"osm":"way/93697092"},"geometry":{"type":"LineString","coordinates":[[11.28129,47.18343],[11.28111,47.18343],[11.2806,47.18522],[11.28078,47.18579],[11.28232,47.18668],[11.28255,47.18809],[11.2846,47.18825],[11.28653,47.18896],[11.2873,47.18935],[11.28761,47.18965],[11.28977,47.18962],[11.29299,47.19158],[11.2944,47.19338],[11.29527,47.19421],[11.29735,47.19496],[11.30013,47.19636],[11.30081,47.19615],[11.30175,47.19517],[11.30238,47.19517],[11.30227,47.19538]]}},{"type":"Feature","properties":{"kind":"piste","difficulty":"intermediate","name":null,"aerialway":null,"osm":"way/93697093"},"geometry":{"type":"LineString","coordinates":[[11.28255,47.18809],[11.28269,47.18847],[11.28328,47.18889]]}},{"type":"Feature","properties":{"kind":"piste","difficulty":"freeride","name":null,"aerialway":null,"osm":"way/149695306"},"geometry":{"type":"LineString","coordinates":[[11.31652,47.19478],[11.31627,47.19666],[11.3166,47.19752],[11.31708,47.19763]]}},{"type":"Feature","properties":{"kind":"piste","difficulty":"freeride","name":"Götzner Abfahrt","aerialway":null,"osm":"way/307492582"},"geometry":{"type":"LineString","coordinates":[[11.31922,47.20045],[11.31993,47.20054],[11.32052,47.20114],[11.32089,47.20177],[11.32135,47.20209],[11.32165,47.203],[11.32157,47.20357],[11.32178,47.2044],[11.32195,47.20493],[11.32233,47.20543],[11.32313,47.20596],[11.32383,47.20707],[11.32437,47.20752],[11.32505,47.20781],[11.32539,47.2084],[11.32641,47.20922],[11.32662,47.20959],[11.32667,47.21038],[11.32613,47.21127],[11.32597,47.21206]]}},{"type":"Feature","properties":{"kind":"piste","difficulty":"easy","name":"Familienabfahrt","aerialway":null,"osm":"way/324564232"},"geometry":{"type":"LineString","coordinates":[[11.33557,47.21197],[11.33732,47.2132],[11.3385,47.21356],[11.33951,47.21441],[11.33998,47.21464],[11.34113,47.21488],[11.343,47.21617],[11.34496,47.21722],[11.3471,47.2171],[11.348,47.21718],[11.34943,47.21821],[11.34998,47.21842],[11.35762,47.21995],[11.35846,47.21984],[11.36011,47.21912],[11.36108,47.21917],[11.36223,47.21998],[11.36273,47.22066],[11.36329,47.2211],[11.36452,47.22169],[11.36498,47.2218],[11.36639,47.22141],[11.36663,47.22171],[11.3665,47.22225]]}},{"type":"Feature","properties":{"kind":"piste","difficulty":"intermediate","name":"Familienabfahrt Götzens","aerialway":null,"osm":"way/411501498"},"geometry":{"type":"LineString","coordinates":[[11.32906,47.21001],[11.32806,47.21085],[11.3256,47.21228],[11.32517,47.21268],[11.32446,47.21427],[11.32444,47.2151],[11.32468,47.21572],[11.32444,47.21688],[11.3239,47.21787],[11.32214,47.21988],[11.32086,47.22062],[11.31948,47.22108],[11.31964,47.22165],[11.32029,47.22192],[11.31959,47.22187],[11.31718,47.22254],[11.31653,47.2229],[11.31626,47.22319],[11.31537,47.22564],[11.3153,47.22617],[11.31543,47.22676],[11.3159,47.22724],[11.31652,47.22811],[11.31658,47.22837],[11.31623,47.2294],[11.31558,47.23072],[11.31546,47.23151],[11.3146,47.23187]]}},{"type":"Feature","properties":{"kind":"piste","difficulty":"easy","name":"Skiweg Axamer Lizum","aerialway":null,"osm":"way/411501499"},"geometry":{"type":"LineString","coordinates":[[11.33205,47.2118],[11.33283,47.21161]]}},{"type":"Feature","properties":{"kind":"piste","difficulty":"intermediate","name":"Priemesköpfl Abfahrt","aerialway":null,"osm":"way/411501501"},"geometry":{"type":"LineString","coordinates":[[11.32871,47.2076],[11.32892,47.20749],[11.3292,47.20772],[11.32969,47.20885],[11.33017,47.20904],[11.33102,47.20972],[11.33155,47.21075],[11.33203,47.21135],[11.33502,47.21207],[11.33557,47.21197]]}},{"type":"Feature","properties":{"kind":"piste","difficulty":"easy","name":"Priemesköpfl Umfahrung","aerialway":null,"osm":"way/411501502"},"geometry":{"type":"LineString","coordinates":[[11.32871,47.2076],[11.3282,47.20713],[11.32791,47.20704],[11.3273,47.20703],[11.32713,47.20717],[11.3275,47.2077],[11.32792,47.20802],[11.3291,47.20883],[11.32948,47.20892],[11.329,47.20974],[11.32906,47.21001],[11.33055,47.21061],[11.33155,47.21075]]}},{"type":"Feature","properties":{"kind":"piste","difficulty":"intermediate","name":"FIS-Abfahrt","aerialway":null,"osm":"way/411501503"},"geometry":{"type":"LineString","coordinates":[[11.33536,47.21286],[11.3373,47.21388],[11.33816,47.21462],[11.33961,47.21542],[11.34034,47.21595],[11.34105,47.21691],[11.34156,47.21727],[11.34402,47.21819],[11.34844,47.21891]]}},{"type":"Feature","properties":{"kind":"piste","difficulty":"easy","name":"Übungshang Almboden","aerialway":null,"osm":"way/657212838"},"geometry":{"type":"LineString","coordinates":[[11.33283,47.21161],[11.33536,47.21286],[11.33511,47.21322]]}},{"type":"Feature","properties":{"kind":"piste","difficulty":"advanced","name":"Rennstrecke","aerialway":null,"osm":"way/657212840"},"geometry":{"type":"LineString","coordinates":[[11.32871,47.2076],[11.32934,47.20726],[11.33076,47.20914],[11.33127,47.2096],[11.33206,47.20993],[11.33314,47.21072],[11.33406,47.21105],[11.33557,47.21197]]}},{"type":"Feature","properties":{"kind":"piste","difficulty":"freeride","name":"Götzner Abfahrt","aerialway":null,"osm":"way/657212841"},"geometry":{"type":"LineString","coordinates":[[11.3166,47.19752],[11.31698,47.19894],[11.31894,47.20111],[11.31912,47.20106],[11.31922,47.20045]]}},{"type":"Feature","properties":{"kind":"piste","difficulty":"freeride","name":null,"aerialway":null,"osm":"way/867526841"},"geometry":{"type":"LineString","coordinates":[[11.27937,47.1939],[11.28525,47.1954]]}},{"type":"Feature","properties":{"kind":"piste","difficulty":"easy","name":null,"aerialway":null,"osm":"way/867753211"},"geometry":{"type":"LineString","coordinates":[[11.27154,47.22399],[11.27111,47.22465],[11.27139,47.22594],[11.2722,47.22687],[11.27302,47.22733],[11.27335,47.2277]]}},{"type":"Feature","properties":{"kind":"piste","difficulty":"easy","name":null,"aerialway":null,"osm":"way/867753212"},"geometry":{"type":"LineString","coordinates":[[11.27111,47.22465],[11.27327,47.22557],[11.27396,47.22726],[11.27335,47.2277]]}},{"type":"Feature","properties":{"kind":"piste","difficulty":"easy","name":null,"aerialway":null,"osm":"way/867753213"},"geometry":{"type":"LineString","coordinates":[[11.30763,47.22982],[11.30582,47.23187],[11.30419,47.23254],[11.30247,47.23268]]}},{"type":"Feature","properties":{"kind":"piste","difficulty":"freeride","name":null,"aerialway":null,"osm":"way/869930192"},"geometry":{"type":"LineString","coordinates":[[11.31665,47.19469],[11.31697,47.19465],[11.31726,47.19563],[11.31724,47.1976],[11.31708,47.19763]]}},{"type":"Feature","properties":{"kind":"piste","difficulty":"intermediate","name":null,"aerialway":null,"osm":"way/895948216"},"geometry":{"type":"LineString","coordinates":[[11.28262,47.18884],[11.28329,47.18901],[11.28436,47.18981],[11.28582,47.19121],[11.28654,47.19174],[11.28767,47.19325]]}},{"type":"Feature","properties":{"kind":"piste","difficulty":"intermediate","name":"FIS-Abfahrt","aerialway":null,"osm":"way/1042907856"},"geometry":{"type":"LineString","coordinates":[[11.34844,47.21891],[11.34965,47.2189],[11.3506,47.21857]]}},{"type":"Feature","properties":{"kind":"piste","difficulty":"easy","name":null,"aerialway":null,"osm":"way/1060271265"},"geometry":{"type":"LineString","coordinates":[[11.30321,47.1929],[11.30344,47.1932],[11.3036,47.19318]]}},{"type":"Feature","properties":{"kind":"piste","difficulty":"easy","name":null,"aerialway":null,"osm":"way/1060271266"},"geometry":{"type":"LineString","coordinates":[[11.30375,47.19189],[11.30354,47.19202]]}},{"type":"Feature","properties":{"kind":"piste","difficulty":"easy","name":null,"aerialway":null,"osm":"way/1149362830"},"geometry":{"type":"LineString","coordinates":[[11.30312,47.19389],[11.30289,47.19402]]}},{"type":"Feature","properties":{"kind":"piste","difficulty":"easy","name":null,"aerialway":null,"osm":"way/1149362831"},"geometry":{"type":"LineString","coordinates":[[11.30289,47.19402],[11.30277,47.19421]]}},{"type":"Feature","properties":{"kind":"piste","difficulty":"unknown","name":"Golden Roof Funpark","aerialway":null,"osm":"way/1149365174"},"geometry":{"type":"LineString","coordinates":[[11.28262,47.18884],[11.2823,47.18895],[11.28328,47.18985],[11.28537,47.191],[11.28565,47.19103]]}},{"type":"Feature","properties":{"kind":"piste","difficulty":"easy","name":null,"aerialway":null,"osm":"way/1149443763"},"geometry":{"type":"LineString","coordinates":[[11.28977,47.18962],[11.29122,47.18943]]}},{"type":"Feature","properties":{"kind":"piste","difficulty":"intermediate","name":"Götzner Abfahrt","aerialway":null,"osm":"way/1312412009"},"geometry":{"type":"LineString","coordinates":[[11.3256,47.21228],[11.32491,47.2124],[11.32469,47.21231]]}},{"type":"Feature","properties":{"kind":"piste","difficulty":"easy","name":null,"aerialway":null,"osm":"way/1337702623"},"geometry":{"type":"LineString","coordinates":[[11.30312,47.19389],[11.303,47.19383]]}},{"type":"Feature","properties":{"kind":"piste","difficulty":"easy","name":null,"aerialway":null,"osm":"way/1337702637"},"geometry":{"type":"LineString","coordinates":[[11.30238,47.19517],[11.30248,47.19524],[11.30248,47.1957]]}},{"type":"Feature","properties":{"kind":"piste","difficulty":"intermediate","name":"Familienabfahrt Götzens","aerialway":null,"osm":"way/1396186725"},"geometry":{"type":"LineString","coordinates":[[11.31964,47.22165],[11.31959,47.22187]]}},{"type":"Feature","properties":{"kind":"piste","difficulty":"intermediate","name":"Familienabfahrt Götzens","aerialway":null,"osm":"way/1396186726"},"geometry":{"type":"LineString","coordinates":[[11.32948,47.20892],[11.32969,47.20885]]}},{"type":"Feature","properties":{"kind":"piste","difficulty":"intermediate","name":"Priemesköpfl Abfahrt","aerialway":null,"osm":"way/1396186727"},"geometry":{"type":"LineString","coordinates":[[11.33557,47.21197],[11.3357,47.21196],[11.33562,47.2119]]}},{"type":"Feature","properties":{"kind":"piste","difficulty":"intermediate","name":null,"aerialway":null,"osm":"way/1396186728"},"geometry":{"type":"LineString","coordinates":[[11.33557,47.21197],[11.3357,47.21196],[11.33562,47.2119]]}},{"type":"Feature","properties":{"kind":"piste","difficulty":"intermediate","name":null,"aerialway":null,"osm":"way/1396186729"},"geometry":{"type":"LineString","coordinates":[[11.33314,47.21072],[11.33317,47.21094],[11.33277,47.21147],[11.33283,47.21161]]}},{"type":"Feature","properties":{"kind":"piste","difficulty":"intermediate","name":null,"aerialway":null,"osm":"way/1467556345"},"geometry":{"type":"LineString","coordinates":[[11.27988,47.19328],[11.27899,47.19447],[11.2787,47.19516]]}},{"type":"Feature","properties":{"kind":"piste","difficulty":"intermediate","name":null,"aerialway":null,"osm":"way/1467556347"},"geometry":{"type":"LineString","coordinates":[[11.28001,47.19314],[11.27988,47.19328]]}},{"type":"Feature","properties":{"kind":"piste","difficulty":"intermediate","name":"19 Axamer Abfahrt","aerialway":null,"osm":"way/1552518899"},"geometry":{"type":"LineString","coordinates":[[11.2787,47.19516],[11.27879,47.19597],[11.27922,47.19647],[11.27925,47.19686],[11.27886,47.1973],[11.27804,47.1978],[11.27686,47.19997],[11.27558,47.2014]]}},{"type":"Feature","properties":{"kind":"lift","difficulty":null,"name":"Karleiten","aerialway":"chair_lift","osm":"way/24568282"},"geometry":{"type":"LineString","coordinates":[[11.29051,47.19439],[11.28262,47.18884]]}},{"type":"Feature","properties":{"kind":"lift","difficulty":null,"name":"Birgitzköpfl","aerialway":"chair_lift","osm":"way/25298607"},"geometry":{"type":"LineString","coordinates":[[11.30354,47.19407],[11.31652,47.19478]]}},{"type":"Feature","properties":{"kind":"lift","difficulty":null,"name":"Muttereralmbahn","aerialway":"gondola","osm":"way/26746748"},"geometry":{"type":"LineString","coordinates":[[11.36627,47.22244],[11.33371,47.21157]]}},{"type":"Feature","properties":{"kind":"lift","difficulty":null,"name":"Nockspitzbahn","aerialway":"gondola","osm":"way/26746897"},"geometry":{"type":"LineString","coordinates":[[11.3146,47.23187],[11.32841,47.20768]]}},{"type":"Feature","properties":{"kind":"lift","difficulty":null,"name":"Pfriemesköpfl","aerialway":"chair_lift","osm":"way/26746906"},"geometry":{"type":"LineString","coordinates":[[11.33562,47.2119],[11.32871,47.2076]]}},{"type":"Feature","properties":{"kind":"lift","difficulty":null,"name":"Übungslift Birgitz","aerialway":"t-bar","osm":"way/47089281"},"geometry":{"type":"LineString","coordinates":[[11.30216,47.23265],[11.30796,47.22947]]}},{"type":"Feature","properties":{"kind":"lift","difficulty":null,"name":"Talboden","aerialway":"platter","osm":"way/93697082"},"geometry":{"type":"LineString","coordinates":[[11.30359,47.19323],[11.30376,47.19177]]}},{"type":"Feature","properties":{"kind":"lift","difficulty":null,"name":"Götzner Grube","aerialway":"t-bar","osm":"way/93697084"},"geometry":{"type":"LineString","coordinates":[[11.31709,47.19768],[11.31655,47.19394]]}},{"type":"Feature","properties":{"kind":"lift","difficulty":null,"name":"Kaserwald I","aerialway":"t-bar","osm":"way/93697087"},"geometry":{"type":"LineString","coordinates":[[11.30334,47.19351],[11.307,47.19293]]}},{"type":"Feature","properties":{"kind":"lift","difficulty":null,"name":"Sonnenlift","aerialway":"t-bar","osm":"way/124436839"},"geometry":{"type":"LineString","coordinates":[[11.27335,47.2277],[11.27129,47.22349]]}},{"type":"Feature","properties":{"kind":"lift","difficulty":null,"name":"Pleisen","aerialway":"chair_lift","osm":"way/144280300"},"geometry":{"type":"LineString","coordinates":[[11.29205,47.19628],[11.28001,47.19314]]}},{"type":"Feature","properties":{"kind":"lift","difficulty":null,"name":"Almbodenlift","aerialway":"platter","osm":"way/153958730"},"geometry":{"type":"LineString","coordinates":[[11.33511,47.21322],[11.3296,47.21032]]}},{"type":"Feature","properties":{"kind":"lift","difficulty":null,"name":null,"aerialway":"magic_carpet","osm":"way/657212836"},"geometry":{"type":"LineString","coordinates":[[11.32815,47.20684],[11.3288,47.2073]]}},{"type":"Feature","properties":{"kind":"lift","difficulty":null,"name":null,"aerialway":"magic_carpet","osm":"way/807878117"},"geometry":{"type":"LineString","coordinates":[[11.30339,47.19394],[11.30423,47.19391]]}},{"type":"Feature","properties":{"kind":"lift","difficulty":null,"name":null,"aerialway":"magic_carpet","osm":"way/893773372"},"geometry":{"type":"LineString","coordinates":[[11.3346,47.21126],[11.33394,47.21082]]}},{"type":"Feature","properties":{"kind":"lift","difficulty":null,"name":"Hoadlbahn","aerialway":"gondola","osm":"way/1064844583"},"geometry":{"type":"LineString","coordinates":[[11.3021,47.19537],[11.28974,47.18961]]}},{"type":"Feature","properties":{"kind":"lift","difficulty":null,"name":"Hoadlbahn","aerialway":"gondola","osm":"way/1526166177"},"geometry":{"type":"LineString","coordinates":[[11.28974,47.18961],[11.2814,47.18353]]}}]}