{"type":"FeatureCollection","features":[{"type":"Feature","properties":{"kind":"lift","difficulty":null,"name":"Platzermuldenlift","aerialway":"t-bar","osm":"way/161274846"},"geometry":{"type":"LineString","coordinates":[[14.02153,46.94425],[14.01404,46.94156]]}},{"type":"Feature","properties":{"kind":"piste","difficulty":"advanced","name":null,"aerialway":null,"osm":"way/417870553"},"geometry":{"type":"LineString","coordinates":[[14.01096,46.93384],[14.01078,46.93406],[14.01099,46.93432],[14.01102,46.9346],[14.01077,46.93548],[14.01137,46.9356],[14.01263,46.93493],[14.01338,46.93485],[14.01431,46.93526],[14.01525,46.93547],[14.01602,46.93604],[14.01602,46.93664],[14.01785,46.93812],[14.02057,46.93919],[14.02112,46.93932],[14.02277,46.93936],[14.02446,46.94024],[14.02482,46.94082],[14.02477,46.94095],[14.02461,46.94091]]}},{"type":"Feature","properties":{"kind":"piste","difficulty":"easy","name":null,"aerialway":null,"osm":"way/417870556"},"geometry":{"type":"LineString","coordinates":[[14.01126,46.93384],[14.00931,46.93409],[14.00768,46.93581],[14.0063,46.93643],[14.00578,46.93642],[14.00488,46.93671],[14.00465,46.93693],[14.00484,46.93718],[14.00565,46.93753],[14.00701,46.93767],[14.00738,46.93789],[14.00762,46.93864],[14.0078,46.94041],[14.00819,46.94096],[14.00857,46.94118],[14.00881,46.94113],[14.0092,46.94063],[14.00972,46.94052],[14.01027,46.94065],[14.0111,46.94127],[14.01207,46.94156],[14.01485,46.94154],[14.01583,46.94195],[14.01616,46.94191],[14.01732,46.94248],[14.01904,46.94304],[14.01974,46.94294],[14.024,46.94111],[14.02458,46.94107],[14.02469,46.94094]]}},{"type":"Feature","properties":{"kind":"piste","difficulty":"easy","name":null,"aerialway":null,"osm":"way/417870560"},"geometry":{"type":"LineString","coordinates":[[14.01545,46.94198],[14.02087,46.94352],[14.02169,46.94414],[14.02162,46.94425],[14.02133,46.94419]]}},{"type":"Feature","properties":{"kind":"piste","difficulty":"easy","name":null,"aerialway":null,"osm":"way/417870562"},"geometry":{"type":"LineString","coordinates":[[14.01539,46.94177],[14.0155,46.94214],[14.01909,46.9437],[14.02142,46.94431],[14.02162,46.94425]]}},{"type":"Feature","properties":{"kind":"piste","difficulty":"intermediate","name":null,"aerialway":null,"osm":"way/417870564"},"geometry":{"type":"LineString","coordinates":[[14.00865,46.94121],[14.00869,46.94137],[14.00855,46.94149],[13.99802,46.9442],[13.99731,46.94429],[13.99723,46.94426],[13.99735,46.94414]]}},{"type":"Feature","properties":{"kind":"piste","difficulty":"intermediate","name":null,"aerialway":null,"osm":"way/417870566"},"geometry":{"type":"LineString","coordinates":[[14.00718,46.94184],[14.00569,46.94182],[14.00179,46.94296],[13.99734,46.94405],[13.99719,46.94413],[13.99714,46.94424],[13.99723,46.94426]]}},{"type":"Feature","properties":{"kind":"piste","difficulty":"advanced","name":"Kanonenrohr","aerialway":null,"osm":"way/476005214"},"geometry":{"type":"LineString","coordinates":[[14.01096,46.93384],[14.0107,46.93426],[14.01088,46.93446],[14.01099,46.93491],[14.01063,46.93595],[14.0107,46.93616],[14.01051,46.93649],[14.01022,46.93781],[14.01044,46.93831],[14.01003,46.93874],[14.01299,46.94058],[14.01536,46.94146],[14.01577,46.94177],[14.01583,46.94195]]}},{"type":"Feature","properties":{"kind":"lift","difficulty":null,"name":null,"aerialway":"magic_carpet","osm":"way/614227882"},"geometry":{"type":"LineString","coordinates":[[14.02293,46.94353],[14.0229,46.94338]]}}]}