{"type":"FeatureCollection","features":[{"type":"Feature","properties":{"kind":"piste","difficulty":"unknown","name":null,"aerialway":null,"osm":"way/31184946"},"geometry":{"type":"LineString","coordinates":[[12.58046,46.98817],[12.5808,46.98816]]}},{"type":"Feature","properties":{"kind":"piste","difficulty":"easy","name":null,"aerialway":null,"osm":"way/31184948"},"geometry":{"type":"LineString","coordinates":[[12.5808,46.98816],[12.58073,46.9886],[12.58031,46.98895]]}},{"type":"Feature","properties":{"kind":"piste","difficulty":"easy","name":null,"aerialway":null,"osm":"way/31184952"},"geometry":{"type":"LineString","coordinates":[[12.58031,46.98895],[12.58012,46.9891],[12.57865,46.98922],[12.57785,46.98956]]}},{"type":"Feature","properties":{"kind":"piste","difficulty":"unknown","name":null,"aerialway":null,"osm":"way/31184953"},"geometry":{"type":"LineString","coordinates":[[12.57785,46.98956],[12.57724,46.98952],[12.57733,46.98945]]}},{"type":"Feature","properties":{"kind":"piste","difficulty":"easy","name":null,"aerialway":null,"osm":"way/31184954"},"geometry":{"type":"LineString","coordinates":[[12.57785,46.98956],[12.57732,46.9899]]}},{"type":"Feature","properties":{"kind":"piste","difficulty":"easy","name":null,"aerialway":null,"osm":"way/31184955"},"geometry":{"type":"LineString","coordinates":[[12.57732,46.9899],[12.57658,46.98985],[12.57526,46.99003]]}},{"type":"Feature","properties":{"kind":"piste","difficulty":"easy","name":null,"aerialway":null,"osm":"way/31184956"},"geometry":{"type":"LineString","coordinates":[[12.57456,46.99078],[12.57443,46.99151],[12.57456,46.99201]]}},{"type":"Feature","properties":{"kind":"piste","difficulty":"easy","name":null,"aerialway":null,"osm":"way/31184961"},"geometry":{"type":"LineString","coordinates":[[12.57429,46.99213],[12.57312,46.99159]]}},{"type":"Feature","properties":{"kind":"piste","difficulty":"easy","name":null,"aerialway":null,"osm":"way/31184967"},"geometry":{"type":"LineString","coordinates":[[12.57305,46.99116],[12.57292,46.99051],[12.5733,46.98964],[12.5721,46.99021]]}},{"type":"Feature","properties":{"kind":"piste","difficulty":"intermediate","name":null,"aerialway":null,"osm":"way/31184969"},"geometry":{"type":"LineString","coordinates":[[12.57456,46.99078],[12.57368,46.99117],[12.57305,46.99116]]}},{"type":"Feature","properties":{"kind":"piste","difficulty":"intermediate","name":null,"aerialway":null,"osm":"way/31184974"},"geometry":{"type":"LineString","coordinates":[[12.57305,46.99116],[12.57268,46.99102],[12.57228,46.9903],[12.5721,46.99021],[12.5716,46.99028],[12.57017,46.9899],[12.56637,46.9902],[12.56512,46.99095]]}},{"type":"Feature","properties":{"kind":"piste","difficulty":"easy","name":null,"aerialway":null,"osm":"way/31184977"},"geometry":{"type":"LineString","coordinates":[[12.56537,46.99626],[12.56563,46.99649]]}},{"type":"Feature","properties":{"kind":"piste","difficulty":"intermediate","name":null,"aerialway":null,"osm":"way/31184983"},"geometry":{"type":"LineString","coordinates":[[12.56537,46.99626],[12.56501,46.99682],[12.56514,46.9972],[12.56569,46.99752],[12.567,46.99786],[12.56718,46.9982],[12.5671,46.99878],[12.56648,46.99968],[12.56635,47.00029],[12.56687,47.00174],[12.56674,47.00268]]}},{"type":"Feature","properties":{"kind":"piste","difficulty":"intermediate","name":null,"aerialway":null,"osm":"way/31184989"},"geometry":{"type":"LineString","coordinates":[[12.56674,47.00268],[12.5655,47.00291],[12.5646,47.00291],[12.56334,47.00268],[12.56158,47.00269],[12.55932,47.00247],[12.5583,47.00212],[12.55539,47.00063]]}},{"type":"Feature","properties":{"kind":"piste","difficulty":"intermediate","name":null,"aerialway":null,"osm":"way/31184993"},"geometry":{"type":"LineString","coordinates":[[12.57429,46.99213],[12.57192,46.99474],[12.57136,46.99478],[12.57051,46.99462]]}},{"type":"Feature","properties":{"kind":"piste","difficulty":"advanced","name":null,"aerialway":null,"osm":"way/31184994"},"geometry":{"type":"LineString","coordinates":[[12.5702,46.99434],[12.56912,46.99458],[12.56827,46.99502],[12.56724,46.99646],[12.56694,46.9973],[12.567,46.99786]]}},{"type":"Feature","properties":{"kind":"piste","difficulty":"unknown","name":null,"aerialway":null,"osm":"way/31184995"},"geometry":{"type":"LineString","coordinates":[[12.56827,46.99502],[12.56566,46.99486]]}},{"type":"Feature","properties":{"kind":"piste","difficulty":"unknown","name":null,"aerialway":null,"osm":"way/31184996"},"geometry":{"type":"LineString","coordinates":[[12.56724,46.99646],[12.56563,46.99649]]}},{"type":"Feature","properties":{"kind":"piste","difficulty":"unknown","name":null,"aerialway":null,"osm":"way/31184997"},"geometry":{"type":"LineString","coordinates":[[12.56563,46.99649],[12.56597,46.99633]]}},{"type":"Feature","properties":{"kind":"piste","difficulty":"intermediate","name":null,"aerialway":null,"osm":"way/31184999"},"geometry":{"type":"LineString","coordinates":[[12.57312,46.99159],[12.57068,46.99132],[12.56943,46.99196],[12.56805,46.99313]]}},{"type":"Feature","properties":{"kind":"piste","difficulty":"easy","name":null,"aerialway":null,"osm":"way/31185001"},"geometry":{"type":"LineString","coordinates":[[12.5721,46.99021],[12.57163,46.99073],[12.57128,46.99142]]}},{"type":"Feature","properties":{"kind":"piste","difficulty":"intermediate","name":null,"aerialway":null,"osm":"way/31185003"},"geometry":{"type":"LineString","coordinates":[[12.57068,46.99132],[12.57017,46.9899]]}},{"type":"Feature","properties":{"kind":"piste","difficulty":"easy","name":null,"aerialway":null,"osm":"way/31185005"},"geometry":{"type":"LineString","coordinates":[[12.57128,46.99142],[12.57125,46.99203],[12.57156,46.99427],[12.57214,46.99492],[12.57283,46.99509],[12.5725,46.99527],[12.5718,46.9953],[12.57051,46.99462]]}},{"type":"Feature","properties":{"kind":"piste","difficulty":"easy","name":null,"aerialway":null,"osm":"way/31185007"},"geometry":{"type":"LineString","coordinates":[[12.57015,46.9943],[12.56869,46.99355],[12.56726,46.9932],[12.5663,46.99263],[12.56561,46.99199],[12.56511,46.99123],[12.56512,46.99095]]}},{"type":"Feature","properties":{"kind":"piste","difficulty":"easy","name":null,"aerialway":null,"osm":"way/31185009"},"geometry":{"type":"LineString","coordinates":[[12.56512,46.99095],[12.5648,46.99136],[12.56477,46.992],[12.56452,46.9926],[12.56468,46.994]]}},{"type":"Feature","properties":{"kind":"piste","difficulty":"easy","name":null,"aerialway":null,"osm":"way/31185022"},"geometry":{"type":"LineString","coordinates":[[12.58056,46.98867],[12.58031,46.98895]]}},{"type":"Feature","properties":{"kind":"piste","difficulty":"easy","name":null,"aerialway":null,"osm":"way/31185024"},"geometry":{"type":"LineString","coordinates":[[12.58081,46.98833],[12.58056,46.98867],[12.57936,46.98916]]}},{"type":"Feature","properties":{"kind":"piste","difficulty":"easy","name":null,"aerialway":null,"osm":"way/31185026"},"geometry":{"type":"LineString","coordinates":[[12.58004,46.98974],[12.57888,46.98996],[12.57829,46.98983],[12.57785,46.98956]]}},{"type":"Feature","properties":{"kind":"piste","difficulty":"easy","name":null,"aerialway":null,"osm":"way/31185033"},"geometry":{"type":"LineString","coordinates":[[12.57639,46.99098],[12.57654,46.99116]]}},{"type":"Feature","properties":{"kind":"piste","difficulty":"intermediate","name":null,"aerialway":null,"osm":"way/31185035"},"geometry":{"type":"LineString","coordinates":[[12.58339,46.99032],[12.58229,46.9917],[12.58153,46.99211]]}},{"type":"Feature","properties":{"kind":"piste","difficulty":"unknown","name":null,"aerialway":null,"osm":"way/31185037"},"geometry":{"type":"LineString","coordinates":[[12.58153,46.99211],[12.58179,46.99219]]}},{"type":"Feature","properties":{"kind":"piste","difficulty":"intermediate","name":null,"aerialway":null,"osm":"way/31185041"},"geometry":{"type":"LineString","coordinates":[[12.58272,46.98801],[12.58367,46.98819],[12.5846,46.98871]]}},{"type":"Feature","properties":{"kind":"piste","difficulty":"unknown","name":null,"aerialway":null,"osm":"way/31185045"},"geometry":{"type":"LineString","coordinates":[[12.59699,46.99179],[12.59715,46.9916]]}},{"type":"Feature","properties":{"kind":"piste","difficulty":"unknown","name":null,"aerialway":null,"osm":"way/31185047"},"geometry":{"type":"LineString","coordinates":[[12.59715,46.9916],[12.59672,46.99168],[12.59587,46.9925],[12.59581,46.99298]]}},{"type":"Feature","properties":{"kind":"piste","difficulty":"intermediate","name":null,"aerialway":null,"osm":"way/31185052"},"geometry":{"type":"LineString","coordinates":[[12.59715,46.9916],[12.59682,46.99098],[12.59453,46.9903],[12.59345,46.99014],[12.59064,46.99076],[12.58931,46.99067]]}},{"type":"Feature","properties":{"kind":"piste","difficulty":"advanced","name":null,"aerialway":null,"osm":"way/31185054"},"geometry":{"type":"LineString","coordinates":[[12.59581,46.99298],[12.59458,46.99287],[12.5919,46.99212],[12.58982,46.9921],[12.58798,46.99179],[12.58734,46.99135],[12.58671,46.99065],[12.58681,46.99022]]}},{"type":"Feature","properties":{"kind":"piste","difficulty":"advanced","name":null,"aerialway":null,"osm":"way/31185055"},"geometry":{"type":"LineString","coordinates":[[12.5898,46.99094],[12.5876,46.99067],[12.5862,46.98988],[12.58426,46.98942]]}},{"type":"Feature","properties":{"kind":"piste","difficulty":"advanced","name":null,"aerialway":null,"osm":"way/31185494"},"geometry":{"type":"LineString","coordinates":[[12.59581,46.99298],[12.59593,46.99348]]}},{"type":"Feature","properties":{"kind":"piste","difficulty":"intermediate","name":null,"aerialway":null,"osm":"way/31185500"},"geometry":{"type":"LineString","coordinates":[[12.59581,46.99298],[12.59903,46.99344],[12.60196,46.99316],[12.60369,46.9928],[12.60577,46.99313],[12.608,46.99519],[12.60859,46.99617],[12.60941,46.99698],[12.60991,46.99704]]}},{"type":"Feature","properties":{"kind":"piste","difficulty":"unknown","name":null,"aerialway":null,"osm":"way/31185503"},"geometry":{"type":"LineString","coordinates":[[12.60991,46.99704],[12.61081,46.99723]]}},{"type":"Feature","properties":{"kind":"piste","difficulty":"unknown","name":null,"aerialway":null,"osm":"way/31185505"},"geometry":{"type":"LineString","coordinates":[[12.60991,46.99704],[12.60992,46.99726],[12.61011,46.99735],[12.61079,46.99752],[12.61073,46.99736]]}},{"type":"Feature","properties":{"kind":"piste","difficulty":"easy","name":null,"aerialway":null,"osm":"way/31191902"},"geometry":{"type":"LineString","coordinates":[[12.5919,46.99212],[12.58931,46.99067]]}},{"type":"Feature","properties":{"kind":"piste","difficulty":"easy","name":null,"aerialway":null,"osm":"way/31191903"},"geometry":{"type":"LineString","coordinates":[[12.59715,46.9916],[12.59754,46.9914],[12.59775,46.99111],[12.59775,46.99078],[12.59745,46.99014]]}},{"type":"Feature","properties":{"kind":"piste","difficulty":"advanced","name":null,"aerialway":null,"osm":"way/31191904"},"geometry":{"type":"LineString","coordinates":[[12.5881,46.98726],[12.58683,46.9876],[12.5846,46.98871],[12.58426,46.98942],[12.58339,46.99032]]}},{"type":"Feature","properties":{"kind":"piste","difficulty":"easy","name":null,"aerialway":null,"osm":"way/31192785"},"geometry":{"type":"LineString","coordinates":[[12.57732,46.9899],[12.57679,46.99067],[12.57639,46.99098],[12.5754,46.99142],[12.57456,46.99201]]}},{"type":"Feature","properties":{"kind":"piste","difficulty":"easy","name":null,"aerialway":null,"osm":"way/31192786"},"geometry":{"type":"LineString","coordinates":[[12.57456,46.99201],[12.57429,46.99213]]}},{"type":"Feature","properties":{"kind":"piste","difficulty":"easy","name":null,"aerialway":null,"osm":"way/31192788"},"geometry":{"type":"LineString","coordinates":[[12.57051,46.99462],[12.57015,46.9943]]}},{"type":"Feature","properties":{"kind":"piste","difficulty":"intermediate","name":null,"aerialway":null,"osm":"way/31192789"},"geometry":{"type":"LineString","coordinates":[[12.57015,46.9943],[12.56939,46.9936],[12.56901,46.99347]]}},{"type":"Feature","properties":{"kind":"piste","difficulty":"easy","name":null,"aerialway":null,"osm":"way/31192790"},"geometry":{"type":"LineString","coordinates":[[12.5702,46.99434],[12.57015,46.9943]]}},{"type":"Feature","properties":{"kind":"piste","difficulty":"intermediate","name":null,"aerialway":null,"osm":"way/31192793"},"geometry":{"type":"LineString","coordinates":[[12.55074,47.00013],[12.54911,47.00034],[12.54866,46.99992],[12.54844,46.99843],[12.54818,46.99839],[12.54742,46.99896],[12.54498,47.00007],[12.5442,47.00005],[12.54373,46.99967]]}},{"type":"Feature","properties":{"kind":"piste","difficulty":"intermediate","name":null,"aerialway":null,"osm":"way/31192797"},"geometry":{"type":"LineString","coordinates":[[12.56805,46.99313],[12.56666,46.99396],[12.56566,46.99486],[12.56506,46.99593]]}},{"type":"Feature","properties":{"kind":"piste","difficulty":"easy","name":null,"aerialway":null,"osm":"way/31192799"},"geometry":{"type":"LineString","coordinates":[[12.57312,46.99159],[12.57305,46.99116]]}},{"type":"Feature","properties":{"kind":"piste","difficulty":"easy","name":null,"aerialway":null,"osm":"way/31192802"},"geometry":{"type":"LineString","coordinates":[[12.57925,46.98992],[12.57817,46.99037],[12.57679,46.99067]]}},{"type":"Feature","properties":{"kind":"piste","difficulty":"intermediate","name":null,"aerialway":null,"osm":"way/31192803"},"geometry":{"type":"LineString","coordinates":[[12.58081,46.98833],[12.58106,46.98778],[12.58238,46.9878],[12.58272,46.98801],[12.58327,46.98923],[12.58339,46.99032]]}},{"type":"Feature","properties":{"kind":"piste","difficulty":"easy","name":null,"aerialway":null,"osm":"way/37711718"},"geometry":{"type":"LineString","coordinates":[[12.58584,46.98714],[12.58318,46.98676],[12.58232,46.98683],[12.58189,46.98699],[12.58113,46.98755],[12.5808,46.98816]]}},{"type":"Feature","properties":{"kind":"piste","difficulty":"advanced","name":null,"aerialway":null,"osm":"way/39704910"},"geometry":{"type":"LineString","coordinates":[[12.59936,46.99824],[12.60204,46.99864],[12.60444,46.99936],[12.60538,46.99926],[12.60577,46.99894],[12.60626,46.9973],[12.60671,46.99706],[12.60941,46.99698]]}},{"type":"Feature","properties":{"kind":"piste","difficulty":"advanced","name":null,"aerialway":null,"osm":"way/39704911"},"geometry":{"type":"LineString","coordinates":[[12.59627,46.99347],[12.5975,46.99435],[12.59899,46.99498],[12.59925,46.99531],[12.59925,46.99557]]}},{"type":"Feature","properties":{"kind":"piste","difficulty":"easy","name":null,"aerialway":null,"osm":"way/39706180"},"geometry":{"type":"LineString","coordinates":[[12.58931,46.99067],[12.58921,46.99058]]}},{"type":"Feature","properties":{"kind":"piste","difficulty":"easy","name":null,"aerialway":null,"osm":"way/39706182"},"geometry":{"type":"LineString","coordinates":[[12.58921,46.99058],[12.58879,46.99035],[12.58805,46.98947],[12.58793,46.98905],[12.58769,46.98883],[12.58767,46.98848],[12.58716,46.98785]]}},{"type":"Feature","properties":{"kind":"piste","difficulty":"easy","name":null,"aerialway":null,"osm":"way/48137447"},"geometry":{"type":"LineString","coordinates":[[12.60969,46.99695],[12.61048,46.99694],[12.61149,46.99752],[12.61311,46.99878],[12.61407,46.99928],[12.61553,46.99924],[12.61683,46.9989],[12.61806,46.99816],[12.61988,46.99776],[12.62201,46.99798],[12.6229,46.99779],[12.62464,46.99776],[12.6254,46.99747],[12.62641,46.99745],[12.62712,46.99707],[12.62745,46.99658],[12.62755,46.99613],[12.62749,46.99524],[12.62877,46.99659],[12.62882,46.99678],[12.62873,46.9974],[12.62802,46.99844],[12.62883,46.99811],[12.62956,46.99757],[12.63024,46.99637],[12.63012,46.99571],[12.63024,46.99559],[12.63062,46.99637],[12.63074,46.9973],[12.63042,46.99844],[12.62971,46.99933],[12.63068,46.99895],[12.63136,46.99832],[12.63166,46.99781],[12.63173,46.998],[12.63139,46.99913],[12.63105,46.99941],[12.62888,47.0005],[12.62635,47.00106],[12.62455,47.00179],[12.62424,47.00217],[12.62482,47.00211],[12.62562,47.00231],[12.63294,47.00136],[12.63353,47.00149],[12.63392,47.00167],[12.63618,47.0037],[12.63787,47.00492],[12.63992,47.00589],[12.64044,47.00603],[12.64048,47.00591]]}},{"type":"Feature","properties":{"kind":"piste","difficulty":"easy","name":null,"aerialway":null,"osm":"way/48137622"},"geometry":{"type":"LineString","coordinates":[[12.62562,47.00231],[12.62874,47.00234],[12.62998,47.0026],[12.63239,47.00356],[12.63302,47.00405],[12.63378,47.00553],[12.63507,47.00714],[12.63522,47.00751]]}},{"type":"Feature","properties":{"kind":"piste","difficulty":"easy","name":null,"aerialway":null,"osm":"way/48137623"},"geometry":{"type":"LineString","coordinates":[[12.63796,47.01162],[12.63833,47.01126],[12.63847,47.01091],[12.63845,47.01055],[12.63813,47.00991],[12.63836,47.0096],[12.63813,47.00952]]}},{"type":"Feature","properties":{"kind":"piste","difficulty":"intermediate","name":null,"aerialway":null,"osm":"way/48165525"},"geometry":{"type":"LineString","coordinates":[[12.60645,47.01506],[12.60657,47.01483],[12.60687,47.01475],[12.60835,47.01478],[12.61011,47.01501],[12.61207,47.01486],[12.61353,47.01422],[12.61487,47.01331],[12.61697,47.01302]]}},{"type":"Feature","properties":{"kind":"piste","difficulty":"intermediate","name":null,"aerialway":null,"osm":"way/48165526"},"geometry":{"type":"LineString","coordinates":[[12.59732,46.99155],[12.59686,46.99041],[12.5961,46.98936]]}},{"type":"Feature","properties":{"kind":"piste","difficulty":"intermediate","name":null,"aerialway":null,"osm":"way/48165527"},"geometry":{"type":"LineString","coordinates":[[12.61697,47.01302],[12.61758,47.01274],[12.61977,47.01215],[12.62083,47.01143],[12.6222,47.0111],[12.62304,47.01057],[12.62348,47.00991]]}},{"type":"Feature","properties":{"kind":"piste","difficulty":"easy","name":null,"aerialway":null,"osm":"way/48165768"},"geometry":{"type":"LineString","coordinates":[[12.63965,47.01582],[12.63967,47.01539],[12.63896,47.01436],[12.63848,47.01322],[12.6386,47.01209],[12.63895,47.01121],[12.63883,47.01064],[12.6384,47.01045]]}},{"type":"Feature","properties":{"kind":"piste","difficulty":"intermediate","name":null,"aerialway":null,"osm":"way/48165857"},"geometry":{"type":"LineString","coordinates":[[12.63121,47.01421],[12.63306,47.01461],[12.63438,47.01434],[12.63465,47.01422],[12.6349,47.0139],[12.63508,47.0135],[12.63511,47.01281],[12.63533,47.01247],[12.63796,47.01162]]}},{"type":"Feature","properties":{"kind":"piste","difficulty":"easy","name":"21","aerialway":null,"osm":"way/48165858"},"geometry":{"type":"LineString","coordinates":[[12.62885,47.01227],[12.62987,47.01189],[12.63016,47.01162],[12.63051,47.01054],[12.63041,47.00978],[12.63008,47.00896],[12.63008,47.00859],[12.62973,47.0075],[12.62905,47.00612],[12.6286,47.00567],[12.62786,47.00528],[12.62762,47.00496]]}},{"type":"Feature","properties":{"kind":"piste","difficulty":"advanced","name":null,"aerialway":null,"osm":"way/118386500"},"geometry":{"type":"LineString","coordinates":[[12.6243,47.01413],[12.62895,47.01361],[12.62964,47.01364],[12.63094,47.01403]]}},{"type":"Feature","properties":{"kind":"piste","difficulty":"advanced","name":null,"aerialway":null,"osm":"way/118388592"},"geometry":{"type":"LineString","coordinates":[[12.62267,47.01087],[12.62512,47.01019],[12.62666,47.01017],[12.62881,47.01054],[12.62942,47.01095],[12.62986,47.01178],[12.6298,47.01221]]}},{"type":"Feature","properties":{"kind":"piste","difficulty":"intermediate","name":null,"aerialway":null,"osm":"way/118388595"},"geometry":{"type":"LineString","coordinates":[[12.62055,47.01157],[12.62142,47.01049],[12.62348,47.00991]]}},{"type":"Feature","properties":{"kind":"piste","difficulty":"easy","name":null,"aerialway":null,"osm":"way/173176061"},"geometry":{"type":"LineString","coordinates":[[12.5961,46.98936],[12.59388,46.98836],[12.59287,46.98814],[12.59113,46.98808],[12.58929,46.98728],[12.58681,46.98709],[12.58584,46.98714]]}},{"type":"Feature","properties":{"kind":"piste","difficulty":"easy","name":null,"aerialway":null,"osm":"way/173176062"},"geometry":{"type":"LineString","coordinates":[[12.59695,46.98973],[12.5961,46.98936]]}},{"type":"Feature","properties":{"kind":"piste","difficulty":"easy","name":null,"aerialway":null,"osm":"way/173176063"},"geometry":{"type":"LineString","coordinates":[[12.59745,46.99014],[12.59747,46.98969],[12.59695,46.98973]]}},{"type":"Feature","properties":{"kind":"piste","difficulty":"intermediate","name":null,"aerialway":null,"osm":"way/228306575"},"geometry":{"type":"LineString","coordinates":[[12.56901,46.99347],[12.56805,46.99313]]}},{"type":"Feature","properties":{"kind":"piste","difficulty":"easy","name":null,"aerialway":null,"osm":"way/228306576"},"geometry":{"type":"LineString","coordinates":[[12.57526,46.99003],[12.57456,46.99078]]}},{"type":"Feature","properties":{"kind":"piste","difficulty":"easy","name":null,"aerialway":null,"osm":"way/228308369"},"geometry":{"type":"LineString","coordinates":[[12.56468,46.994],[12.56445,46.99462],[12.56506,46.99593],[12.56537,46.99626]]}},{"type":"Feature","properties":{"kind":"piste","difficulty":"unknown","name":null,"aerialway":null,"osm":"way/228308370"},"geometry":{"type":"LineString","coordinates":[[12.56584,46.9947],[12.56511,46.99451],[12.56468,46.994]]}},{"type":"Feature","properties":{"kind":"piste","difficulty":"easy","name":null,"aerialway":null,"osm":"way/230513347"},"geometry":{"type":"LineString","coordinates":[[12.58153,46.99211],[12.58072,46.99191],[12.58019,46.99194],[12.57923,46.99211],[12.57686,46.99293],[12.57276,46.99515]]}},{"type":"Feature","properties":{"kind":"piste","difficulty":"intermediate","name":null,"aerialway":null,"osm":"way/234302951"},"geometry":{"type":"LineString","coordinates":[[12.63507,47.0179],[12.63565,47.01788],[12.63686,47.01742],[12.63771,47.01688],[12.63793,47.01651],[12.63965,47.01582]]}},{"type":"Feature","properties":{"kind":"piste","difficulty":"intermediate","name":null,"aerialway":null,"osm":"way/234302955"},"geometry":{"type":"LineString","coordinates":[[12.63466,47.01776],[12.63507,47.0179]]}},{"type":"Feature","properties":{"kind":"piste","difficulty":"easy","name":null,"aerialway":null,"osm":"way/258797090"},"geometry":{"type":"LineString","coordinates":[[12.63462,47.00233],[12.63422,47.0028],[12.63834,47.00606],[12.63865,47.00614],[12.63883,47.00603]]}},{"type":"Feature","properties":{"kind":"piste","difficulty":"easy","name":null,"aerialway":null,"osm":"way/258797092"},"geometry":{"type":"LineString","coordinates":[[12.63294,47.00136],[12.63573,47.00093]]}},{"type":"Feature","properties":{"kind":"piste","difficulty":"easy","name":null,"aerialway":null,"osm":"way/258797093"},"geometry":{"type":"LineString","coordinates":[[12.63573,47.00093],[12.63591,47.00077],[12.63583,47.00069]]}},{"type":"Feature","properties":{"kind":"piste","difficulty":"easy","name":null,"aerialway":null,"osm":"way/258797094"},"geometry":{"type":"LineString","coordinates":[[12.63462,47.00233],[12.63573,47.00093]]}},{"type":"Feature","properties":{"kind":"piste","difficulty":"easy","name":null,"aerialway":null,"osm":"way/309650935"},"geometry":{"type":"LineString","coordinates":[[12.56467,47.00085],[12.56762,47.00203],[12.56764,47.00224],[12.56721,47.0023]]}},{"type":"Feature","properties":{"kind":"piste","difficulty":"easy","name":null,"aerialway":null,"osm":"way/309650936"},"geometry":{"type":"LineString","coordinates":[[12.56563,46.99649],[12.56587,46.99661],[12.5667,46.99651],[12.56767,46.99679],[12.56872,46.99749],[12.56952,46.99833],[12.57089,46.99889],[12.57019,46.99903],[12.56721,46.99888]]}},{"type":"Feature","properties":{"kind":"piste","difficulty":"advanced","name":null,"aerialway":null,"osm":"way/568730125"},"geometry":{"type":"LineString","coordinates":[[12.61697,47.01302],[12.61724,47.01331],[12.61727,47.01446],[12.61922,47.01445],[12.62162,47.01518],[12.62216,47.01524],[12.62264,47.01523],[12.62334,47.01494],[12.62565,47.01289]]}},{"type":"Feature","properties":{"kind":"piste","difficulty":"intermediate","name":null,"aerialway":null,"osm":"way/568730127"},"geometry":{"type":"LineString","coordinates":[[12.62565,47.01289],[12.62594,47.01283],[12.6262,47.01298],[12.62885,47.01227],[12.63003,47.01221],[12.63107,47.01186],[12.6314,47.01194],[12.63165,47.01218],[12.63171,47.01257],[12.63094,47.01403],[12.6314,47.01451],[12.63256,47.01517],[12.63308,47.01576],[12.63377,47.01747],[12.63407,47.01767],[12.63466,47.01776]]}},{"type":"Feature","properties":{"kind":"piste","difficulty":"advanced","name":"17","aerialway":null,"osm":"way/568730128"},"geometry":{"type":"LineString","coordinates":[[12.61724,47.01331],[12.61812,47.01358],[12.62054,47.01386],[12.6222,47.01377],[12.62312,47.01434],[12.6243,47.01413]]}},{"type":"Feature","properties":{"kind":"piste","difficulty":"unknown","name":null,"aerialway":null,"osm":"way/661654681"},"geometry":{"type":"LineString","coordinates":[[12.63238,47.01507],[12.63366,47.01451]]}},{"type":"Feature","properties":{"kind":"piste","difficulty":"intermediate","name":"17","aerialway":null,"osm":"way/661655021"},"geometry":{"type":"LineString","coordinates":[[12.62532,47.01005],[12.62546,47.00956],[12.62454,47.00934],[12.6243,47.00903]]}},{"type":"Feature","properties":{"kind":"piste","difficulty":"intermediate","name":null,"aerialway":null,"osm":"way/728369875"},"geometry":{"type":"LineString","coordinates":[[12.63533,47.01247],[12.63547,47.01203],[12.63505,47.01072],[12.63498,47.00878],[12.63479,47.00789],[12.63516,47.00748]]}},{"type":"Feature","properties":{"kind":"piste","difficulty":"easy","name":null,"aerialway":null,"osm":"way/769855177"},"geometry":{"type":"LineString","coordinates":[[12.62,47.01174],[12.62007,47.01199]]}},{"type":"Feature","properties":{"kind":"piste","difficulty":"unknown","name":null,"aerialway":null,"osm":"way/769855178"},"geometry":{"type":"LineString","coordinates":[[12.63522,47.00751],[12.63508,47.00761]]}},{"type":"Feature","properties":{"kind":"piste","difficulty":"intermediate","name":null,"aerialway":null,"osm":"way/769855179"},"geometry":{"type":"LineString","coordinates":[[12.62606,47.00873],[12.62654,47.00883],[12.62751,47.00947],[12.62802,47.01027],[12.62806,47.01117],[12.6279,47.0114],[12.62709,47.01163],[12.62597,47.01237],[12.62539,47.01292],[12.62565,47.01289]]}},{"type":"Feature","properties":{"kind":"piste","difficulty":"easy","name":"21","aerialway":null,"osm":"way/769855180"},"geometry":{"type":"LineString","coordinates":[[12.62762,47.00496],[12.62842,47.00528],[12.62932,47.00537],[12.62895,47.00518],[12.62853,47.00472],[12.62875,47.00423]]}},{"type":"Feature","properties":{"kind":"piste","difficulty":"unknown","name":null,"aerialway":null,"osm":"way/769855181"},"geometry":{"type":"LineString","coordinates":[[12.61081,46.99723],[12.61073,46.99736]]}},{"type":"Feature","properties":{"kind":"piste","difficulty":"advanced","name":null,"aerialway":null,"osm":"way/773874301"},"geometry":{"type":"LineString","coordinates":[[12.62606,47.00873],[12.62636,47.00849],[12.62622,47.00811],[12.62559,47.00778],[12.62461,47.0068],[12.6255,47.00516],[12.62604,47.0047],[12.62674,47.00453],[12.6283,47.0045],[12.62875,47.00423]]}},{"type":"Feature","properties":{"kind":"piste","difficulty":"intermediate","name":"17","aerialway":null,"osm":"way/773874302"},"geometry":{"type":"LineString","coordinates":[[12.62348,47.00991],[12.62412,47.00994],[12.62457,47.0106],[12.6245,47.01118],[12.62462,47.01117],[12.62532,47.01005]]}},{"type":"Feature","properties":{"kind":"piste","difficulty":"easy","name":null,"aerialway":null,"osm":"way/970574773"},"geometry":{"type":"LineString","coordinates":[[12.56721,46.99888],[12.56467,46.99941],[12.56269,46.99908],[12.56211,46.99885],[12.56274,46.99958],[12.56424,47.00034],[12.56608,47.0008],[12.56605,47.00095],[12.56467,47.00085]]}},{"type":"Feature","properties":{"kind":"piste","difficulty":"advanced","name":null,"aerialway":null,"osm":"way/1037350576"},"geometry":{"type":"LineString","coordinates":[[12.62348,47.00991],[12.62332,47.00941],[12.62426,47.00903]]}},{"type":"Feature","properties":{"kind":"piste","difficulty":"intermediate","name":"17","aerialway":null,"osm":"way/1037350577"},"geometry":{"type":"LineString","coordinates":[[12.62426,47.00903],[12.62606,47.00873]]}},{"type":"Feature","properties":{"kind":"piste","difficulty":"intermediate","name":"21 Abkürzung","aerialway":null,"osm":"way/1037357911"},"geometry":{"type":"LineString","coordinates":[[12.62762,47.00496],[12.62784,47.00454]]}},{"type":"Feature","properties":{"kind":"piste","difficulty":"intermediate","name":null,"aerialway":null,"osm":"way/1037360881"},"geometry":{"type":"LineString","coordinates":[[12.62875,47.00423],[12.62733,47.00299],[12.62563,47.00262],[12.62562,47.00231]]}},{"type":"Feature","properties":{"kind":"piste","difficulty":"easy","name":null,"aerialway":null,"osm":"way/1103140901"},"geometry":{"type":"LineString","coordinates":[[12.58065,46.98901],[12.58122,46.98813],[12.58238,46.9878]]}},{"type":"Feature","properties":{"kind":"piste","difficulty":"easy","name":null,"aerialway":null,"osm":"way/1103140902"},"geometry":{"type":"LineString","coordinates":[[12.58082,46.98885],[12.58056,46.98867]]}},{"type":"Feature","properties":{"kind":"piste","difficulty":"easy","name":null,"aerialway":null,"osm":"way/1103140903"},"geometry":{"type":"LineString","coordinates":[[12.58046,46.98817],[12.5808,46.98816]]}},{"type":"Feature","properties":{"kind":"piste","difficulty":"easy","name":null,"aerialway":null,"osm":"way/1103140904"},"geometry":{"type":"LineString","coordinates":[[12.58054,46.98841],[12.58081,46.98833]]}},{"type":"Feature","properties":{"kind":"piste","difficulty":"easy","name":null,"aerialway":null,"osm":"way/1103140905"},"geometry":{"type":"LineString","coordinates":[[12.57456,46.99201],[12.57429,46.99213]]}},{"type":"Feature","properties":{"kind":"piste","difficulty":"easy","name":null,"aerialway":null,"osm":"way/1103140906"},"geometry":{"type":"LineString","coordinates":[[12.59613,46.99276],[12.59581,46.99298]]}},{"type":"Feature","properties":{"kind":"piste","difficulty":"intermediate","name":null,"aerialway":null,"osm":"way/1104047563"},"geometry":{"type":"LineString","coordinates":[[12.6066,47.01524],[12.60645,47.01522],[12.60645,47.01506]]}},{"type":"Feature","properties":{"kind":"piste","difficulty":"easy","name":null,"aerialway":null,"osm":"way/1104047564"},"geometry":{"type":"LineString","coordinates":[[12.6262,47.01298],[12.62585,47.01309]]}},{"type":"Feature","properties":{"kind":"piste","difficulty":"easy","name":null,"aerialway":null,"osm":"way/1104047565"},"geometry":{"type":"LineString","coordinates":[[12.62581,47.01323],[12.62548,47.01322],[12.62548,47.01303]]}},{"type":"Feature","properties":{"kind":"piste","difficulty":"intermediate","name":null,"aerialway":null,"osm":"way/1111715145"},"geometry":{"type":"LineString","coordinates":[[12.5812,46.9879],[12.58131,46.98763],[12.58225,46.9876],[12.5828,46.98779],[12.58279,46.98797],[12.58311,46.98837],[12.58346,46.98859],[12.58501,46.98901],[12.58479,46.98949],[12.58489,46.98981],[12.58391,46.99028],[12.58215,46.99197],[12.5817,46.99208],[12.5816,46.99225],[12.58135,46.99226],[12.5812,46.99212],[12.58251,46.99129],[12.58297,46.99051],[12.5828,46.98909],[12.58232,46.98803],[12.5812,46.9879]]}},{"type":"Feature","properties":{"kind":"piste","difficulty":"advanced","name":null,"aerialway":null,"osm":"way/1111715146"},"geometry":{"type":"LineString","coordinates":[[12.58617,46.98724],[12.58788,46.98738],[12.58599,46.98804],[12.58501,46.98901],[12.58401,46.98872],[12.5842,46.98853],[12.58461,46.98843],[12.58485,46.98816],[12.58594,46.98767],[12.58617,46.98746],[12.58617,46.98724]]}},{"type":"Feature","properties":{"kind":"piste","difficulty":"easy","name":null,"aerialway":null,"osm":"way/1111715147"},"geometry":{"type":"LineString","coordinates":[[12.59714,46.99157],[12.59752,46.99138],[12.59741,46.99115],[12.59607,46.98905],[12.59563,46.98887],[12.59319,46.98816],[12.59092,46.98788],[12.58926,46.98712],[12.58697,46.9869],[12.58569,46.98716],[12.58918,46.98739],[12.59071,46.9882],[12.59311,46.98824],[12.59399,46.98846],[12.59543,46.98908],[12.5962,46.98967],[12.59714,46.99157]]}},{"type":"Feature","properties":{"kind":"piste","difficulty":"intermediate","name":"Talabfahrt Goldriedbahn","aerialway":null,"osm":"way/1187190267"},"geometry":{"type":"LineString","coordinates":[[12.55074,47.00013],[12.55034,46.99981],[12.54962,46.99628],[12.54924,46.99536],[12.54928,46.99466],[12.54964,46.99417],[12.54928,46.99363],[12.54869,46.99289],[12.54692,46.99186],[12.54626,46.99107],[12.54505,46.99058],[12.54395,46.99078],[12.54328,46.99072],[12.54322,46.99064],[12.54331,46.99063]]}},{"type":"Feature","properties":{"kind":"piste","difficulty":"easy","name":null,"aerialway":null,"osm":"way/1213926042"},"geometry":{"type":"LineString","coordinates":[[12.58031,46.98895],[12.58001,46.98957],[12.57971,46.98976]]}},{"type":"Feature","properties":{"kind":"piste","difficulty":"easy","name":null,"aerialway":null,"osm":"way/1241134232"},"geometry":{"type":"LineString","coordinates":[[12.58716,46.98785],[12.58646,46.9873],[12.58584,46.98714]]}},{"type":"Feature","properties":{"kind":"piste","difficulty":"intermediate","name":"Talabfahrt Goldriedbahn","aerialway":null,"osm":"way/1246935809"},"geometry":{"type":"LineString","coordinates":[[12.55539,47.00063],[12.55215,47.00115],[12.55074,47.00013]]}},{"type":"Feature","properties":{"kind":"piste","difficulty":"easy","name":null,"aerialway":null,"osm":"way/1247381795"},"geometry":{"type":"LineString","coordinates":[[12.63619,47.01116],[12.6372,47.01122],[12.63796,47.01162]]}},{"type":"Feature","properties":{"kind":"piste","difficulty":"easy","name":null,"aerialway":null,"osm":"way/1247381796"},"geometry":{"type":"LineString","coordinates":[[12.63522,47.00751],[12.6353,47.00816]]}},{"type":"Feature","properties":{"kind":"piste","difficulty":"advanced","name":null,"aerialway":null,"osm":"way/1319602293"},"geometry":{"type":"LineString","coordinates":[[12.5993,46.99801],[12.59936,46.99824]]}},{"type":"Feature","properties":{"kind":"piste","difficulty":"advanced","name":null,"aerialway":null,"osm":"way/1319602294"},"geometry":{"type":"LineString","coordinates":[[12.59915,46.99654],[12.59948,46.99707],[12.5993,46.99801]]}},{"type":"Feature","properties":{"kind":"piste","difficulty":"advanced","name":null,"aerialway":null,"osm":"way/1319602295"},"geometry":{"type":"LineString","coordinates":[[12.59914,46.9965],[12.59915,46.99654]]}},{"type":"Feature","properties":{"kind":"piste","difficulty":"advanced","name":null,"aerialway":null,"osm":"way/1319602296"},"geometry":{"type":"LineString","coordinates":[[12.59925,46.99557],[12.59914,46.9965]]}},{"type":"Feature","properties":{"kind":"piste","difficulty":"advanced","name":null,"aerialway":null,"osm":"way/1319602297"},"geometry":{"type":"LineString","coordinates":[[12.59593,46.99348],[12.59627,46.99347]]}},{"type":"Feature","properties":{"kind":"piste","difficulty":"easy","name":null,"aerialway":null,"osm":"way/1319606079"},"geometry":{"type":"LineString","coordinates":[[12.5808,46.98816],[12.58081,46.98833]]}},{"type":"Feature","properties":{"kind":"piste","difficulty":"easy","name":null,"aerialway":null,"osm":"way/1412863783"},"geometry":{"type":"LineString","coordinates":[[12.56721,47.0023],[12.56703,47.00299],[12.5668,47.00319],[12.56642,47.00301],[12.5655,47.00291]]}},{"type":"Feature","properties":{"kind":"lift","difficulty":null,"name":"Figol","aerialway":"chair_lift","osm":"way/25818018"},"geometry":{"type":"LineString","coordinates":[[12.63813,47.00952],[12.62581,47.01323]]}},{"type":"Feature","properties":{"kind":"lift","difficulty":null,"name":"Goldried I","aerialway":"gondola","osm":"way/31139694"},"geometry":{"type":"LineString","coordinates":[[12.54331,46.99063],[12.58046,46.98817]]}},{"type":"Feature","properties":{"kind":"lift","difficulty":null,"name":"Goldried II","aerialway":"chair_lift","osm":"way/31140157"},"geometry":{"type":"LineString","coordinates":[[12.56597,46.99633],[12.58065,46.98901]]}},{"type":"Feature","properties":{"kind":"lift","difficulty":null,"name":"Glocknerblick","aerialway":"t-bar","osm":"way/31140159"},"geometry":{"type":"LineString","coordinates":[[12.57654,46.99116],[12.58031,46.98963]]}},{"type":"Feature","properties":{"kind":"lift","difficulty":null,"name":"Landen","aerialway":"platter","osm":"way/31140160"},"geometry":{"type":"LineString","coordinates":[[12.57733,46.98945],[12.57877,46.98876],[12.58092,46.98833]]}},{"type":"Feature","properties":{"kind":"lift","difficulty":null,"name":"Cimaross","aerialway":"chair_lift","osm":"way/31140161"},"geometry":{"type":"LineString","coordinates":[[12.58179,46.99219],[12.59699,46.99179]]}},{"type":"Feature","properties":{"kind":"lift","difficulty":null,"name":"Kals I","aerialway":"gondola","osm":"way/31141019"},"geometry":{"type":"LineString","coordinates":[[12.64048,47.00591],[12.61073,46.99736]]}},{"type":"Feature","properties":{"kind":"lift","difficulty":null,"name":"Gamslift","aerialway":"platter","osm":"way/31141020"},"geometry":{"type":"LineString","coordinates":[[12.63528,47.0081],[12.63619,47.01116]]}},{"type":"Feature","properties":{"kind":"lift","difficulty":null,"name":"Blauspitz","aerialway":"chair_lift","osm":"way/48165767"},"geometry":{"type":"LineString","coordinates":[[12.62585,47.01309],[12.6066,47.01524]]}},{"type":"Feature","properties":{"kind":"lift","difficulty":null,"name":"Dorflift","aerialway":"platter","osm":"way/118385152"},"geometry":{"type":"LineString","coordinates":[[12.63883,47.00603],[12.634,47.00229]]}},{"type":"Feature","properties":{"kind":"lift","difficulty":null,"name":"Tembler","aerialway":"platter","osm":"way/258797089"},"geometry":{"type":"LineString","coordinates":[[12.63597,47.00068],[12.6248,47.00225]]}},{"type":"Feature","properties":{"kind":"lift","difficulty":null,"name":"Zauberteppich II","aerialway":"magic_carpet","osm":"way/343329007"},"geometry":{"type":"LineString","coordinates":[[12.5802,46.98764],[12.58063,46.98773]]}},{"type":"Feature","properties":{"kind":"lift","difficulty":null,"name":"Glocknerblick","aerialway":"chair_lift","osm":"way/723034998"},"geometry":{"type":"LineString","coordinates":[[12.63516,47.00748],[12.62,47.01174]]}},{"type":"Feature","properties":{"kind":"lift","difficulty":null,"name":"Zauberteppich","aerialway":"magic_carpet","osm":"way/1252523852"},"geometry":{"type":"LineString","coordinates":[[12.57978,46.98919],[12.57991,46.98914]]}},{"type":"Feature","properties":{"kind":"lift","difficulty":null,"name":"Happeck","aerialway":"chair_lift","osm":"way/1487027048"},"geometry":{"type":"LineString","coordinates":[[12.56677,47.00302],[12.57462,46.99221]]}},{"type":"Feature","properties":{"kind":"lift","difficulty":null,"name":"Kals II","aerialway":"gondola","osm":"way/1525838981"},"geometry":{"type":"LineString","coordinates":[[12.61073,46.99736],[12.59613,46.99276]]}}]}