{"type":"FeatureCollection","features":[{"type":"Feature","properties":{"kind":"piste","difficulty":"easy","name":"Hachauabfahrt","aerialway":null,"osm":"way/49225038"},"geometry":{"type":"LineString","coordinates":[[13.27294,47.30846],[13.27282,47.30861],[13.27257,47.30864],[13.27166,47.30834],[13.2705,47.30729],[13.26893,47.30654],[13.26849,47.30745]]}},{"type":"Feature","properties":{"kind":"piste","difficulty":"easy","name":"Sonntagskogel I","aerialway":null,"osm":"way/49225048"},"geometry":{"type":"LineString","coordinates":[[13.26356,47.3002],[13.26319,47.30009],[13.26244,47.30146],[13.26082,47.30558],[13.26167,47.30587],[13.26211,47.30632],[13.26256,47.30622]]}},{"type":"Feature","properties":{"kind":"piste","difficulty":"intermediate","name":"Sonntagskogel","aerialway":null,"osm":"way/49225060"},"geometry":{"type":"LineString","coordinates":[[13.25701,47.30198],[13.25708,47.30274],[13.25649,47.30363],[13.25626,47.30427]]}},{"type":"Feature","properties":{"kind":"piste","difficulty":"intermediate","name":"Spathkogelabfahrt","aerialway":null,"osm":"way/49225061"},"geometry":{"type":"LineString","coordinates":[[13.2671,47.30233],[13.2676,47.30232],[13.26812,47.30282],[13.26816,47.30379],[13.26832,47.30437],[13.26906,47.30584],[13.26893,47.30654]]}},{"type":"Feature","properties":{"kind":"piste","difficulty":"easy","name":"Skiweg Sonntagskogel","aerialway":null,"osm":"way/49225062"},"geometry":{"type":"LineString","coordinates":[[13.26893,47.30654],[13.26628,47.30625],[13.26565,47.3061],[13.2646,47.30561],[13.26397,47.30551],[13.26316,47.30548],[13.26192,47.30607]]}},{"type":"Feature","properties":{"kind":"piste","difficulty":"easy","name":null,"aerialway":null,"osm":"way/49245666"},"geometry":{"type":"LineString","coordinates":[[13.27283,47.30841],[13.27324,47.30872]]}},{"type":"Feature","properties":{"kind":"piste","difficulty":"easy","name":null,"aerialway":null,"osm":"way/120196136"},"geometry":{"type":"LineString","coordinates":[[13.26927,47.30898],[13.26973,47.30939],[13.27018,47.31025],[13.27046,47.31124],[13.27122,47.31211],[13.27187,47.31259],[13.27379,47.31327],[13.27403,47.31348],[13.27412,47.31398],[13.27441,47.31437],[13.27502,47.31467],[13.27527,47.31503],[13.27581,47.31508],[13.27726,47.31464],[13.27847,47.31463],[13.27954,47.31446],[13.28119,47.3145],[13.28387,47.31504]]}},{"type":"Feature","properties":{"kind":"piste","difficulty":"easy","name":"Kreisten Übungshang","aerialway":null,"osm":"way/125064165"},"geometry":{"type":"LineString","coordinates":[[13.2191,47.3192],[13.21961,47.31886],[13.21978,47.31852],[13.21979,47.31796]]}},{"type":"Feature","properties":{"kind":"piste","difficulty":"easy","name":"Sonntagskogel","aerialway":null,"osm":"way/125069813"},"geometry":{"type":"LineString","coordinates":[[13.25691,47.30192],[13.25701,47.30198]]}},{"type":"Feature","properties":{"kind":"piste","difficulty":"easy","name":"Sonntagskogel","aerialway":null,"osm":"way/125069815"},"geometry":{"type":"LineString","coordinates":[[13.25701,47.30198],[13.2579,47.30293],[13.25795,47.30303],[13.25779,47.30317],[13.25582,47.3025]]}},{"type":"Feature","properties":{"kind":"piste","difficulty":"intermediate","name":"Sonntagskogel II","aerialway":null,"osm":"way/125079863"},"geometry":{"type":"LineString","coordinates":[[13.25626,47.30427],[13.25699,47.30471],[13.26082,47.30558],[13.26106,47.30741],[13.26087,47.30768],[13.26058,47.30754]]}},{"type":"Feature","properties":{"kind":"piste","difficulty":"easy","name":"Sonntagskogel","aerialway":null,"osm":"way/173781915"},"geometry":{"type":"LineString","coordinates":[[13.25582,47.3025],[13.25484,47.30209],[13.2538,47.30131]]}},{"type":"Feature","properties":{"kind":"piste","difficulty":"easy","name":"Sonntagskogel I","aerialway":null,"osm":"way/253232930"},"geometry":{"type":"LineString","coordinates":[[13.26319,47.30009],[13.2627,47.29983],[13.26228,47.29977],[13.26158,47.30004],[13.26143,47.3004],[13.26151,47.30093],[13.26215,47.30232]]}},{"type":"Feature","properties":{"kind":"piste","difficulty":"intermediate","name":"Spathkogelabfahrt","aerialway":null,"osm":"way/253232938"},"geometry":{"type":"LineString","coordinates":[[13.26816,47.30379],[13.26675,47.30413],[13.26555,47.3041]]}},{"type":"Feature","properties":{"kind":"piste","difficulty":"advanced","name":"Hexenschuss","aerialway":null,"osm":"way/253232942"},"geometry":{"type":"LineString","coordinates":[[13.2387,47.30749],[13.23901,47.30705],[13.23883,47.30629]]}},{"type":"Feature","properties":{"kind":"piste","difficulty":"advanced","name":"Sonntagskogelbahn 1 Steilhang","aerialway":null,"osm":"way/253232943"},"geometry":{"type":"LineString","coordinates":[[13.2668,47.30222],[13.26642,47.30251],[13.26584,47.30373],[13.2654,47.3043],[13.26454,47.30473],[13.26386,47.30524],[13.26316,47.30548]]}},{"type":"Feature","properties":{"kind":"piste","difficulty":"easy","name":"Skiweg Sonntagskogel","aerialway":null,"osm":"way/392943115"},"geometry":{"type":"LineString","coordinates":[[13.25684,47.30143],[13.25852,47.30085],[13.25998,47.29978],[13.26074,47.29955]]}},{"type":"Feature","properties":{"kind":"piste","difficulty":"intermediate","name":"Sonntagskogel","aerialway":null,"osm":"way/392943121"},"geometry":{"type":"LineString","coordinates":[[13.25676,47.30324],[13.25494,47.30359]]}},{"type":"Feature","properties":{"kind":"piste","difficulty":"intermediate","name":"Sonntagskogel II","aerialway":null,"osm":"way/392943122"},"geometry":{"type":"LineString","coordinates":[[13.25802,47.30497],[13.25934,47.30638],[13.26074,47.3072],[13.26099,47.30762]]}},{"type":"Feature","properties":{"kind":"piste","difficulty":"easy","name":"Übungshang Grafenberg","aerialway":null,"osm":"way/449539135"},"geometry":{"type":"LineString","coordinates":[[13.27342,47.30929],[13.27392,47.30945],[13.2741,47.30975]]}},{"type":"Feature","properties":{"kind":"piste","difficulty":"easy","name":"Verbindung Gernkogel - blaue Abfahrt","aerialway":null,"osm":"way/449867119"},"geometry":{"type":"LineString","coordinates":[[13.22398,47.31],[13.22441,47.31091]]}},{"type":"Feature","properties":{"kind":"piste","difficulty":"easy","name":null,"aerialway":null,"osm":"way/547259395"},"geometry":{"type":"LineString","coordinates":[[13.22631,47.31311],[13.22733,47.31318]]}},{"type":"Feature","properties":{"kind":"piste","difficulty":"easy","name":null,"aerialway":null,"osm":"way/1053039617"},"geometry":{"type":"LineString","coordinates":[[13.21979,47.31804],[13.21974,47.31799]]}},{"type":"Feature","properties":{"kind":"piste","difficulty":"easy","name":null,"aerialway":null,"osm":"way/1053039618"},"geometry":{"type":"LineString","coordinates":[[13.21979,47.31796],[13.21974,47.31799]]}},{"type":"Feature","properties":{"kind":"piste","difficulty":"intermediate","name":"Sonntagskogel","aerialway":null,"osm":"way/1073992769"},"geometry":{"type":"LineString","coordinates":[[13.25737,47.30214],[13.25701,47.30198]]}},{"type":"Feature","properties":{"kind":"piste","difficulty":"easy","name":"Übungsgelände Obergassalm","aerialway":null,"osm":"way/1157486078"},"geometry":{"type":"LineString","coordinates":[[13.22606,47.30944],[13.2261,47.30934]]}},{"type":"Feature","properties":{"kind":"piste","difficulty":"advanced","name":"Stegbach \"Schlangengrube\"","aerialway":null,"osm":"way/1157486089"},"geometry":{"type":"LineString","coordinates":[[13.23471,47.30238],[13.23177,47.30226],[13.22985,47.30251],[13.22819,47.30302]]}},{"type":"Feature","properties":{"kind":"piste","difficulty":"easy","name":null,"aerialway":null,"osm":"way/1157486091"},"geometry":{"type":"LineString","coordinates":[[13.24103,47.30349],[13.24125,47.30321],[13.24212,47.30304]]}},{"type":"Feature","properties":{"kind":"piste","difficulty":"easy","name":"Funpark","aerialway":null,"osm":"way/1157486092"},"geometry":{"type":"LineString","coordinates":[[13.23811,47.30261],[13.23828,47.30195],[13.23846,47.30176],[13.23872,47.30163],[13.23961,47.30156],[13.24018,47.30163],[13.24258,47.30241],[13.24501,47.30293],[13.24603,47.30331]]}},{"type":"Feature","properties":{"kind":"piste","difficulty":"easy","name":"Funpark","aerialway":null,"osm":"way/1157486093"},"geometry":{"type":"LineString","coordinates":[[13.24466,47.30285],[13.24533,47.30399]]}},{"type":"Feature","properties":{"kind":"piste","difficulty":"easy","name":"Skiweg Sonntagskogel","aerialway":null,"osm":"way/1157486098"},"geometry":{"type":"LineString","coordinates":[[13.26074,47.29955],[13.26115,47.29966],[13.26158,47.30004]]}},{"type":"Feature","properties":{"kind":"piste","difficulty":"easy","name":"Skiweg Sonntagskogel","aerialway":null,"osm":"way/1157486099"},"geometry":{"type":"LineString","coordinates":[[13.25686,47.30189],[13.25661,47.30164]]}},{"type":"Feature","properties":{"kind":"piste","difficulty":"easy","name":"Skiweg Sonntagskogel","aerialway":null,"osm":"way/1157486100"},"geometry":{"type":"LineString","coordinates":[[13.25661,47.30164],[13.25684,47.30143]]}},{"type":"Feature","properties":{"kind":"piste","difficulty":"easy","name":"Sonntagskogel","aerialway":null,"osm":"way/1157486103"},"geometry":{"type":"LineString","coordinates":[[13.25686,47.30189],[13.25691,47.30192]]}},{"type":"Feature","properties":{"kind":"piste","difficulty":"easy","name":"Sonntagskogel I","aerialway":null,"osm":"way/1157486115"},"geometry":{"type":"LineString","coordinates":[[13.26718,47.30227],[13.26657,47.30217],[13.26556,47.30114],[13.26401,47.30053],[13.26356,47.3002]]}},{"type":"Feature","properties":{"kind":"piste","difficulty":"easy","name":"Sonntagskogel I","aerialway":null,"osm":"way/1157486116"},"geometry":{"type":"LineString","coordinates":[[13.26556,47.30114],[13.26512,47.30044],[13.26454,47.29983],[13.26391,47.29972],[13.26319,47.30009]]}},{"type":"Feature","properties":{"kind":"piste","difficulty":"easy","name":"Skiweg Sonntagskogel","aerialway":null,"osm":"way/1157486126"},"geometry":{"type":"LineString","coordinates":[[13.26192,47.30607],[13.26148,47.30642],[13.26106,47.30741]]}},{"type":"Feature","properties":{"kind":"piste","difficulty":"intermediate","name":"Speed Check","aerialway":null,"osm":"way/1396209171"},"geometry":{"type":"LineString","coordinates":[[13.23052,47.30988],[13.22831,47.31012]]}},{"type":"Feature","properties":{"kind":"piste","difficulty":"easy","name":null,"aerialway":null,"osm":"way/1396209172"},"geometry":{"type":"LineString","coordinates":[[13.23141,47.30836],[13.23126,47.30892],[13.23226,47.30983],[13.23234,47.31005]]}},{"type":"Feature","properties":{"kind":"piste","difficulty":"easy","name":null,"aerialway":null,"osm":"way/1396209173"},"geometry":{"type":"LineString","coordinates":[[13.22831,47.31012],[13.22703,47.31001]]}},{"type":"Feature","properties":{"kind":"piste","difficulty":"intermediate","name":"Abfahrt Grafenberg","aerialway":null,"osm":"way/1558572107"},"geometry":{"type":"LineString","coordinates":[[13.27384,47.30883],[13.27365,47.30869],[13.27324,47.30872],[13.27306,47.30912],[13.27317,47.3094]]}},{"type":"Feature","properties":{"kind":"piste","difficulty":"easy","name":"Hachauabfahrt","aerialway":null,"osm":"way/1558760771"},"geometry":{"type":"LineString","coordinates":[[13.27324,47.30872],[13.27257,47.30864]]}},{"type":"Feature","properties":{"kind":"piste","difficulty":"easy","name":null,"aerialway":null,"osm":"way/1558802661"},"geometry":{"type":"LineString","coordinates":[[13.26886,47.3076],[13.26864,47.3082],[13.26927,47.30898]]}},{"type":"Feature","properties":{"kind":"piste","difficulty":"easy","name":"Skiroute Hachau","aerialway":null,"osm":"way/1558802662"},"geometry":{"type":"LineString","coordinates":[[13.26893,47.30654],[13.26897,47.30733],[13.26886,47.3076]]}},{"type":"Feature","properties":{"kind":"piste","difficulty":"unknown","name":"Talabfahrt","aerialway":null,"osm":"relation/1702681"},"geometry":{"type":"MultiLineString","coordinates":[[[13.21954,47.31666],[13.21977,47.31662],[13.2203,47.31695]],[[13.2203,47.31695],[13.21939,47.31712],[13.21706,47.31723],[13.21549,47.31712],[13.21276,47.31669],[13.21124,47.31667],[13.21031,47.31682]],[[13.2022,47.31996],[13.20098,47.32114],[13.20111,47.32177]],[[13.20111,47.32177],[13.19963,47.32273],[13.1987,47.32309],[13.19813,47.32316],[13.19698,47.32295],[13.19664,47.32272],[13.1963,47.32165]],[[13.20636,47.31812],[13.20601,47.31841],[13.20564,47.31906],[13.20522,47.31937],[13.20444,47.31959],[13.20271,47.31968],[13.2022,47.31996]],[[13.21031,47.31682],[13.20883,47.31732],[13.20738,47.3176],[13.20664,47.31788],[13.20636,47.31812]],[[13.19541,47.32153],[13.19546,47.32183],[13.19523,47.32178]],[[13.19539,47.3214],[13.19541,47.32153]],[[13.19572,47.32131],[13.19548,47.32111],[13.19539,47.3214]],[[13.1963,47.32165],[13.19572,47.32131]],[[13.21031,47.31682],[13.20883,47.31732],[13.20738,47.3176],[13.20664,47.31788],[13.20636,47.31812]],[[13.20636,47.31812],[13.20601,47.31841],[13.20564,47.31906],[13.20522,47.31937],[13.20444,47.31959],[13.20271,47.31968],[13.2022,47.31996]],[[13.20636,47.31812],[13.20601,47.31841],[13.20564,47.31906],[13.20522,47.31937],[13.20444,47.31959],[13.20271,47.31968],[13.2022,47.31996]],[[13.21031,47.31682],[13.20883,47.31732],[13.20738,47.3176],[13.20664,47.31788],[13.20636,47.31812]],[[13.21031,47.31682],[13.20883,47.31732],[13.20738,47.3176],[13.20664,47.31788],[13.20636,47.31812]],[[13.20636,47.31812],[13.20601,47.31841],[13.20564,47.31906],[13.20522,47.31937],[13.20444,47.31959],[13.20271,47.31968],[13.2022,47.31996]],[[13.2022,47.31996],[13.20074,47.31973],[13.20026,47.3198],[13.20014,47.31996],[13.20017,47.3204],[13.20098,47.32114]],[[13.20098,47.32114],[13.19795,47.32203],[13.1973,47.32173],[13.196,47.3214]],[[13.19539,47.3214],[13.19529,47.32144]],[[13.2022,47.31996],[13.20098,47.32114],[13.20111,47.32177]],[[13.20111,47.32177],[13.19963,47.32273],[13.1987,47.32309],[13.19813,47.32316],[13.19698,47.32295],[13.19664,47.32272],[13.1963,47.32165]],[[13.22635,47.31231],[13.22873,47.31236]],[[13.22873,47.31236],[13.22888,47.3126],[13.22883,47.31276],[13.22792,47.31332]],[[13.22635,47.31231],[13.22735,47.31275],[13.22792,47.31332]],[[13.22557,47.31206],[13.22635,47.31231]],[[13.22792,47.31332],[13.22785,47.31379]],[[13.22785,47.31379],[13.22868,47.31515],[13.22906,47.31549],[13.23016,47.31577],[13.2302,47.31587],[13.22723,47.3162],[13.22634,47.31644],[13.2256,47.31636]],[[13.2256,47.31636],[13.22443,47.31615],[13.22376,47.31637],[13.2203,47.31695]],[[13.22785,47.31379],[13.22689,47.31503],[13.22683,47.31627]]]}},{"type":"Feature","properties":{"kind":"piste","difficulty":"intermediate","name":"Gernkogel 2. Sektion","aerialway":null,"osm":"relation/1702683"},"geometry":{"type":"MultiLineString","coordinates":[[[13.22389,47.31101],[13.22441,47.31091],[13.22455,47.31162],[13.22557,47.31206],[13.2256,47.3122],[13.22539,47.31243],[13.22558,47.31245]],[[13.23575,47.30878],[13.23491,47.30826]],[[13.23639,47.30849],[13.23617,47.30876],[13.23575,47.30878]],[[13.23639,47.30849],[13.23566,47.30815]],[[13.23566,47.30815],[13.23389,47.30837],[13.23287,47.30823],[13.23141,47.30836],[13.22837,47.30898],[13.22703,47.31001]],[[13.22703,47.31001],[13.22606,47.31022],[13.22441,47.31091]],[[13.23838,47.30768],[13.23833,47.30747]],[[13.23833,47.30747],[13.23799,47.30773],[13.23649,47.30787],[13.23607,47.30819],[13.23566,47.30815]],[[13.23546,47.30779],[13.2352,47.30821]],[[13.23599,47.30791],[13.23546,47.30779]],[[13.23592,47.30804],[13.23602,47.30795]],[[13.23602,47.30795],[13.23599,47.30791]],[[13.22501,47.31062],[13.2256,47.31112],[13.22572,47.31137],[13.22557,47.31206]],[[13.22703,47.31001],[13.22619,47.31136],[13.22557,47.31206]],[[13.23389,47.30837],[13.23333,47.3087],[13.23326,47.30932],[13.23296,47.30977],[13.23234,47.31005],[13.23101,47.31],[13.22983,47.30971],[13.22703,47.31001]],[[13.23627,47.30804],[13.23639,47.30849]],[[13.23592,47.30804],[13.23627,47.30804]],[[13.23687,47.30766],[13.23649,47.30787],[13.23559,47.30779]],[[13.23797,47.30748],[13.23687,47.30766]],[[13.23909,47.3075],[13.23797,47.30748]]]}},{"type":"Feature","properties":{"kind":"piste","difficulty":"intermediate","name":"Gipfelbahn Buchau","aerialway":null,"osm":"relation/1702684"},"geometry":{"type":"MultiLineString","coordinates":[[[13.24091,47.32622],[13.24058,47.32613]],[[13.23738,47.32235],[13.23907,47.32263],[13.23989,47.3231],[13.24068,47.32416],[13.24103,47.32545],[13.24091,47.32622]],[[13.22792,47.31332],[13.22854,47.31383],[13.23019,47.31421],[13.23065,47.31452],[13.23235,47.31453],[13.23414,47.31541],[13.2367,47.31697],[13.23694,47.31749],[13.23673,47.31887],[13.23746,47.31976],[13.23766,47.32031],[13.23738,47.32235]],[[13.22792,47.31332],[13.22854,47.31383],[13.23019,47.31421],[13.23065,47.31452],[13.23235,47.31453],[13.23414,47.31541],[13.2367,47.31697],[13.23694,47.31749],[13.23673,47.31887],[13.23746,47.31976],[13.23766,47.32031],[13.23738,47.32235]],[[13.23738,47.32235],[13.23907,47.32263],[13.23989,47.3231],[13.24068,47.32416],[13.24103,47.32545],[13.24091,47.32622]],[[13.23296,47.30977],[13.23291,47.31082],[13.23302,47.31123],[13.23328,47.31151],[13.2351,47.31205],[13.23587,47.31271],[13.23604,47.31305],[13.23583,47.31334],[13.23384,47.31381],[13.2331,47.31387],[13.23242,47.31434],[13.23235,47.31453]],[[13.23389,47.30837],[13.23333,47.3087],[13.23326,47.30932],[13.23296,47.30977],[13.23234,47.31005],[13.23101,47.31],[13.22983,47.30971],[13.22703,47.31001]],[[13.22703,47.31001],[13.22619,47.31136],[13.22557,47.31206]],[[13.23566,47.30815],[13.23389,47.30837],[13.23287,47.30823],[13.23141,47.30836],[13.22837,47.30898],[13.22703,47.31001]],[[13.22703,47.31001],[13.22606,47.31022],[13.22441,47.31091]],[[13.23833,47.30747],[13.23799,47.30773],[13.23649,47.30787],[13.23607,47.30819],[13.23566,47.30815]],[[13.23566,47.30815],[13.23546,47.30779]],[[13.23546,47.30779],[13.23558,47.30759],[13.23816,47.30648]],[[13.23816,47.30648],[13.23883,47.30629],[13.24073,47.30514],[13.24199,47.30458],[13.24296,47.30439],[13.24485,47.30446],[13.24617,47.30435]],[[13.23838,47.30768],[13.23833,47.30747]]]}},{"type":"Feature","properties":{"kind":"piste","difficulty":"easy","name":"Skiweg Kreistenalm-Gipfelbahn","aerialway":null,"osm":"relation/1702686"},"geometry":{"type":"MultiLineString","coordinates":[[[13.24091,47.32622],[13.24058,47.32613]],[[13.23738,47.32235],[13.23725,47.32328],[13.23731,47.32371],[13.23771,47.32429],[13.23861,47.32512],[13.24005,47.32612],[13.24064,47.32636],[13.24082,47.32636],[13.24091,47.32622]],[[13.23642,47.32228],[13.23729,47.32296]],[[13.22494,47.31842],[13.22547,47.31842],[13.22672,47.3192],[13.22795,47.31961],[13.22897,47.31936],[13.23003,47.32003],[13.23105,47.31989],[13.23302,47.32051],[13.23475,47.32045],[13.23545,47.32084],[13.23612,47.32201],[13.23642,47.32228]],[[13.2203,47.31695],[13.22198,47.31729],[13.22417,47.31826],[13.22494,47.31842]],[[13.21979,47.31796],[13.21996,47.31783],[13.2203,47.31695]]]}},{"type":"Feature","properties":{"kind":"piste","difficulty":"easy","name":"Übungsgelände Obergaßalm","aerialway":null,"osm":"relation/1702687"},"geometry":{"type":"MultiLineString","coordinates":[[[13.22959,47.30818],[13.229,47.30869],[13.22837,47.30898],[13.22711,47.30937],[13.22606,47.30944],[13.22575,47.30977]],[[13.22575,47.30977],[13.22511,47.31006],[13.22445,47.31012],[13.22398,47.31]]]}},{"type":"Feature","properties":{"kind":"piste","difficulty":"easy","name":"Übungshang Obergaßalm","aerialway":null,"osm":"relation/1702688"},"geometry":{"type":"LineString","coordinates":[[13.22575,47.30977],[13.22511,47.31006],[13.22445,47.31012],[13.22398,47.31]]}},{"type":"Feature","properties":{"kind":"piste","difficulty":"intermediate","name":"Hirschkogel","aerialway":null,"osm":"relation/1702794"},"geometry":{"type":"MultiLineString","coordinates":[[[13.23809,47.30278],[13.23827,47.30245],[13.23864,47.30234],[13.24011,47.30238],[13.24258,47.30324],[13.24561,47.30408],[13.24617,47.30435],[13.24783,47.30435],[13.24833,47.30443],[13.24885,47.30472],[13.24945,47.30474],[13.25057,47.30529],[13.25096,47.30564]],[[13.23829,47.30282],[13.23809,47.30278]],[[13.23809,47.30278],[13.23827,47.30245],[13.23864,47.30234],[13.24011,47.30238],[13.24258,47.30324],[13.24561,47.30408],[13.24617,47.30435],[13.24783,47.30435],[13.24833,47.30443],[13.24885,47.30472],[13.24945,47.30474],[13.25057,47.30529],[13.25096,47.30564]],[[13.23809,47.30278],[13.23827,47.30245],[13.23864,47.30234],[13.24011,47.30238],[13.24258,47.30324],[13.24561,47.30408],[13.24617,47.30435],[13.24783,47.30435],[13.24833,47.30443],[13.24885,47.30472],[13.24945,47.30474],[13.25057,47.30529],[13.25096,47.30564]],[[13.23809,47.30278],[13.23827,47.30245],[13.23864,47.30234],[13.24011,47.30238],[13.24258,47.30324],[13.24561,47.30408],[13.24617,47.30435],[13.24783,47.30435],[13.24833,47.30443],[13.24885,47.30472],[13.24945,47.30474],[13.25057,47.30529],[13.25096,47.30564]],[[13.24979,47.30507],[13.24867,47.30521]],[[13.23809,47.30278],[13.23827,47.30245],[13.23864,47.30234],[13.24011,47.30238],[13.24258,47.30324],[13.24561,47.30408],[13.24617,47.30435],[13.24783,47.30435],[13.24833,47.30443],[13.24885,47.30472],[13.24945,47.30474],[13.25057,47.30529],[13.25096,47.30564]],[[13.24979,47.30507],[13.24869,47.30537]],[[13.25096,47.30564],[13.25126,47.30575]]]}},{"type":"Feature","properties":{"kind":"piste","difficulty":"easy","name":"Hirschkogel","aerialway":null,"osm":"relation/1702795"},"geometry":{"type":"MultiLineString","coordinates":[[[13.23829,47.30282],[13.23809,47.30278]],[[13.23809,47.30278],[13.23827,47.30245],[13.23864,47.30234],[13.24011,47.30238],[13.24258,47.30324],[13.24561,47.30408],[13.24617,47.30435],[13.24783,47.30435],[13.24833,47.30443],[13.24885,47.30472],[13.24945,47.30474],[13.25057,47.30529],[13.25096,47.30564]],[[13.23809,47.30278],[13.23827,47.30245],[13.23864,47.30234],[13.24011,47.30238],[13.24258,47.30324],[13.24561,47.30408],[13.24617,47.30435],[13.24783,47.30435],[13.24833,47.30443],[13.24885,47.30472],[13.24945,47.30474],[13.25057,47.30529],[13.25096,47.30564]],[[13.23809,47.30278],[13.23827,47.30245],[13.23864,47.30234],[13.24011,47.30238],[13.24258,47.30324],[13.24561,47.30408],[13.24617,47.30435],[13.24783,47.30435],[13.24833,47.30443],[13.24885,47.30472],[13.24945,47.30474],[13.25057,47.30529],[13.25096,47.30564]],[[13.24603,47.30331],[13.24663,47.30358],[13.24733,47.30368]],[[13.24804,47.30364],[13.24895,47.30375],[13.24945,47.30474]],[[13.23809,47.30278],[13.23827,47.30245],[13.23864,47.30234],[13.24011,47.30238],[13.24258,47.30324],[13.24561,47.30408],[13.24617,47.30435],[13.24783,47.30435],[13.24833,47.30443],[13.24885,47.30472],[13.24945,47.30474],[13.25057,47.30529],[13.25096,47.30564]],[[13.24733,47.30368],[13.24804,47.30364]],[[13.24979,47.30507],[13.24867,47.30521]],[[13.24979,47.30507],[13.24869,47.30537]],[[13.25096,47.30564],[13.25126,47.30575]],[[13.23809,47.30278],[13.23827,47.30245],[13.23864,47.30234],[13.24011,47.30238],[13.24258,47.30324],[13.24561,47.30408],[13.24617,47.30435],[13.24783,47.30435],[13.24833,47.30443],[13.24885,47.30472],[13.24945,47.30474],[13.25057,47.30529],[13.25096,47.30564]]]}},{"type":"Feature","properties":{"kind":"piste","difficulty":"intermediate","name":"Hirschkogel","aerialway":null,"osm":"relation/1702796"},"geometry":{"type":"MultiLineString","coordinates":[[[13.23566,47.30815],[13.23546,47.30779]],[[13.23833,47.30747],[13.23799,47.30773],[13.23649,47.30787],[13.23607,47.30819],[13.23566,47.30815]],[[13.23816,47.30648],[13.23883,47.30629],[13.24073,47.30514],[13.24199,47.30458],[13.24296,47.30439],[13.24485,47.30446],[13.24617,47.30435]],[[13.23546,47.30779],[13.23558,47.30759],[13.23816,47.30648]],[[13.23816,47.30648],[13.23883,47.30629],[13.24073,47.30514],[13.24199,47.30458],[13.24296,47.30439],[13.24485,47.30446],[13.24617,47.30435]],[[13.24979,47.30507],[13.24869,47.30537]],[[13.23838,47.30768],[13.23833,47.30747]],[[13.23844,47.30337],[13.24014,47.3042],[13.24126,47.30452],[13.24199,47.30458],[13.24313,47.30406],[13.24472,47.30381]],[[13.23809,47.30278],[13.23844,47.30337]],[[13.23816,47.30648],[13.23883,47.30629],[13.24073,47.30514],[13.24199,47.30458],[13.24296,47.30439],[13.24485,47.30446],[13.24617,47.30435]],[[13.23809,47.30278],[13.23827,47.30245],[13.23864,47.30234],[13.24011,47.30238],[13.24258,47.30324],[13.24561,47.30408],[13.24617,47.30435],[13.24783,47.30435],[13.24833,47.30443],[13.24885,47.30472],[13.24945,47.30474],[13.25057,47.30529],[13.25096,47.30564]],[[13.24979,47.30507],[13.24867,47.30521]],[[13.23809,47.30278],[13.23827,47.30245],[13.23864,47.30234],[13.24011,47.30238],[13.24258,47.30324],[13.24561,47.30408],[13.24617,47.30435],[13.24783,47.30435],[13.24833,47.30443],[13.24885,47.30472],[13.24945,47.30474],[13.25057,47.30529],[13.25096,47.30564]],[[13.25096,47.30564],[13.25126,47.30575]]]}},{"type":"Feature","properties":{"kind":"piste","difficulty":"easy","name":"Hirschkogel","aerialway":null,"osm":"relation/1702797"},"geometry":{"type":"MultiLineString","coordinates":[[[13.23838,47.30768],[13.23833,47.30747]],[[13.23833,47.30747],[13.23799,47.30773],[13.23649,47.30787],[13.23607,47.30819],[13.23566,47.30815]],[[13.23566,47.30815],[13.23546,47.30779]],[[13.23546,47.30779],[13.23558,47.30759],[13.23816,47.30648]],[[13.23816,47.30648],[13.23883,47.30629],[13.24073,47.30514],[13.24199,47.30458],[13.24296,47.30439],[13.24485,47.30446],[13.24617,47.30435]],[[13.23816,47.30648],[13.23883,47.30629],[13.24073,47.30514],[13.24199,47.30458],[13.24296,47.30439],[13.24485,47.30446],[13.24617,47.30435]],[[13.23845,47.30636],[13.23901,47.3059],[13.24007,47.30427],[13.24103,47.30349]],[[13.23816,47.30648],[13.23845,47.30636]],[[13.23889,47.30438],[13.23897,47.30493],[13.23889,47.30544],[13.23816,47.30648]],[[13.23874,47.30398],[13.23889,47.30438]],[[13.23844,47.30337],[13.23874,47.30398]],[[13.23816,47.30648],[13.23883,47.30629],[13.24073,47.30514],[13.24199,47.30458],[13.24296,47.30439],[13.24485,47.30446],[13.24617,47.30435]],[[13.23809,47.30278],[13.23844,47.30337]],[[13.23829,47.30282],[13.23809,47.30278]],[[13.23809,47.30278],[13.23827,47.30245],[13.23864,47.30234],[13.24011,47.30238],[13.24258,47.30324],[13.24561,47.30408],[13.24617,47.30435],[13.24783,47.30435],[13.24833,47.30443],[13.24885,47.30472],[13.24945,47.30474],[13.25057,47.30529],[13.25096,47.30564]],[[13.23809,47.30278],[13.23827,47.30245],[13.23864,47.30234],[13.24011,47.30238],[13.24258,47.30324],[13.24561,47.30408],[13.24617,47.30435],[13.24783,47.30435],[13.24833,47.30443],[13.24885,47.30472],[13.24945,47.30474],[13.25057,47.30529],[13.25096,47.30564]],[[13.24979,47.30507],[13.24867,47.30521]],[[13.24979,47.30507],[13.24869,47.30537]],[[13.25096,47.30564],[13.25126,47.30575]]]}},{"type":"Feature","properties":{"kind":"piste","difficulty":"advanced","name":"Stegbach","aerialway":null,"osm":"relation/1702798"},"geometry":{"type":"MultiLineString","coordinates":[[[13.23809,47.30278],[13.23678,47.30198],[13.23588,47.30197],[13.23471,47.30238],[13.23409,47.3029],[13.23255,47.30319],[13.23109,47.30327],[13.22712,47.30302],[13.22618,47.30309],[13.22541,47.30347]],[[13.23829,47.30282],[13.23809,47.30278]]]}},{"type":"Feature","properties":{"kind":"piste","difficulty":"advanced","name":"Stegbach","aerialway":null,"osm":"relation/1702799"},"geometry":{"type":"MultiLineString","coordinates":[[[13.23809,47.30278],[13.23791,47.30295],[13.23799,47.30314],[13.23844,47.30337]],[[13.23844,47.30337],[13.23874,47.30398]],[[13.23874,47.30398],[13.23889,47.30438]],[[13.23889,47.30438],[13.23897,47.30493],[13.23889,47.30544],[13.23816,47.30648]],[[13.23816,47.30648],[13.23673,47.30637],[13.23562,47.30604],[13.23532,47.30582],[13.23477,47.30431],[13.23453,47.30398],[13.23341,47.30357],[13.23094,47.30356],[13.22873,47.3038],[13.22645,47.30386],[13.22542,47.30367],[13.22541,47.30347]],[[13.22541,47.30347],[13.22547,47.30362]]]}},{"type":"Feature","properties":{"kind":"piste","difficulty":"intermediate","name":"Sonntagskogel","aerialway":null,"osm":"relation/1702843"},"geometry":{"type":"MultiLineString","coordinates":[[[13.25677,47.302],[13.25691,47.30192]],[[13.25686,47.30189],[13.25555,47.30185],[13.25182,47.30104],[13.25057,47.30093],[13.24936,47.30102],[13.24916,47.30144],[13.24989,47.30257],[13.25039,47.30377],[13.25021,47.30508]],[[13.25626,47.30427],[13.25535,47.30371],[13.25425,47.30349]],[[13.25425,47.30349],[13.25342,47.30322],[13.25196,47.30228],[13.25168,47.3023],[13.25015,47.30307],[13.2513,47.30366],[13.25167,47.30422],[13.25165,47.30472],[13.25104,47.30523],[13.25096,47.30564]],[[13.25096,47.30564],[13.25126,47.30575]],[[13.25104,47.30523],[13.24979,47.30507]],[[13.24979,47.30507],[13.24867,47.30521]],[[13.24979,47.30507],[13.24869,47.30537]]]}},{"type":"Feature","properties":{"kind":"piste","difficulty":"advanced","name":"Sonntagskogel","aerialway":null,"osm":"relation/1702844"},"geometry":{"type":"MultiLineString","coordinates":[[[13.25626,47.30427],[13.25563,47.30453],[13.25382,47.30475],[13.25304,47.30504],[13.25138,47.30503]],[[13.25626,47.30427],[13.25535,47.30371],[13.25425,47.30349]],[[13.25425,47.30349],[13.25342,47.30322],[13.25196,47.30228],[13.25168,47.3023],[13.25015,47.30307],[13.2513,47.30366],[13.25167,47.30422],[13.25165,47.30472],[13.25104,47.30523],[13.25096,47.30564]],[[13.25096,47.30564],[13.25126,47.30575]],[[13.25104,47.30523],[13.24979,47.30507]],[[13.24979,47.30507],[13.24867,47.30521]],[[13.24979,47.30507],[13.24869,47.30537]]]}},{"type":"Feature","properties":{"kind":"lift","difficulty":null,"name":"Alpendorf Gondelbahn","aerialway":"gondola","osm":"way/22912867"},"geometry":{"type":"LineString","coordinates":[[13.19527,47.32127],[13.22353,47.31115]]}},{"type":"Feature","properties":{"kind":"lift","difficulty":null,"name":"Stegbachlift","aerialway":"t-bar","osm":"way/22912868"},"geometry":{"type":"LineString","coordinates":[[13.22547,47.30362],[13.23858,47.30311]]}},{"type":"Feature","properties":{"kind":"lift","difficulty":null,"name":"Sonntagskogelbahn III","aerialway":"chair_lift","osm":"way/22912870"},"geometry":{"type":"LineString","coordinates":[[13.25126,47.30575],[13.25677,47.302]]}},{"type":"Feature","properties":{"kind":"lift","difficulty":null,"name":"Sonntagskogelbahn I","aerialway":"chair_lift","osm":"way/22912873"},"geometry":{"type":"LineString","coordinates":[[13.26256,47.30622],[13.2671,47.30233]]}},{"type":"Feature","properties":{"kind":"lift","difficulty":null,"name":"Hachau-Bahn","aerialway":"chair_lift","osm":"way/22912882"},"geometry":{"type":"LineString","coordinates":[[13.26849,47.30745],[13.27283,47.30841]]}},{"type":"Feature","properties":{"kind":"lift","difficulty":null,"name":"Sonntagskogelbahn II","aerialway":"chair_lift","osm":"way/49225040"},"geometry":{"type":"LineString","coordinates":[[13.26058,47.30754],[13.25737,47.30214]]}},{"type":"Feature","properties":{"kind":"lift","difficulty":null,"name":"Gernkogelbahn","aerialway":"chair_lift","osm":"way/49225051"},"geometry":{"type":"LineString","coordinates":[[13.19723,47.32269],[13.21954,47.31666]]}},{"type":"Feature","properties":{"kind":"lift","difficulty":null,"name":"Hirschkogelbahn","aerialway":"chair_lift","osm":"way/49225057"},"geometry":{"type":"LineString","coordinates":[[13.24867,47.30521],[13.23829,47.30282]]}},{"type":"Feature","properties":{"kind":"lift","difficulty":null,"name":"Tellerlift Obergassalm","aerialway":"platter","osm":"way/118144053"},"geometry":{"type":"LineString","coordinates":[[13.2261,47.30934],[13.22971,47.30813]]}},{"type":"Feature","properties":{"kind":"lift","difficulty":null,"name":"Übungslift Obergassalm","aerialway":"rope_tow","osm":"way/125064134"},"geometry":{"type":"LineString","coordinates":[[13.22398,47.31],[13.22575,47.30977]]}},{"type":"Feature","properties":{"kind":"lift","difficulty":null,"name":"Buchaubahn","aerialway":"gondola","osm":"way/143370523"},"geometry":{"type":"LineString","coordinates":[[13.24058,47.32613],[13.23838,47.30768]]}},{"type":"Feature","properties":{"kind":"lift","difficulty":null,"name":"Obergassalmbahn","aerialway":"chair_lift","osm":"way/253232925"},"geometry":{"type":"LineString","coordinates":[[13.22558,47.31245],[13.23592,47.30804]]}},{"type":"Feature","properties":{"kind":"lift","difficulty":null,"name":"Straßalmbahn","aerialway":"chair_lift","osm":"way/253232926"},"geometry":{"type":"LineString","coordinates":[[13.24869,47.30537],[13.23909,47.3075]]}},{"type":"Feature","properties":{"kind":"lift","difficulty":null,"name":"Übungslift Grafenberg","aerialway":"magic_carpet","osm":"way/449539136"},"geometry":{"type":"LineString","coordinates":[[13.2741,47.30975],[13.27342,47.30929]]}},{"type":"Feature","properties":{"kind":"lift","difficulty":null,"name":"Tellerlift Kreisten","aerialway":"platter","osm":"way/463742199"},"geometry":{"type":"LineString","coordinates":[[13.21974,47.31799],[13.21894,47.3195]]}},{"type":"Feature","properties":{"kind":"lift","difficulty":null,"name":"Grafenberglift","aerialway":"t-bar","osm":"way/1558568450"},"geometry":{"type":"LineString","coordinates":[[13.28444,47.31485],[13.27319,47.30919]]}}]}