{"type":"FeatureCollection","features":[{"type":"Feature","properties":{"kind":"piste","difficulty":"intermediate","name":null,"aerialway":null,"osm":"way/49224217"},"geometry":{"type":"LineString","coordinates":[[9.88695,47.32234],[9.88708,47.32241],[9.88716,47.32289],[9.88679,47.32345],[9.8865,47.32454],[9.88636,47.32592],[9.88685,47.32797],[9.8866,47.32829],[9.88627,47.32832]]}},{"type":"Feature","properties":{"kind":"piste","difficulty":"novice","name":null,"aerialway":null,"osm":"way/49224220"},"geometry":{"type":"LineString","coordinates":[[9.88894,47.34656],[9.8891,47.3466],[9.88922,47.34707],[9.88926,47.34736],[9.88914,47.34741]]}},{"type":"Feature","properties":{"kind":"piste","difficulty":"intermediate","name":null,"aerialway":null,"osm":"way/49272443"},"geometry":{"type":"LineString","coordinates":[[9.88737,47.32064],[9.88629,47.32077],[9.88641,47.32131]]}},{"type":"Feature","properties":{"kind":"piste","difficulty":"intermediate","name":null,"aerialway":null,"osm":"way/49272451"},"geometry":{"type":"LineString","coordinates":[[9.8661,47.32242],[9.86846,47.32196],[9.87002,47.3233],[9.87077,47.32341],[9.87202,47.32308],[9.87338,47.32175],[9.87373,47.32161],[9.8742,47.32162],[9.87678,47.32261],[9.87759,47.32315],[9.87829,47.32381],[9.8804,47.32525],[9.88099,47.32549]]}},{"type":"Feature","properties":{"kind":"piste","difficulty":"intermediate","name":null,"aerialway":null,"osm":"way/49272452"},"geometry":{"type":"LineString","coordinates":[[9.86617,47.32243],[9.8659,47.32244],[9.86571,47.32261],[9.86554,47.32335],[9.86613,47.32395],[9.86758,47.32476],[9.86952,47.32484],[9.87312,47.32585],[9.87614,47.32621],[9.88063,47.32559]]}},{"type":"Feature","properties":{"kind":"piste","difficulty":"easy","name":null,"aerialway":null,"osm":"way/49272456"},"geometry":{"type":"LineString","coordinates":[[9.86991,47.32319],[9.87095,47.32503]]}},{"type":"Feature","properties":{"kind":"piste","difficulty":"easy","name":null,"aerialway":null,"osm":"way/49272459"},"geometry":{"type":"LineString","coordinates":[[9.87587,47.32618],[9.87878,47.32703],[9.8811,47.32704],[9.88269,47.3274],[9.88463,47.32758],[9.88513,47.32803],[9.88525,47.32829],[9.88583,47.32834]]}},{"type":"Feature","properties":{"kind":"piste","difficulty":"easy","name":null,"aerialway":null,"osm":"way/49272461"},"geometry":{"type":"LineString","coordinates":[[9.87095,47.32503],[9.87142,47.32567],[9.87205,47.32603],[9.8734,47.32677],[9.87508,47.32734],[9.87576,47.32854],[9.87603,47.32869],[9.87878,47.32703],[9.88043,47.32569],[9.88081,47.32551],[9.88134,47.32556],[9.88212,47.32606],[9.88242,47.32691],[9.88287,47.32711],[9.88313,47.32743]]}},{"type":"Feature","properties":{"kind":"piste","difficulty":"easy","name":null,"aerialway":null,"osm":"way/49272462"},"geometry":{"type":"LineString","coordinates":[[9.86557,47.32235],[9.86579,47.32251],[9.86552,47.32319],[9.86563,47.32348],[9.86612,47.32395],[9.8683,47.32531],[9.86849,47.32554],[9.86857,47.32698],[9.86775,47.32757],[9.86659,47.3279],[9.86473,47.32721],[9.86328,47.32719],[9.86239,47.32885],[9.86151,47.32987],[9.86097,47.33018],[9.86055,47.33026],[9.8599,47.33026],[9.85927,47.33009],[9.85869,47.33017],[9.85853,47.33107]]}},{"type":"Feature","properties":{"kind":"piste","difficulty":"advanced","name":null,"aerialway":null,"osm":"way/49272466"},"geometry":{"type":"LineString","coordinates":[[9.86448,47.32293],[9.86292,47.32274],[9.86262,47.3248],[9.8615,47.32584],[9.86115,47.32637],[9.86124,47.32715],[9.86089,47.32985],[9.86079,47.3301],[9.86055,47.33026]]}},{"type":"Feature","properties":{"kind":"piste","difficulty":"advanced","name":null,"aerialway":null,"osm":"way/49272469"},"geometry":{"type":"LineString","coordinates":[[9.85869,47.33017],[9.8575,47.33022],[9.85466,47.329],[9.85411,47.32886],[9.853,47.32884],[9.85256,47.32909],[9.85232,47.3301],[9.85257,47.33055],[9.85246,47.33079],[9.85264,47.33137],[9.85313,47.33167],[9.85386,47.33177],[9.85489,47.33226],[9.8551,47.33258],[9.85641,47.33347],[9.85785,47.33378],[9.85843,47.33437],[9.85964,47.33448],[9.8598,47.335],[9.86059,47.33473],[9.86202,47.33525],[9.86289,47.33505],[9.86401,47.3353],[9.86451,47.33591],[9.86458,47.33667],[9.865,47.33703],[9.86659,47.33754],[9.867,47.33794],[9.86763,47.33792],[9.86943,47.33863],[9.87034,47.33958],[9.87065,47.34011],[9.87091,47.34101],[9.87143,47.34148],[9.87207,47.34172],[9.87267,47.34174],[9.87306,47.34156],[9.87346,47.34105],[9.87382,47.34097],[9.87635,47.3416],[9.87706,47.34166],[9.87782,47.34151],[9.88277,47.34266],[9.88364,47.34354],[9.88502,47.34465],[9.88625,47.34505],[9.88795,47.34535],[9.88864,47.34575]]}},{"type":"Feature","properties":{"kind":"piste","difficulty":"easy","name":null,"aerialway":null,"osm":"way/75653692"},"geometry":{"type":"LineString","coordinates":[[9.88689,47.32237],[9.88643,47.32242],[9.88613,47.32293],[9.88517,47.32732],[9.88552,47.32827],[9.88627,47.32832]]}},{"type":"Feature","properties":{"kind":"piste","difficulty":"easy","name":null,"aerialway":null,"osm":"way/169869997"},"geometry":{"type":"LineString","coordinates":[[9.88696,47.3286],[9.88652,47.32855]]}},{"type":"Feature","properties":{"kind":"piste","difficulty":"advanced","name":null,"aerialway":null,"osm":"way/327488173"},"geometry":{"type":"LineString","coordinates":[[9.86549,47.32246],[9.86556,47.32229],[9.86525,47.32229],[9.86487,47.32274],[9.86425,47.32305],[9.86262,47.3248]]}},{"type":"Feature","properties":{"kind":"piste","difficulty":"easy","name":null,"aerialway":null,"osm":"way/327488174"},"geometry":{"type":"LineString","coordinates":[[9.85853,47.33107],[9.85871,47.33109]]}},{"type":"Feature","properties":{"kind":"piste","difficulty":"easy","name":null,"aerialway":null,"osm":"way/327488175"},"geometry":{"type":"LineString","coordinates":[[9.88105,47.32549],[9.88126,47.3254],[9.88095,47.32529]]}},{"type":"Feature","properties":{"kind":"piste","difficulty":"easy","name":null,"aerialway":null,"osm":"way/327488178"},"geometry":{"type":"LineString","coordinates":[[9.875,47.32608],[9.87672,47.32547],[9.87779,47.32526],[9.88073,47.32553]]}},{"type":"Feature","properties":{"kind":"piste","difficulty":"intermediate","name":null,"aerialway":null,"osm":"way/327488180"},"geometry":{"type":"LineString","coordinates":[[9.88561,47.32322],[9.88578,47.32355],[9.88552,47.32399],[9.88426,47.3253],[9.883,47.32709]]}},{"type":"Feature","properties":{"kind":"piste","difficulty":"intermediate","name":null,"aerialway":null,"osm":"way/334095516"},"geometry":{"type":"LineString","coordinates":[[9.88932,47.31731],[9.88828,47.31779],[9.88777,47.31828],[9.88766,47.31877],[9.88726,47.31954],[9.88725,47.32002],[9.88741,47.32052],[9.8873,47.32075],[9.88672,47.32119],[9.88567,47.32168],[9.88479,47.32244],[9.88472,47.32278],[9.88561,47.32322]]}},{"type":"Feature","properties":{"kind":"piste","difficulty":"advanced","name":null,"aerialway":null,"osm":"way/334095542"},"geometry":{"type":"LineString","coordinates":[[9.86123,47.32616],[9.86011,47.32644],[9.85955,47.32676],[9.85922,47.32721],[9.85856,47.32954],[9.85869,47.33017]]}},{"type":"Feature","properties":{"kind":"piste","difficulty":"expert","name":"Skiroute Hochegg Mellau","aerialway":null,"osm":"way/724006618"},"geometry":{"type":"LineString","coordinates":[[9.86557,47.32235],[9.86578,47.32251],[9.86555,47.32303],[9.86528,47.32315],[9.86371,47.32275],[9.86278,47.32274],[9.86209,47.32289],[9.86159,47.3233],[9.86044,47.32365],[9.85689,47.32599],[9.85628,47.32654],[9.85602,47.32713],[9.85628,47.32788],[9.85669,47.32834],[9.85702,47.32899],[9.8573,47.32917],[9.85738,47.32946],[9.85795,47.32986],[9.85806,47.33005],[9.85798,47.33024]]}},{"type":"Feature","properties":{"kind":"piste","difficulty":"intermediate","name":"Speed-Strecke (Geschwindigkeitsmessung)","aerialway":null,"osm":"way/1222081072"},"geometry":{"type":"LineString","coordinates":[[9.86249,47.32717],[9.86214,47.3278],[9.86208,47.32835],[9.86119,47.33008]]}},{"type":"Feature","properties":{"kind":"piste","difficulty":"easy","name":null,"aerialway":null,"osm":"way/1330246218"},"geometry":{"type":"LineString","coordinates":[[9.88613,47.32293],[9.88578,47.32342],[9.88402,47.32487],[9.88125,47.32539]]}},{"type":"Feature","properties":{"kind":"piste","difficulty":"easy","name":null,"aerialway":null,"osm":"way/1330246223"},"geometry":{"type":"LineString","coordinates":[[9.88578,47.32443],[9.88546,47.32464],[9.88405,47.32664],[9.88373,47.32744],[9.88379,47.32756]]}},{"type":"Feature","properties":{"kind":"piste","difficulty":"novice","name":null,"aerialway":null,"osm":"way/1330246224"},"geometry":{"type":"LineString","coordinates":[[9.88392,47.32748],[9.88381,47.32751],[9.88385,47.32727],[9.88423,47.32651],[9.88445,47.32635],[9.88447,47.32661],[9.88414,47.32735],[9.88392,47.32748]]}},{"type":"Feature","properties":{"kind":"piste","difficulty":"easy","name":null,"aerialway":null,"osm":"way/1379168387"},"geometry":{"type":"LineString","coordinates":[[9.86857,47.32698],[9.86856,47.32745],[9.86832,47.32772],[9.86748,47.32768]]}},{"type":"Feature","properties":{"kind":"piste","difficulty":"intermediate","name":null,"aerialway":null,"osm":"way/1379168392"},"geometry":{"type":"LineString","coordinates":[[9.87462,47.32186],[9.8752,47.32239],[9.87968,47.32472]]}},{"type":"Feature","properties":{"kind":"piste","difficulty":"advanced","name":null,"aerialway":null,"osm":"way/1432279961"},"geometry":{"type":"LineString","coordinates":[[9.8578,47.33376],[9.85887,47.33411],[9.85839,47.33434]]}},{"type":"Feature","properties":{"kind":"piste","difficulty":"intermediate","name":null,"aerialway":null,"osm":"way/1434424393"},"geometry":{"type":"LineString","coordinates":[[9.88679,47.32345],[9.88591,47.324]]}},{"type":"Feature","properties":{"kind":"piste","difficulty":"novice","name":null,"aerialway":null,"osm":"way/1442204584"},"geometry":{"type":"LineString","coordinates":[[9.88439,47.32653],[9.88387,47.32748],[9.88397,47.32748]]}},{"type":"Feature","properties":{"kind":"piste","difficulty":"easy","name":null,"aerialway":null,"osm":"way/1447558840"},"geometry":{"type":"LineString","coordinates":[[9.86328,47.32719],[9.86124,47.32711]]}},{"type":"Feature","properties":{"kind":"piste","difficulty":"expert","name":"Skiroute Hochegg Mellau","aerialway":null,"osm":"way/1447735729"},"geometry":{"type":"LineString","coordinates":[[9.85791,47.32983],[9.8592,47.33002]]}},{"type":"Feature","properties":{"kind":"piste","difficulty":"easy","name":null,"aerialway":null,"osm":"way/1448727618"},"geometry":{"type":"LineString","coordinates":[[9.8592,47.33002],[9.85921,47.3301]]}},{"type":"Feature","properties":{"kind":"piste","difficulty":"easy","name":"Funsloipe Rossstelle","aerialway":null,"osm":"way/1449435995"},"geometry":{"type":"LineString","coordinates":[[9.88539,47.32474],[9.88525,47.32544],[9.88495,47.32565],[9.88513,47.32593],[9.88474,47.32622],[9.88523,47.32693]]}},{"type":"Feature","properties":{"kind":"piste","difficulty":"easy","name":null,"aerialway":null,"osm":"way/1452653881"},"geometry":{"type":"LineString","coordinates":[[9.88226,47.32526],[9.88178,47.3254],[9.88159,47.32561],[9.88165,47.32574]]}},{"type":"Feature","properties":{"kind":"piste","difficulty":"novice","name":null,"aerialway":null,"osm":"way/1455570841"},"geometry":{"type":"LineString","coordinates":[[9.88417,47.32663],[9.88398,47.32677]]}},{"type":"Feature","properties":{"kind":"piste","difficulty":"novice","name":null,"aerialway":null,"osm":"way/1455570842"},"geometry":{"type":"LineString","coordinates":[[9.88437,47.32654],[9.88417,47.32663]]}},{"type":"Feature","properties":{"kind":"piste","difficulty":"easy","name":null,"aerialway":null,"osm":"way/1455570843"},"geometry":{"type":"LineString","coordinates":[[9.88374,47.32742],[9.88388,47.3275]]}},{"type":"Feature","properties":{"kind":"piste","difficulty":"easy","name":null,"aerialway":null,"osm":"way/1455570844"},"geometry":{"type":"LineString","coordinates":[[9.88359,47.3275],[9.88381,47.32751],[9.88359,47.3275]]}},{"type":"Feature","properties":{"kind":"piste","difficulty":"intermediate","name":null,"aerialway":null,"osm":"way/1457534715"},"geometry":{"type":"LineString","coordinates":[[9.86609,47.32239],[9.86602,47.32233]]}},{"type":"Feature","properties":{"kind":"piste","difficulty":"intermediate","name":null,"aerialway":null,"osm":"way/1457534716"},"geometry":{"type":"LineString","coordinates":[[9.86602,47.32233],[9.86575,47.3223]]}},{"type":"Feature","properties":{"kind":"piste","difficulty":"advanced","name":null,"aerialway":null,"osm":"way/1457534719"},"geometry":{"type":"LineString","coordinates":[[9.86575,47.3223],[9.86551,47.32226]]}},{"type":"Feature","properties":{"kind":"piste","difficulty":"intermediate","name":null,"aerialway":null,"osm":"way/1457534720"},"geometry":{"type":"LineString","coordinates":[[9.86602,47.32233],[9.86619,47.32233]]}},{"type":"Feature","properties":{"kind":"piste","difficulty":"advanced","name":null,"aerialway":null,"osm":"way/1457534721"},"geometry":{"type":"LineString","coordinates":[[9.86558,47.32232],[9.86565,47.32229]]}},{"type":"Feature","properties":{"kind":"piste","difficulty":"easy","name":null,"aerialway":null,"osm":"way/1457901607"},"geometry":{"type":"LineString","coordinates":[[9.88607,47.32838],[9.88652,47.32855]]}},{"type":"Feature","properties":{"kind":"piste","difficulty":"intermediate","name":null,"aerialway":null,"osm":"way/1457901609"},"geometry":{"type":"LineString","coordinates":[[9.88652,47.32832],[9.88652,47.32855]]}},{"type":"Feature","properties":{"kind":"piste","difficulty":"easy","name":null,"aerialway":null,"osm":"way/1457901610"},"geometry":{"type":"LineString","coordinates":[[9.88652,47.32855],[9.88627,47.32832]]}},{"type":"Feature","properties":{"kind":"piste","difficulty":"easy","name":null,"aerialway":null,"osm":"way/1457901612"},"geometry":{"type":"LineString","coordinates":[[9.88269,47.3274],[9.88315,47.32731]]}},{"type":"Feature","properties":{"kind":"piste","difficulty":"easy","name":null,"aerialway":null,"osm":"way/1457901613"},"geometry":{"type":"LineString","coordinates":[[9.883,47.32709],[9.88296,47.32722]]}},{"type":"Feature","properties":{"kind":"piste","difficulty":"easy","name":null,"aerialway":null,"osm":"way/1457901614"},"geometry":{"type":"LineString","coordinates":[[9.88689,47.3224],[9.88695,47.32234]]}},{"type":"Feature","properties":{"kind":"piste","difficulty":"easy","name":"Funsloipe Nühof","aerialway":null,"osm":"way/1460360803"},"geometry":{"type":"LineString","coordinates":[[9.86559,47.32286],[9.86584,47.32323],[9.86639,47.32334],[9.86721,47.32304],[9.86947,47.32313],[9.86945,47.32324],[9.86881,47.32331],[9.86811,47.3238],[9.86812,47.32437],[9.86864,47.32479]]}},{"type":"Feature","properties":{"kind":"piste","difficulty":"easy","name":null,"aerialway":null,"osm":"way/1460360804"},"geometry":{"type":"LineString","coordinates":[[9.86943,47.32312],[9.86991,47.32319]]}},{"type":"Feature","properties":{"kind":"piste","difficulty":"advanced","name":null,"aerialway":null,"osm":"way/1476929810"},"geometry":{"type":"LineString","coordinates":[[9.85734,47.33017],[9.85736,47.33034],[9.85854,47.33083]]}},{"type":"Feature","properties":{"kind":"piste","difficulty":"easy","name":null,"aerialway":null,"osm":"relation/19808916"},"geometry":{"type":"MultiLineString","coordinates":[[[9.88518,47.32802],[9.88469,47.32758],[9.8831,47.32737],[9.88298,47.32706],[9.88246,47.32686],[9.88228,47.32611],[9.88167,47.32562],[9.88423,47.325],[9.8854,47.32393],[9.88578,47.32382],[9.884,47.32653],[9.88362,47.32748],[9.88381,47.3275],[9.88423,47.32651],[9.88445,47.32635],[9.88531,47.32504],[9.88511,47.32606],[9.88467,47.32697],[9.88518,47.32802]],[[9.88091,47.32561],[9.88118,47.32562],[9.88198,47.3261],[9.88225,47.32646],[9.88232,47.32692],[9.88287,47.32729],[9.88107,47.3269],[9.87906,47.32697],[9.88043,47.32585],[9.88091,47.32561]],[[9.87893,47.32717],[9.88106,47.3271],[9.88254,47.32745],[9.88457,47.32763],[9.88496,47.32792],[9.88499,47.32821],[9.88531,47.32842],[9.88676,47.32858],[9.88652,47.32844],[9.8866,47.32832],[9.88591,47.32821],[9.88563,47.32729],[9.88571,47.32655],[9.88633,47.3243],[9.88627,47.32339],[9.88678,47.32244],[9.88697,47.32232],[9.88647,47.32223],[9.88608,47.32247],[9.8858,47.32276],[9.88534,47.32363],[9.88393,47.32472],[9.88225,47.32521],[9.88137,47.32522],[9.88118,47.32541],[9.8805,47.3255],[9.87885,47.32688],[9.87833,47.32683],[9.87685,47.32631],[9.87584,47.32637],[9.87848,47.32709],[9.87593,47.32861],[9.87513,47.32734],[9.87346,47.32675],[9.87094,47.3253],[9.87134,47.32568],[9.87257,47.32627],[9.87341,47.32685],[9.87502,47.32738],[9.87574,47.32857],[9.87612,47.32878],[9.87893,47.32717]],[[9.86981,47.32331],[9.87066,47.32498],[9.87101,47.32504],[9.87022,47.3235],[9.86981,47.32331]],[[9.8751,47.32596],[9.87679,47.32536],[9.87797,47.32517],[9.88029,47.3255],[9.87989,47.32557],[9.87873,47.32535],[9.87781,47.32533],[9.87643,47.32565],[9.87561,47.32601],[9.8751,47.32596]]]}},{"type":"Feature","properties":{"kind":"piste","difficulty":"intermediate","name":null,"aerialway":null,"osm":"relation/19824207"},"geometry":{"type":"MultiLineString","coordinates":[[[9.8872,47.32296],[9.8872,47.32296]],[[9.88693,47.32237],[9.88703,47.32247],[9.88683,47.32331],[9.88625,47.32359],[9.88634,47.32382],[9.88655,47.32373],[9.88621,47.32604],[9.88665,47.32783],[9.88659,47.32813],[9.8864,47.32832],[9.88678,47.32822],[9.88694,47.32781],[9.88651,47.32643],[9.8869,47.32361],[9.88733,47.32303],[9.88713,47.32237],[9.88693,47.32237]]]}},{"type":"Feature","properties":{"kind":"piste","difficulty":"advanced","name":null,"aerialway":null,"osm":"relation/19824208"},"geometry":{"type":"MultiLineString","coordinates":[[[9.85841,47.33417],[9.85825,47.33417],[9.858,47.33384],[9.85869,47.33412],[9.85841,47.33417]],[[9.88819,47.34544],[9.88862,47.34576],[9.88796,47.34539],[9.88653,47.34516],[9.88487,47.34467],[9.88344,47.34355],[9.88283,47.34274],[9.8779,47.34157],[9.87712,47.3417],[9.87647,47.34165],[9.87378,47.34103],[9.87352,47.34111],[9.87291,47.34179],[9.87177,47.34182],[9.87101,47.34128],[9.87038,47.33977],[9.86937,47.33863],[9.86777,47.33798],[9.86702,47.33798],[9.86652,47.33753],[9.86489,47.33703],[9.86454,47.33667],[9.86446,47.33593],[9.864,47.33535],[9.86297,47.33512],[9.86202,47.33531],[9.86116,47.3349],[9.86063,47.33479],[9.86039,47.3348],[9.86009,47.33506],[9.85983,47.33506],[9.85964,47.33493],[9.85959,47.33452],[9.8585,47.33443],[9.85812,47.33424],[9.85778,47.3338],[9.85641,47.33351],[9.85502,47.3326],[9.85476,47.33222],[9.85365,47.33174],[9.85312,47.33171],[9.85251,47.33131],[9.85308,47.33162],[9.8535,47.33163],[9.85484,47.33217],[9.85511,47.33255],[9.85587,47.33296],[9.85639,47.33344],[9.85883,47.33405],[9.85889,47.3342],[9.85852,47.33426],[9.85857,47.33439],[9.8596,47.33442],[9.85981,47.33495],[9.86054,47.3347],[9.86206,47.33523],[9.86294,47.33502],[9.86402,47.33528],[9.86452,47.33585],[9.86458,47.33654],[9.86497,47.33697],[9.86656,47.33749],[9.86703,47.33792],[9.86775,47.33792],[9.86941,47.33856],[9.87039,47.33949],[9.87116,47.34107],[9.87212,47.34161],[9.87287,47.34161],[9.87337,47.341],[9.87386,47.34091],[9.87644,47.34157],[9.87786,47.34146],[9.88279,47.34261],[9.88302,47.3427],[9.88342,47.34321],[9.88517,47.34466],[9.88819,47.34544]]]}},{"type":"Feature","properties":{"kind":"piste","difficulty":"intermediate","name":null,"aerialway":null,"osm":"relation/19824209"},"geometry":{"type":"LineString","coordinates":[[9.86266,47.32718],[9.86223,47.32779],[9.86179,47.32917],[9.86129,47.32978],[9.86206,47.32826],[9.86229,47.3272],[9.86266,47.32718]]}},{"type":"Feature","properties":{"kind":"piste","difficulty":"easy","name":null,"aerialway":null,"osm":"relation/19824210"},"geometry":{"type":"MultiLineString","coordinates":[[[9.86847,47.32727],[9.86829,47.32768],[9.86777,47.32761],[9.86847,47.32727]],[[9.86866,47.32701],[9.86881,47.32608],[9.86852,47.32538],[9.86789,47.32493],[9.86706,47.32484],[9.86841,47.32551],[9.86848,47.32668],[9.86841,47.32697],[9.86804,47.32734],[9.86757,47.32755],[9.86634,47.32777],[9.86541,47.3275],[9.86481,47.32713],[9.86203,47.32719],[9.86152,47.32703],[9.86149,47.32711],[9.86182,47.32723],[9.86266,47.32718],[9.86259,47.32775],[9.86222,47.32877],[9.86129,47.32978],[9.8608,47.33003],[9.86009,47.33024],[9.85908,47.33001],[9.85857,47.33018],[9.85848,47.33102],[9.85871,47.33109],[9.85857,47.33101],[9.85867,47.3307],[9.85922,47.33016],[9.86038,47.33042],[9.86111,47.33024],[9.86247,47.32908],[9.86368,47.3273],[9.86479,47.32729],[9.86517,47.32753],[9.86642,47.32791],[9.86738,47.32779],[9.8681,47.32786],[9.86846,47.32775],[9.86871,47.32749],[9.86866,47.32701]]]}},{"type":"Feature","properties":{"kind":"piste","difficulty":"expert","name":null,"aerialway":null,"osm":"relation/19824211"},"geometry":{"type":"MultiLineString","coordinates":[[[9.86276,47.32278],[9.8628,47.32267],[9.86217,47.32281],[9.86155,47.32329],[9.86046,47.3236],[9.85985,47.32401],[9.85824,47.32469],[9.85659,47.32607],[9.85598,47.32675],[9.85583,47.32708],[9.85614,47.32779],[9.85662,47.32829],[9.857,47.32901],[9.8573,47.32922],[9.85738,47.32952],[9.85791,47.32991],[9.85801,47.33006],[9.85794,47.33018],[9.85839,47.33014],[9.85806,47.32989],[9.85854,47.32992],[9.85774,47.32969],[9.85707,47.32898],[9.85616,47.3274],[9.85627,47.32678],[9.85759,47.32568],[9.86036,47.32374],[9.86175,47.32326],[9.86212,47.32291],[9.86276,47.32278]],[[9.85878,47.32996],[9.85923,47.33002],[9.85897,47.3299],[9.85878,47.32996]]]}},{"type":"Feature","properties":{"kind":"piste","difficulty":"advanced","name":null,"aerialway":null,"osm":"relation/19824212"},"geometry":{"type":"MultiLineString","coordinates":[[[9.86422,47.32297],[9.86317,47.32286],[9.86272,47.32452],[9.86422,47.32297]],[[9.86573,47.32232],[9.86529,47.32221],[9.86466,47.32271],[9.8628,47.32267],[9.86269,47.32363],[9.86227,47.32502],[9.86115,47.32607],[9.8602,47.32638],[9.8591,47.32701],[9.85845,47.32959],[9.85859,47.33012],[9.8578,47.33018],[9.85721,47.33006],[9.85417,47.32877],[9.8525,47.32878],[9.85219,47.32918],[9.85194,47.33],[9.85202,47.3302],[9.85249,47.33044],[9.85238,47.33084],[9.85251,47.33131],[9.85261,47.33129],[9.8525,47.33083],[9.85266,47.33048],[9.85241,47.33018],[9.85256,47.32997],[9.85271,47.32903],[9.85285,47.32896],[9.85437,47.32897],[9.85637,47.32979],[9.85699,47.33017],[9.85852,47.33026],[9.8588,47.33006],[9.85872,47.32927],[9.85924,47.32731],[9.85957,47.3268],[9.86069,47.32628],[9.86105,47.32626],[9.86105,47.32692],[9.86062,47.33009],[9.86103,47.32992],[9.86126,47.32761],[9.86152,47.32703],[9.86135,47.32674],[9.86156,47.32616],[9.86456,47.32309],[9.86516,47.32321],[9.86535,47.3229],[9.86494,47.3228],[9.86536,47.32232],[9.86564,47.32242],[9.86573,47.32232]]]}},{"type":"Feature","properties":{"kind":"piste","difficulty":"intermediate","name":null,"aerialway":null,"osm":"relation/19824213"},"geometry":{"type":"MultiLineString","coordinates":[[[9.87956,47.32465],[9.87679,47.32269],[9.87487,47.32203],[9.8778,47.32378],[9.87956,47.32465]],[[9.86573,47.32232],[9.86761,47.32211],[9.86831,47.32174],[9.86875,47.32195],[9.87007,47.32314],[9.87058,47.32329],[9.87191,47.32293],[9.87343,47.3216],[9.87414,47.32152],[9.87514,47.32202],[9.87694,47.3226],[9.87843,47.32385],[9.88092,47.32545],[9.88049,47.32534],[9.87968,47.32472],[9.87875,47.32436],[9.87495,47.32229],[9.87457,47.32188],[9.87406,47.32167],[9.8734,47.32188],[9.87221,47.3231],[9.87146,47.32343],[9.87007,47.32346],[9.86828,47.32207],[9.86615,47.32239],[9.86587,47.32272],[9.86594,47.32303],[9.86746,47.32455],[9.87101,47.32504],[9.87268,47.32563],[9.87618,47.32606],[9.87892,47.32562],[9.8805,47.3255],[9.88024,47.3257],[9.87637,47.32636],[9.8747,47.32626],[9.87276,47.3259],[9.86939,47.32487],[9.86756,47.32495],[9.86706,47.32484],[9.86575,47.32408],[9.86525,47.32355],[9.86516,47.32321],[9.86573,47.32232]]]}},{"type":"Feature","properties":{"kind":"piste","difficulty":"intermediate","name":null,"aerialway":null,"osm":"relation/19824214"},"geometry":{"type":"MultiLineString","coordinates":[[[9.88705,47.32078],[9.88633,47.32089],[9.88653,47.32106],[9.88705,47.32078]],[[9.88613,47.32127],[9.8856,47.32153],[9.88446,47.32254],[9.8845,47.32276],[9.88539,47.32321],[9.88551,47.32342],[9.88566,47.32302],[9.88498,47.32274],[9.88496,47.32258],[9.88597,47.3216],[9.88676,47.32124],[9.88742,47.32074],[9.88749,47.32059],[9.88731,47.31959],[9.88779,47.31856],[9.88824,47.31795],[9.88932,47.31731],[9.88847,47.31759],[9.8878,47.31807],[9.88752,47.31887],[9.8872,47.31923],[9.8873,47.32056],[9.8866,47.32073],[9.88619,47.32065],[9.88629,47.32113],[9.88613,47.32127]],[[9.88337,47.32659],[9.88421,47.32524],[9.88423,47.325],[9.8854,47.32393],[9.88578,47.32382],[9.88539,47.3244],[9.88478,47.32493],[9.88318,47.32728],[9.88298,47.32706],[9.88337,47.32659]],[[9.89094,47.31514],[9.89132,47.31559],[9.89084,47.31602],[9.89073,47.3169],[9.89079,47.31701],[9.89128,47.31699],[9.8917,47.31548],[9.89117,47.31529],[9.89102,47.31505],[9.88904,47.31462],[9.88891,47.3145],[9.8916,47.3137],[9.89304,47.31302],[9.8948,47.31278],[9.89447,47.31272],[9.8929,47.31297],[9.89122,47.31374],[9.88883,47.31444],[9.88877,47.31457],[9.88902,47.31469],[9.89094,47.31514]]]}},{"type":"Feature","properties":{"kind":"piste","difficulty":"novice","name":null,"aerialway":null,"osm":"relation/20613835"},"geometry":{"type":"MultiLineString","coordinates":[[[9.8889,47.34633],[9.88942,47.34641]],[[9.88942,47.34641],[9.8898,47.34661],[9.88984,47.34696],[9.88956,47.34739],[9.88916,47.34741],[9.8889,47.34633]]]}},{"type":"Feature","properties":{"kind":"lift","difficulty":null,"name":"Mellaubahn","aerialway":"gondola","osm":"way/27122726"},"geometry":{"type":"LineString","coordinates":[[9.88854,47.3461],[9.88696,47.3286]]}},{"type":"Feature","properties":{"kind":"lift","difficulty":null,"name":"Wildgunten","aerialway":"chair_lift","osm":"way/39000265"},"geometry":{"type":"LineString","coordinates":[[9.88095,47.32529],[9.86617,47.32243]]}},{"type":"Feature","properties":{"kind":"lift","difficulty":null,"name":"Suttis","aerialway":"chair_lift","osm":"way/39000266"},"geometry":{"type":"LineString","coordinates":[[9.85879,47.33097],[9.86549,47.32246]]}},{"type":"Feature","properties":{"kind":"lift","difficulty":null,"name":"Gipfelbahn","aerialway":"gondola","osm":"way/46733745"},"geometry":{"type":"LineString","coordinates":[[9.88337,47.32723],[9.89448,47.31301]]}},{"type":"Feature","properties":{"kind":"lift","difficulty":null,"name":"Roßstelle","aerialway":"chair_lift","osm":"way/49224212"},"geometry":{"type":"LineString","coordinates":[[9.88626,47.32805],[9.88689,47.3224]]}},{"type":"Feature","properties":{"kind":"lift","difficulty":null,"name":"Hasenlift","aerialway":"rope_tow","osm":"way/49224219"},"geometry":{"type":"LineString","coordinates":[[9.88914,47.34741],[9.88894,47.34656]]}},{"type":"Feature","properties":{"kind":"lift","difficulty":null,"name":null,"aerialway":"drag_lift","osm":"way/1330246222"},"geometry":{"type":"LineString","coordinates":[[9.88395,47.32753],[9.88443,47.32644]]}},{"type":"Feature","properties":{"kind":"lift","difficulty":null,"name":null,"aerialway":"magic_carpet","osm":"way/1453747784"},"geometry":{"type":"LineString","coordinates":[[9.88935,47.34687],[9.8893,47.34666]]}},{"type":"Feature","properties":{"kind":"lift","difficulty":null,"name":null,"aerialway":"magic_carpet","osm":"way/1453747785"},"geometry":{"type":"LineString","coordinates":[[9.88961,47.34661],[9.88972,47.34702]]}},{"type":"Feature","properties":{"kind":"lift","difficulty":null,"name":null,"aerialway":"magic_carpet","osm":"way/1453747786"},"geometry":{"type":"LineString","coordinates":[[9.88947,47.34664],[9.88953,47.34685]]}}]}