{"type":"FeatureCollection","features":[{"type":"Feature","properties":{"kind":"piste","difficulty":"intermediate","name":null,"aerialway":null,"osm":"way/31895404"},"geometry":{"type":"LineString","coordinates":[[11.97094,47.25187],[11.97094,47.2522],[11.9714,47.25304],[11.97142,47.25346],[11.97163,47.2538],[11.97163,47.25417],[11.97118,47.25473],[11.97096,47.25556],[11.97075,47.25585],[11.96996,47.25609],[11.96865,47.25614],[11.96531,47.25589],[11.96405,47.25636],[11.96243,47.2573],[11.95983,47.25789],[11.9587,47.25832],[11.95491,47.2608],[11.95469,47.26102],[11.95474,47.2612],[11.95539,47.26108]]}},{"type":"Feature","properties":{"kind":"piste","difficulty":"intermediate","name":"Wilde Krimml","aerialway":null,"osm":"way/31895939"},"geometry":{"type":"LineString","coordinates":[[11.97721,47.25367],[11.97766,47.25367],[11.97879,47.25451],[11.9806,47.25516],[11.98165,47.25592],[11.98223,47.2569],[11.98334,47.25805],[11.98383,47.25884],[11.98579,47.25989],[11.98828,47.26013],[11.99014,47.26075],[11.99046,47.26104],[11.99064,47.26142],[11.99245,47.26176],[11.9939,47.26226],[11.99574,47.26222],[11.99747,47.26158]]}},{"type":"Feature","properties":{"kind":"piste","difficulty":"intermediate","name":null,"aerialway":null,"osm":"way/31895941"},"geometry":{"type":"LineString","coordinates":[[12.00447,47.25035],[12.00361,47.25109],[12.00303,47.25219],[12.00232,47.25279],[12.00206,47.25403],[12.00134,47.25487],[12.00117,47.25536],[12.00164,47.25646],[12.00169,47.25856],[12.00133,47.25899],[12.00091,47.25911]]}},{"type":"Feature","properties":{"kind":"piste","difficulty":"intermediate","name":null,"aerialway":null,"osm":"way/31969768"},"geometry":{"type":"LineString","coordinates":[[11.95645,47.23991],[11.95576,47.24012],[11.95439,47.24102],[11.95126,47.24158]]}},{"type":"Feature","properties":{"kind":"piste","difficulty":"intermediate","name":null,"aerialway":null,"osm":"way/32142492"},"geometry":{"type":"LineString","coordinates":[[11.95488,47.25075],[11.9542,47.25165],[11.95364,47.25204],[11.9523,47.25235],[11.95132,47.25234],[11.94962,47.25094],[11.94986,47.25054],[11.95047,47.25002],[11.95067,47.24917],[11.95044,47.2483],[11.94988,47.24788],[11.9494,47.24812],[11.94703,47.24864],[11.94616,47.24873],[11.94454,47.24855]]}},{"type":"Feature","properties":{"kind":"piste","difficulty":"intermediate","name":null,"aerialway":null,"osm":"way/32142493"},"geometry":{"type":"LineString","coordinates":[[11.95676,47.24948],[11.95649,47.24917],[11.95638,47.24827],[11.95607,47.24805],[11.95493,47.24807],[11.95238,47.24646],[11.95188,47.24644],[11.95148,47.24658],[11.94988,47.24788],[11.94937,47.24754],[11.94824,47.24746],[11.94754,47.24715],[11.94703,47.2467]]}},{"type":"Feature","properties":{"kind":"piste","difficulty":"intermediate","name":null,"aerialway":null,"osm":"way/43112935"},"geometry":{"type":"LineString","coordinates":[[11.96843,47.2504],[11.96798,47.25056],[11.96645,47.25217],[11.96581,47.25266],[11.96509,47.25291],[11.96277,47.25334],[11.96157,47.25347],[11.96084,47.25324],[11.96023,47.25246],[11.96001,47.25236],[11.95796,47.25286],[11.95607,47.25267],[11.95478,47.25218],[11.95364,47.25204]]}},{"type":"Feature","properties":{"kind":"piste","difficulty":"intermediate","name":null,"aerialway":null,"osm":"way/43112937"},"geometry":{"type":"LineString","coordinates":[[11.95607,47.25267],[11.95577,47.25196],[11.95503,47.25111],[11.95488,47.25075]]}},{"type":"Feature","properties":{"kind":"piste","difficulty":"intermediate","name":"Fußalm","aerialway":null,"osm":"way/46766574"},"geometry":{"type":"LineString","coordinates":[[12.07639,47.25109],[12.07499,47.25],[12.07213,47.24826],[12.06961,47.24827],[12.06661,47.24733],[12.06464,47.24622],[12.06349,47.24485],[12.06281,47.24444],[12.05974,47.2432],[12.05934,47.24278],[12.0596,47.24279]]}},{"type":"Feature","properties":{"kind":"piste","difficulty":"advanced","name":"Krummbach","aerialway":null,"osm":"way/48240921"},"geometry":{"type":"LineString","coordinates":[[12.03856,47.24346],[12.04301,47.24583],[12.04413,47.24597],[12.04545,47.24723],[12.0463,47.24755],[12.04859,47.24778],[12.04984,47.24762],[12.05011,47.24735],[12.05022,47.24653],[12.05154,47.24536],[12.05255,47.24396]]}},{"type":"Feature","properties":{"kind":"piste","difficulty":"intermediate","name":null,"aerialway":null,"osm":"way/48240922"},"geometry":{"type":"LineString","coordinates":[[11.97721,47.25367],[11.9773,47.25323],[11.97586,47.25232],[11.97528,47.25211],[11.97461,47.25213],[11.97385,47.25248],[11.97094,47.25187]]}},{"type":"Feature","properties":{"kind":"piste","difficulty":"intermediate","name":null,"aerialway":null,"osm":"way/48240923"},"geometry":{"type":"LineString","coordinates":[[11.95962,47.24283],[11.95944,47.24388],[11.95891,47.24462],[11.95909,47.24574],[11.9589,47.24699],[11.95864,47.24762],[11.95676,47.24948]]}},{"type":"Feature","properties":{"kind":"piste","difficulty":"easy","name":"32","aerialway":null,"osm":"way/48240926"},"geometry":{"type":"LineString","coordinates":[[12.02953,47.2432],[12.02936,47.2432],[12.02933,47.24341],[12.02996,47.24343],[12.03057,47.24323],[12.03107,47.2428],[12.03491,47.24219],[12.03791,47.24216],[12.04028,47.24241],[12.04039,47.24236],[12.0404,47.24195],[12.04016,47.2419]]}},{"type":"Feature","properties":{"kind":"piste","difficulty":"easy","name":"32","aerialway":null,"osm":"way/48240927"},"geometry":{"type":"LineString","coordinates":[[12.02839,47.24259],[12.03057,47.24271],[12.03508,47.24349],[12.03618,47.24344]]}},{"type":"Feature","properties":{"kind":"piste","difficulty":"intermediate","name":"Fußalmabfahrt","aerialway":null,"osm":"way/48240930"},"geometry":{"type":"LineString","coordinates":[[12.07213,47.24826],[12.07154,47.24769],[12.07009,47.24708],[12.069,47.24686],[12.06386,47.24471],[12.06281,47.24444]]}},{"type":"Feature","properties":{"kind":"piste","difficulty":"intermediate","name":"40a","aerialway":null,"osm":"way/48240931"},"geometry":{"type":"LineString","coordinates":[[12.0781,47.25048],[12.07821,47.25053],[12.07811,47.25062],[12.07595,47.25125],[12.07517,47.25187],[12.0751,47.2528],[12.07608,47.25491]]}},{"type":"Feature","properties":{"kind":"piste","difficulty":"intermediate","name":"Falschbachweg","aerialway":null,"osm":"way/48240932"},"geometry":{"type":"LineString","coordinates":[[12.07608,47.25491],[12.07591,47.25488],[12.07569,47.25443],[12.07496,47.25368],[12.074,47.25295],[12.07229,47.25058],[12.07122,47.24989],[12.07089,47.24927],[12.07027,47.24872],[12.07027,47.24832]]}},{"type":"Feature","properties":{"kind":"piste","difficulty":"intermediate","name":"Niederbodenabfahrt","aerialway":null,"osm":"way/48646991"},"geometry":{"type":"LineString","coordinates":[[12.08701,47.25485],[12.08422,47.25523],[12.08163,47.25605],[12.07966,47.25651],[12.07623,47.25518],[12.07608,47.25491],[12.07645,47.25509]]}},{"type":"Feature","properties":{"kind":"piste","difficulty":"easy","name":"Hochalmkar","aerialway":null,"osm":"way/48646992"},"geometry":{"type":"LineString","coordinates":[[12.08955,47.26102],[12.09012,47.26079],[12.09049,47.26085],[12.09066,47.2612],[12.09052,47.26181],[12.0908,47.26215],[12.09162,47.2626],[12.09224,47.26252]]}},{"type":"Feature","properties":{"kind":"piste","difficulty":"intermediate","name":null,"aerialway":null,"osm":"way/50806024"},"geometry":{"type":"LineString","coordinates":[[11.97385,47.25248],[11.97287,47.25293],[11.97163,47.25417]]}},{"type":"Feature","properties":{"kind":"piste","difficulty":"intermediate","name":null,"aerialway":null,"osm":"way/51110763"},"geometry":{"type":"LineString","coordinates":[[12.0233,47.24229],[12.02437,47.24247],[12.02783,47.23774],[12.02778,47.23722],[12.02764,47.2371]]}},{"type":"Feature","properties":{"kind":"piste","difficulty":"intermediate","name":"31","aerialway":null,"osm":"way/51110764"},"geometry":{"type":"LineString","coordinates":[[12.03802,47.24217],[12.03859,47.24084]]}},{"type":"Feature","properties":{"kind":"piste","difficulty":"intermediate","name":"Moseltret","aerialway":null,"osm":"way/52336391"},"geometry":{"type":"LineString","coordinates":[[12.06094,47.24295],[12.06091,47.2431],[12.06043,47.24322],[12.05703,47.24292],[12.05443,47.24299],[12.05297,47.24327],[12.0525,47.24321],[12.05244,47.24304]]}},{"type":"Feature","properties":{"kind":"piste","difficulty":"intermediate","name":null,"aerialway":null,"osm":"way/88214213"},"geometry":{"type":"LineString","coordinates":[[12.0386,47.23692],[12.0385,47.23654],[12.03873,47.23589],[12.03868,47.23569],[12.03793,47.23525],[12.03687,47.23422],[12.03692,47.23353],[12.03719,47.23296],[12.03676,47.23254],[12.03646,47.23135],[12.03596,47.23082],[12.03536,47.23042],[12.03371,47.22989],[12.03378,47.22975],[12.0364,47.22959],[12.03686,47.22902],[12.0369,47.22826],[12.03634,47.22725],[12.03589,47.22684],[12.03446,47.2261]]}},{"type":"Feature","properties":{"kind":"piste","difficulty":"intermediate","name":"Falschbach","aerialway":null,"osm":"way/88218275"},"geometry":{"type":"LineString","coordinates":[[12.08955,47.26102],[12.08929,47.2609],[12.0891,47.25875],[12.08801,47.25718],[12.0876,47.25546],[12.08701,47.25485],[12.0842,47.25381],[12.08258,47.2535],[12.08192,47.25315],[12.07787,47.25267],[12.07719,47.25226],[12.07639,47.25109]]}},{"type":"Feature","properties":{"kind":"piste","difficulty":"advanced","name":"Sportabfahrt","aerialway":null,"osm":"way/88218276"},"geometry":{"type":"LineString","coordinates":[[12.08929,47.2609],[12.08866,47.26045],[12.08766,47.25833],[12.0859,47.25591],[12.08422,47.25523]]}},{"type":"Feature","properties":{"kind":"piste","difficulty":"advanced","name":"Diretissima","aerialway":null,"osm":"way/88218277"},"geometry":{"type":"LineString","coordinates":[[12.08955,47.26102],[12.08842,47.26095],[12.08775,47.26114],[12.08707,47.26151],[12.08627,47.26141],[12.08,47.25805],[12.07923,47.25771],[12.07831,47.25752],[12.07823,47.2574],[12.07839,47.25686],[12.07814,47.25588]]}},{"type":"Feature","properties":{"kind":"piste","difficulty":"intermediate","name":"31","aerialway":null,"osm":"way/88491596"},"geometry":{"type":"LineString","coordinates":[[12.04699,47.23669],[12.04882,47.23571]]}},{"type":"Feature","properties":{"kind":"piste","difficulty":"intermediate","name":null,"aerialway":null,"osm":"way/88491597"},"geometry":{"type":"LineString","coordinates":[[12.04028,47.23658],[12.04161,47.23655],[12.0439,47.23603]]}},{"type":"Feature","properties":{"kind":"piste","difficulty":"intermediate","name":null,"aerialway":null,"osm":"way/106413554"},"geometry":{"type":"LineString","coordinates":[[11.95962,47.24283],[11.95718,47.24284],[11.95694,47.24298],[11.95672,47.24382],[11.95653,47.24395],[11.95249,47.24382],[11.9504,47.24425],[11.94931,47.24486],[11.94872,47.2456],[11.94848,47.24638],[11.94821,47.24665],[11.94787,47.24676],[11.94525,47.24648],[11.94473,47.24661]]}},{"type":"Feature","properties":{"kind":"piste","difficulty":"advanced","name":null,"aerialway":null,"osm":"way/117797879"},"geometry":{"type":"LineString","coordinates":[[12.03762,47.24107],[12.03837,47.24069],[12.03842,47.24047],[12.03813,47.23996],[12.03763,47.23944],[12.03582,47.23854],[12.03588,47.23834],[12.03668,47.23766]]}},{"type":"Feature","properties":{"kind":"piste","difficulty":"intermediate","name":null,"aerialway":null,"osm":"way/124659019"},"geometry":{"type":"LineString","coordinates":[[12.03794,47.2381],[12.03689,47.23786],[12.03668,47.23766],[12.03736,47.23725],[12.03949,47.23667],[12.04028,47.23658],[12.04059,47.23618],[12.04068,47.23566],[12.04103,47.23547],[12.04184,47.23553],[12.04538,47.23652],[12.04774,47.23685],[12.04864,47.2374],[12.04874,47.23715],[12.04864,47.23651],[12.04902,47.23509],[12.04895,47.23414],[12.04868,47.23305],[12.0487,47.23128],[12.04852,47.23027],[12.04916,47.22966],[12.04915,47.22954],[12.04903,47.22962]]}},{"type":"Feature","properties":{"kind":"piste","difficulty":"intermediate","name":null,"aerialway":null,"osm":"way/124659021"},"geometry":{"type":"LineString","coordinates":[[12.03949,47.24038],[12.03879,47.23985],[12.03874,47.23973],[12.03887,47.23971],[12.04016,47.23998],[12.04129,47.24051],[12.04148,47.24044],[12.04036,47.23908],[12.03958,47.23866],[12.03794,47.2381]]}},{"type":"Feature","properties":{"kind":"piste","difficulty":"advanced","name":"36a","aerialway":null,"osm":"way/139262301"},"geometry":{"type":"LineString","coordinates":[[12.03929,47.24232],[12.04003,47.24353],[12.04154,47.24463],[12.04154,47.24503]]}},{"type":"Feature","properties":{"kind":"piste","difficulty":"intermediate","name":null,"aerialway":null,"osm":"way/139262302"},"geometry":{"type":"LineString","coordinates":[[12.08351,47.2537],[12.0804,47.25502],[12.07903,47.25531],[12.07735,47.25516],[12.07629,47.25464],[12.076,47.25467]]}},{"type":"Feature","properties":{"kind":"piste","difficulty":"intermediate","name":null,"aerialway":null,"osm":"way/139263457"},"geometry":{"type":"LineString","coordinates":[[12.03945,47.22858],[12.04033,47.22816],[12.04062,47.22778],[12.04067,47.22701],[12.04051,47.22632]]}},{"type":"Feature","properties":{"kind":"piste","difficulty":"intermediate","name":"31","aerialway":null,"osm":"way/139297300"},"geometry":{"type":"LineString","coordinates":[[12.03491,47.24219],[12.03613,47.24148],[12.03942,47.24064],[12.03949,47.24038]]}},{"type":"Feature","properties":{"kind":"piste","difficulty":"easy","name":"32","aerialway":null,"osm":"way/139297304"},"geometry":{"type":"LineString","coordinates":[[12.03529,47.2447],[12.03556,47.2439],[12.03618,47.24344],[12.03856,47.24346],[12.03877,47.24332],[12.03882,47.24303],[12.03833,47.24248],[12.0384,47.24221]]}},{"type":"Feature","properties":{"kind":"piste","difficulty":"novice","name":"Kinderland Isskogelbahn","aerialway":null,"osm":"way/139297312"},"geometry":{"type":"LineString","coordinates":[[12.03346,47.24463],[12.03439,47.24479],[12.03537,47.24531],[12.03551,47.24579],[12.03616,47.24637],[12.03561,47.24676],[12.03538,47.2466],[12.03492,47.24583],[12.03455,47.24553],[12.03318,47.24489],[12.03346,47.24463]]}},{"type":"Feature","properties":{"kind":"piste","difficulty":"intermediate","name":"21","aerialway":null,"osm":"way/139301014"},"geometry":{"type":"LineString","coordinates":[[11.99504,47.26229],[11.99541,47.26208],[11.99549,47.26161],[11.99601,47.26125],[11.99799,47.26156]]}},{"type":"Feature","properties":{"kind":"piste","difficulty":"easy","name":"32","aerialway":null,"osm":"way/139301036"},"geometry":{"type":"LineString","coordinates":[[12.02226,47.24269],[12.02199,47.24266],[12.02203,47.2429],[12.02277,47.24305],[12.0247,47.24242],[12.02607,47.24238],[12.02839,47.24259]]}},{"type":"Feature","properties":{"kind":"piste","difficulty":"easy","name":"34","aerialway":null,"osm":"way/144323652"},"geometry":{"type":"LineString","coordinates":[[12.01027,47.24782],[12.01155,47.24747],[12.01423,47.24584],[12.01528,47.24561],[12.01734,47.24425],[12.01959,47.24387],[12.0216,47.24308],[12.02221,47.243]]}},{"type":"Feature","properties":{"kind":"piste","difficulty":"easy","name":"34","aerialway":null,"osm":"way/144686223"},"geometry":{"type":"LineString","coordinates":[[12.00647,47.249],[12.00677,47.24866],[12.00784,47.24804],[12.01027,47.24782]]}},{"type":"Feature","properties":{"kind":"piste","difficulty":"intermediate","name":null,"aerialway":null,"osm":"way/259009877"},"geometry":{"type":"LineString","coordinates":[[12.08926,47.26137],[12.08951,47.2612],[12.08955,47.26102]]}},{"type":"Feature","properties":{"kind":"piste","difficulty":"intermediate","name":null,"aerialway":null,"osm":"way/259009879"},"geometry":{"type":"LineString","coordinates":[[12.09014,47.26107],[12.08955,47.26102]]}},{"type":"Feature","properties":{"kind":"piste","difficulty":"intermediate","name":null,"aerialway":null,"osm":"way/259009880"},"geometry":{"type":"LineString","coordinates":[[12.08999,47.26068],[12.08955,47.26102]]}},{"type":"Feature","properties":{"kind":"piste","difficulty":"easy","name":null,"aerialway":null,"osm":"way/314661765"},"geometry":{"type":"LineString","coordinates":[[12.00481,47.25056],[12.00502,47.2506],[12.00527,47.25038],[12.00485,47.24986],[12.00562,47.24961],[12.00579,47.2493],[12.00647,47.249]]}},{"type":"Feature","properties":{"kind":"piste","difficulty":"intermediate","name":null,"aerialway":null,"osm":"way/326613777"},"geometry":{"type":"LineString","coordinates":[[11.97009,47.25173],[11.97094,47.25187]]}},{"type":"Feature","properties":{"kind":"piste","difficulty":"intermediate","name":null,"aerialway":null,"osm":"way/326613782"},"geometry":{"type":"LineString","coordinates":[[11.97094,47.25187],[11.96968,47.2513],[11.96596,47.24841],[11.96416,47.24816],[11.96361,47.24768],[11.96304,47.24679],[11.96284,47.24675],[11.96111,47.24749],[11.96037,47.24814],[11.9597,47.249],[11.9582,47.24949],[11.95676,47.24948],[11.95598,47.24983],[11.95488,47.25075],[11.95414,47.25081],[11.9541,47.25061]]}},{"type":"Feature","properties":{"kind":"piste","difficulty":"intermediate","name":null,"aerialway":null,"osm":"way/327055454"},"geometry":{"type":"LineString","coordinates":[[12.07787,47.25267],[12.07751,47.25172],[12.07792,47.25068]]}},{"type":"Feature","properties":{"kind":"piste","difficulty":"advanced","name":null,"aerialway":null,"osm":"way/327055455"},"geometry":{"type":"LineString","coordinates":[[12.02783,47.23774],[12.02828,47.23728],[12.02915,47.23687],[12.03002,47.23663],[12.03243,47.23647],[12.03425,47.23688],[12.0346,47.23753],[12.03539,47.23802],[12.0362,47.23798],[12.03668,47.23766]]}},{"type":"Feature","properties":{"kind":"piste","difficulty":"advanced","name":"42","aerialway":null,"osm":"way/327055467"},"geometry":{"type":"LineString","coordinates":[[12.07828,47.25626],[12.07839,47.25636],[12.07854,47.25753],[12.07855,47.25721],[12.08026,47.25779],[12.08378,47.25968],[12.08605,47.26106],[12.08697,47.26135],[12.08843,47.26089],[12.08955,47.26102],[12.08808,47.26108],[12.08689,47.26186],[12.08657,47.26186],[12.08228,47.25953],[12.07825,47.2576],[12.07815,47.25733],[12.07835,47.25692],[12.07806,47.25598],[12.07828,47.25626]]}},{"type":"Feature","properties":{"kind":"piste","difficulty":"intermediate","name":"52a","aerialway":null,"osm":"way/327055468"},"geometry":{"type":"LineString","coordinates":[[12.0892,47.25985],[12.08933,47.25935],[12.08964,47.25893],[12.09197,47.25823]]}},{"type":"Feature","properties":{"kind":"piste","difficulty":"advanced","name":"Krummbach","aerialway":null,"osm":"way/327055472"},"geometry":{"type":"LineString","coordinates":[[12.05255,47.24396],[12.05275,47.24378]]}},{"type":"Feature","properties":{"kind":"piste","difficulty":"intermediate","name":"Krummbach","aerialway":null,"osm":"way/327055473"},"geometry":{"type":"LineString","coordinates":[[12.05276,47.24355],[12.05272,47.24324],[12.05285,47.24297],[12.05248,47.24287]]}},{"type":"Feature","properties":{"kind":"piste","difficulty":"advanced","name":null,"aerialway":null,"osm":"way/443171314"},"geometry":{"type":"LineString","coordinates":[[11.95493,47.24807],[11.95017,47.24809]]}},{"type":"Feature","properties":{"kind":"piste","difficulty":"easy","name":null,"aerialway":null,"osm":"way/525065519"},"geometry":{"type":"LineString","coordinates":[[12.0923,47.26024],[12.09148,47.25929]]}},{"type":"Feature","properties":{"kind":"piste","difficulty":"easy","name":null,"aerialway":null,"osm":"way/550086447"},"geometry":{"type":"LineString","coordinates":[[12.02981,47.24344],[12.03515,47.24389],[12.03548,47.24402]]}},{"type":"Feature","properties":{"kind":"piste","difficulty":"easy","name":"32","aerialway":null,"osm":"way/557476115"},"geometry":{"type":"LineString","coordinates":[[12.03856,47.24346],[12.03919,47.24345],[12.0391,47.24295],[12.03887,47.24259],[12.03917,47.2423]]}},{"type":"Feature","properties":{"kind":"piste","difficulty":"intermediate","name":"31","aerialway":null,"osm":"way/557476116"},"geometry":{"type":"LineString","coordinates":[[12.0404,47.24195],[12.03949,47.24038]]}},{"type":"Feature","properties":{"kind":"piste","difficulty":"easy","name":null,"aerialway":null,"osm":"way/588511512"},"geometry":{"type":"LineString","coordinates":[[12.09259,47.26338],[12.09222,47.26531],[12.09222,47.26604],[12.09243,47.26614]]}},{"type":"Feature","properties":{"kind":"piste","difficulty":"easy","name":null,"aerialway":null,"osm":"way/588511514"},"geometry":{"type":"LineString","coordinates":[[12.09336,47.26367],[12.09301,47.26425],[12.09256,47.26617],[12.09243,47.26614]]}},{"type":"Feature","properties":{"kind":"piste","difficulty":"easy","name":null,"aerialway":null,"osm":"way/588511734"},"geometry":{"type":"LineString","coordinates":[[12.09298,47.26314],[12.09259,47.26316]]}},{"type":"Feature","properties":{"kind":"piste","difficulty":"novice","name":null,"aerialway":null,"osm":"way/588511735"},"geometry":{"type":"LineString","coordinates":[[12.09298,47.26314],[12.09268,47.26294]]}},{"type":"Feature","properties":{"kind":"piste","difficulty":"easy","name":null,"aerialway":null,"osm":"way/588511736"},"geometry":{"type":"LineString","coordinates":[[12.09298,47.26314],[12.09331,47.26328]]}},{"type":"Feature","properties":{"kind":"piste","difficulty":"easy","name":"Skiroute Isskogel Talstation","aerialway":null,"osm":"way/663439021"},"geometry":{"type":"LineString","coordinates":[[12.05537,47.24292],[12.05548,47.24258]]}},{"type":"Feature","properties":{"kind":"piste","difficulty":"easy","name":"Skiroute Isskogel Talstation","aerialway":null,"osm":"way/689324310"},"geometry":{"type":"LineString","coordinates":[[12.05548,47.24258],[12.05527,47.24226],[12.05532,47.24173],[12.05656,47.24041],[12.05638,47.24034],[12.05515,47.24065],[12.05489,47.24049],[12.05451,47.23996],[12.0547,47.23931],[12.05433,47.23812],[12.05476,47.23764],[12.05493,47.2372],[12.05503,47.23569],[12.05477,47.2354],[12.05526,47.235],[12.05536,47.23463]]}},{"type":"Feature","properties":{"kind":"piste","difficulty":"unknown","name":null,"aerialway":null,"osm":"way/690413824"},"geometry":{"type":"LineString","coordinates":[[12.08692,47.30149],[12.08755,47.30236],[12.08825,47.30431],[12.08806,47.30484],[12.08869,47.30638],[12.08864,47.30727],[12.08898,47.30785],[12.08889,47.30956],[12.08769,47.31158],[12.08639,47.31221],[12.08477,47.31451],[12.08479,47.31574],[12.08456,47.31588],[12.08429,47.31577],[12.08284,47.31621],[12.07972,47.31805],[12.07926,47.31867],[12.07874,47.31891],[12.07676,47.32137],[12.07557,47.32132],[12.07458,47.32231],[12.07414,47.32198],[12.07375,47.32229],[12.07349,47.32304],[12.07243,47.3227],[12.0716,47.32047],[12.07149,47.32049]]}},{"type":"Feature","properties":{"kind":"piste","difficulty":"advanced","name":null,"aerialway":null,"osm":"way/753785980"},"geometry":{"type":"LineString","coordinates":[[11.9773,47.25323],[11.97452,47.2544],[11.97359,47.25502],[11.97075,47.25585]]}},{"type":"Feature","properties":{"kind":"piste","difficulty":"intermediate","name":"Verbindung Dorfbahn - Haberl","aerialway":null,"osm":"way/777171483"},"geometry":{"type":"LineString","coordinates":[[12.03667,47.22779],[12.03817,47.22848],[12.03875,47.22864],[12.03945,47.22858]]}},{"type":"Feature","properties":{"kind":"piste","difficulty":"easy","name":null,"aerialway":null,"osm":"way/987192891"},"geometry":{"type":"LineString","coordinates":[[12.00347,47.21282],[12.00341,47.21252],[12.00286,47.21231],[12.00168,47.21128],[12.00142,47.21131]]}},{"type":"Feature","properties":{"kind":"piste","difficulty":"advanced","name":"36","aerialway":null,"osm":"way/1016631819"},"geometry":{"type":"LineString","coordinates":[[12.05262,47.24358],[12.0527,47.24376],[12.05172,47.24475],[12.0511,47.24565],[12.05011,47.24652],[12.04998,47.24719],[12.04963,47.24753],[12.04821,47.24756],[12.04585,47.24721],[12.0445,47.2458],[12.04299,47.24554],[12.04226,47.24524],[12.04192,47.24504],[12.04175,47.24461],[12.04116,47.24463],[12.04073,47.24449],[12.04011,47.24424],[12.03928,47.24367],[12.03883,47.24363],[12.0384,47.244],[12.039,47.24441],[12.0414,47.24523],[12.04207,47.24577],[12.04283,47.24601],[12.04394,47.24601],[12.04434,47.24635],[12.04472,47.2471],[12.04529,47.24737],[12.04788,47.24796],[12.04928,47.24786],[12.05004,47.24768],[12.05033,47.24706],[12.05041,47.24644],[12.05155,47.24544],[12.05228,47.24436],[12.05304,47.24358],[12.05306,47.2435],[12.05262,47.24358]]}},{"type":"Feature","properties":{"kind":"piste","difficulty":"advanced","name":"Krummbach","aerialway":null,"osm":"way/1016631820"},"geometry":{"type":"LineString","coordinates":[[12.05275,47.24378],[12.05276,47.24355]]}},{"type":"Feature","properties":{"kind":"piste","difficulty":"intermediate","name":"37","aerialway":null,"osm":"way/1016631821"},"geometry":{"type":"LineString","coordinates":[[12.05983,47.24356],[12.05957,47.2434],[12.0563,47.24308],[12.05378,47.24333],[12.05262,47.24358],[12.05239,47.24319],[12.05278,47.24308],[12.05272,47.24286],[12.05288,47.24288],[12.05292,47.24316],[12.05504,47.24261],[12.05683,47.24263],[12.0582,47.24275],[12.05897,47.24304],[12.05981,47.243],[12.05983,47.24356]]}},{"type":"Feature","properties":{"kind":"piste","difficulty":"intermediate","name":"38a","aerialway":null,"osm":"way/1016631822"},"geometry":{"type":"LineString","coordinates":[[12.06376,47.24481],[12.06859,47.24689],[12.07034,47.24735],[12.07148,47.24784],[12.07175,47.24814],[12.07214,47.24807],[12.07164,47.2476],[12.06986,47.24676],[12.06903,47.24676],[12.06372,47.24458],[12.06351,47.24454],[12.06376,47.24481]]}},{"type":"Feature","properties":{"kind":"piste","difficulty":"intermediate","name":"38","aerialway":null,"osm":"way/1016631823"},"geometry":{"type":"LineString","coordinates":[[12.06348,47.24497],[12.06214,47.24432],[12.06195,47.24435],[12.0602,47.24377],[12.05983,47.24356],[12.05981,47.243],[12.06063,47.24317],[12.06078,47.24333],[12.06351,47.24454],[12.06424,47.24555],[12.06532,47.24641],[12.06833,47.24769],[12.06975,47.24809],[12.07148,47.24816],[12.07214,47.24807],[12.07382,47.24879],[12.07449,47.24912],[12.0749,47.24965],[12.07614,47.25038],[12.07672,47.25095],[12.07595,47.25125],[12.07592,47.25103],[12.07481,47.25008],[12.07221,47.2486],[12.07129,47.24846],[12.06952,47.24857],[12.06889,47.24821],[12.06649,47.24742],[12.06591,47.24702],[12.06495,47.24666],[12.06434,47.24617],[12.0639,47.24577],[12.06348,47.24497]]}},{"type":"Feature","properties":{"kind":"piste","difficulty":"advanced","name":"36a","aerialway":null,"osm":"way/1016640523"},"geometry":{"type":"LineString","coordinates":[[12.04138,47.24463],[12.04024,47.24398],[12.03925,47.24254],[12.0399,47.24255],[12.03978,47.243],[12.0401,47.24353],[12.04085,47.24412],[12.04175,47.24461],[12.04138,47.24463]]}},{"type":"Feature","properties":{"kind":"piste","difficulty":"easy","name":"32","aerialway":null,"osm":"way/1016640524"},"geometry":{"type":"LineString","coordinates":[[12.02921,47.24308],[12.02931,47.24333]]}},{"type":"Feature","properties":{"kind":"piste","difficulty":"intermediate","name":"36","aerialway":null,"osm":"way/1016640529"},"geometry":{"type":"LineString","coordinates":[[12.05248,47.24287],[12.05282,47.24288],[12.05272,47.24324]]}},{"type":"Feature","properties":{"kind":"piste","difficulty":"easy","name":"32","aerialway":null,"osm":"way/1016640530"},"geometry":{"type":"LineString","coordinates":[[12.02888,47.24262],[12.02913,47.24283],[12.02921,47.24308],[12.02953,47.2432]]}},{"type":"Feature","properties":{"kind":"piste","difficulty":"easy","name":"34","aerialway":null,"osm":"way/1016640533"},"geometry":{"type":"LineString","coordinates":[[12.0216,47.24308],[12.02199,47.24266]]}},{"type":"Feature","properties":{"kind":"piste","difficulty":"easy","name":"32","aerialway":null,"osm":"way/1016640534"},"geometry":{"type":"LineString","coordinates":[[12.02229,47.24243],[12.02199,47.24266],[12.0217,47.24254],[12.02129,47.24262]]}},{"type":"Feature","properties":{"kind":"piste","difficulty":"intermediate","name":"31a","aerialway":null,"osm":"way/1016646264"},"geometry":{"type":"LineString","coordinates":[[12.03797,47.23666],[12.03819,47.23646],[12.03816,47.23615],[12.03852,47.23605],[12.03862,47.23576],[12.03697,47.23449],[12.03681,47.23399],[12.03633,47.23355],[12.03714,47.23297],[12.03711,47.23284],[12.03732,47.23325],[12.03712,47.23352],[12.03699,47.23426],[12.03775,47.23504],[12.03873,47.23565],[12.03887,47.23586],[12.03862,47.23631],[12.03871,47.23658],[12.03797,47.23666]]}},{"type":"Feature","properties":{"kind":"piste","difficulty":"advanced","name":null,"aerialway":null,"osm":"way/1016646266"},"geometry":{"type":"LineString","coordinates":[[12.0466,47.23655],[12.0487,47.23555],[12.04853,47.23609],[12.04767,47.23675],[12.0466,47.23655]]}},{"type":"Feature","properties":{"kind":"piste","difficulty":"advanced","name":null,"aerialway":null,"osm":"way/1016646267"},"geometry":{"type":"LineString","coordinates":[[12.0404,47.23683],[12.04142,47.23679],[12.04377,47.23614],[12.04327,47.23598],[12.04266,47.23629],[12.04096,47.23638],[12.04088,47.23657],[12.0404,47.23683]]}},{"type":"Feature","properties":{"kind":"piste","difficulty":"intermediate","name":null,"aerialway":null,"osm":"way/1016646272"},"geometry":{"type":"LineString","coordinates":[[12.03854,47.23626],[12.03835,47.23606],[12.03837,47.23589],[12.03872,47.23593]]}},{"type":"Feature","properties":{"kind":"piste","difficulty":"intermediate","name":null,"aerialway":null,"osm":"way/1016646273"},"geometry":{"type":"LineString","coordinates":[[12.03779,47.23807],[12.03669,47.23795],[12.03649,47.23727],[12.03797,47.23666],[12.03979,47.23652],[12.04024,47.23638],[12.04055,47.23557],[12.04091,47.23537],[12.04289,47.2356],[12.04579,47.2365],[12.04767,47.23675],[12.04863,47.23728],[12.04853,47.23609],[12.0489,47.23492],[12.04846,47.23295],[12.04853,47.2312],[12.04844,47.23032],[12.04916,47.22966],[12.04862,47.23025],[12.04933,47.23439],[12.04889,47.2361],[12.04893,47.23731],[12.04876,47.2375],[12.04844,47.23748],[12.04723,47.2368],[12.04507,47.2367],[12.04408,47.23621],[12.04175,47.23558],[12.04147,47.23565],[12.04109,47.236],[12.04088,47.23657],[12.0404,47.23683],[12.03881,47.23701],[12.03726,47.23769],[12.03718,47.2378],[12.03779,47.23807]]}},{"type":"Feature","properties":{"kind":"piste","difficulty":"advanced","name":"31b","aerialway":null,"osm":"way/1016646274"},"geometry":{"type":"LineString","coordinates":[[12.03853,47.24055],[12.03795,47.24072],[12.03829,47.2404],[12.03769,47.2396],[12.03655,47.23893],[12.0356,47.23857],[12.03552,47.23832],[12.03567,47.23785],[12.03649,47.23727],[12.03669,47.23795],[12.03616,47.23826],[12.036,47.23852],[12.03733,47.23908],[12.03804,47.23975],[12.03853,47.24055]]}},{"type":"Feature","properties":{"kind":"piste","difficulty":"advanced","name":"33a","aerialway":null,"osm":"way/1016646275"},"geometry":{"type":"LineString","coordinates":[[12.02819,47.23796],[12.02844,47.23741],[12.02938,47.23692],[12.03111,47.2366],[12.03214,47.23659],[12.03308,47.23662],[12.03419,47.23698],[12.03453,47.23754],[12.03542,47.23805],[12.03559,47.23804],[12.03487,47.23771],[12.03465,47.23751],[12.03442,47.23688],[12.03394,47.23655],[12.03343,47.23637],[12.03151,47.23628],[12.02966,47.23653],[12.0285,47.23693],[12.02793,47.23722],[12.02796,47.2376],[12.02819,47.23796]]}},{"type":"Feature","properties":{"kind":"piste","difficulty":"intermediate","name":"33","aerialway":null,"osm":"way/1016646276"},"geometry":{"type":"LineString","coordinates":[[12.02769,47.23714],[12.02793,47.23722],[12.02796,47.2376],[12.02819,47.23796],[12.02487,47.24219],[12.02437,47.24247],[12.02342,47.24242],[12.02769,47.23714]]}},{"type":"Feature","properties":{"kind":"piste","difficulty":"intermediate","name":"40b","aerialway":null,"osm":"way/1016648689"},"geometry":{"type":"LineString","coordinates":[[12.08372,47.25395],[12.08269,47.25449],[12.08029,47.25523],[12.07909,47.25543],[12.07756,47.25529],[12.07629,47.25472],[12.07602,47.25483],[12.0759,47.25448],[12.07629,47.25454],[12.07679,47.25488],[12.07744,47.25511],[12.07907,47.25517],[12.08132,47.25454],[12.08282,47.25377],[12.08372,47.25395]]}},{"type":"Feature","properties":{"kind":"piste","difficulty":"intermediate","name":"40","aerialway":null,"osm":"way/1016648690"},"geometry":{"type":"LineString","coordinates":[[12.07604,47.25494],[12.07596,47.25504],[12.07605,47.25522],[12.07649,47.25549],[12.0776,47.25573],[12.07799,47.25592],[12.07839,47.25636],[12.07885,47.25659],[12.07941,47.25665],[12.08084,47.25644],[12.08572,47.25511],[12.08671,47.25494],[12.08581,47.25455],[12.08075,47.25615],[12.07976,47.25631],[12.07933,47.25624],[12.0788,47.25582],[12.07638,47.25522],[12.07623,47.25514],[12.07633,47.25499],[12.07612,47.25481],[12.07604,47.25494]]}},{"type":"Feature","properties":{"kind":"piste","difficulty":"intermediate","name":"39","aerialway":null,"osm":"way/1016648691"},"geometry":{"type":"LineString","coordinates":[[12.07672,47.25095],[12.07736,47.25225],[12.07782,47.25249],[12.08079,47.2528],[12.08376,47.25343],[12.08535,47.25354],[12.0869,47.25396],[12.08763,47.25466],[12.08835,47.25717],[12.08952,47.25868],[12.08937,47.26002],[12.08951,47.26081],[12.08924,47.26098],[12.08894,47.26031],[12.08903,47.25934],[12.08895,47.25875],[12.08792,47.25739],[12.08725,47.25551],[12.08665,47.25489],[12.08453,47.25412],[12.08233,47.25371],[12.08173,47.25323],[12.07952,47.25296],[12.07798,47.25297],[12.07748,47.25278],[12.07642,47.25185],[12.07595,47.25125],[12.07672,47.25095]]}},{"type":"Feature","properties":{"kind":"piste","difficulty":"intermediate","name":"52","aerialway":null,"osm":"way/1016655324"},"geometry":{"type":"LineString","coordinates":[[12.08955,47.26102],[12.08967,47.26069],[12.09073,47.25981]]}},{"type":"Feature","properties":{"kind":"piste","difficulty":"intermediate","name":null,"aerialway":null,"osm":"way/1016686168"},"geometry":{"type":"LineString","coordinates":[[11.97749,47.25326],[11.97528,47.25195],[11.97474,47.25192],[11.97372,47.25241],[11.9732,47.25237],[11.97249,47.25201],[11.97153,47.25202],[11.97149,47.25212],[11.97239,47.2522],[11.97394,47.25267],[11.97415,47.25262],[11.97446,47.25223],[11.97499,47.25216],[11.97609,47.25255],[11.97688,47.25315],[11.97676,47.25325],[11.97716,47.25354],[11.97749,47.25326]]}},{"type":"Feature","properties":{"kind":"piste","difficulty":"advanced","name":null,"aerialway":null,"osm":"way/1016686169"},"geometry":{"type":"LineString","coordinates":[[11.97143,47.25557],[11.97177,47.25549],[11.9719,47.25528],[11.97223,47.25513],[11.97368,47.2547],[11.97444,47.25414],[11.97645,47.25346],[11.97676,47.25325],[11.97716,47.25354],[11.97649,47.25398],[11.97488,47.25456],[11.97374,47.25518],[11.9712,47.25582],[11.97143,47.25557]]}},{"type":"Feature","properties":{"kind":"piste","difficulty":"intermediate","name":null,"aerialway":null,"osm":"way/1016686170"},"geometry":{"type":"LineString","coordinates":[[11.9558,47.26059],[11.95547,47.26088],[11.95478,47.2608],[11.95545,47.2601],[11.95879,47.25797],[11.96246,47.25715],[11.96388,47.25625],[11.9653,47.25566],[11.96625,47.25554],[11.96721,47.25585],[11.96851,47.256],[11.9695,47.25595],[11.97085,47.25556],[11.97094,47.2553],[11.97081,47.25494],[11.97139,47.25404],[11.9714,47.25371],[11.97067,47.25236],[11.97062,47.25217],[11.97073,47.25207],[11.97117,47.25211],[11.97104,47.25227],[11.97172,47.25366],[11.97233,47.25327],[11.97298,47.25255],[11.97371,47.25255],[11.97394,47.25267],[11.97344,47.25281],[11.97255,47.25345],[11.97173,47.25465],[11.97127,47.25494],[11.97126,47.25515],[11.97144,47.25536],[11.97141,47.25564],[11.971,47.25599],[11.97015,47.25642],[11.9691,47.25627],[11.96772,47.25631],[11.96636,47.25603],[11.96568,47.2561],[11.96415,47.25663],[11.96265,47.25751],[11.96093,47.25802],[11.95981,47.25813],[11.95919,47.2584],[11.9558,47.26059]]}},{"type":"Feature","properties":{"kind":"piste","difficulty":"intermediate","name":null,"aerialway":null,"osm":"way/1016722649"},"geometry":{"type":"LineString","coordinates":[[11.99405,47.26233],[11.99568,47.26229],[11.99733,47.2616],[11.99616,47.26188],[11.99553,47.26222],[11.99401,47.26218],[11.99284,47.26152],[11.99167,47.26159],[11.99077,47.26141],[11.99016,47.26058],[11.98804,47.26002],[11.98747,47.26004],[11.98564,47.25965],[11.98389,47.25874],[11.98334,47.25773],[11.98222,47.25679],[11.98163,47.25566],[11.98099,47.25534],[11.98054,47.25485],[11.98028,47.25468],[11.97962,47.25459],[11.97867,47.25425],[11.97786,47.25362],[11.97757,47.25374],[11.97835,47.25459],[11.97924,47.25474],[11.9805,47.25518],[11.9807,47.25545],[11.98147,47.25592],[11.98167,47.25664],[11.98197,47.25697],[11.98243,47.25718],[11.98265,47.25768],[11.98304,47.25788],[11.98382,47.25908],[11.98489,47.25985],[11.98592,47.26017],[11.98791,47.26021],[11.9896,47.26058],[11.99014,47.26086],[11.99028,47.26116],[11.99067,47.2615],[11.99133,47.26174],[11.99253,47.26188],[11.9931,47.26225],[11.99405,47.26233]]}},{"type":"Feature","properties":{"kind":"piste","difficulty":"intermediate","name":null,"aerialway":null,"osm":"way/1016722650"},"geometry":{"type":"LineString","coordinates":[[12.00458,47.25068],[12.00416,47.25049],[12.00339,47.25106],[12.00289,47.25207],[12.00211,47.25272],[12.0019,47.2532],[12.00183,47.25401],[12.00143,47.25464],[12.00101,47.25478],[12.00098,47.25555],[12.00121,47.25588],[12.00142,47.25701],[12.00134,47.25779],[12.00161,47.25825],[12.00151,47.25859],[12.00111,47.2589],[12.00143,47.25911],[12.00209,47.25892],[12.00166,47.25897],[12.00197,47.25853],[12.00176,47.25786],[12.00177,47.25743],[12.00214,47.25664],[12.00153,47.25538],[12.00165,47.25479],[12.0024,47.25404],[12.0026,47.25289],[12.0036,47.25186],[12.00385,47.25108],[12.00458,47.25068]]}},{"type":"Feature","properties":{"kind":"piste","difficulty":"intermediate","name":null,"aerialway":null,"osm":"way/1016734450"},"geometry":{"type":"LineString","coordinates":[[11.96233,47.24618],[11.96278,47.24646],[11.96312,47.24647],[11.96307,47.24634],[11.96238,47.24599],[11.96178,47.2459],[11.96096,47.24599],[11.96002,47.24646],[11.95891,47.24652],[11.9576,47.24735],[11.95616,47.24773],[11.95676,47.24815],[11.95867,47.2475],[11.9613,47.24623],[11.96233,47.24618]]}},{"type":"Feature","properties":{"kind":"piste","difficulty":"intermediate","name":null,"aerialway":null,"osm":"way/1016734451"},"geometry":{"type":"LineString","coordinates":[[11.96394,47.2474],[11.96414,47.24739],[11.96416,47.24726],[11.96317,47.24701]]}},{"type":"Feature","properties":{"kind":"piste","difficulty":"intermediate","name":null,"aerialway":null,"osm":"way/1016734452"},"geometry":{"type":"LineString","coordinates":[[11.96304,47.24679],[11.96294,47.24645],[11.96251,47.24617],[11.96137,47.24606],[11.95935,47.24705],[11.95607,47.24805]]}},{"type":"Feature","properties":{"kind":"piste","difficulty":"advanced","name":null,"aerialway":null,"osm":"way/1016734453"},"geometry":{"type":"LineString","coordinates":[[11.95053,47.24825],[11.95035,47.24809],[11.95035,47.24777],[11.95221,47.24796],[11.95455,47.24794],[11.95487,47.24821],[11.95277,47.24831],[11.95053,47.24825]]}},{"type":"Feature","properties":{"kind":"piste","difficulty":"intermediate","name":null,"aerialway":null,"osm":"way/1016734465"},"geometry":{"type":"LineString","coordinates":[[11.95939,47.2412],[11.95966,47.24214],[11.95962,47.24283]]}},{"type":"Feature","properties":{"kind":"piste","difficulty":"intermediate","name":null,"aerialway":null,"osm":"way/1016734469"},"geometry":{"type":"LineString","coordinates":[[11.95939,47.2412],[11.95922,47.24057],[11.95836,47.24007],[11.95721,47.23987]]}},{"type":"Feature","properties":{"kind":"piste","difficulty":"easy","name":null,"aerialway":null,"osm":"way/1016734470"},"geometry":{"type":"LineString","coordinates":[[11.95715,47.2396],[11.95799,47.23939],[11.95805,47.23968],[11.95762,47.24005],[11.95686,47.2402],[11.9559,47.24025],[11.95559,47.23997],[11.95515,47.23984],[11.95715,47.2396]]}},{"type":"Feature","properties":{"kind":"piste","difficulty":"easy","name":null,"aerialway":null,"osm":"way/1016734471"},"geometry":{"type":"LineString","coordinates":[[11.95812,47.23946],[11.95783,47.23948]]}},{"type":"Feature","properties":{"kind":"piste","difficulty":"intermediate","name":null,"aerialway":null,"osm":"way/1016734472"},"geometry":{"type":"LineString","coordinates":[[11.95931,47.24122],[11.95963,47.24111],[11.95968,47.24089],[11.95919,47.24015],[11.95822,47.23969],[11.95805,47.23968],[11.95762,47.24005],[11.95803,47.24013],[11.95902,47.24068],[11.95929,47.24096],[11.95931,47.24122]]}},{"type":"Feature","properties":{"kind":"piste","difficulty":"intermediate","name":null,"aerialway":null,"osm":"way/1016734473"},"geometry":{"type":"LineString","coordinates":[[11.9592,47.24125],[11.95939,47.2412]]}},{"type":"Feature","properties":{"kind":"piste","difficulty":"intermediate","name":null,"aerialway":null,"osm":"way/1016734482"},"geometry":{"type":"LineString","coordinates":[[11.95449,47.25098],[11.95401,47.2514],[11.952,47.25219],[11.95125,47.25201],[11.95126,47.25174],[11.95088,47.25144],[11.95052,47.2514],[11.94994,47.25102],[11.94978,47.25063],[11.9495,47.25094],[11.94957,47.25113],[11.95114,47.2525],[11.95211,47.25257],[11.95429,47.25228],[11.95588,47.25272],[11.95588,47.25231],[11.95436,47.25183],[11.95486,47.25104],[11.95449,47.25098]]}},{"type":"Feature","properties":{"kind":"piste","difficulty":"intermediate","name":null,"aerialway":null,"osm":"way/1016734483"},"geometry":{"type":"LineString","coordinates":[[11.9703,47.25147],[11.97018,47.25159],[11.96975,47.25152],[11.96913,47.25101],[11.96802,47.2504],[11.96794,47.25017],[11.96765,47.25007],[11.96714,47.24948],[11.96605,47.24864],[11.96527,47.24842],[11.96436,47.24836],[11.96376,47.24804],[11.96334,47.24738],[11.96281,47.24692],[11.96109,47.24757],[11.96011,47.24885],[11.95932,47.24941],[11.95712,47.24977],[11.95621,47.2498],[11.95546,47.25045],[11.95518,47.25096],[11.95493,47.25105],[11.95414,47.25081],[11.95476,47.25068],[11.95517,47.24988],[11.95569,47.24979],[11.9561,47.24944],[11.95623,47.24894],[11.95612,47.24825],[11.95487,47.24821],[11.9527,47.24677],[11.95239,47.24668],[11.95147,47.24676],[11.95094,47.24715],[11.95035,47.24777],[11.95035,47.24809],[11.95053,47.24825],[11.95044,47.2483],[11.94953,47.24776],[11.94828,47.24777],[11.94778,47.24759],[11.94713,47.24707],[11.94778,47.24693],[11.94839,47.24725],[11.95006,47.24735],[11.95052,47.24725],[11.95162,47.24632],[11.95219,47.24625],[11.95259,47.24642],[11.95342,47.24707],[11.95459,47.24757],[11.95616,47.24773],[11.95676,47.24815],[11.95681,47.24908],[11.95715,47.24937],[11.95743,47.24944],[11.95927,47.24898],[11.95984,47.24854],[11.96022,47.24779],[11.96058,47.24753],[11.96192,47.24687],[11.96224,47.24657],[11.96312,47.24647],[11.96437,47.24721],[11.96422,47.24746],[11.96362,47.2473],[11.96363,47.2475],[11.9639,47.24773],[11.96454,47.24807],[11.96617,47.24832],[11.96764,47.2496],[11.96918,47.25029],[11.96929,47.25051],[11.96981,47.2509],[11.96968,47.2512],[11.96978,47.25131],[11.9703,47.25147]]}},{"type":"Feature","properties":{"kind":"piste","difficulty":"intermediate","name":null,"aerialway":null,"osm":"way/1016734484"},"geometry":{"type":"LineString","coordinates":[[11.97117,47.25211],[11.97149,47.25212],[11.97153,47.25202],[11.97133,47.25182],[11.97045,47.25146],[11.9702,47.25153],[11.97025,47.25175],[11.97073,47.25207],[11.97117,47.25211]]}},{"type":"Feature","properties":{"kind":"piste","difficulty":"intermediate","name":null,"aerialway":null,"osm":"way/1016734485"},"geometry":{"type":"LineString","coordinates":[[11.96836,47.25057],[11.96802,47.2504],[11.96692,47.2511],[11.96611,47.25223],[11.96569,47.25262],[11.96166,47.25323],[11.96095,47.25303],[11.96045,47.25233],[11.96013,47.25219],[11.95945,47.25221],[11.95792,47.25271],[11.95641,47.25256],[11.95507,47.25101],[11.95493,47.25105],[11.95586,47.25221],[11.95588,47.25272],[11.95816,47.25291],[11.95985,47.25248],[11.96089,47.25337],[11.96191,47.25358],[11.96517,47.25307],[11.96627,47.25268],[11.96729,47.25135],[11.96786,47.25078],[11.96836,47.25057]]}},{"type":"Feature","properties":{"kind":"piste","difficulty":"intermediate","name":"31a","aerialway":null,"osm":"way/1029279134"},"geometry":{"type":"LineString","coordinates":[[12.03523,47.22656],[12.03471,47.226]]}},{"type":"Feature","properties":{"kind":"piste","difficulty":"easy","name":"Skiroute Isskogel Talstation","aerialway":null,"osm":"way/1099422635"},"geometry":{"type":"LineString","coordinates":[[12.05536,47.23463],[12.05516,47.23386],[12.05412,47.23317],[12.05342,47.23205],[12.05212,47.23138],[12.05125,47.23038],[12.05017,47.2297],[12.04973,47.22925]]}},{"type":"Feature","properties":{"kind":"piste","difficulty":"intermediate","name":null,"aerialway":null,"osm":"way/1123425583"},"geometry":{"type":"LineString","coordinates":[[11.97812,47.25349],[11.9773,47.25323]]}},{"type":"Feature","properties":{"kind":"piste","difficulty":"easy","name":null,"aerialway":null,"osm":"way/1259807286"},"geometry":{"type":"LineString","coordinates":[[12.09331,47.26328],[12.09359,47.26345],[12.09336,47.26367]]}},{"type":"Feature","properties":{"kind":"piste","difficulty":"easy","name":null,"aerialway":null,"osm":"way/1260599650"},"geometry":{"type":"LineString","coordinates":[[12.09237,47.26275],[12.09205,47.2629],[12.09221,47.26318],[12.09259,47.26316],[12.09259,47.26338],[12.09211,47.26359],[12.09202,47.26387],[12.09241,47.26436]]}},{"type":"Feature","properties":{"kind":"piste","difficulty":"easy","name":null,"aerialway":null,"osm":"way/1260599651"},"geometry":{"type":"LineString","coordinates":[[12.09211,47.26359],[12.09168,47.2636]]}},{"type":"Feature","properties":{"kind":"piste","difficulty":"intermediate","name":null,"aerialway":null,"osm":"way/1321689594"},"geometry":{"type":"LineString","coordinates":[[12.00482,47.25071],[12.00481,47.25056],[12.00428,47.25059]]}},{"type":"Feature","properties":{"kind":"piste","difficulty":"easy","name":null,"aerialway":null,"osm":"way/1321689595"},"geometry":{"type":"LineString","coordinates":[[12.00447,47.25035],[12.00481,47.25056]]}},{"type":"Feature","properties":{"kind":"piste","difficulty":"easy","name":null,"aerialway":null,"osm":"way/1370949559"},"geometry":{"type":"LineString","coordinates":[[12.02958,47.24345],[12.03009,47.24367],[12.03116,47.2445]]}},{"type":"Feature","properties":{"kind":"piste","difficulty":"easy","name":null,"aerialway":null,"osm":"way/1370949560"},"geometry":{"type":"LineString","coordinates":[[12.03127,47.2444],[12.03096,47.24416],[12.03089,47.24378],[12.031,47.24356]]}},{"type":"Feature","properties":{"kind":"piste","difficulty":"intermediate","name":null,"aerialway":null,"osm":"way/1370949561"},"geometry":{"type":"LineString","coordinates":[[12.03872,47.23593],[12.0395,47.23602],[12.03962,47.23613],[12.0397,47.23665]]}},{"type":"Feature","properties":{"kind":"piste","difficulty":"intermediate","name":"15","aerialway":null,"osm":"way/1370950933"},"geometry":{"type":"LineString","coordinates":[[11.95898,47.245],[11.95959,47.24546],[11.95903,47.24596]]}},{"type":"Feature","properties":{"kind":"piste","difficulty":"freeride","name":"ehemalige Mittelstationspiste","aerialway":null,"osm":"way/1375450927"},"geometry":{"type":"LineString","coordinates":[[11.9943,47.2623],[11.9955,47.26305],[11.99683,47.26286],[11.99747,47.26158]]}},{"type":"Feature","properties":{"kind":"piste","difficulty":"unknown","name":null,"aerialway":null,"osm":"way/1467090230"},"geometry":{"type":"LineString","coordinates":[[12.06204,47.2862],[12.06321,47.28574],[12.06436,47.28582],[12.06497,47.28681],[12.06628,47.28759],[12.0681,47.29003],[12.07107,47.29039],[12.07294,47.29105],[12.07559,47.29087],[12.07758,47.28975],[12.07989,47.29037],[12.08363,47.29509],[12.08672,47.30068],[12.08692,47.30149]]}},{"type":"Feature","properties":{"kind":"piste","difficulty":"unknown","name":null,"aerialway":null,"osm":"way/1467090321"},"geometry":{"type":"LineString","coordinates":[[12.07147,47.29828],[12.07199,47.29848],[12.07282,47.29948],[12.07314,47.29941],[12.07358,47.30006],[12.07493,47.30075],[12.07506,47.30115],[12.07535,47.30094],[12.07676,47.30137],[12.07747,47.30138],[12.07829,47.30194],[12.0793,47.30155],[12.08144,47.30231],[12.08172,47.30216],[12.08277,47.303],[12.08321,47.30282],[12.08357,47.30306],[12.08465,47.30275],[12.0848,47.30326],[12.08557,47.30368],[12.08635,47.30363],[12.08692,47.30229],[12.08692,47.30149]]}},{"type":"Feature","properties":{"kind":"piste","difficulty":"easy","name":null,"aerialway":null,"osm":"way/1473393039"},"geometry":{"type":"LineString","coordinates":[[12.00859,47.248],[12.00781,47.24821],[12.00591,47.24935],[12.00525,47.25014],[12.00509,47.25055],[12.00483,47.25047],[12.00564,47.24934],[12.00791,47.24796],[12.00989,47.24783],[12.0114,47.24741],[12.01247,47.24689],[12.01336,47.24615],[12.01439,47.24572],[12.01494,47.24565],[12.01733,47.2441],[12.0186,47.24401],[12.0198,47.24369],[12.02155,47.24289],[12.0216,47.24308],[12.02194,47.2432],[12.01961,47.24404],[12.01754,47.24433],[12.01691,47.24463],[12.01632,47.24528],[12.01372,47.24621],[12.01176,47.24751],[12.01014,47.24796],[12.00859,47.248]]}},{"type":"Feature","properties":{"kind":"piste","difficulty":"intermediate","name":"Wilde Krimml","aerialway":null,"osm":"way/1551039783"},"geometry":{"type":"LineString","coordinates":[[11.99747,47.26158],[11.99864,47.2616],[11.99925,47.26119],[11.99929,47.26052],[11.99904,47.25945],[11.99929,47.2592],[12.00006,47.25895],[12.0022,47.25895]]}},{"type":"Feature","properties":{"kind":"piste","difficulty":"easy","name":null,"aerialway":null,"osm":"way/1551933081"},"geometry":{"type":"LineString","coordinates":[[12.03108,47.24444],[12.03125,47.24438]]}},{"type":"Feature","properties":{"kind":"piste","difficulty":"novice","name":null,"aerialway":null,"osm":"way/1551933082"},"geometry":{"type":"LineString","coordinates":[[12.03376,47.24382],[12.03324,47.24419],[12.03311,47.24447],[12.03506,47.24544],[12.03568,47.24641],[12.03554,47.24658]]}},{"type":"Feature","properties":{"kind":"piste","difficulty":"novice","name":null,"aerialway":null,"osm":"way/1551933083"},"geometry":{"type":"LineString","coordinates":[[12.03294,47.24469],[12.03437,47.24459],[12.03505,47.24438],[12.03525,47.24445],[12.03529,47.2447]]}},{"type":"Feature","properties":{"kind":"piste","difficulty":"novice","name":null,"aerialway":null,"osm":"way/1551933084"},"geometry":{"type":"LineString","coordinates":[[12.03529,47.2447],[12.03503,47.24502],[12.03489,47.2455]]}},{"type":"Feature","properties":{"kind":"piste","difficulty":"novice","name":null,"aerialway":null,"osm":"way/1551933085"},"geometry":{"type":"LineString","coordinates":[[12.03479,47.24556],[12.03489,47.2455]]}},{"type":"Feature","properties":{"kind":"piste","difficulty":"easy","name":"32","aerialway":null,"osm":"relation/13612232"},"geometry":{"type":"MultiLineString","coordinates":[[[12.02163,47.24245],[12.02199,47.2424],[12.02217,47.24278],[12.02246,47.2428],[12.02303,47.24267],[12.02342,47.24242],[12.02437,47.24247],[12.02487,47.24219],[12.02775,47.24227],[12.03033,47.24251],[12.03232,47.24234],[12.0336,47.24188],[12.03522,47.24201],[12.03892,47.24195],[12.04019,47.24233],[12.04028,47.24204],[12.04051,47.24197],[12.04057,47.24206],[12.04042,47.24251],[12.03896,47.24262],[12.03923,47.24295],[12.03928,47.24367],[12.03883,47.24363],[12.0384,47.244],[12.03777,47.24379],[12.03613,47.24367],[12.03558,47.24392],[12.03536,47.24454],[12.03535,47.24419],[12.03523,47.24413],[12.03279,47.24386],[12.03179,47.24396],[12.02996,47.24377],[12.02841,47.24303],[12.02754,47.24279],[12.0265,47.24295],[12.02463,47.24278],[12.02348,47.24292],[12.02305,47.24311],[12.02194,47.2432],[12.0216,47.24308],[12.02155,47.24289],[12.02176,47.24275],[12.02163,47.24245]],[[12.02939,47.2432],[12.02944,47.2434],[12.02971,47.24338],[12.02972,47.24315],[12.02939,47.2432]],[[12.0356,47.24238],[12.03582,47.2427],[12.03618,47.24286],[12.0368,47.24275],[12.03629,47.24231],[12.03569,47.24225],[12.0356,47.24238]],[[12.03848,47.24259],[12.03852,47.24242],[12.03879,47.24237],[12.03916,47.24336],[12.03896,47.24333],[12.03848,47.24259]],[[12.03827,47.24312],[12.03857,47.24336],[12.03878,47.24324],[12.0388,47.24308],[12.03854,47.24299],[12.03827,47.24312]]]}},{"type":"Feature","properties":{"kind":"piste","difficulty":"intermediate","name":"31","aerialway":null,"osm":"relation/13612345"},"geometry":{"type":"MultiLineString","coordinates":[[[12.0336,47.24188],[12.03853,47.24055],[12.03925,47.24016],[12.03968,47.24077],[12.03848,47.24156],[12.03844,47.2417],[12.03892,47.24195],[12.03522,47.24201],[12.0336,47.24188]],[[12.03739,47.24141],[12.03781,47.24166],[12.03803,47.24153],[12.03764,47.24123],[12.03739,47.24141]]]}},{"type":"Feature","properties":{"kind":"piste","difficulty":"intermediate","name":null,"aerialway":null,"osm":"relation/13613309"},"geometry":{"type":"MultiLineString","coordinates":[[[11.95931,47.24122],[11.95951,47.24176],[11.95957,47.24267],[11.95787,47.24271],[11.95761,47.24249],[11.95694,47.24258],[11.95675,47.24279],[11.95664,47.24357],[11.95642,47.2438],[11.95547,47.2437],[11.9546,47.24377],[11.95415,47.24366],[11.95373,47.24337],[11.95251,47.24367],[11.95137,47.24373],[11.95012,47.24406],[11.94865,47.24533],[11.94846,47.24563],[11.94828,47.2464],[11.94806,47.24658],[11.94775,47.24665],[11.94682,47.24632],[11.9464,47.24636],[11.94478,47.24609],[11.94312,47.24636],[11.94259,47.2466],[11.93961,47.24632],[11.93921,47.2465],[11.93985,47.24705],[11.94057,47.24732],[11.94152,47.24744],[11.94224,47.24747],[11.94539,47.24675],[11.94713,47.24707],[11.94793,47.2469],[11.94878,47.24647],[11.94892,47.24559],[11.94942,47.24495],[11.95003,47.2447],[11.95044,47.24437],[11.95303,47.24393],[11.95369,47.24399],[11.95462,47.24432],[11.95594,47.24425],[11.95639,47.24443],[11.9568,47.24421],[11.95702,47.24322],[11.95719,47.24305],[11.95861,47.24296],[11.95951,47.24305],[11.95983,47.2428],[11.95963,47.24111],[11.95931,47.24122]],[[11.94315,47.24678],[11.94347,47.24674],[11.94358,47.24657],[11.94336,47.24654],[11.94315,47.24678]],[[11.94114,47.24719],[11.94112,47.24673],[11.94171,47.24678],[11.94173,47.24717],[11.94114,47.24719]]]}},{"type":"Feature","properties":{"kind":"lift","difficulty":null,"name":"Isskogelbahn","aerialway":"gondola","osm":"way/26948249"},"geometry":{"type":"LineString","coordinates":[[12.04903,47.22962],[12.03529,47.2447]]}},{"type":"Feature","properties":{"kind":"lift","difficulty":null,"name":"Karspitz X-Press","aerialway":"chair_lift","osm":"way/29149340"},"geometry":{"type":"LineString","coordinates":[[11.93884,47.24567],[11.9592,47.24125]]}},{"type":"Feature","properties":{"kind":"lift","difficulty":null,"name":"Kreuzjoch X-Press","aerialway":"chair_lift","osm":"way/29149586"},"geometry":{"type":"LineString","coordinates":[[11.9541,47.25061],[11.97009,47.25173]]}},{"type":"Feature","properties":{"kind":"lift","difficulty":null,"name":"Hanser X-Press","aerialway":"chair_lift","osm":"way/29149587"},"geometry":{"type":"LineString","coordinates":[[11.94442,47.24872],[11.96394,47.2474]]}},{"type":"Feature","properties":{"kind":"lift","difficulty":null,"name":"Teufeltal","aerialway":"chair_lift","osm":"way/31895940"},"geometry":{"type":"LineString","coordinates":[[12.0022,47.25895],[12.00482,47.25071]]}},{"type":"Feature","properties":{"kind":"lift","difficulty":null,"name":"Krummbach X-Press","aerialway":"chair_lift","osm":"way/46766438"},"geometry":{"type":"LineString","coordinates":[[12.05248,47.24287],[12.02953,47.2432]]}},{"type":"Feature","properties":{"kind":"lift","difficulty":null,"name":"Vorkogel","aerialway":"t-bar","osm":"way/46766439"},"geometry":{"type":"LineString","coordinates":[[12.02764,47.2371],[12.02277,47.24293]]}},{"type":"Feature","properties":{"kind":"lift","difficulty":null,"name":"Ebenfeld X-Press","aerialway":"chair_lift","osm":"way/46766440"},"geometry":{"type":"LineString","coordinates":[[12.04016,47.2419],[12.02226,47.24269]]}},{"type":"Feature","properties":{"kind":"lift","difficulty":null,"name":"Stuanmandlbahn","aerialway":"gondola","osm":"way/46766442"},"geometry":{"type":"LineString","coordinates":[[12.02129,47.24262],[12.00447,47.25035]]}},{"type":"Feature","properties":{"kind":"lift","difficulty":null,"name":"Falschbach","aerialway":"gondola","osm":"way/46766443"},"geometry":{"type":"LineString","coordinates":[[12.07645,47.25509],[12.08926,47.26137]]}},{"type":"Feature","properties":{"kind":"lift","difficulty":null,"name":"Fussalm X-Press","aerialway":"chair_lift","osm":"way/46766444"},"geometry":{"type":"LineString","coordinates":[[12.0596,47.24279],[12.0781,47.25048]]}},{"type":"Feature","properties":{"kind":"lift","difficulty":null,"name":"Moseltret X-Press","aerialway":"chair_lift","osm":"way/46766445"},"geometry":{"type":"LineString","coordinates":[[12.05244,47.24304],[12.06094,47.24295]]}},{"type":"Feature","properties":{"kind":"lift","difficulty":null,"name":"Kröllerlift","aerialway":"platter","osm":"way/128633987"},"geometry":{"type":"LineString","coordinates":[[12.00139,47.21128],[12.00363,47.21294]]}},{"type":"Feature","properties":{"kind":"lift","difficulty":null,"name":null,"aerialway":"magic_carpet","osm":"way/344388795"},"geometry":{"type":"LineString","coordinates":[[12.03489,47.2455],[12.03294,47.24469]]}},{"type":"Feature","properties":{"kind":"lift","difficulty":null,"name":null,"aerialway":"magic_carpet","osm":"way/344889632"},"geometry":{"type":"LineString","coordinates":[[12.03554,47.24658],[12.03479,47.24556]]}},{"type":"Feature","properties":{"kind":"lift","difficulty":null,"name":null,"aerialway":"magic_carpet","osm":"way/344889633"},"geometry":{"type":"LineString","coordinates":[[12.03582,47.24441],[12.03581,47.24455]]}},{"type":"Feature","properties":{"kind":"lift","difficulty":null,"name":"Mühlachalm","aerialway":"rope_tow","osm":"way/443168176"},"geometry":{"type":"LineString","coordinates":[[12.09243,47.26614],[12.09298,47.26314]]}},{"type":"Feature","properties":{"kind":"lift","difficulty":null,"name":"Dorfbahn Gerlos II","aerialway":"gondola","osm":"way/444437080"},"geometry":{"type":"LineString","coordinates":[[12.03837,47.23589],[12.02229,47.24243]]}},{"type":"Feature","properties":{"kind":"lift","difficulty":null,"name":"Zip Line GipfelLiner","aerialway":"zip_line","osm":"way/607958253"},"geometry":{"type":"LineString","coordinates":[[12.09017,47.26246],[12.08619,47.26548]]}},{"type":"Feature","properties":{"kind":"lift","difficulty":null,"name":"Kapauns","aerialway":"chair_lift","osm":"way/776227468"},"geometry":{"type":"LineString","coordinates":[[11.95539,47.26108],[11.97721,47.25367]]}},{"type":"Feature","properties":{"kind":"lift","difficulty":null,"name":"Wilde Krimml","aerialway":"gondola","osm":"way/776227469"},"geometry":{"type":"LineString","coordinates":[[12.00091,47.25911],[11.97812,47.25349]]}},{"type":"Feature","properties":{"kind":"lift","difficulty":null,"name":"Kinderland Mühlachalm","aerialway":"rope_tow","osm":"way/1260599649"},"geometry":{"type":"LineString","coordinates":[[12.09168,47.2636],[12.09259,47.26316]]}},{"type":"Feature","properties":{"kind":"lift","difficulty":null,"name":"Dorfbahn Gerlos I","aerialway":"gondola","osm":"way/1495266790"},"geometry":{"type":"LineString","coordinates":[[12.03446,47.2261],[12.03837,47.23589]]}}]}