{"type":"FeatureCollection","features":[{"type":"Feature","properties":{"kind":"piste","difficulty":"easy","name":"Tuxerjoch","aerialway":null,"osm":"way/4388466"},"geometry":{"type":"LineString","coordinates":[[11.6474,47.09382],[11.64712,47.0938],[11.64682,47.09423],[11.64692,47.09501],[11.6475,47.09591],[11.64814,47.09755],[11.64878,47.09851],[11.64897,47.0985],[11.64973,47.09789],[11.65062,47.09757],[11.65329,47.09741],[11.65535,47.09655],[11.65772,47.09627],[11.66302,47.09778],[11.66312,47.09799],[11.66294,47.09797]]}},{"type":"Feature","properties":{"kind":"piste","difficulty":"intermediate","name":"Schwarze Pfanne","aerialway":null,"osm":"way/4388467"},"geometry":{"type":"LineString","coordinates":[[11.65004,47.09778],[11.65111,47.09793],[11.65363,47.09902],[11.65584,47.10044],[11.65625,47.10107],[11.65749,47.10352],[11.65752,47.10408],[11.65712,47.10493],[11.65666,47.10544],[11.65507,47.10654],[11.65509,47.10673],[11.65586,47.10728],[11.65626,47.1081],[11.65667,47.10829],[11.65724,47.10905],[11.6579,47.10947],[11.65793,47.10964],[11.65738,47.11017],[11.65704,47.11082],[11.65748,47.11108],[11.66018,47.11127],[11.66252,47.11184]]}},{"type":"Feature","properties":{"kind":"piste","difficulty":"intermediate","name":null,"aerialway":null,"osm":"way/4388473"},"geometry":{"type":"LineString","coordinates":[[11.67443,47.05863],[11.67449,47.05886],[11.67525,47.05924],[11.67532,47.0595]]}},{"type":"Feature","properties":{"kind":"piste","difficulty":"easy","name":"Gletscherzunge","aerialway":null,"osm":"way/4388480"},"geometry":{"type":"LineString","coordinates":[[11.65106,47.06546],[11.65079,47.06547],[11.65051,47.06566],[11.65245,47.06925],[11.65254,47.06979],[11.65215,47.07098],[11.65228,47.07141]]}},{"type":"Feature","properties":{"kind":"piste","difficulty":"intermediate","name":"Gletscherzunge","aerialway":null,"osm":"way/4388481"},"geometry":{"type":"LineString","coordinates":[[11.6515,47.07103],[11.65073,47.07284],[11.65106,47.07373],[11.65259,47.07496],[11.65386,47.0757],[11.65404,47.07628],[11.65458,47.07665],[11.65489,47.07798],[11.65565,47.07824],[11.65645,47.07821],[11.65763,47.07943],[11.65734,47.08043],[11.65807,47.08126],[11.65917,47.08172],[11.65994,47.08288],[11.65983,47.08341],[11.66005,47.08371],[11.66016,47.08424],[11.65987,47.08566],[11.6596,47.08636]]}},{"type":"Feature","properties":{"kind":"piste","difficulty":"intermediate","name":null,"aerialway":null,"osm":"way/4388482"},"geometry":{"type":"LineString","coordinates":[[11.6703,47.07631],[11.6696,47.07648],[11.66816,47.07725],[11.66716,47.0786],[11.66729,47.07895],[11.66824,47.07952],[11.66861,47.0801],[11.67011,47.08104],[11.67053,47.08156],[11.67055,47.08183],[11.6696,47.0825],[11.66937,47.08279],[11.66924,47.08328],[11.66936,47.08398],[11.66931,47.08469],[11.66959,47.08521],[11.66965,47.0856],[11.66954,47.08614],[11.66885,47.0867],[11.66783,47.08727],[11.66756,47.08845],[11.6677,47.08887],[11.66765,47.08939],[11.66731,47.09012],[11.66716,47.09089],[11.66794,47.09166],[11.668,47.09191],[11.66778,47.09223],[11.66741,47.09231],[11.66682,47.09222],[11.66538,47.09141],[11.66343,47.09076],[11.66329,47.09087],[11.66347,47.09157],[11.66332,47.09207]]}},{"type":"Feature","properties":{"kind":"piste","difficulty":"intermediate","name":null,"aerialway":null,"osm":"way/4388483"},"geometry":{"type":"LineString","coordinates":[[11.66931,47.08469],[11.66863,47.08465],[11.66721,47.0841],[11.66651,47.08404],[11.66338,47.08729],[11.66291,47.08726],[11.66145,47.08624],[11.66095,47.08612],[11.66018,47.08621]]}},{"type":"Feature","properties":{"kind":"piste","difficulty":"advanced","name":null,"aerialway":null,"osm":"way/4388484"},"geometry":{"type":"LineString","coordinates":[[11.66888,47.08025],[11.66758,47.08198],[11.66715,47.08303],[11.66654,47.08371],[11.66651,47.08404]]}},{"type":"Feature","properties":{"kind":"piste","difficulty":"advanced","name":"Schlegeis","aerialway":null,"osm":"way/4388485"},"geometry":{"type":"LineString","coordinates":[[11.67188,47.05669],[11.67502,47.05264],[11.67625,47.05127],[11.67734,47.05045],[11.67835,47.04998]]}},{"type":"Feature","properties":{"kind":"piste","difficulty":"advanced","name":null,"aerialway":null,"osm":"way/4388488"},"geometry":{"type":"LineString","coordinates":[[11.65849,47.06205],[11.65851,47.06255],[11.65896,47.06354],[11.65962,47.06437],[11.66116,47.0658],[11.66287,47.06704]]}},{"type":"Feature","properties":{"kind":"piste","difficulty":"intermediate","name":"Waldabfahrt (manchmal präpariert)","aerialway":null,"osm":"way/8143546"},"geometry":{"type":"LineString","coordinates":[[11.66287,47.09749],[11.66351,47.09784],[11.66407,47.09795],[11.66416,47.0982],[11.66477,47.0988],[11.66593,47.10185],[11.66612,47.102],[11.66753,47.10226],[11.66774,47.1024],[11.66813,47.10359],[11.668,47.10381],[11.66754,47.10385],[11.66756,47.10395],[11.66849,47.10528],[11.66894,47.10547],[11.6692,47.10623],[11.66956,47.1059],[11.67015,47.10578],[11.67023,47.10552],[11.67056,47.10546],[11.67079,47.10631],[11.67206,47.10671],[11.67244,47.10596],[11.67242,47.1054],[11.67299,47.10528],[11.67355,47.1054],[11.67417,47.1058],[11.67498,47.106],[11.67558,47.10741],[11.67503,47.10738]]}},{"type":"Feature","properties":{"kind":"piste","difficulty":"intermediate","name":"Tuxer Fernerhaus","aerialway":null,"osm":"way/8143551"},"geometry":{"type":"LineString","coordinates":[[11.66822,47.07032],[11.67029,47.07186],[11.67089,47.0731],[11.67112,47.07517],[11.67098,47.07579],[11.67074,47.0762],[11.6703,47.07631]]}},{"type":"Feature","properties":{"kind":"piste","difficulty":"intermediate","name":"Kaserer","aerialway":null,"osm":"way/8402380"},"geometry":{"type":"LineString","coordinates":[[11.65619,47.06773],[11.65581,47.06942],[11.65635,47.07087],[11.65621,47.07232],[11.65669,47.07244]]}},{"type":"Feature","properties":{"kind":"piste","difficulty":"intermediate","name":null,"aerialway":null,"osm":"way/25141823"},"geometry":{"type":"LineString","coordinates":[[11.67953,47.06364],[11.67995,47.06323],[11.68024,47.06266]]}},{"type":"Feature","properties":{"kind":"piste","difficulty":"intermediate","name":"Gefrorene Wand","aerialway":null,"osm":"way/25141824"},"geometry":{"type":"LineString","coordinates":[[11.6785,47.06323],[11.67808,47.06361],[11.67275,47.06383],[11.66903,47.06335]]}},{"type":"Feature","properties":{"kind":"piste","difficulty":"intermediate","name":null,"aerialway":null,"osm":"way/27069370"},"geometry":{"type":"LineString","coordinates":[[11.66893,47.11361],[11.66953,47.11398],[11.67072,47.11361],[11.67085,47.11339],[11.67065,47.113],[11.67096,47.11294],[11.6724,47.11352],[11.67276,47.11407],[11.67395,47.11453],[11.67476,47.11402],[11.67489,47.1138],[11.67477,47.1125],[11.67458,47.11207],[11.67414,47.11174],[11.67435,47.11147],[11.67314,47.11009],[11.6732,47.10953],[11.67354,47.10865],[11.6735,47.10813],[11.67366,47.10788]]}},{"type":"Feature","properties":{"kind":"piste","difficulty":"intermediate","name":"Kaserer","aerialway":null,"osm":"way/28523414"},"geometry":{"type":"LineString","coordinates":[[11.65722,47.06179],[11.65777,47.06182],[11.65766,47.06257],[11.65733,47.06286],[11.65732,47.06322],[11.65758,47.06408],[11.65744,47.06728],[11.65713,47.06753],[11.65619,47.06773]]}},{"type":"Feature","properties":{"kind":"piste","difficulty":"intermediate","name":"Kaserer","aerialway":null,"osm":"way/28523417"},"geometry":{"type":"LineString","coordinates":[[11.66233,47.06846],[11.66037,47.06959],[11.65635,47.07087]]}},{"type":"Feature","properties":{"kind":"piste","difficulty":"easy","name":"Olperer 2","aerialway":null,"osm":"way/28523418"},"geometry":{"type":"LineString","coordinates":[[11.65794,47.05671],[11.6582,47.05652],[11.66261,47.05592],[11.66717,47.05551],[11.66824,47.05567],[11.66864,47.05616],[11.66941,47.05972],[11.66975,47.06041]]}},{"type":"Feature","properties":{"kind":"piste","difficulty":"intermediate","name":"Olperer 1","aerialway":null,"osm":"way/28523419"},"geometry":{"type":"LineString","coordinates":[[11.65824,47.0569],[11.66903,47.05985],[11.66975,47.06041]]}},{"type":"Feature","properties":{"kind":"piste","difficulty":"easy","name":"Olperer 1","aerialway":null,"osm":"way/28523420"},"geometry":{"type":"LineString","coordinates":[[11.65836,47.05751],[11.66527,47.05963],[11.66963,47.06082]]}},{"type":"Feature","properties":{"kind":"piste","difficulty":"easy","name":null,"aerialway":null,"osm":"way/28523427"},"geometry":{"type":"LineString","coordinates":[[11.65303,47.06843],[11.65378,47.06978],[11.65433,47.07111],[11.65415,47.07165],[11.65367,47.0723]]}},{"type":"Feature","properties":{"kind":"piste","difficulty":"intermediate","name":"Schlegeis","aerialway":null,"osm":"way/29159898"},"geometry":{"type":"LineString","coordinates":[[11.66824,47.05567],[11.67127,47.05672],[11.67188,47.05669]]}},{"type":"Feature","properties":{"kind":"piste","difficulty":"intermediate","name":null,"aerialway":null,"osm":"way/29219134"},"geometry":{"type":"LineString","coordinates":[[11.67151,47.07663],[11.67197,47.0771],[11.672,47.07732],[11.67171,47.07788],[11.67192,47.07862],[11.67171,47.07911],[11.67081,47.07999],[11.66888,47.08025]]}},{"type":"Feature","properties":{"kind":"piste","difficulty":"intermediate","name":null,"aerialway":null,"osm":"way/69221830"},"geometry":{"type":"LineString","coordinates":[[11.66252,47.11184],[11.66406,47.11157],[11.66568,47.1118],[11.66715,47.1123],[11.66851,47.11312],[11.66893,47.11361]]}},{"type":"Feature","properties":{"kind":"piste","difficulty":"intermediate","name":"Tuxer Fernerhaus","aerialway":null,"osm":"way/89838102"},"geometry":{"type":"LineString","coordinates":[[11.66486,47.06172],[11.6655,47.06405],[11.6665,47.06655]]}},{"type":"Feature","properties":{"kind":"piste","difficulty":"intermediate","name":"Tuxer Fernerhaus","aerialway":null,"osm":"way/97871911"},"geometry":{"type":"LineString","coordinates":[[11.66822,47.07032],[11.66885,47.07444],[11.66981,47.07603]]}},{"type":"Feature","properties":{"kind":"piste","difficulty":"intermediate","name":null,"aerialway":null,"osm":"way/97871912"},"geometry":{"type":"LineString","coordinates":[[11.66333,47.09232],[11.66373,47.09292],[11.66495,47.09374],[11.66622,47.09414],[11.66697,47.09408],[11.66689,47.0942]]}},{"type":"Feature","properties":{"kind":"piste","difficulty":"intermediate","name":"Riepensattel","aerialway":null,"osm":"way/97871914"},"geometry":{"type":"LineString","coordinates":[[11.67407,47.05945],[11.67357,47.05951]]}},{"type":"Feature","properties":{"kind":"piste","difficulty":"easy","name":"Olperer 1","aerialway":null,"osm":"way/97871916"},"geometry":{"type":"LineString","coordinates":[[11.65824,47.0569],[11.65853,47.05782],[11.65975,47.05867],[11.66179,47.05943],[11.6634,47.05905]]}},{"type":"Feature","properties":{"kind":"piste","difficulty":"intermediate","name":"Kaserer","aerialway":null,"osm":"way/97871920"},"geometry":{"type":"LineString","coordinates":[[11.65183,47.0657],[11.65265,47.06596],[11.65619,47.06773]]}},{"type":"Feature","properties":{"kind":"piste","difficulty":"easy","name":null,"aerialway":null,"osm":"way/97871926"},"geometry":{"type":"LineString","coordinates":[[11.66364,47.0975],[11.66382,47.09738],[11.66318,47.09709],[11.66326,47.09698],[11.66365,47.097]]}},{"type":"Feature","properties":{"kind":"piste","difficulty":"intermediate","name":"Tuxer Fernerhaus","aerialway":null,"osm":"way/97871928"},"geometry":{"type":"LineString","coordinates":[[11.67097,47.07392],[11.66948,47.07416],[11.66885,47.07444]]}},{"type":"Feature","properties":{"kind":"piste","difficulty":"intermediate","name":"Gefrorene Wand","aerialway":null,"osm":"way/97871929"},"geometry":{"type":"LineString","coordinates":[[11.67193,47.06563],[11.67133,47.06628],[11.67125,47.06683],[11.6714,47.06735],[11.67136,47.06773],[11.67108,47.06785],[11.67123,47.06794]]}},{"type":"Feature","properties":{"kind":"piste","difficulty":"easy","name":null,"aerialway":null,"osm":"way/97871932"},"geometry":{"type":"LineString","coordinates":[[11.65814,47.06286],[11.65806,47.06261],[11.65775,47.06268],[11.65591,47.06346],[11.65258,47.06564],[11.65216,47.06614]]}},{"type":"Feature","properties":{"kind":"piste","difficulty":"easy","name":"Höllscharte","aerialway":null,"osm":"way/97871938"},"geometry":{"type":"LineString","coordinates":[[11.65051,47.06566],[11.64939,47.06722],[11.64936,47.0677],[11.64994,47.06954],[11.65041,47.07051],[11.65228,47.07141]]}},{"type":"Feature","properties":{"kind":"piste","difficulty":"intermediate","name":null,"aerialway":null,"osm":"way/97871940"},"geometry":{"type":"LineString","coordinates":[[11.66332,47.09207],[11.66333,47.09232]]}},{"type":"Feature","properties":{"kind":"piste","difficulty":"easy","name":null,"aerialway":null,"osm":"way/97871945"},"geometry":{"type":"LineString","coordinates":[[11.65777,47.06182],[11.65876,47.06207],[11.66048,47.06171],[11.66059,47.06147],[11.66018,47.06061],[11.66024,47.06032],[11.66108,47.05966],[11.66179,47.05943]]}},{"type":"Feature","properties":{"kind":"piste","difficulty":"easy","name":"Tuxer Fernerhaus","aerialway":null,"osm":"way/97871952"},"geometry":{"type":"LineString","coordinates":[[11.67357,47.05951],[11.6726,47.05978],[11.67206,47.06025],[11.67115,47.06169],[11.67047,47.06239],[11.6694,47.06306],[11.6676,47.06455],[11.66706,47.06541],[11.66689,47.0661],[11.6665,47.06655]]}},{"type":"Feature","properties":{"kind":"piste","difficulty":"intermediate","name":"Tuxerjoch","aerialway":null,"osm":"way/107405340"},"geometry":{"type":"LineString","coordinates":[[11.64682,47.09423],[11.64709,47.09452],[11.64893,47.09533],[11.64858,47.09563],[11.64868,47.09599],[11.65094,47.09675],[11.65225,47.0974]]}},{"type":"Feature","properties":{"kind":"piste","difficulty":"easy","name":"Ramsmoos","aerialway":null,"osm":"way/107406251"},"geometry":{"type":"LineString","coordinates":[[11.65857,47.09433],[11.65857,47.09466],[11.65926,47.09542],[11.66145,47.09687],[11.66276,47.09754],[11.66287,47.09749],[11.66279,47.09742]]}},{"type":"Feature","properties":{"kind":"piste","difficulty":"easy","name":"Mahlgrube","aerialway":null,"osm":"way/107406255"},"geometry":{"type":"LineString","coordinates":[[11.65612,47.09639],[11.65907,47.09735],[11.66036,47.09759],[11.66195,47.09755]]}},{"type":"Feature","properties":{"kind":"piste","difficulty":"easy","name":"Eissattel","aerialway":null,"osm":"way/202867173"},"geometry":{"type":"LineString","coordinates":[[11.67324,47.06623],[11.6732,47.06586],[11.67102,47.06536],[11.66999,47.06523],[11.6691,47.06532],[11.66827,47.0656],[11.6665,47.06655],[11.66247,47.07133],[11.66195,47.07144]]}},{"type":"Feature","properties":{"kind":"piste","difficulty":"intermediate","name":null,"aerialway":null,"osm":"way/390185338"},"geometry":{"type":"LineString","coordinates":[[11.66145,47.08624],[11.6609,47.08653]]}},{"type":"Feature","properties":{"kind":"piste","difficulty":"easy","name":"Höllscharte","aerialway":null,"osm":"way/390185347"},"geometry":{"type":"LineString","coordinates":[[11.65554,47.07409],[11.65637,47.07402],[11.65663,47.07378]]}},{"type":"Feature","properties":{"kind":"piste","difficulty":"easy","name":null,"aerialway":null,"osm":"way/390185348"},"geometry":{"type":"LineString","coordinates":[[11.65806,47.06261],[11.65871,47.0625],[11.66033,47.06179]]}},{"type":"Feature","properties":{"kind":"piste","difficulty":"easy","name":null,"aerialway":null,"osm":"way/390192442"},"geometry":{"type":"LineString","coordinates":[[11.67235,47.06568],[11.67083,47.06332],[11.67122,47.06307]]}},{"type":"Feature","properties":{"kind":"piste","difficulty":"easy","name":null,"aerialway":null,"osm":"way/390192443"},"geometry":{"type":"LineString","coordinates":[[11.67151,47.07663],[11.67237,47.07707]]}},{"type":"Feature","properties":{"kind":"piste","difficulty":"intermediate","name":null,"aerialway":null,"osm":"way/390192444"},"geometry":{"type":"LineString","coordinates":[[11.68053,47.06267],[11.68024,47.06266]]}},{"type":"Feature","properties":{"kind":"piste","difficulty":"easy","name":null,"aerialway":null,"osm":"way/390192445"},"geometry":{"type":"LineString","coordinates":[[11.66925,47.06038],[11.66963,47.06082],[11.67047,47.06239],[11.67087,47.06276],[11.67086,47.06289],[11.67119,47.06297]]}},{"type":"Feature","properties":{"kind":"piste","difficulty":"intermediate","name":null,"aerialway":null,"osm":"way/390192457"},"geometry":{"type":"LineString","coordinates":[[11.66527,47.05963],[11.66526,47.06019],[11.66499,47.06078]]}},{"type":"Feature","properties":{"kind":"piste","difficulty":"intermediate","name":"Keesboden","aerialway":null,"osm":"way/390192458"},"geometry":{"type":"LineString","coordinates":[[11.66,47.08622],[11.6596,47.08636],[11.65936,47.0866],[11.65825,47.08868],[11.65831,47.08909],[11.65933,47.08982],[11.66123,47.09181],[11.66253,47.09289],[11.66345,47.09333],[11.66495,47.09374]]}},{"type":"Feature","properties":{"kind":"piste","difficulty":"intermediate","name":"Keesboden","aerialway":null,"osm":"way/390192459"},"geometry":{"type":"LineString","coordinates":[[11.66018,47.08621],[11.66,47.08622]]}},{"type":"Feature","properties":{"kind":"piste","difficulty":"easy","name":"Olperer","aerialway":null,"osm":"way/390192460"},"geometry":{"type":"LineString","coordinates":[[11.65805,47.0571],[11.65794,47.05671],[11.65824,47.0569]]}},{"type":"Feature","properties":{"kind":"piste","difficulty":"easy","name":"Olperer","aerialway":null,"osm":"way/390192461"},"geometry":{"type":"LineString","coordinates":[[11.65756,47.05704],[11.65743,47.05696],[11.65737,47.05666],[11.65794,47.05671]]}},{"type":"Feature","properties":{"kind":"piste","difficulty":"intermediate","name":"Riepensattel","aerialway":null,"osm":"way/390192462"},"geometry":{"type":"LineString","coordinates":[[11.68024,47.06266],[11.67954,47.0622],[11.67935,47.06171]]}},{"type":"Feature","properties":{"kind":"piste","difficulty":"intermediate","name":null,"aerialway":null,"osm":"way/394469912"},"geometry":{"type":"LineString","coordinates":[[11.67489,47.1138],[11.67589,47.11321],[11.67657,47.11298],[11.67849,47.11332],[11.68085,47.1142]]}},{"type":"Feature","properties":{"kind":"piste","difficulty":"intermediate","name":"Gletscherzunge","aerialway":null,"osm":"way/796573637"},"geometry":{"type":"LineString","coordinates":[[11.65637,47.07402],[11.65679,47.07499],[11.65631,47.0759],[11.65622,47.07736],[11.65645,47.07821]]}},{"type":"Feature","properties":{"kind":"piste","difficulty":"intermediate","name":"Haxenbrecher","aerialway":null,"osm":"way/796573638"},"geometry":{"type":"LineString","coordinates":[[11.66165,47.07166],[11.66137,47.07325],[11.66071,47.07438],[11.65993,47.0762],[11.65963,47.07778],[11.6601,47.07932],[11.66028,47.0806]]}},{"type":"Feature","properties":{"kind":"piste","difficulty":"intermediate","name":"Unterm Eisbruch","aerialway":null,"osm":"way/796573639"},"geometry":{"type":"LineString","coordinates":[[11.66716,47.0786],[11.66524,47.08026],[11.6635,47.08305],[11.66333,47.0841],[11.66215,47.08581],[11.66145,47.08624]]}},{"type":"Feature","properties":{"kind":"piste","difficulty":"intermediate","name":"Unterm Eisbruch","aerialway":null,"osm":"way/796573640"},"geometry":{"type":"LineString","coordinates":[[11.66599,47.07965],[11.66497,47.08003],[11.66315,47.08013],[11.66182,47.08003],[11.66028,47.0806]]}},{"type":"Feature","properties":{"kind":"piste","difficulty":"intermediate","name":"Gletscherzunge","aerialway":null,"osm":"way/796573641"},"geometry":{"type":"LineString","coordinates":[[11.65734,47.08043],[11.66028,47.0806]]}},{"type":"Feature","properties":{"kind":"piste","difficulty":"easy","name":"Ramsmoos","aerialway":null,"osm":"way/796574779"},"geometry":{"type":"LineString","coordinates":[[11.65857,47.09466],[11.65842,47.09546],[11.6585,47.09577],[11.65955,47.09616],[11.66078,47.09684],[11.66145,47.09687]]}},{"type":"Feature","properties":{"kind":"piste","difficulty":"advanced","name":"Tuxerjoch","aerialway":null,"osm":"way/1106528374"},"geometry":{"type":"LineString","coordinates":[[11.64775,47.09661],[11.65094,47.09675]]}},{"type":"Feature","properties":{"kind":"piste","difficulty":"easy","name":null,"aerialway":null,"osm":"way/1106528376"},"geometry":{"type":"LineString","coordinates":[[11.66273,47.09711],[11.66302,47.09778]]}},{"type":"Feature","properties":{"kind":"piste","difficulty":"easy","name":null,"aerialway":null,"osm":"way/1106528377"},"geometry":{"type":"LineString","coordinates":[[11.66318,47.09709],[11.66273,47.09711]]}},{"type":"Feature","properties":{"kind":"piste","difficulty":"easy","name":"Tuxer Fernerhaus","aerialway":null,"osm":"way/1123171419"},"geometry":{"type":"LineString","coordinates":[[11.66136,47.07107],[11.66225,47.07166],[11.6632,47.07346],[11.66314,47.07378],[11.66254,47.07407],[11.66239,47.07438],[11.66298,47.07485],[11.66345,47.07499],[11.66553,47.07501],[11.66751,47.07529],[11.66871,47.07559],[11.66981,47.07603]]}},{"type":"Feature","properties":{"kind":"piste","difficulty":"intermediate","name":"Gletscherzunge","aerialway":null,"osm":"way/1136727114"},"geometry":{"type":"LineString","coordinates":[[11.66028,47.0806],[11.66033,47.08095],[11.65981,47.08268]]}},{"type":"Feature","properties":{"kind":"piste","difficulty":"easy","name":null,"aerialway":null,"osm":"way/1136727115"},"geometry":{"type":"LineString","coordinates":[[11.65367,47.0723],[11.65547,47.07407],[11.65556,47.07401]]}},{"type":"Feature","properties":{"kind":"piste","difficulty":"easy","name":null,"aerialway":null,"osm":"way/1136727116"},"geometry":{"type":"LineString","coordinates":[[11.66981,47.07603],[11.6703,47.07631],[11.67151,47.07663],[11.67146,47.07702]]}},{"type":"Feature","properties":{"kind":"piste","difficulty":"intermediate","name":"Slalomhang","aerialway":null,"osm":"way/1136727117"},"geometry":{"type":"LineString","coordinates":[[11.68024,47.06266],[11.67896,47.06202],[11.67588,47.06007],[11.67506,47.05981],[11.67405,47.05972],[11.67357,47.05951]]}},{"type":"Feature","properties":{"kind":"piste","difficulty":"easy","name":"Tuxer Fernerhaus","aerialway":null,"osm":"way/1136727118"},"geometry":{"type":"LineString","coordinates":[[11.67357,47.05951],[11.67314,47.05939],[11.67262,47.05944],[11.67166,47.05967],[11.66975,47.06041],[11.66963,47.06082],[11.66972,47.06238],[11.66953,47.06282],[11.66903,47.06335]]}},{"type":"Feature","properties":{"kind":"piste","difficulty":"intermediate","name":null,"aerialway":null,"osm":"way/1150425218"},"geometry":{"type":"LineString","coordinates":[[11.67474,47.05898],[11.67479,47.05873],[11.67429,47.0585],[11.67421,47.05829]]}},{"type":"Feature","properties":{"kind":"piste","difficulty":"intermediate","name":"Riepensattel","aerialway":null,"osm":"way/1151610982"},"geometry":{"type":"LineString","coordinates":[[11.68024,47.06266],[11.68024,47.06183],[11.68014,47.06173],[11.67935,47.06171],[11.67622,47.0597],[11.67532,47.0595],[11.67407,47.05945]]}},{"type":"Feature","properties":{"kind":"piste","difficulty":"intermediate","name":"Waldabfahrt","aerialway":null,"osm":"way/1254688877"},"geometry":{"type":"LineString","coordinates":[[11.66293,47.09744],[11.66279,47.09762],[11.6637,47.09797],[11.66439,47.09849],[11.66582,47.1018],[11.6662,47.1021],[11.66756,47.10239],[11.6678,47.10258],[11.66806,47.10358],[11.66798,47.10376],[11.66743,47.10379],[11.66751,47.10411],[11.66831,47.10517],[11.66893,47.10564],[11.66898,47.10598],[11.66931,47.1064],[11.66954,47.10603],[11.67017,47.10596],[11.67028,47.10557],[11.6704,47.10553],[11.67065,47.10642],[11.67187,47.10679],[11.67219,47.10673],[11.67249,47.10601],[11.6725,47.10546],[11.67294,47.10538],[11.67361,47.10555],[11.67409,47.10591],[11.67491,47.10614],[11.6755,47.10744],[11.67567,47.10699],[11.67534,47.1062],[11.67508,47.10594],[11.67419,47.10575],[11.67375,47.10538],[11.67298,47.1052],[11.67233,47.10531],[11.67239,47.10587],[11.6722,47.10638],[11.67201,47.1065],[11.67086,47.10623],[11.67062,47.10545],[11.67045,47.10538],[11.67022,47.10542],[11.66991,47.10574],[11.66962,47.10572],[11.66928,47.10599],[11.66898,47.10536],[11.66857,47.10514],[11.66774,47.10389],[11.66827,47.10375],[11.66807,47.10255],[11.66763,47.10216],[11.66608,47.1018],[11.66497,47.09867],[11.66436,47.09792],[11.66352,47.09781],[11.66293,47.09744]]}},{"type":"Feature","properties":{"kind":"piste","difficulty":"intermediate","name":"Schwarze Pfanne","aerialway":null,"osm":"way/1254688878"},"geometry":{"type":"LineString","coordinates":[[11.65018,47.09789],[11.65042,47.09771],[11.65115,47.09781],[11.65188,47.09813],[11.65244,47.09852],[11.65456,47.09949],[11.65653,47.10093],[11.65733,47.10237],[11.65776,47.10342],[11.65783,47.10406],[11.65694,47.1054],[11.65552,47.10651],[11.65557,47.10685],[11.65651,47.10775],[11.65722,47.10887],[11.65814,47.10944],[11.65721,47.11073],[11.65747,47.11092],[11.66119,47.11111],[11.66278,47.11148],[11.66471,47.11141],[11.66617,47.11157],[11.66868,47.11316],[11.66894,47.11351],[11.66964,47.11375],[11.67062,47.11332],[11.67059,47.11287],[11.67107,47.11285],[11.67261,47.11359],[11.67273,47.11398],[11.67395,47.1144],[11.6747,47.11373],[11.67446,47.11235],[11.67403,47.11182],[11.67389,47.11116],[11.67295,47.11003],[11.67307,47.10962],[11.67295,47.10947],[11.67361,47.1079],[11.67353,47.10815],[11.6737,47.10859],[11.67329,47.1094],[11.67338,47.10955],[11.67332,47.11014],[11.67417,47.11111],[11.67422,47.1117],[11.67488,47.11223],[11.67512,47.11383],[11.67408,47.11468],[11.67372,47.11467],[11.67293,47.11445],[11.67251,47.11411],[11.67239,47.11365],[11.67143,47.11314],[11.67089,47.113],[11.67081,47.11302],[11.67109,47.11363],[11.67059,47.11394],[11.66962,47.11413],[11.66905,47.1139],[11.66834,47.1131],[11.66663,47.11224],[11.66478,47.11181],[11.66225,47.11185],[11.6608,47.11147],[11.65703,47.11106],[11.65686,47.11077],[11.65768,47.10965],[11.65689,47.10905],[11.65572,47.1076],[11.65502,47.10702],[11.65486,47.10662],[11.65562,47.10572],[11.65674,47.10517],[11.6572,47.10436],[11.65714,47.10389],[11.65592,47.10093],[11.65566,47.10047],[11.65474,47.09977],[11.65355,47.09911],[11.65098,47.09799],[11.65018,47.09789]]}},{"type":"Feature","properties":{"kind":"piste","difficulty":"intermediate","name":null,"aerialway":null,"osm":"way/1254688879"},"geometry":{"type":"LineString","coordinates":[[11.67512,47.11383],[11.67665,47.11313],[11.67857,47.11359],[11.68074,47.1143],[11.68091,47.11419],[11.67904,47.11329],[11.67651,47.11277],[11.67502,47.1135],[11.67512,47.11383]]}},{"type":"Feature","properties":{"kind":"piste","difficulty":"easy","name":"Ramsmoos","aerialway":null,"osm":"way/1254699916"},"geometry":{"type":"LineString","coordinates":[[11.65859,47.09437],[11.65834,47.09532],[11.65849,47.09589],[11.66062,47.09686],[11.66278,47.09756],[11.66248,47.09722],[11.65859,47.09437]]}},{"type":"Feature","properties":{"kind":"piste","difficulty":"easy","name":"Tuxerjoch","aerialway":null,"osm":"way/1254699917"},"geometry":{"type":"LineString","coordinates":[[11.64714,47.09403],[11.64688,47.09446],[11.64811,47.09675],[11.64871,47.09831],[11.6489,47.09838],[11.64958,47.0977],[11.65053,47.09737],[11.6535,47.0972],[11.65481,47.09653],[11.65625,47.09622],[11.65769,47.09609],[11.65892,47.09626],[11.66278,47.09756],[11.66265,47.0978],[11.65896,47.09676],[11.65765,47.09647],[11.6566,47.09646],[11.655,47.09682],[11.65401,47.09737],[11.65042,47.09771],[11.64956,47.09808],[11.64907,47.09866],[11.64867,47.09865],[11.648,47.09769],[11.64733,47.09591],[11.64679,47.0952],[11.64682,47.0949],[11.64661,47.09416],[11.647,47.0938],[11.64727,47.09373],[11.64714,47.09403]]}},{"type":"Feature","properties":{"kind":"piste","difficulty":"intermediate","name":"Tuxerjoch","aerialway":null,"osm":"way/1254699918"},"geometry":{"type":"LineString","coordinates":[[11.64688,47.09446],[11.6481,47.09517],[11.64886,47.09537],[11.64848,47.09559],[11.64837,47.09584],[11.64859,47.0961],[11.64915,47.09636],[11.65067,47.09669],[11.65186,47.09729],[11.65235,47.09726],[11.64885,47.09595],[11.64866,47.09576],[11.6492,47.09538],[11.64694,47.09425],[11.64688,47.09446]]}},{"type":"Feature","properties":{"kind":"piste","difficulty":"advanced","name":"Tuxerjoch","aerialway":null,"osm":"way/1254699919"},"geometry":{"type":"LineString","coordinates":[[11.64811,47.09675],[11.65085,47.09682],[11.65015,47.0966],[11.64796,47.09648],[11.64811,47.09675]]}},{"type":"Feature","properties":{"kind":"piste","difficulty":"easy","name":"Mahlgrube","aerialway":null,"osm":"way/1254699920"},"geometry":{"type":"LineString","coordinates":[[11.6566,47.09646],[11.65957,47.09727],[11.66157,47.09749],[11.66191,47.09763],[11.66021,47.09783],[11.65825,47.09738],[11.65616,47.09652],[11.6566,47.09646]]}},{"type":"Feature","properties":{"kind":"piste","difficulty":"intermediate","name":null,"aerialway":null,"osm":"way/1256326881"},"geometry":{"type":"LineString","coordinates":[[11.66179,47.05943],[11.66444,47.06022],[11.66499,47.06078],[11.66486,47.06172],[11.66233,47.06846]]}},{"type":"Feature","properties":{"kind":"piste","difficulty":"easy","name":null,"aerialway":null,"osm":"way/1263277957"},"geometry":{"type":"LineString","coordinates":[[11.67083,47.06324],[11.67086,47.06289]]}},{"type":"Feature","properties":{"kind":"piste","difficulty":"intermediate","name":"Gefrorene Wand","aerialway":null,"osm":"way/1263277959"},"geometry":{"type":"LineString","coordinates":[[11.68024,47.06266],[11.67929,47.0627]]}},{"type":"Feature","properties":{"kind":"piste","difficulty":"intermediate","name":"Gefrorene Wand","aerialway":null,"osm":"way/1263277960"},"geometry":{"type":"LineString","coordinates":[[11.67936,47.06305],[11.67937,47.06282],[11.67914,47.06271],[11.6785,47.06323]]}},{"type":"Feature","properties":{"kind":"piste","difficulty":"intermediate","name":"Gefrorene Wand","aerialway":null,"osm":"way/1263277961"},"geometry":{"type":"LineString","coordinates":[[11.67936,47.06305],[11.6785,47.06323]]}},{"type":"Feature","properties":{"kind":"piste","difficulty":"intermediate","name":"Schlegeis","aerialway":null,"osm":"way/1319225844"},"geometry":{"type":"LineString","coordinates":[[11.67188,47.05669],[11.67592,47.05621],[11.67741,47.05563],[11.6792,47.05468],[11.67915,47.0545],[11.67732,47.05401],[11.67682,47.05361],[11.67688,47.05318],[11.67736,47.05246],[11.67764,47.0511],[11.67835,47.04998],[11.67865,47.04988],[11.67877,47.04998]]}},{"type":"Feature","properties":{"kind":"piste","difficulty":"intermediate","name":"Schlegeis","aerialway":null,"osm":"way/1319225845"},"geometry":{"type":"LineString","coordinates":[[11.67407,47.05945],[11.67143,47.05842],[11.67112,47.05808],[11.67104,47.05764],[11.67118,47.05715],[11.67138,47.05688],[11.67188,47.05669]]}},{"type":"Feature","properties":{"kind":"piste","difficulty":"easy","name":"Tuxer Fernerhaus","aerialway":null,"osm":"way/1328584169"},"geometry":{"type":"LineString","coordinates":[[11.66747,47.06897],[11.66731,47.0707],[11.66687,47.07148],[11.66638,47.07217],[11.6658,47.07269],[11.66493,47.0732],[11.66434,47.07373],[11.6641,47.07473],[11.6645,47.075]]}},{"type":"Feature","properties":{"kind":"piste","difficulty":"advanced","name":null,"aerialway":null,"osm":"way/1328584170"},"geometry":{"type":"LineString","coordinates":[[11.67929,47.0627],[11.67834,47.06252],[11.67404,47.06274],[11.67087,47.06276]]}},{"type":"Feature","properties":{"kind":"piste","difficulty":"intermediate","name":"Gefrorene Wand","aerialway":null,"osm":"way/1418347899"},"geometry":{"type":"LineString","coordinates":[[11.67808,47.06361],[11.67738,47.06412],[11.67576,47.06495],[11.6732,47.06586]]}},{"type":"Feature","properties":{"kind":"piste","difficulty":"easy","name":null,"aerialway":null,"osm":"way/1424803790"},"geometry":{"type":"LineString","coordinates":[[11.66273,47.09677],[11.66273,47.09711]]}},{"type":"Feature","properties":{"kind":"piste","difficulty":"easy","name":null,"aerialway":null,"osm":"way/1424803791"},"geometry":{"type":"LineString","coordinates":[[11.67337,47.11037],[11.67431,47.11059],[11.67421,47.11038],[11.67428,47.11023],[11.67474,47.11013],[11.67494,47.10986]]}},{"type":"Feature","properties":{"kind":"piste","difficulty":"easy","name":null,"aerialway":null,"osm":"way/1424803792"},"geometry":{"type":"LineString","coordinates":[[11.67428,47.11023],[11.67442,47.11003],[11.67494,47.10986]]}},{"type":"Feature","properties":{"kind":"piste","difficulty":"easy","name":null,"aerialway":null,"osm":"way/1458657039"},"geometry":{"type":"LineString","coordinates":[[11.6626,47.05902],[11.66101,47.05948],[11.66159,47.05962],[11.66326,47.05923],[11.6626,47.05902]]}},{"type":"Feature","properties":{"kind":"piste","difficulty":"easy","name":"Olperer 1","aerialway":null,"osm":"way/1458657040"},"geometry":{"type":"LineString","coordinates":[[11.65907,47.05796],[11.66026,47.05858],[11.66202,47.05916],[11.66101,47.05948],[11.66009,47.05914],[11.65884,47.05839],[11.65859,47.05811],[11.65827,47.05754],[11.65907,47.05796]]}},{"type":"Feature","properties":{"kind":"piste","difficulty":"easy","name":"Olperer 1","aerialway":null,"osm":"way/1458657041"},"geometry":{"type":"LineString","coordinates":[[11.65847,47.05764],[11.65907,47.05796],[11.66114,47.05863],[11.6687,47.06078],[11.66925,47.06114],[11.66946,47.06052],[11.65859,47.05741],[11.65847,47.05738],[11.65847,47.05764]]}},{"type":"Feature","properties":{"kind":"piste","difficulty":"easy","name":"Olperer 1","aerialway":null,"osm":"way/1458657042"},"geometry":{"type":"LineString","coordinates":[[11.65847,47.05738],[11.65845,47.05716],[11.65827,47.05711],[11.65827,47.05754],[11.65847,47.05764],[11.65847,47.05738]]}},{"type":"Feature","properties":{"kind":"piste","difficulty":"intermediate","name":"Olperer 1","aerialway":null,"osm":"way/1458657043"},"geometry":{"type":"LineString","coordinates":[[11.65813,47.05669],[11.65845,47.05716],[11.66954,47.06028],[11.66929,47.05982],[11.65813,47.05669]]}},{"type":"Feature","properties":{"kind":"piste","difficulty":"easy","name":"Olperer 2","aerialway":null,"osm":"way/1458657045"},"geometry":{"type":"LineString","coordinates":[[11.65813,47.05669],[11.6647,47.05587],[11.6679,47.0557],[11.66817,47.05581],[11.66848,47.05644],[11.66929,47.05982],[11.66954,47.06028],[11.6698,47.06026],[11.66957,47.05983],[11.66956,47.05887],[11.66893,47.05627],[11.66883,47.05602],[11.66817,47.05543],[11.66619,47.05538],[11.66151,47.05582],[11.65804,47.05639],[11.65813,47.05669]]}},{"type":"Feature","properties":{"kind":"piste","difficulty":"intermediate","name":"Schlegeis","aerialway":null,"osm":"way/1458657046"},"geometry":{"type":"LineString","coordinates":[[11.677,47.05575],[11.67682,47.05361]]}},{"type":"Feature","properties":{"kind":"piste","difficulty":"easy","name":null,"aerialway":null,"osm":"way/1459379388"},"geometry":{"type":"LineString","coordinates":[[11.65433,47.07111],[11.6553,47.07193],[11.65621,47.07232]]}},{"type":"Feature","properties":{"kind":"piste","difficulty":"easy","name":"Tuxer Fernerhaus","aerialway":null,"osm":"way/1459379392"},"geometry":{"type":"LineString","coordinates":[[11.65708,47.07088],[11.65807,47.07102],[11.66039,47.07104]]}},{"type":"Feature","properties":{"kind":"piste","difficulty":"easy","name":"Tuxer Fernerhaus","aerialway":null,"osm":"way/1459379393"},"geometry":{"type":"LineString","coordinates":[[11.65612,47.0702],[11.65708,47.07088]]}},{"type":"Feature","properties":{"kind":"piste","difficulty":"easy","name":null,"aerialway":null,"osm":"way/1459379394"},"geometry":{"type":"LineString","coordinates":[[11.65807,47.06267],[11.65804,47.06256],[11.65761,47.06265],[11.65709,47.06295],[11.6565,47.06287],[11.6562,47.063],[11.65255,47.06535],[11.65225,47.06559],[11.65236,47.06585],[11.65271,47.06584],[11.65619,47.06359],[11.65807,47.06267]]}},{"type":"Feature","properties":{"kind":"piste","difficulty":"intermediate","name":"Kaserer","aerialway":null,"osm":"way/1459379395"},"geometry":{"type":"LineString","coordinates":[[11.65797,47.06197],[11.65751,47.06186],[11.65738,47.06277],[11.65778,47.06261],[11.65797,47.06197]]}},{"type":"Feature","properties":{"kind":"piste","difficulty":"easy","name":null,"aerialway":null,"osm":"way/1459379396"},"geometry":{"type":"LineString","coordinates":[[11.65798,47.06176],[11.65862,47.06203],[11.65894,47.06203],[11.66026,47.06173],[11.65873,47.06212],[11.65797,47.06197],[11.65798,47.06176]]}},{"type":"Feature","properties":{"kind":"piste","difficulty":"easy","name":null,"aerialway":null,"osm":"way/1459379397"},"geometry":{"type":"LineString","coordinates":[[11.65751,47.06186],[11.65736,47.0617],[11.65776,47.06163],[11.65798,47.06176],[11.65797,47.06197],[11.65751,47.06186]]}},{"type":"Feature","properties":{"kind":"piste","difficulty":"easy","name":null,"aerialway":null,"osm":"way/1459379398"},"geometry":{"type":"LineString","coordinates":[[11.65804,47.06256],[11.65888,47.06238],[11.66042,47.06166],[11.66052,47.0615],[11.66008,47.06051],[11.66021,47.06006],[11.66101,47.05948],[11.66159,47.05962],[11.66082,47.05997],[11.66036,47.06037],[11.66033,47.06079],[11.66066,47.06142],[11.66058,47.06172],[11.65873,47.06253],[11.65807,47.06267],[11.65804,47.06256]]}},{"type":"Feature","properties":{"kind":"piste","difficulty":"intermediate","name":"Kaserer","aerialway":null,"osm":"way/1459379399"},"geometry":{"type":"LineString","coordinates":[[11.65619,47.06359],[11.65582,47.06737],[11.65545,47.06939],[11.65549,47.06973],[11.65593,47.07037],[11.65606,47.0722],[11.65643,47.07234],[11.65654,47.07052],[11.65619,47.07015],[11.65616,47.06968],[11.65654,47.06778],[11.65682,47.06363],[11.65704,47.06314],[11.65619,47.06359]]}},{"type":"Feature","properties":{"kind":"piste","difficulty":"intermediate","name":"Kaserer","aerialway":null,"osm":"way/1459379400"},"geometry":{"type":"LineString","coordinates":[[11.65271,47.06584],[11.65582,47.06737],[11.65568,47.0677],[11.65246,47.06612],[11.65236,47.06585],[11.65271,47.06584]]}},{"type":"Feature","properties":{"kind":"piste","difficulty":"easy","name":null,"aerialway":null,"osm":"way/1459379401"},"geometry":{"type":"LineString","coordinates":[[11.65105,47.06541],[11.65184,47.06522],[11.65225,47.06559],[11.65304,47.0676],[11.65311,47.06817],[11.65422,47.06984],[11.65452,47.07117],[11.6543,47.0718],[11.65399,47.07222],[11.65404,47.07242],[11.6535,47.07208],[11.65403,47.0709],[11.65164,47.06632],[11.65149,47.0655],[11.65105,47.06541]]}},{"type":"Feature","properties":{"kind":"piste","difficulty":"easy","name":null,"aerialway":null,"osm":"way/1459379402"},"geometry":{"type":"LineString","coordinates":[[11.65452,47.07117],[11.65528,47.0719],[11.65669,47.07244],[11.65667,47.07253],[11.65455,47.07165],[11.65441,47.07149],[11.65452,47.07117]]}},{"type":"Feature","properties":{"kind":"piste","difficulty":"easy","name":"Gletscherzunge","aerialway":null,"osm":"way/1459379403"},"geometry":{"type":"LineString","coordinates":[[11.65174,47.07104],[11.65257,47.07145],[11.65287,47.07002],[11.65283,47.06946],[11.65264,47.06888],[11.65131,47.06635],[11.65064,47.06566],[11.6504,47.06619],[11.65215,47.06967],[11.65213,47.07009],[11.65174,47.07104]]}},{"type":"Feature","properties":{"kind":"piste","difficulty":"easy","name":"Höllscharte","aerialway":null,"osm":"way/1459379404"},"geometry":{"type":"LineString","coordinates":[[11.6504,47.06619],[11.65001,47.06584],[11.64908,47.06721],[11.64908,47.0676],[11.64961,47.0693],[11.65019,47.07057],[11.65162,47.07123],[11.65174,47.07104],[11.65089,47.07055],[11.65035,47.06943],[11.64967,47.06731],[11.6504,47.06619]]}},{"type":"Feature","properties":{"kind":"piste","difficulty":"easy","name":null,"aerialway":null,"osm":"way/1459379405"},"geometry":{"type":"LineString","coordinates":[[11.65001,47.06584],[11.65032,47.06544],[11.6511,47.06548],[11.65074,47.06553],[11.6504,47.06619],[11.65001,47.06584]]}},{"type":"Feature","properties":{"kind":"piste","difficulty":"intermediate","name":"Kaserer","aerialway":null,"osm":"way/1459379406"},"geometry":{"type":"LineString","coordinates":[[11.65739,47.06295],[11.65736,47.06325],[11.65788,47.06426],[11.65779,47.06658],[11.65767,47.06724],[11.65737,47.06751],[11.65652,47.06786],[11.65655,47.06762],[11.65711,47.06745],[11.65723,47.06304],[11.65739,47.06295]]}},{"type":"Feature","properties":{"kind":"piste","difficulty":"easy","name":null,"aerialway":null,"osm":"way/1459379407"},"geometry":{"type":"LineString","coordinates":[[11.65404,47.07242],[11.65537,47.07388],[11.65555,47.07414],[11.65541,47.07408],[11.65343,47.07218],[11.65162,47.07123],[11.65174,47.07104],[11.65404,47.07242]]}},{"type":"Feature","properties":{"kind":"piste","difficulty":"easy","name":null,"aerialway":null,"osm":"way/1459379408"},"geometry":{"type":"LineString","coordinates":[[11.65228,47.07141],[11.65367,47.0723]]}},{"type":"Feature","properties":{"kind":"piste","difficulty":"easy","name":null,"aerialway":null,"osm":"way/1459379409"},"geometry":{"type":"LineString","coordinates":[[11.65654,47.07052],[11.65703,47.07076],[11.65698,47.07097],[11.65651,47.07102],[11.65654,47.07052]]}},{"type":"Feature","properties":{"kind":"piste","difficulty":"intermediate","name":null,"aerialway":null,"osm":"way/1459379410"},"geometry":{"type":"LineString","coordinates":[[11.66254,47.05934],[11.66474,47.06001],[11.66507,47.06025],[11.66528,47.06069],[11.66522,47.06147],[11.66482,47.06268],[11.6628,47.06805],[11.6623,47.06988],[11.66217,47.07121],[11.66136,47.07098],[11.66139,47.07019],[11.66167,47.06893],[11.66209,47.0683],[11.66336,47.065],[11.66466,47.0608],[11.66454,47.06054],[11.6641,47.06034],[11.66159,47.05962],[11.66254,47.05934]]}},{"type":"Feature","properties":{"kind":"piste","difficulty":"intermediate","name":"Kaserer","aerialway":null,"osm":"way/1459379411"},"geometry":{"type":"LineString","coordinates":[[11.65697,47.0707],[11.66056,47.06956],[11.66167,47.06893],[11.66196,47.0685],[11.66049,47.06949],[11.65689,47.07062],[11.65697,47.0707]]}},{"type":"Feature","properties":{"kind":"piste","difficulty":"easy","name":"Tuxer Fernerhaus","aerialway":null,"osm":"way/1459379412"},"geometry":{"type":"LineString","coordinates":[[11.65698,47.07097],[11.65739,47.07109],[11.66135,47.07117],[11.66136,47.07107],[11.66136,47.07098],[11.65737,47.07092],[11.65703,47.07076],[11.65698,47.07097]]}},{"type":"Feature","properties":{"kind":"piste","difficulty":"easy","name":null,"aerialway":null,"osm":"way/1459379413"},"geometry":{"type":"LineString","coordinates":[[11.66217,47.07121],[11.66262,47.07157],[11.66216,47.07183],[11.66102,47.07203],[11.66099,47.07193],[11.66135,47.07169],[11.66136,47.07098],[11.66217,47.07121]]}},{"type":"Feature","properties":{"kind":"piste","difficulty":"easy","name":null,"aerialway":null,"osm":"way/1459379414"},"geometry":{"type":"LineString","coordinates":[[11.66195,47.07144],[11.66092,47.07204]]}},{"type":"Feature","properties":{"kind":"piste","difficulty":"easy","name":null,"aerialway":null,"osm":"way/1459379415"},"geometry":{"type":"LineString","coordinates":[[11.66025,47.07134],[11.66195,47.07144]]}},{"type":"Feature","properties":{"kind":"piste","difficulty":"intermediate","name":"Kaserer","aerialway":null,"osm":"way/1459379416"},"geometry":{"type":"LineString","coordinates":[[11.6628,47.06805],[11.66471,47.06705],[11.66607,47.06649],[11.6659,47.06686],[11.66274,47.06841],[11.6628,47.06805]]}},{"type":"Feature","properties":{"kind":"piste","difficulty":"easy","name":"Tuxer Fernerhaus","aerialway":null,"osm":"way/1459379417"},"geometry":{"type":"LineString","coordinates":[[11.66262,47.07157],[11.66293,47.07278],[11.66345,47.07357],[11.66341,47.07376],[11.66264,47.07412],[11.66249,47.07432],[11.66263,47.07458],[11.66359,47.07495],[11.66577,47.07496],[11.66857,47.07541],[11.6686,47.07566],[11.66618,47.07513],[11.6635,47.07505],[11.66261,47.07471],[11.66231,47.07445],[11.66227,47.07419],[11.66235,47.07402],[11.66304,47.0736],[11.66258,47.0729],[11.66216,47.07183],[11.66262,47.07157]]}},{"type":"Feature","properties":{"kind":"piste","difficulty":"easy","name":"Tuxer Fernerhaus","aerialway":null,"osm":"way/1459379418"},"geometry":{"type":"LineString","coordinates":[[11.6645,47.07491],[11.6642,47.07493],[11.66403,47.07481],[11.66397,47.07453],[11.66411,47.07389],[11.6643,47.07356],[11.66562,47.07267],[11.66646,47.0718],[11.66709,47.07078],[11.66725,47.06974],[11.6675,47.07022],[11.66743,47.0708],[11.66657,47.07211],[11.66574,47.07289],[11.66462,47.07363],[11.66437,47.07395],[11.66417,47.07456],[11.66428,47.07483],[11.6645,47.07491]]}},{"type":"Feature","properties":{"kind":"piste","difficulty":"intermediate","name":"Tuxer Fernerhaus","aerialway":null,"osm":"way/1459379419"},"geometry":{"type":"LineString","coordinates":[[11.66522,47.06147],[11.66526,47.06261],[11.66647,47.06621],[11.66607,47.06649],[11.66482,47.06268],[11.66522,47.06147]]}},{"type":"Feature","properties":{"kind":"piste","difficulty":"easy","name":"Eissattel","aerialway":null,"osm":"way/1459379420"},"geometry":{"type":"LineString","coordinates":[[11.66262,47.07157],[11.66446,47.06963],[11.66628,47.06724],[11.6659,47.06686],[11.66426,47.06902],[11.66217,47.07121],[11.66262,47.07157]]}},{"type":"Feature","properties":{"kind":"piste","difficulty":"easy","name":"Tuxer Fernerhaus","aerialway":null,"osm":"way/1459379421"},"geometry":{"type":"LineString","coordinates":[[11.66662,47.06617],[11.66689,47.06508],[11.66748,47.06432],[11.66927,47.06282],[11.66948,47.06249],[11.66951,47.06208],[11.66925,47.06114],[11.66946,47.06052],[11.66986,47.0606],[11.66976,47.06092],[11.67025,47.06178],[11.66987,47.06268],[11.66957,47.06313],[11.66809,47.06429],[11.66759,47.06495],[11.66719,47.06592],[11.66662,47.06617]]}},{"type":"Feature","properties":{"kind":"piste","difficulty":"easy","name":"Eissattel","aerialway":null,"osm":"way/1459379422"},"geometry":{"type":"LineString","coordinates":[[11.67313,47.06603],[11.67113,47.0657],[11.66956,47.06575],[11.66863,47.06594],[11.66789,47.06634],[11.66749,47.06687],[11.66719,47.06592],[11.66775,47.06549],[11.66867,47.06519],[11.67061,47.06492],[11.67285,47.06547],[11.67322,47.06571],[11.67313,47.06603]]}},{"type":"Feature","properties":{"kind":"piste","difficulty":"easy","name":null,"aerialway":null,"osm":"way/1459379423"},"geometry":{"type":"LineString","coordinates":[[11.66749,47.06687],[11.66628,47.06724],[11.6659,47.06686],[11.66607,47.06649],[11.66719,47.06592],[11.66749,47.06687]]}},{"type":"Feature","properties":{"kind":"piste","difficulty":"intermediate","name":"Tuxer Fernerhaus","aerialway":null,"osm":"way/1459379425"},"geometry":{"type":"LineString","coordinates":[[11.66874,47.07111],[11.66921,47.0725],[11.66998,47.07595],[11.66857,47.07541],[11.66828,47.07469],[11.66788,47.07161],[11.66766,47.0708],[11.66874,47.07111]]}},{"type":"Feature","properties":{"kind":"piste","difficulty":"intermediate","name":"Tuxer Fernerhaus","aerialway":null,"osm":"way/1459379426"},"geometry":{"type":"LineString","coordinates":[[11.66952,47.07404],[11.67041,47.07401],[11.6708,47.07388],[11.67081,47.07403],[11.66956,47.0742],[11.66952,47.07404]]}},{"type":"Feature","properties":{"kind":"piste","difficulty":"easy","name":null,"aerialway":null,"osm":"way/1459379427"},"geometry":{"type":"LineString","coordinates":[[11.66857,47.07541],[11.67242,47.07697],[11.67231,47.0771],[11.67172,47.07678],[11.67013,47.07643],[11.6686,47.07566],[11.66857,47.07541]]}},{"type":"Feature","properties":{"kind":"piste","difficulty":"intermediate","name":"Gefrorene Wand","aerialway":null,"osm":"way/1459391226"},"geometry":{"type":"LineString","coordinates":[[11.67322,47.06571],[11.67538,47.06498],[11.67728,47.06407],[11.6787,47.06281],[11.6792,47.06252],[11.67928,47.06277],[11.67897,47.06289],[11.67751,47.06414],[11.67341,47.06601],[11.67322,47.06571]]}},{"type":"Feature","properties":{"kind":"piste","difficulty":"easy","name":null,"aerialway":null,"osm":"way/1459391227"},"geometry":{"type":"LineString","coordinates":[[11.67341,47.06601],[11.67334,47.06621],[11.67321,47.06619],[11.67313,47.06603],[11.67322,47.06571],[11.67341,47.06601]]}},{"type":"Feature","properties":{"kind":"piste","difficulty":"easy","name":null,"aerialway":null,"osm":"way/1459391228"},"geometry":{"type":"LineString","coordinates":[[11.67285,47.06547],[11.67208,47.06452],[11.67126,47.06322],[11.67035,47.06318],[11.6702,47.06297],[11.66974,47.06287],[11.66907,47.06351],[11.67004,47.06361],[11.67033,47.06395],[11.67061,47.06492],[11.67285,47.06547]]}},{"type":"Feature","properties":{"kind":"piste","difficulty":"intermediate","name":"Gefrorene Wand","aerialway":null,"osm":"way/1459391229"},"geometry":{"type":"LineString","coordinates":[[11.67208,47.06452],[11.67622,47.06458],[11.67728,47.06407],[11.67816,47.06333],[11.67148,47.06357],[11.67208,47.06452]]}},{"type":"Feature","properties":{"kind":"piste","difficulty":"intermediate","name":"Gefrorene Wand","aerialway":null,"osm":"way/1459391230"},"geometry":{"type":"LineString","coordinates":[[11.67853,47.06334],[11.67937,47.0632],[11.67945,47.06276],[11.67928,47.06277],[11.67928,47.06308],[11.6787,47.06317],[11.67853,47.06334]]}},{"type":"Feature","properties":{"kind":"piste","difficulty":"intermediate","name":"Slalomhang","aerialway":null,"osm":"way/1459391231"},"geometry":{"type":"LineString","coordinates":[[11.6791,47.06184],[11.67597,47.05985],[11.67533,47.05969],[11.67522,47.06004],[11.67606,47.0604],[11.67892,47.06225],[11.6791,47.06231],[11.6791,47.06184]]}},{"type":"Feature","properties":{"kind":"piste","difficulty":"intermediate","name":"Riepensattel","aerialway":null,"osm":"way/1459391232"},"geometry":{"type":"LineString","coordinates":[[11.67917,47.0618],[11.67599,47.0598],[11.67533,47.05969],[11.67539,47.0594],[11.67632,47.05954],[11.67965,47.06173],[11.67917,47.0618]]}},{"type":"Feature","properties":{"kind":"piste","difficulty":"intermediate","name":"Riepensattel","aerialway":null,"osm":"way/1459391233"},"geometry":{"type":"LineString","coordinates":[[11.68034,47.06249],[11.68028,47.06174],[11.67965,47.06173],[11.67969,47.06185],[11.68015,47.06184],[11.68017,47.06248],[11.68034,47.06249]]}},{"type":"Feature","properties":{"kind":"piste","difficulty":"intermediate","name":null,"aerialway":null,"osm":"way/1459391234"},"geometry":{"type":"LineString","coordinates":[[11.67969,47.06185],[11.67987,47.06237],[11.68034,47.06249],[11.68022,47.06282],[11.67928,47.06277],[11.6791,47.06231],[11.6791,47.06184],[11.67965,47.06173],[11.67969,47.06185]]}},{"type":"Feature","properties":{"kind":"piste","difficulty":"easy","name":"Tuxer Fernerhaus","aerialway":null,"osm":"way/1459391235"},"geometry":{"type":"LineString","coordinates":[[11.67522,47.06004],[11.67412,47.05983],[11.67327,47.05981],[11.67275,47.05995],[11.6723,47.06057],[11.67116,47.06287],[11.6702,47.06297],[11.66974,47.06287],[11.67025,47.06178],[11.67081,47.06121],[11.67156,47.05999],[11.67215,47.0594],[11.67359,47.0592],[11.67539,47.0594],[11.67522,47.06004]]}},{"type":"Feature","properties":{"kind":"piste","difficulty":"easy","name":"Tuxer Fernerhaus","aerialway":null,"osm":"way/1459391236"},"geometry":{"type":"LineString","coordinates":[[11.67215,47.0594],[11.6698,47.06026],[11.66999,47.06045],[11.67179,47.05976],[11.67215,47.0594]]}},{"type":"Feature","properties":{"kind":"piste","difficulty":"easy","name":"Tuxer Fernerhaus","aerialway":null,"osm":"way/1459391237"},"geometry":{"type":"LineString","coordinates":[[11.66999,47.06045],[11.66986,47.0606],[11.66946,47.06052],[11.66946,47.0603],[11.6698,47.06026]]}},{"type":"Feature","properties":{"kind":"piste","difficulty":"intermediate","name":null,"aerialway":null,"osm":"way/1459391238"},"geometry":{"type":"LineString","coordinates":[[11.66552,47.05984],[11.66528,47.06069],[11.66507,47.06025],[11.66508,47.05972],[11.66552,47.05984]]}},{"type":"Feature","properties":{"kind":"piste","difficulty":"intermediate","name":"Schlegeis","aerialway":null,"osm":"way/1459391239"},"geometry":{"type":"LineString","coordinates":[[11.66838,47.05553],[11.6709,47.05652],[11.67152,47.05664],[11.67123,47.05683],[11.67043,47.05659],[11.66883,47.05602],[11.66838,47.05553]]}},{"type":"Feature","properties":{"kind":"piste","difficulty":"intermediate","name":"Schlegeis","aerialway":null,"osm":"way/1459391240"},"geometry":{"type":"LineString","coordinates":[[11.67359,47.0592],[11.67311,47.05923],[11.67154,47.05861],[11.67114,47.05831],[11.67091,47.05763],[11.67123,47.05683],[11.67152,47.05664],[11.6759,47.05616],[11.67744,47.05557],[11.67806,47.05515],[11.67901,47.05479],[11.67913,47.05466],[11.67897,47.05449],[11.67724,47.0541],[11.67678,47.05368],[11.67674,47.05341],[11.67732,47.05212],[11.67762,47.05092],[11.67822,47.04998],[11.67857,47.04979],[11.67877,47.04983],[11.67845,47.05007],[11.67788,47.0509],[11.67728,47.05282],[11.67691,47.05353],[11.67705,47.0538],[11.67746,47.05399],[11.67904,47.0544],[11.67927,47.05466],[11.67917,47.05479],[11.67812,47.05525],[11.67772,47.05559],[11.67594,47.05626],[11.67171,47.05683],[11.67144,47.05702],[11.67117,47.05789],[11.67142,47.05831],[11.67359,47.0592]]}},{"type":"Feature","properties":{"kind":"piste","difficulty":"intermediate","name":"Schlegeis","aerialway":null,"osm":"way/1459391241"},"geometry":{"type":"LineString","coordinates":[[11.67676,47.0558],[11.67683,47.05558],[11.67662,47.05375],[11.67674,47.05341],[11.67699,47.05394],[11.67713,47.05532],[11.6773,47.05562],[11.67676,47.0558]]}},{"type":"Feature","properties":{"kind":"piste","difficulty":"intermediate","name":null,"aerialway":null,"osm":"way/1459391242"},"geometry":{"type":"LineString","coordinates":[[11.67445,47.05866],[11.67437,47.05879],[11.67522,47.05941],[11.67539,47.0594],[11.67445,47.05866]]}},{"type":"Feature","properties":{"kind":"piste","difficulty":"intermediate","name":null,"aerialway":null,"osm":"way/1459391243"},"geometry":{"type":"LineString","coordinates":[[11.66981,47.07603],[11.6696,47.07648]]}},{"type":"Feature","properties":{"kind":"piste","difficulty":"intermediate","name":null,"aerialway":null,"osm":"way/1459391244"},"geometry":{"type":"LineString","coordinates":[[11.66965,47.07614],[11.67013,47.07643],[11.66868,47.07713],[11.6675,47.07869],[11.66748,47.07895],[11.66826,47.07943],[11.66869,47.08011],[11.67023,47.08089],[11.67077,47.08136],[11.67084,47.08167],[11.67069,47.08197],[11.66995,47.08249],[11.66957,47.08294],[11.66949,47.08341],[11.66963,47.08461],[11.66909,47.08458],[11.66906,47.08305],[11.6693,47.08259],[11.67022,47.08188],[11.6703,47.08154],[11.67021,47.08133],[11.66854,47.08015],[11.66815,47.07956],[11.66718,47.07903],[11.66687,47.07849],[11.66691,47.07825],[11.66786,47.07711],[11.66915,47.07662],[11.66966,47.07625],[11.66965,47.07614]]}},{"type":"Feature","properties":{"kind":"piste","difficulty":"intermediate","name":null,"aerialway":null,"osm":"way/1459391245"},"geometry":{"type":"LineString","coordinates":[[11.66898,47.08026],[11.66887,47.08021],[11.66903,47.08017],[11.67056,47.08005],[11.67086,47.0799],[11.67165,47.07911],[11.67189,47.07846],[11.67166,47.07787],[11.67195,47.07731],[11.67192,47.07708],[11.6716,47.07675],[11.67172,47.07678],[11.67204,47.07726],[11.67176,47.07786],[11.67196,47.07857],[11.67173,47.07913],[11.67107,47.07985],[11.67067,47.08008],[11.66898,47.08026]]}},{"type":"Feature","properties":{"kind":"piste","difficulty":"intermediate","name":null,"aerialway":null,"osm":"way/1459391246"},"geometry":{"type":"LineString","coordinates":[[11.66909,47.08458],[11.66915,47.08486],[11.66889,47.08483],[11.66698,47.08412],[11.66652,47.08424],[11.6637,47.08722],[11.66329,47.08742],[11.66283,47.08734],[11.66135,47.08625],[11.66145,47.08615],[11.66294,47.08716],[11.66333,47.08721],[11.66356,47.08706],[11.66425,47.08602],[11.66648,47.08394],[11.66701,47.08395],[11.66868,47.08459],[11.66909,47.08458]]}},{"type":"Feature","properties":{"kind":"piste","difficulty":"intermediate","name":null,"aerialway":null,"osm":"way/1459391247"},"geometry":{"type":"LineString","coordinates":[[11.66135,47.08625],[11.66103,47.08617],[11.66102,47.08654],[11.66117,47.08642],[11.66183,47.08654],[11.66135,47.08625]]}},{"type":"Feature","properties":{"kind":"piste","difficulty":"intermediate","name":null,"aerialway":null,"osm":"way/1459391248"},"geometry":{"type":"LineString","coordinates":[[11.66135,47.08625],[11.66073,47.08616],[11.65962,47.08643],[11.65913,47.08717],[11.65849,47.08897],[11.66157,47.09204],[11.66246,47.09278],[11.66337,47.09325],[11.66457,47.09357],[11.66495,47.09382],[11.66333,47.09336],[11.66244,47.09293],[11.66154,47.09218],[11.65924,47.08982],[11.65813,47.08912],[11.65794,47.08884],[11.65801,47.08835],[11.65868,47.08783],[11.65912,47.08681],[11.65949,47.08636],[11.66079,47.08606],[11.66145,47.08615],[11.66135,47.08625]]}},{"type":"Feature","properties":{"kind":"piste","difficulty":"intermediate","name":null,"aerialway":null,"osm":"way/1459391249"},"geometry":{"type":"LineString","coordinates":[[11.66495,47.09382],[11.66622,47.09418],[11.66657,47.0942],[11.66686,47.09404],[11.66594,47.094],[11.66527,47.09377],[11.66394,47.09301],[11.66341,47.09221],[11.66343,47.09152],[11.66326,47.09088],[11.66346,47.09075],[11.66396,47.09085],[11.66735,47.09244],[11.6679,47.09235],[11.66816,47.09217],[11.66824,47.09177],[11.66774,47.09118],[11.66745,47.09068],[11.66745,47.09044],[11.66798,47.08925],[11.66791,47.08864],[11.66808,47.08731],[11.66971,47.08617],[11.66983,47.08555],[11.66963,47.08461],[11.66909,47.08458],[11.66939,47.08558],[11.66941,47.08608],[11.66876,47.08664],[11.6677,47.08713],[11.66745,47.08751],[11.66705,47.09071],[11.66776,47.09173],[11.66759,47.0921],[11.6669,47.09213],[11.66561,47.09144],[11.6637,47.09064],[11.66347,47.09062],[11.6631,47.09083],[11.66338,47.0925],[11.66391,47.09317],[11.66495,47.09382]]}},{"type":"Feature","properties":{"kind":"piste","difficulty":"intermediate","name":"Tuxer Fernerhaus","aerialway":null,"osm":"way/1482024019"},"geometry":{"type":"LineString","coordinates":[[11.6665,47.06655],[11.66747,47.06897],[11.66822,47.07032]]}},{"type":"Feature","properties":{"kind":"piste","difficulty":"intermediate","name":"Tuxer Fernerhaus","aerialway":null,"osm":"way/1482024020"},"geometry":{"type":"LineString","coordinates":[[11.66766,47.0708],[11.66628,47.06724],[11.66749,47.06687],[11.66753,47.06773],[11.6688,47.07005],[11.66969,47.0711],[11.67051,47.07176],[11.67119,47.07326],[11.67141,47.07471],[11.67136,47.07532],[11.67097,47.07636],[11.67046,47.07621],[11.67085,47.07512],[11.67086,47.07457],[11.67079,47.07367],[11.67039,47.07244],[11.67016,47.07208],[11.66874,47.07111],[11.66766,47.0708]]}},{"type":"Feature","properties":{"kind":"piste","difficulty":"easy","name":"Tuxer Fernerhaus","aerialway":null,"osm":"way/1482024021"},"geometry":{"type":"LineString","coordinates":[[11.66039,47.07104],[11.66136,47.07107]]}},{"type":"Feature","properties":{"kind":"piste","difficulty":"intermediate","name":"Kaserer","aerialway":null,"osm":"way/1482024022"},"geometry":{"type":"LineString","coordinates":[[11.6665,47.06655],[11.66453,47.06732],[11.66233,47.06846]]}},{"type":"Feature","properties":{"kind":"piste","difficulty":"intermediate","name":null,"aerialway":null,"osm":"way/1482024023"},"geometry":{"type":"LineString","coordinates":[[11.66233,47.06846],[11.66171,47.07123]]}},{"type":"Feature","properties":{"kind":"piste","difficulty":"intermediate","name":"Kaserer","aerialway":null,"osm":"way/1482024024"},"geometry":{"type":"LineString","coordinates":[[11.65688,47.06305],[11.65646,47.06465],[11.65619,47.06773]]}},{"type":"Feature","properties":{"kind":"piste","difficulty":"easy","name":null,"aerialway":null,"osm":"way/1482024025"},"geometry":{"type":"LineString","coordinates":[[11.65106,47.06546],[11.65149,47.06535],[11.65216,47.06614],[11.65303,47.06843]]}},{"type":"Feature","properties":{"kind":"lift","difficulty":null,"name":"8er Sommerberg","aerialway":"gondola","osm":"way/4388461"},"geometry":{"type":"LineString","coordinates":[[11.67482,47.10691],[11.66364,47.0975]]}},{"type":"Feature","properties":{"kind":"lift","difficulty":null,"name":"Gletscherbus 1","aerialway":"gondola","osm":"way/4388462"},"geometry":{"type":"LineString","coordinates":[[11.67498,47.10683],[11.66382,47.09738]]}},{"type":"Feature","properties":{"kind":"lift","difficulty":null,"name":"Tuxerjoch","aerialway":"chair_lift","osm":"way/4388465"},"geometry":{"type":"LineString","coordinates":[[11.66294,47.09797],[11.6474,47.09382]]}},{"type":"Feature","properties":{"kind":"lift","difficulty":null,"name":"Sommerberg","aerialway":"chair_lift","osm":"way/4388468"},"geometry":{"type":"LineString","coordinates":[[11.66689,47.0942],[11.66273,47.09677]]}},{"type":"Feature","properties":{"kind":"lift","difficulty":null,"name":"Gletscherbus 2","aerialway":"gondola","osm":"way/4388469"},"geometry":{"type":"LineString","coordinates":[[11.66346,47.09695],[11.67059,47.07743]]}},{"type":"Feature","properties":{"kind":"lift","difficulty":null,"name":"Fernerhaus","aerialway":"gondola","osm":"way/4388470"},"geometry":{"type":"LineString","coordinates":[[11.66365,47.097],[11.67089,47.0774]]}},{"type":"Feature","properties":{"kind":"lift","difficulty":null,"name":"Gletscherbus 3","aerialway":"gondola","osm":"way/4388471"},"geometry":{"type":"LineString","coordinates":[[11.67253,47.07718],[11.68053,47.06267]]}},{"type":"Feature","properties":{"kind":"lift","difficulty":null,"name":"Schlegeis","aerialway":"chair_lift","osm":"way/4388472"},"geometry":{"type":"LineString","coordinates":[[11.67877,47.04998],[11.67443,47.05863]]}},{"type":"Feature","properties":{"kind":"lift","difficulty":null,"name":"Olperer 1","aerialway":"t-bar","osm":"way/4388475"},"geometry":{"type":"LineString","coordinates":[[11.6701,47.06063],[11.65687,47.05684]]}},{"type":"Feature","properties":{"kind":"lift","difficulty":null,"name":"Gefrorene Wand","aerialway":"gondola","osm":"way/4388476"},"geometry":{"type":"LineString","coordinates":[[11.67129,47.07717],[11.67314,47.06654]]}},{"type":"Feature","properties":{"kind":"lift","difficulty":null,"name":"Gefrorene Wand 3b","aerialway":"chair_lift","osm":"way/4388477"},"geometry":{"type":"LineString","coordinates":[[11.67123,47.06794],[11.67953,47.06364]]}},{"type":"Feature","properties":{"kind":"lift","difficulty":null,"name":"Kaserer 1","aerialway":"t-bar","osm":"way/4388478"},"geometry":{"type":"LineString","coordinates":[[11.65662,47.07395],[11.65724,47.06128]]}},{"type":"Feature","properties":{"kind":"lift","difficulty":null,"name":"Kaserer 2","aerialway":"t-bar","osm":"way/4388479"},"geometry":{"type":"LineString","coordinates":[[11.6557,47.07428],[11.65065,47.06466]]}},{"type":"Feature","properties":{"kind":"lift","difficulty":null,"name":"Olperer 2","aerialway":"t-bar","osm":"way/29219135"},"geometry":{"type":"LineString","coordinates":[[11.67012,47.06053],[11.6569,47.05678]]}},{"type":"Feature","properties":{"kind":"lift","difficulty":null,"name":"Gefrorene Wand 2","aerialway":"t-bar","osm":"way/48242821"},"geometry":{"type":"LineString","coordinates":[[11.671,47.06307],[11.68013,47.06305]]}},{"type":"Feature","properties":{"kind":"lift","difficulty":null,"name":"Gefrorene Wand 1","aerialway":"t-bar","osm":"way/89838103"},"geometry":{"type":"LineString","coordinates":[[11.671,47.06297],[11.68023,47.06295]]}},{"type":"Feature","properties":{"kind":"lift","difficulty":null,"name":"Ramsmoos","aerialway":"t-bar","osm":"way/107406252"},"geometry":{"type":"LineString","coordinates":[[11.66279,47.09742],[11.65775,47.09374]]}},{"type":"Feature","properties":{"kind":"lift","difficulty":null,"name":"Lärmstange 2","aerialway":"chair_lift","osm":"way/390185349"},"geometry":{"type":"LineString","coordinates":[[11.66092,47.07204],[11.65814,47.06286]]}},{"type":"Feature","properties":{"kind":"lift","difficulty":null,"name":"Babylift Hintertux","aerialway":"platter","osm":"way/444748764"},"geometry":{"type":"LineString","coordinates":[[11.67494,47.10986],[11.67428,47.11023]]}},{"type":"Feature","properties":{"kind":"lift","difficulty":null,"name":"Babylift Gletscherboden","aerialway":"magic_carpet","osm":"way/777171487"},"geometry":{"type":"LineString","coordinates":[[11.66943,47.07675],[11.66901,47.07704]]}},{"type":"Feature","properties":{"kind":"lift","difficulty":null,"name":"Lärmstange 1","aerialway":"chair_lift","osm":"way/1054061897"},"geometry":{"type":"LineString","coordinates":[[11.6609,47.08653],[11.66025,47.07134]]}},{"type":"Feature","properties":{"kind":"lift","difficulty":null,"name":"Flying Fox","aerialway":"zip_line","osm":"way/1067701572"},"geometry":{"type":"LineString","coordinates":[[11.71069,47.03831],[11.70429,47.03983]]}},{"type":"Feature","properties":{"kind":"lift","difficulty":null,"name":null,"aerialway":"drag_lift","osm":"way/1536770200"},"geometry":{"type":"LineString","coordinates":[[11.68039,47.06175],[11.68042,47.06227]]}}]}