{"type":"FeatureCollection","features":[{"type":"Feature","properties":{"kind":"lift","difficulty":null,"name":"Karkogelbahn","aerialway":"mixed_lift","osm":"way/76273697"},"geometry":{"type":"LineString","coordinates":[[13.35034,47.55578],[13.35915,47.54553]]}},{"type":"Feature","properties":{"kind":"lift","difficulty":null,"name":"Karalmlift","aerialway":"t-bar","osm":"way/78055488"},"geometry":{"type":"LineString","coordinates":[[13.35526,47.54537],[13.36268,47.54097]]}},{"type":"Feature","properties":{"kind":"lift","difficulty":null,"name":"Oberer Sonnleitenlift","aerialway":"platter","osm":"way/78144669"},"geometry":{"type":"LineString","coordinates":[[13.35313,47.56695],[13.35577,47.56794]]}},{"type":"Feature","properties":{"kind":"lift","difficulty":null,"name":"Unterer Sonnleitenlift I","aerialway":"platter","osm":"way/78144673"},"geometry":{"type":"LineString","coordinates":[[13.34854,47.56564],[13.3533,47.56629]]}},{"type":"Feature","properties":{"kind":"lift","difficulty":null,"name":"Unterer Sonnleitenlift II","aerialway":"platter","osm":"way/240550041"},"geometry":{"type":"LineString","coordinates":[[13.34856,47.5656],[13.35383,47.56632]]}},{"type":"Feature","properties":{"kind":"piste","difficulty":"easy","name":null,"aerialway":null,"osm":"way/313551680"},"geometry":{"type":"LineString","coordinates":[[13.36219,47.54126],[13.36194,47.54111],[13.36134,47.5411],[13.35946,47.54141],[13.35902,47.54168],[13.35868,47.54212],[13.35848,47.54285],[13.35817,47.54324],[13.35773,47.54358],[13.35629,47.54425],[13.35528,47.54508],[13.35538,47.5453]]}},{"type":"Feature","properties":{"kind":"piste","difficulty":"advanced","name":"FIS-Strecke","aerialway":null,"osm":"way/313551681"},"geometry":{"type":"LineString","coordinates":[[13.35926,47.54559],[13.35918,47.54579],[13.35793,47.5468],[13.35674,47.54817],[13.35603,47.54959],[13.35519,47.55086],[13.35513,47.55147],[13.35456,47.55229],[13.35408,47.5528],[13.35285,47.55322],[13.35252,47.55352],[13.35224,47.55384],[13.35183,47.55491],[13.35136,47.55546],[13.35033,47.55598],[13.35018,47.55592],[13.35034,47.55578]]}},{"type":"Feature","properties":{"kind":"piste","difficulty":"easy","name":null,"aerialway":null,"osm":"way/313551682"},"geometry":{"type":"LineString","coordinates":[[13.36219,47.54126],[13.36159,47.54237],[13.36182,47.54293],[13.36135,47.54321],[13.36119,47.5436],[13.36063,47.54383],[13.35964,47.54457]]}},{"type":"Feature","properties":{"kind":"piste","difficulty":"easy","name":null,"aerialway":null,"osm":"way/467636749"},"geometry":{"type":"LineString","coordinates":[[13.35915,47.54553],[13.35925,47.54567],[13.3588,47.54552],[13.35882,47.5453],[13.35965,47.5434],[13.35958,47.54296],[13.3593,47.54279],[13.35848,47.54285]]}},{"type":"Feature","properties":{"kind":"piste","difficulty":"intermediate","name":null,"aerialway":null,"osm":"way/467636751"},"geometry":{"type":"LineString","coordinates":[[13.35915,47.54553],[13.35926,47.54559],[13.35904,47.54584],[13.35787,47.54668],[13.35664,47.54781],[13.35574,47.54964],[13.35446,47.55118],[13.35267,47.55241],[13.35219,47.55296],[13.3514,47.55495],[13.35099,47.55551],[13.35033,47.55597],[13.35019,47.55591],[13.35034,47.55578]]}},{"type":"Feature","properties":{"kind":"piste","difficulty":"easy","name":null,"aerialway":null,"osm":"way/467636758"},"geometry":{"type":"LineString","coordinates":[[13.35915,47.54553],[13.35928,47.54569],[13.35841,47.54592],[13.35656,47.54724],[13.35294,47.54919],[13.35184,47.55059],[13.35155,47.55131],[13.35159,47.55263],[13.35119,47.55498],[13.35089,47.55553],[13.35032,47.55595],[13.35022,47.55591],[13.35034,47.55578]]}},{"type":"Feature","properties":{"kind":"piste","difficulty":"easy","name":null,"aerialway":null,"osm":"way/467636761"},"geometry":{"type":"LineString","coordinates":[[13.35528,47.54508],[13.35433,47.54624],[13.35326,47.54714],[13.35371,47.54758],[13.35263,47.54857],[13.35294,47.54919]]}},{"type":"Feature","properties":{"kind":"piste","difficulty":"easy","name":null,"aerialway":null,"osm":"way/467636768"},"geometry":{"type":"LineString","coordinates":[[13.35294,47.54919],[13.35297,47.54966],[13.35321,47.5502],[13.35294,47.55082],[13.35155,47.55131]]}},{"type":"Feature","properties":{"kind":"piste","difficulty":"easy","name":null,"aerialway":null,"osm":"way/1084729549"},"geometry":{"type":"LineString","coordinates":[[13.35549,47.56783],[13.35434,47.56788],[13.35211,47.56767],[13.34978,47.56662],[13.34854,47.56564]]}},{"type":"Feature","properties":{"kind":"piste","difficulty":"easy","name":null,"aerialway":null,"osm":"way/1084729550"},"geometry":{"type":"LineString","coordinates":[[13.3533,47.56624],[13.35309,47.56599],[13.35223,47.56578],[13.35086,47.56604],[13.35004,47.56601],[13.34854,47.56564]]}},{"type":"Feature","properties":{"kind":"piste","difficulty":"easy","name":null,"aerialway":null,"osm":"way/1084729551"},"geometry":{"type":"LineString","coordinates":[[13.3516,47.56588],[13.34856,47.5656]]}},{"type":"Feature","properties":{"kind":"piste","difficulty":"easy","name":null,"aerialway":null,"osm":"way/1084729552"},"geometry":{"type":"LineString","coordinates":[[13.35549,47.56783],[13.35528,47.56762],[13.35379,47.56705],[13.35313,47.56695]]}},{"type":"Feature","properties":{"kind":"piste","difficulty":"easy","name":null,"aerialway":null,"osm":"way/1084729553"},"geometry":{"type":"LineString","coordinates":[[13.35281,47.56622],[13.35314,47.56648],[13.35305,47.56678],[13.35313,47.56695]]}},{"type":"Feature","properties":{"kind":"piste","difficulty":"easy","name":null,"aerialway":null,"osm":"way/1084729554"},"geometry":{"type":"LineString","coordinates":[[13.3533,47.56624],[13.35311,47.56619],[13.35314,47.56648]]}},{"type":"Feature","properties":{"kind":"piste","difficulty":"easy","name":null,"aerialway":null,"osm":"way/1084729555"},"geometry":{"type":"LineString","coordinates":[[13.35474,47.56741],[13.35429,47.56698],[13.35387,47.56611],[13.35309,47.56599]]}},{"type":"Feature","properties":{"kind":"piste","difficulty":"easy","name":null,"aerialway":null,"osm":"way/1245021473"},"geometry":{"type":"LineString","coordinates":[[13.35941,47.54477],[13.35917,47.54515],[13.3595,47.54556]]}},{"type":"Feature","properties":{"kind":"piste","difficulty":"easy","name":null,"aerialway":null,"osm":"way/1245021474"},"geometry":{"type":"LineString","coordinates":[[13.35964,47.54457],[13.35941,47.54477]]}},{"type":"Feature","properties":{"kind":"piste","difficulty":"easy","name":null,"aerialway":null,"osm":"way/1324069531"},"geometry":{"type":"LineString","coordinates":[[13.3595,47.54556],[13.35926,47.54559]]}}]}