{"type":"FeatureCollection","features":[{"type":"Feature","properties":{"kind":"piste","difficulty":"intermediate","name":"Nord Abfahrt","aerialway":null,"osm":"way/419618913"},"geometry":{"type":"LineString","coordinates":[[11.87506,47.39792],[11.8757,47.40036],[11.87729,47.40481],[11.87752,47.40595],[11.87738,47.40602]]}},{"type":"Feature","properties":{"kind":"piste","difficulty":"intermediate","name":"Familienabfahrt Reitherkoel","aerialway":null,"osm":"way/419618914"},"geometry":{"type":"LineString","coordinates":[[11.87494,47.39766],[11.8755,47.39843],[11.87769,47.39992],[11.87877,47.40133],[11.87907,47.40331],[11.87869,47.40571],[11.87891,47.40637],[11.87979,47.40725],[11.88099,47.40814],[11.88178,47.41012],[11.8817,47.41099]]}},{"type":"Feature","properties":{"kind":"piste","difficulty":"easy","name":"Brandach Abfahrt","aerialway":null,"osm":"way/419618915"},"geometry":{"type":"LineString","coordinates":[[11.8817,47.41099],[11.88054,47.41378],[11.88091,47.41398]]}},{"type":"Feature","properties":{"kind":"piste","difficulty":"easy","name":"Nissel Abfahrt","aerialway":null,"osm":"way/419618916"},"geometry":{"type":"LineString","coordinates":[[11.87168,47.39614],[11.87238,47.39609],[11.87386,47.39647],[11.87535,47.39652],[11.87594,47.39705],[11.87591,47.39782]]}},{"type":"Feature","properties":{"kind":"piste","difficulty":"easy","name":null,"aerialway":null,"osm":"way/419619061"},"geometry":{"type":"LineString","coordinates":[[11.87498,47.39747],[11.87591,47.3971]]}},{"type":"Feature","properties":{"kind":"piste","difficulty":"easy","name":null,"aerialway":null,"osm":"way/1462650034"},"geometry":{"type":"LineString","coordinates":[[11.88015,47.41442],[11.88033,47.41428],[11.8808,47.41431],[11.88103,47.41374],[11.88029,47.41349],[11.88015,47.41442]]}},{"type":"Feature","properties":{"kind":"piste","difficulty":"easy","name":null,"aerialway":null,"osm":"way/1462650035"},"geometry":{"type":"LineString","coordinates":[[11.88103,47.41374],[11.88094,47.41373],[11.881,47.4136],[11.88029,47.41349],[11.88036,47.41313],[11.88122,47.4132],[11.88103,47.41374]]}},{"type":"Feature","properties":{"kind":"piste","difficulty":"novice","name":null,"aerialway":null,"osm":"way/1462650036"},"geometry":{"type":"LineString","coordinates":[[11.88036,47.41313],[11.88026,47.4131],[11.88002,47.41401],[11.88011,47.41417],[11.88036,47.41313]]}},{"type":"Feature","properties":{"kind":"piste","difficulty":"easy","name":null,"aerialway":null,"osm":"way/1462650037"},"geometry":{"type":"LineString","coordinates":[[11.88122,47.4132],[11.88036,47.41313],[11.88044,47.4129],[11.88123,47.41158],[11.88182,47.41164],[11.88122,47.4132]]}},{"type":"Feature","properties":{"kind":"piste","difficulty":"easy","name":null,"aerialway":null,"osm":"way/1462650038"},"geometry":{"type":"LineString","coordinates":[[11.88123,47.41158],[11.88182,47.41164],[11.88235,47.4103],[11.88221,47.41026],[11.88241,47.41013],[11.88202,47.41007],[11.88141,47.4103],[11.88123,47.41158]]}},{"type":"Feature","properties":{"kind":"piste","difficulty":"intermediate","name":null,"aerialway":null,"osm":"way/1462650039"},"geometry":{"type":"LineString","coordinates":[[11.88141,47.4103],[11.88202,47.41007],[11.88153,47.40866],[11.88109,47.40868],[11.88131,47.40938],[11.88141,47.4103]]}},{"type":"Feature","properties":{"kind":"piste","difficulty":"intermediate","name":null,"aerialway":null,"osm":"way/1462650040"},"geometry":{"type":"LineString","coordinates":[[11.88153,47.40866],[11.88109,47.40868],[11.88067,47.40797],[11.87883,47.4067],[11.87881,47.40626],[11.8785,47.40599],[11.87891,47.40583],[11.87896,47.4062],[11.88136,47.40834],[11.88153,47.40866]]}},{"type":"Feature","properties":{"kind":"piste","difficulty":"intermediate","name":null,"aerialway":null,"osm":"way/1462650041"},"geometry":{"type":"LineString","coordinates":[[11.8785,47.40599],[11.87891,47.40583],[11.87909,47.40484],[11.87924,47.40331],[11.87908,47.40263],[11.87911,47.40201],[11.87894,47.40144],[11.87842,47.40051],[11.87746,47.39955],[11.87721,47.39971],[11.87874,47.40178],[11.87875,47.40386],[11.87868,47.40502],[11.87842,47.40576],[11.8785,47.40599]]}},{"type":"Feature","properties":{"kind":"piste","difficulty":"intermediate","name":null,"aerialway":null,"osm":"way/1462650042"},"geometry":{"type":"LineString","coordinates":[[11.87746,47.39955],[11.87721,47.39971],[11.87535,47.39867],[11.87498,47.3981],[11.87491,47.39762],[11.875,47.39759],[11.87516,47.39795],[11.87563,47.39837],[11.87641,47.39876],[11.87746,47.39955]]}},{"type":"Feature","properties":{"kind":"piste","difficulty":"intermediate","name":null,"aerialway":null,"osm":"way/1462650043"},"geometry":{"type":"LineString","coordinates":[[11.875,47.39759],[11.87479,47.39751],[11.87482,47.39742],[11.875,47.39759]]}},{"type":"Feature","properties":{"kind":"piste","difficulty":"easy","name":"Familienabfahrt Reitherkoel","aerialway":null,"osm":"way/1463401239"},"geometry":{"type":"LineString","coordinates":[[11.8817,47.41099],[11.88018,47.4144]]}},{"type":"Feature","properties":{"kind":"piste","difficulty":"easy","name":"Brandach Abfahrt","aerialway":null,"osm":"way/1463401240"},"geometry":{"type":"LineString","coordinates":[[11.88237,47.41015],[11.8821,47.4102],[11.8817,47.41099]]}},{"type":"Feature","properties":{"kind":"piste","difficulty":"intermediate","name":null,"aerialway":null,"osm":"way/1463401241"},"geometry":{"type":"LineString","coordinates":[[11.87745,47.40562],[11.87882,47.40609]]}},{"type":"Feature","properties":{"kind":"piste","difficulty":"intermediate","name":null,"aerialway":null,"osm":"way/1463401242"},"geometry":{"type":"LineString","coordinates":[[11.87869,47.40571],[11.87752,47.40595]]}},{"type":"Feature","properties":{"kind":"lift","difficulty":null,"name":"Reitherkogelbahn","aerialway":"gondola","osm":"way/36014829"},"geometry":{"type":"LineString","coordinates":[[11.8801,47.41454],[11.87486,47.39767]]}},{"type":"Feature","properties":{"kind":"lift","difficulty":null,"name":"Nordlift","aerialway":"t-bar","osm":"way/36186160"},"geometry":{"type":"LineString","coordinates":[[11.87734,47.40605],[11.87477,47.39773]]}},{"type":"Feature","properties":{"kind":"lift","difficulty":null,"name":"Brandachlift","aerialway":"platter","osm":"way/38611168"},"geometry":{"type":"LineString","coordinates":[[11.88097,47.41407],[11.88248,47.41014]]}},{"type":"Feature","properties":{"kind":"lift","difficulty":null,"name":"Hochlift","aerialway":"t-bar","osm":"way/50197079"},"geometry":{"type":"LineString","coordinates":[[11.87582,47.39705],[11.87146,47.39613]]}},{"type":"Feature","properties":{"kind":"lift","difficulty":null,"name":null,"aerialway":"magic_carpet","osm":"way/1462650033"},"geometry":{"type":"LineString","coordinates":[[11.87999,47.414],[11.8802,47.41311]]}}]}