{"type":"FeatureCollection","features":[{"type":"Feature","properties":{"kind":"piste","difficulty":"novice","name":null,"aerialway":null,"osm":"way/150238559"},"geometry":{"type":"LineString","coordinates":[[13.71373,46.53799],[13.7139,46.53817],[13.71373,46.54019],[13.71382,46.54091],[13.71334,46.54135],[13.71295,46.54137]]}},{"type":"Feature","properties":{"kind":"lift","difficulty":null,"name":"Seltschach","aerialway":"drag_lift","osm":"way/150238560"},"geometry":{"type":"LineString","coordinates":[[13.71294,46.54139],[13.7138,46.53769]]}},{"type":"Feature","properties":{"kind":"lift","difficulty":null,"name":"3-Länder-Jet","aerialway":"chair_lift","osm":"way/150408392"},"geometry":{"type":"LineString","coordinates":[[13.71474,46.54117],[13.72643,46.5247]]}},{"type":"Feature","properties":{"kind":"piste","difficulty":"novice","name":null,"aerialway":null,"osm":"way/150408393"},"geometry":{"type":"LineString","coordinates":[[13.71382,46.54091],[13.71438,46.54138],[13.71474,46.54117]]}},{"type":"Feature","properties":{"kind":"lift","difficulty":null,"name":"Hahnenwipfel","aerialway":"t-bar","osm":"way/151161243"},"geometry":{"type":"LineString","coordinates":[[13.72992,46.5221],[13.73351,46.5189]]}},{"type":"Feature","properties":{"kind":"lift","difficulty":null,"name":"Taubenkogel Ost","aerialway":"platter","osm":"way/151161252"},"geometry":{"type":"LineString","coordinates":[[13.72189,46.52307],[13.72625,46.52323]]}},{"type":"Feature","properties":{"kind":"lift","difficulty":null,"name":"Taubenkogel West","aerialway":"platter","osm":"way/151161254"},"geometry":{"type":"LineString","coordinates":[[13.72836,46.52137],[13.72618,46.5235]]}},{"type":"Feature","properties":{"kind":"piste","difficulty":"easy","name":null,"aerialway":null,"osm":"way/151161258"},"geometry":{"type":"LineString","coordinates":[[13.72957,46.52134],[13.72834,46.52133]]}},{"type":"Feature","properties":{"kind":"piste","difficulty":"easy","name":null,"aerialway":null,"osm":"way/151161259"},"geometry":{"type":"LineString","coordinates":[[13.7265,46.52318],[13.72575,46.52372]]}},{"type":"Feature","properties":{"kind":"piste","difficulty":"easy","name":null,"aerialway":null,"osm":"way/151161262"},"geometry":{"type":"LineString","coordinates":[[13.7265,46.52318],[13.72679,46.52322],[13.72844,46.52161],[13.72845,46.52133]]}},{"type":"Feature","properties":{"kind":"piste","difficulty":"easy","name":null,"aerialway":null,"osm":"way/151161264"},"geometry":{"type":"LineString","coordinates":[[13.7265,46.52318],[13.72609,46.52311],[13.7271,46.52208],[13.72822,46.52135],[13.72833,46.5214]]}},{"type":"Feature","properties":{"kind":"piste","difficulty":"easy","name":"Slowenienabfahrt","aerialway":null,"osm":"way/151161267"},"geometry":{"type":"LineString","coordinates":[[13.72606,46.52322],[13.72609,46.52311],[13.72338,46.52294],[13.72195,46.52307]]}},{"type":"Feature","properties":{"kind":"piste","difficulty":"easy","name":null,"aerialway":null,"osm":"way/151161270"},"geometry":{"type":"LineString","coordinates":[[13.72606,46.52322],[13.72575,46.52372],[13.72321,46.52328],[13.722,46.5233],[13.72173,46.52313]]}},{"type":"Feature","properties":{"kind":"piste","difficulty":"intermediate","name":null,"aerialway":null,"osm":"way/151161272"},"geometry":{"type":"LineString","coordinates":[[13.73308,46.51926],[13.73316,46.51942],[13.73224,46.52055],[13.73069,46.52187],[13.73004,46.5222],[13.72986,46.52218],[13.72995,46.52207]]}},{"type":"Feature","properties":{"kind":"piste","difficulty":"advanced","name":null,"aerialway":null,"osm":"way/151161274"},"geometry":{"type":"LineString","coordinates":[[13.73308,46.51926],[13.7328,46.5193],[13.72957,46.52134],[13.72986,46.52218]]}},{"type":"Feature","properties":{"kind":"piste","difficulty":"advanced","name":"Talabfahrt","aerialway":null,"osm":"way/151207245"},"geometry":{"type":"LineString","coordinates":[[13.72657,46.52443],[13.72664,46.52415],[13.72739,46.52398],[13.72783,46.52416],[13.72783,46.52583],[13.72687,46.52606],[13.72603,46.526],[13.72484,46.52628],[13.724,46.52628],[13.72344,46.52646],[13.72295,46.52704],[13.72299,46.52733],[13.72361,46.52799],[13.72492,46.52863],[13.72561,46.52925]]}},{"type":"Feature","properties":{"kind":"lift","difficulty":null,"name":"Dreiländereck Ost","aerialway":"t-bar","osm":"way/151207247"},"geometry":{"type":"LineString","coordinates":[[13.7215,46.52351],[13.71864,46.52286],[13.71431,46.52283]]}},{"type":"Feature","properties":{"kind":"piste","difficulty":"easy","name":null,"aerialway":null,"osm":"way/151207248"},"geometry":{"type":"LineString","coordinates":[[13.71884,46.53711],[13.71856,46.53698],[13.71857,46.53687],[13.71891,46.53671],[13.71886,46.53649],[13.71731,46.53651],[13.71505,46.53683],[13.71476,46.53712],[13.7147,46.53788]]}},{"type":"Feature","properties":{"kind":"lift","difficulty":null,"name":"Stole","aerialway":"t-bar","osm":"way/151209975"},"geometry":{"type":"LineString","coordinates":[[13.70583,46.52859],[13.71105,46.52574],[13.7141,46.52356]]}},{"type":"Feature","properties":{"kind":"piste","difficulty":"easy","name":null,"aerialway":null,"osm":"way/151226161"},"geometry":{"type":"LineString","coordinates":[[13.722,46.5233],[13.72172,46.52353],[13.72146,46.5235]]}},{"type":"Feature","properties":{"kind":"piste","difficulty":"intermediate","name":"Stole","aerialway":null,"osm":"way/151406510"},"geometry":{"type":"LineString","coordinates":[[13.71371,46.52384],[13.71413,46.5241],[13.71419,46.52462],[13.7134,46.52511],[13.71302,46.52591],[13.71089,46.52636],[13.7093,46.52693],[13.70615,46.52862],[13.70594,46.52866],[13.70594,46.52853]]}},{"type":"Feature","properties":{"kind":"piste","difficulty":"easy","name":null,"aerialway":null,"osm":"way/151406512"},"geometry":{"type":"LineString","coordinates":[[13.71455,46.52283],[13.71525,46.52307],[13.71913,46.52311],[13.72031,46.52344],[13.72167,46.52354]]}},{"type":"Feature","properties":{"kind":"piste","difficulty":"advanced","name":"Stole","aerialway":null,"osm":"way/151416142"},"geometry":{"type":"LineString","coordinates":[[13.71378,46.52388],[13.71114,46.52593],[13.7093,46.52693]]}},{"type":"Feature","properties":{"kind":"piste","difficulty":"easy","name":null,"aerialway":null,"osm":"way/151416143"},"geometry":{"type":"LineString","coordinates":[[13.71378,46.52388],[13.71913,46.52311]]}},{"type":"Feature","properties":{"kind":"piste","difficulty":"easy","name":null,"aerialway":null,"osm":"way/151416145"},"geometry":{"type":"LineString","coordinates":[[13.71467,46.52295],[13.71424,46.52355],[13.71378,46.52388]]}},{"type":"Feature","properties":{"kind":"piste","difficulty":"intermediate","name":"Talabfahrt","aerialway":null,"osm":"way/151465628"},"geometry":{"type":"LineString","coordinates":[[13.72864,46.52234],[13.73005,46.52384],[13.73032,46.52445],[13.73011,46.52599],[13.72903,46.52772],[13.72561,46.52925],[13.72608,46.53086],[13.72717,46.53147],[13.72746,46.53434],[13.72688,46.53508],[13.72231,46.53689],[13.71992,46.53695],[13.71884,46.53711],[13.7162,46.53771],[13.7147,46.53788],[13.7139,46.53817]]}},{"type":"Feature","properties":{"kind":"piste","difficulty":"easy","name":"Talabfahrt","aerialway":null,"osm":"way/151465630"},"geometry":{"type":"LineString","coordinates":[[13.72664,46.52415],[13.72864,46.52234]]}},{"type":"Feature","properties":{"kind":"piste","difficulty":"easy","name":null,"aerialway":null,"osm":"way/151465634"},"geometry":{"type":"LineString","coordinates":[[13.72864,46.52234],[13.72978,46.52218]]}},{"type":"Feature","properties":{"kind":"piste","difficulty":"easy","name":null,"aerialway":null,"osm":"way/151465637"},"geometry":{"type":"LineString","coordinates":[[13.72864,46.52234],[13.72844,46.52161]]}},{"type":"Feature","properties":{"kind":"lift","difficulty":null,"name":"Macesnovec","aerialway":"chair_lift","osm":"way/292050650"},"geometry":{"type":"LineString","coordinates":[[13.7073,46.49163],[13.70878,46.48235]]}},{"type":"Feature","properties":{"kind":"piste","difficulty":"intermediate","name":null,"aerialway":null,"osm":"way/462915580"},"geometry":{"type":"LineString","coordinates":[[13.70878,46.48235],[13.70823,46.48534],[13.70716,46.48603],[13.7068,46.48661],[13.7067,46.48775],[13.70721,46.48847],[13.7067,46.48945],[13.70665,46.49031],[13.70683,46.49098],[13.7073,46.49163],[13.70696,46.49143],[13.70641,46.49138],[13.70564,46.49076],[13.70574,46.4903],[13.70597,46.48999],[13.70602,46.48948],[13.70575,46.48826],[13.70597,46.48774],[13.70617,46.4866],[13.70663,46.48583],[13.70694,46.48567],[13.70759,46.48493],[13.70798,46.48406],[13.70816,46.48297],[13.70835,46.48258],[13.70878,46.48235]]}},{"type":"Feature","properties":{"kind":"piste","difficulty":"intermediate","name":null,"aerialway":null,"osm":"way/641948776"},"geometry":{"type":"LineString","coordinates":[[13.70878,46.48235],[13.70853,46.48258],[13.70805,46.4852],[13.7067,46.4862],[13.70651,46.48688],[13.7064,46.4878],[13.70664,46.49102],[13.7073,46.49163]]}},{"type":"Feature","properties":{"kind":"piste","difficulty":"easy","name":"Talabfahrt","aerialway":null,"osm":"way/892216590"},"geometry":{"type":"LineString","coordinates":[[13.72486,46.53588],[13.72422,46.53681],[13.72341,46.53723],[13.72279,46.53722],[13.72167,46.53691]]}},{"type":"Feature","properties":{"kind":"piste","difficulty":"easy","name":null,"aerialway":null,"osm":"way/1054820301"},"geometry":{"type":"LineString","coordinates":[[13.72664,46.52415],[13.72643,46.52389],[13.72575,46.52372]]}}]}