{"type":"FeatureCollection","features":[{"type":"Feature","properties":{"kind":"piste","difficulty":"intermediate","name":null,"aerialway":null,"osm":"way/49289156"},"geometry":{"type":"LineString","coordinates":[[9.87695,47.3102],[9.87662,47.31006],[9.87546,47.31002],[9.87442,47.31057]]}},{"type":"Feature","properties":{"kind":"piste","difficulty":"intermediate","name":null,"aerialway":null,"osm":"way/200950832"},"geometry":{"type":"LineString","coordinates":[[9.87791,47.30943],[9.87764,47.30942],[9.87729,47.30895],[9.87681,47.30902],[9.87631,47.30933],[9.87533,47.30903],[9.87409,47.30893],[9.8731,47.30926],[9.87274,47.30922]]}},{"type":"Feature","properties":{"kind":"piste","difficulty":"easy","name":"Hochblanken","aerialway":null,"osm":"way/200950833"},"geometry":{"type":"LineString","coordinates":[[9.85517,47.30508],[9.85644,47.30473],[9.8574,47.30465],[9.85976,47.3048],[9.86838,47.30467],[9.86908,47.3048],[9.86904,47.30505],[9.86728,47.30582],[9.86822,47.30599],[9.87084,47.30574],[9.87246,47.30516],[9.87399,47.30531],[9.87428,47.30528],[9.87432,47.30516]]}},{"type":"Feature","properties":{"kind":"piste","difficulty":"intermediate","name":"Hochblanken","aerialway":null,"osm":"way/200950834"},"geometry":{"type":"LineString","coordinates":[[9.85528,47.3051],[9.85517,47.30508],[9.8552,47.30519],[9.85592,47.30604],[9.85659,47.30611],[9.85826,47.3061],[9.86069,47.3058],[9.86455,47.30619],[9.86913,47.30592],[9.87036,47.306],[9.87133,47.30585],[9.87256,47.30537],[9.87378,47.3054]]}},{"type":"Feature","properties":{"kind":"piste","difficulty":"intermediate","name":"Skiweg","aerialway":null,"osm":"way/334095525"},"geometry":{"type":"LineString","coordinates":[[9.88345,47.30424],[9.88333,47.30406],[9.88231,47.30405],[9.8814,47.30356],[9.88055,47.30344],[9.87948,47.30377],[9.87869,47.30369],[9.87753,47.30404],[9.87715,47.30435],[9.87668,47.30428]]}},{"type":"Feature","properties":{"kind":"piste","difficulty":"intermediate","name":"Speedstrecke","aerialway":null,"osm":"way/488859970"},"geometry":{"type":"LineString","coordinates":[[9.87818,47.30946],[9.87821,47.30915],[9.87938,47.30818],[9.88046,47.30783]]}},{"type":"Feature","properties":{"kind":"piste","difficulty":"intermediate","name":"Hochblanken","aerialway":null,"osm":"way/564459721"},"geometry":{"type":"LineString","coordinates":[[9.85786,47.30467],[9.85803,47.30489],[9.8579,47.30514],[9.8565,47.30581],[9.85644,47.306],[9.85659,47.30611]]}},{"type":"Feature","properties":{"kind":"piste","difficulty":"intermediate","name":null,"aerialway":null,"osm":"way/1378684956"},"geometry":{"type":"LineString","coordinates":[[9.87427,47.30533],[9.87422,47.3053]]}},{"type":"Feature","properties":{"kind":"piste","difficulty":"advanced","name":null,"aerialway":null,"osm":"way/1378684959"},"geometry":{"type":"LineString","coordinates":[[9.87889,47.30569],[9.87829,47.30527],[9.87686,47.30504],[9.8743,47.30535],[9.87674,47.305],[9.8761,47.30459],[9.87647,47.30447],[9.87651,47.30473],[9.87674,47.30491],[9.8778,47.3049],[9.87747,47.30319],[9.87726,47.30297],[9.87624,47.30293],[9.87602,47.30242],[9.87504,47.30104],[9.87459,47.29929],[9.87462,47.29846],[9.87442,47.29751],[9.87479,47.29706],[9.87553,47.2966],[9.87602,47.29572],[9.87624,47.29479],[9.8783,47.29294],[9.87832,47.29317],[9.87753,47.29358],[9.87709,47.29413],[9.87632,47.29476],[9.87619,47.29498],[9.87622,47.29544],[9.87584,47.29623],[9.87557,47.29664],[9.87469,47.29722],[9.87454,47.29752],[9.87479,47.29827],[9.87482,47.29955],[9.87502,47.30048],[9.87636,47.3028],[9.87797,47.30288],[9.8783,47.30394],[9.87827,47.30498],[9.87854,47.30516],[9.87955,47.30534],[9.87945,47.30676],[9.87856,47.30767],[9.87837,47.30821],[9.87784,47.30895],[9.87777,47.30942],[9.87764,47.30939],[9.87778,47.30866],[9.87808,47.30833],[9.8782,47.30785],[9.87909,47.30619],[9.87889,47.30569]]}},{"type":"Feature","properties":{"kind":"piste","difficulty":"intermediate","name":null,"aerialway":null,"osm":"way/1415622801"},"geometry":{"type":"LineString","coordinates":[[9.87917,47.30851],[9.88016,47.30785],[9.87942,47.30809],[9.87818,47.30912],[9.87811,47.30935],[9.87841,47.30901],[9.87917,47.30851]]}},{"type":"Feature","properties":{"kind":"piste","difficulty":"advanced","name":null,"aerialway":null,"osm":"way/1433569384"},"geometry":{"type":"LineString","coordinates":[[9.87698,47.30502],[9.87427,47.30533]]}},{"type":"Feature","properties":{"kind":"piste","difficulty":"easy","name":null,"aerialway":null,"osm":"way/1468764094"},"geometry":{"type":"LineString","coordinates":[[9.87673,47.31032],[9.87764,47.31047],[9.87771,47.30993]]}},{"type":"Feature","properties":{"kind":"piste","difficulty":"easy","name":null,"aerialway":null,"osm":"way/1468764096"},"geometry":{"type":"LineString","coordinates":[[9.87715,47.31031],[9.8776,47.31043],[9.87757,47.31011],[9.87768,47.31005],[9.87773,47.3104],[9.87855,47.31021],[9.87762,47.31049],[9.87702,47.31036],[9.87715,47.31031]]}},{"type":"Feature","properties":{"kind":"piste","difficulty":"freeride","name":null,"aerialway":null,"osm":"way/1471479637"},"geometry":{"type":"LineString","coordinates":[[9.87814,47.30335],[9.87801,47.30262],[9.87803,47.30158],[9.8778,47.30118],[9.87799,47.30028],[9.87831,47.30003],[9.87802,47.29905],[9.87813,47.29872],[9.87716,47.29711],[9.87678,47.29669]]}},{"type":"Feature","properties":{"kind":"piste","difficulty":"intermediate","name":"Hochblanken","aerialway":null,"osm":"way/1476526134"},"geometry":{"type":"LineString","coordinates":[[9.87015,47.306],[9.87065,47.3059],[9.87098,47.30569]]}},{"type":"Feature","properties":{"kind":"piste","difficulty":"easy","name":null,"aerialway":null,"osm":"way/1491910689"},"geometry":{"type":"LineString","coordinates":[[9.87764,47.31047],[9.87869,47.31011]]}},{"type":"Feature","properties":{"kind":"piste","difficulty":"intermediate","name":"Hochblanken","aerialway":null,"osm":"way/1525515413"},"geometry":{"type":"LineString","coordinates":[[9.85826,47.3061],[9.86126,47.30635],[9.86362,47.30607]]}},{"type":"Feature","properties":{"kind":"piste","difficulty":"advanced","name":null,"aerialway":null,"osm":"way/1525515414"},"geometry":{"type":"LineString","coordinates":[[9.87761,47.30504],[9.87677,47.30495],[9.87644,47.30477],[9.87634,47.30446]]}},{"type":"Feature","properties":{"kind":"piste","difficulty":"easy","name":null,"aerialway":null,"osm":"way/1525515415"},"geometry":{"type":"LineString","coordinates":[[9.87928,47.30565],[9.88206,47.30524]]}},{"type":"Feature","properties":{"kind":"piste","difficulty":"easy","name":null,"aerialway":null,"osm":"way/1525515416"},"geometry":{"type":"LineString","coordinates":[[9.88195,47.30524],[9.88073,47.30544],[9.87955,47.30534],[9.87954,47.30562],[9.88122,47.30546],[9.88195,47.30524]]}},{"type":"Feature","properties":{"kind":"piste","difficulty":"advanced","name":null,"aerialway":null,"osm":"way/1558619497"},"geometry":{"type":"LineString","coordinates":[[9.8782,47.30514],[9.87761,47.30504]]}},{"type":"Feature","properties":{"kind":"piste","difficulty":"easy","name":null,"aerialway":null,"osm":"relation/19818020"},"geometry":{"type":"LineString","coordinates":[[9.85509,47.30498],[9.85507,47.30508],[9.85528,47.30508],[9.85674,47.30493],[9.85827,47.30501],[9.85929,47.3049],[9.86431,47.30492],[9.86829,47.30473],[9.86884,47.30485],[9.86875,47.30522],[9.867,47.30586],[9.86822,47.30599],[9.87088,47.3058],[9.87245,47.30518],[9.87396,47.30534],[9.87445,47.30524],[9.87242,47.30514],[9.87184,47.30543],[9.87151,47.30541],[9.87056,47.30574],[9.8682,47.30591],[9.86742,47.30578],[9.86877,47.3053],[9.86923,47.30496],[9.86924,47.3047],[9.86864,47.3045],[9.86122,47.30455],[9.85866,47.3044],[9.85688,47.30444],[9.85574,47.30482],[9.85524,47.30485],[9.85509,47.30498]]}},{"type":"Feature","properties":{"kind":"lift","difficulty":null,"name":"Ragaz","aerialway":"chair_lift","osm":"way/92032508"},"geometry":{"type":"LineString","coordinates":[[9.87432,47.30516],[9.85543,47.30508]]}},{"type":"Feature","properties":{"kind":"lift","difficulty":null,"name":"Hasenbühel","aerialway":"chair_lift","osm":"way/328442901"},"geometry":{"type":"LineString","coordinates":[[9.87794,47.29284],[9.8779,47.30933]]}}]}