{"type":"FeatureCollection","features":[{"type":"Feature","properties":{"kind":"lift","difficulty":null,"name":"Stroblerlift","aerialway":"t-bar","osm":"way/166276346"},"geometry":{"type":"LineString","coordinates":[[13.42737,47.65808],[13.42445,47.66762]]}},{"type":"Feature","properties":{"kind":"lift","difficulty":null,"name":"Welserlift","aerialway":"t-bar","osm":"way/166276350"},"geometry":{"type":"LineString","coordinates":[[13.43026,47.65124],[13.42549,47.6562]]}},{"type":"Feature","properties":{"kind":"lift","difficulty":null,"name":"Edtlift","aerialway":"platter","osm":"way/166280128"},"geometry":{"type":"LineString","coordinates":[[13.42959,47.64825],[13.42598,47.6478]]}},{"type":"Feature","properties":{"kind":"lift","difficulty":null,"name":"Förderband","aerialway":"magic_carpet","osm":"way/166280129"},"geometry":{"type":"LineString","coordinates":[[13.42946,47.64888],[13.42815,47.6488]]}},{"type":"Feature","properties":{"kind":"lift","difficulty":null,"name":"Gschlößlbahn","aerialway":"chair_lift","osm":"way/166280130"},"geometry":{"type":"LineString","coordinates":[[13.43085,47.64644],[13.4262,47.63802]]}},{"type":"Feature","properties":{"kind":"lift","difficulty":null,"name":"Schischullift","aerialway":"t-bar","osm":"way/166280138"},"geometry":{"type":"LineString","coordinates":[[13.42965,47.64949],[13.4245,47.64905]]}},{"type":"Feature","properties":{"kind":"piste","difficulty":"intermediate","name":null,"aerialway":null,"osm":"way/1011498019"},"geometry":{"type":"LineString","coordinates":[[13.4262,47.63802],[13.42597,47.63858],[13.4262,47.63915],[13.42925,47.63957],[13.4309,47.64111],[13.43099,47.64339],[13.43034,47.64478],[13.43119,47.64635],[13.43104,47.64652],[13.43085,47.64644]]}},{"type":"Feature","properties":{"kind":"piste","difficulty":"intermediate","name":null,"aerialway":null,"osm":"way/1011498020"},"geometry":{"type":"LineString","coordinates":[[13.4262,47.63802],[13.42634,47.63785],[13.42826,47.63812],[13.43077,47.63958],[13.43173,47.64096],[13.43205,47.64336],[13.43181,47.64472],[13.43125,47.64648],[13.43085,47.64644]]}},{"type":"Feature","properties":{"kind":"piste","difficulty":"easy","name":null,"aerialway":null,"osm":"way/1011498023"},"geometry":{"type":"LineString","coordinates":[[13.42467,47.66692],[13.42457,47.66595],[13.42329,47.66477],[13.42275,47.66379],[13.42343,47.66193],[13.42316,47.6606],[13.42485,47.65944],[13.42664,47.65838],[13.42737,47.65808]]}},{"type":"Feature","properties":{"kind":"piste","difficulty":"easy","name":null,"aerialway":null,"osm":"way/1011498024"},"geometry":{"type":"LineString","coordinates":[[13.4259,47.65578],[13.42438,47.65662],[13.42507,47.65733],[13.42737,47.65808]]}},{"type":"Feature","properties":{"kind":"piste","difficulty":"easy","name":null,"aerialway":null,"osm":"way/1011498025"},"geometry":{"type":"LineString","coordinates":[[13.42569,47.65595],[13.4261,47.65592],[13.42882,47.65367],[13.43045,47.65127],[13.43026,47.65124]]}},{"type":"Feature","properties":{"kind":"piste","difficulty":"intermediate","name":null,"aerialway":null,"osm":"way/1011498026"},"geometry":{"type":"LineString","coordinates":[[13.42569,47.65595],[13.42571,47.65571],[13.42935,47.65156],[13.43026,47.65124]]}},{"type":"Feature","properties":{"kind":"piste","difficulty":"easy","name":null,"aerialway":null,"osm":"way/1011498027"},"geometry":{"type":"LineString","coordinates":[[13.42569,47.65595],[13.42496,47.656],[13.42464,47.65586],[13.42492,47.6519],[13.42774,47.65148],[13.4295,47.65104],[13.43026,47.65124]]}},{"type":"Feature","properties":{"kind":"piste","difficulty":"easy","name":null,"aerialway":null,"osm":"way/1011498028"},"geometry":{"type":"LineString","coordinates":[[13.4245,47.64905],[13.42611,47.64947],[13.42908,47.64978],[13.42972,47.64943]]}},{"type":"Feature","properties":{"kind":"piste","difficulty":"easy","name":null,"aerialway":null,"osm":"way/1011498029"},"geometry":{"type":"LineString","coordinates":[[13.4245,47.64905],[13.42533,47.64879],[13.42727,47.64888],[13.42905,47.64912],[13.42965,47.64949]]}},{"type":"Feature","properties":{"kind":"piste","difficulty":"novice","name":null,"aerialway":null,"osm":"way/1011498030"},"geometry":{"type":"LineString","coordinates":[[13.42815,47.6488],[13.42855,47.64862],[13.42931,47.64866],[13.42946,47.64888]]}},{"type":"Feature","properties":{"kind":"piste","difficulty":"easy","name":null,"aerialway":null,"osm":"way/1011498031"},"geometry":{"type":"LineString","coordinates":[[13.42598,47.6478],[13.42718,47.64764],[13.42959,47.64825]]}}]}