{"type":"FeatureCollection","features":[{"type":"Feature","properties":{"kind":"piste","difficulty":"advanced","name":null,"aerialway":null,"osm":"way/49272442"},"geometry":{"type":"LineString","coordinates":[[9.89473,47.31287],[9.8956,47.31319],[9.89615,47.31453],[9.896,47.31482],[9.89554,47.31507],[9.89378,47.3152],[9.89304,47.31547],[9.89262,47.31579],[9.89131,47.31609]]}},{"type":"Feature","properties":{"kind":"piste","difficulty":"intermediate","name":null,"aerialway":null,"osm":"way/49272448"},"geometry":{"type":"LineString","coordinates":[[9.89475,47.31288],[9.8948,47.31278],[9.89446,47.31276],[9.89283,47.31302],[9.89169,47.31362],[9.88885,47.31447],[9.88892,47.31463],[9.89099,47.31511],[9.89138,47.3155],[9.89139,47.31596]]}},{"type":"Feature","properties":{"kind":"piste","difficulty":"intermediate","name":null,"aerialway":null,"osm":"way/49272449"},"geometry":{"type":"LineString","coordinates":[[9.89076,47.31699],[9.88932,47.31731]]}},{"type":"Feature","properties":{"kind":"piste","difficulty":"easy","name":null,"aerialway":null,"osm":"way/49272472"},"geometry":{"type":"LineString","coordinates":[[9.89951,47.31307],[9.89763,47.31315],[9.89583,47.31296],[9.89484,47.31273],[9.894,47.31229],[9.89241,47.31198],[9.89263,47.31164],[9.89245,47.3113],[9.89386,47.31018],[9.89644,47.30911],[9.89675,47.30863],[9.89659,47.30791],[9.89686,47.3076],[9.89951,47.3065],[9.89979,47.30588],[9.90138,47.30455],[9.90134,47.30435],[9.90051,47.30434],[9.89833,47.30462]]}},{"type":"Feature","properties":{"kind":"piste","difficulty":"intermediate","name":null,"aerialway":null,"osm":"way/49272473"},"geometry":{"type":"LineString","coordinates":[[9.89951,47.31307],[9.89709,47.31312],[9.89475,47.31269],[9.89433,47.31231],[9.89424,47.31171],[9.89378,47.31051],[9.8942,47.30998],[9.89644,47.30911],[9.89675,47.30863],[9.89663,47.30784],[9.89701,47.3075],[9.89842,47.30688],[9.89819,47.30501],[9.89854,47.30426],[9.89841,47.30409]]}},{"type":"Feature","properties":{"kind":"piste","difficulty":"easy","name":null,"aerialway":null,"osm":"way/49287737"},"geometry":{"type":"LineString","coordinates":[[9.87626,47.3107],[9.87607,47.31073],[9.87625,47.31054],[9.87776,47.30965],[9.87907,47.30907],[9.87981,47.3083],[9.88132,47.30716],[9.88191,47.30649],[9.88213,47.30538],[9.88278,47.30485],[9.88511,47.30327],[9.88613,47.30336],[9.88658,47.3032],[9.88699,47.30283],[9.88707,47.30264],[9.88614,47.30004],[9.88593,47.29993],[9.8856,47.3],[9.88534,47.30014],[9.88542,47.30031]]}},{"type":"Feature","properties":{"kind":"piste","difficulty":"easy","name":null,"aerialway":null,"osm":"way/49287739"},"geometry":{"type":"LineString","coordinates":[[9.88854,47.30177],[9.88744,47.30279],[9.88712,47.30277]]}},{"type":"Feature","properties":{"kind":"piste","difficulty":"easy","name":null,"aerialway":null,"osm":"way/49287741"},"geometry":{"type":"LineString","coordinates":[[9.87626,47.3107],[9.87607,47.31072],[9.87631,47.3105],[9.87779,47.3099],[9.87854,47.31012],[9.87896,47.31],[9.88131,47.30781],[9.88208,47.30751],[9.88329,47.30661],[9.88553,47.3061],[9.8864,47.30572],[9.88667,47.30535],[9.88664,47.30508],[9.88597,47.30439],[9.8859,47.30409],[9.88717,47.30315],[9.88707,47.30264]]}},{"type":"Feature","properties":{"kind":"piste","difficulty":"intermediate","name":null,"aerialway":null,"osm":"way/62458178"},"geometry":{"type":"LineString","coordinates":[[9.89139,47.31596],[9.89108,47.31682],[9.89076,47.31699]]}},{"type":"Feature","properties":{"kind":"piste","difficulty":"intermediate","name":null,"aerialway":null,"osm":"way/75653630"},"geometry":{"type":"LineString","coordinates":[[9.8982,47.30507],[9.89772,47.30447],[9.89774,47.3043]]}},{"type":"Feature","properties":{"kind":"piste","difficulty":"intermediate","name":"Glaubicht","aerialway":null,"osm":"way/328672194"},"geometry":{"type":"LineString","coordinates":[[9.89205,47.30012],[9.89289,47.30047],[9.89408,47.30134],[9.89552,47.30182],[9.89592,47.30219]]}},{"type":"Feature","properties":{"kind":"piste","difficulty":"advanced","name":"Skiroute Züdmaje","aerialway":null,"osm":"way/332816625"},"geometry":{"type":"LineString","coordinates":[[9.8864,47.30572],[9.88752,47.30484],[9.8887,47.30362],[9.89018,47.3027],[9.89059,47.30232],[9.89112,47.30215],[9.89181,47.3022],[9.89225,47.30198]]}},{"type":"Feature","properties":{"kind":"piste","difficulty":"advanced","name":null,"aerialway":null,"osm":"way/724006617"},"geometry":{"type":"LineString","coordinates":[[9.89918,47.31282],[9.89921,47.31257],[9.89866,47.3115],[9.89746,47.30991],[9.89716,47.30912],[9.89673,47.30868],[9.89662,47.30814],[9.89584,47.30778],[9.89621,47.30572],[9.89719,47.30487],[9.89782,47.30458]]}},{"type":"Feature","properties":{"kind":"piste","difficulty":"advanced","name":null,"aerialway":null,"osm":"way/1160736478"},"geometry":{"type":"LineString","coordinates":[[9.89967,47.3128],[9.89964,47.31055],[9.89838,47.3097],[9.89852,47.30925],[9.89842,47.30907],[9.89696,47.30893]]}},{"type":"Feature","properties":{"kind":"piste","difficulty":"intermediate","name":null,"aerialway":null,"osm":"way/1229690553"},"geometry":{"type":"LineString","coordinates":[[9.89932,47.31305],[9.89889,47.31269],[9.89718,47.31201],[9.89256,47.3115]]}},{"type":"Feature","properties":{"kind":"piste","difficulty":"intermediate","name":"Uga","aerialway":null,"osm":"way/1348198089"},"geometry":{"type":"LineString","coordinates":[[9.89129,47.29989],[9.8914,47.29946],[9.89249,47.29896],[9.893,47.29847],[9.89305,47.29822],[9.89289,47.29796],[9.89259,47.29783],[9.89171,47.29783],[9.89002,47.29684],[9.889,47.29659]]}},{"type":"Feature","properties":{"kind":"piste","difficulty":"easy","name":null,"aerialway":null,"osm":"way/1378677729"},"geometry":{"type":"LineString","coordinates":[[9.8821,47.30544],[9.88205,47.30508],[9.88219,47.30477],[9.8829,47.30477]]}},{"type":"Feature","properties":{"kind":"piste","difficulty":"easy","name":null,"aerialway":null,"osm":"way/1378677730"},"geometry":{"type":"LineString","coordinates":[[9.88046,47.30783],[9.8819,47.30759],[9.88306,47.30673],[9.88318,47.30627],[9.88296,47.30533],[9.88336,47.30449]]}},{"type":"Feature","properties":{"kind":"piste","difficulty":"freeride","name":null,"aerialway":null,"osm":"way/1378911264"},"geometry":{"type":"LineString","coordinates":[[9.89978,47.3129],[9.90278,47.31232],[9.90413,47.31158],[9.90523,47.31039],[9.90594,47.30912],[9.90617,47.30783],[9.90734,47.30656],[9.90748,47.30622],[9.90733,47.30596],[9.90533,47.30549],[9.90427,47.30509],[9.90336,47.30487],[9.902,47.30491],[9.90138,47.30455]]}},{"type":"Feature","properties":{"kind":"piste","difficulty":"advanced","name":null,"aerialway":null,"osm":"way/1379168402"},"geometry":{"type":"LineString","coordinates":[[9.89318,47.31541],[9.89164,47.31551],[9.89141,47.31577]]}},{"type":"Feature","properties":{"kind":"piste","difficulty":"freeride","name":null,"aerialway":null,"osm":"way/1408431408"},"geometry":{"type":"LineString","coordinates":[[9.89933,47.31319],[9.8988,47.31357],[9.89805,47.31379],[9.89663,47.31462],[9.89626,47.31469]]}},{"type":"Feature","properties":{"kind":"piste","difficulty":"intermediate","name":null,"aerialway":null,"osm":"way/1415159122"},"geometry":{"type":"LineString","coordinates":[[9.894,47.31177],[9.89271,47.31163],[9.89266,47.31142],[9.89389,47.31161],[9.89361,47.3105],[9.89418,47.31015],[9.89467,47.31175],[9.8964,47.31191],[9.89879,47.31186],[9.89875,47.312],[9.89759,47.31207],[9.89875,47.31253],[9.89938,47.31304],[9.89923,47.31307],[9.8971,47.31212],[9.89569,47.31207],[9.89473,47.3119],[9.89486,47.31242],[9.89409,47.31223],[9.894,47.31177]]}},{"type":"Feature","properties":{"kind":"piste","difficulty":"easy","name":null,"aerialway":null,"osm":"way/1415622802"},"geometry":{"type":"LineString","coordinates":[[9.8822,47.30543],[9.88291,47.30495],[9.88287,47.30483],[9.8827,47.30483],[9.8822,47.30522],[9.8822,47.30543]]}},{"type":"Feature","properties":{"kind":"piste","difficulty":"easy","name":null,"aerialway":null,"osm":"way/1422283958"},"geometry":{"type":"LineString","coordinates":[[9.88824,47.30205],[9.88803,47.30212],[9.88728,47.30188],[9.88662,47.30145]]}},{"type":"Feature","properties":{"kind":"piste","difficulty":"freeride","name":null,"aerialway":null,"osm":"way/1427163426"},"geometry":{"type":"LineString","coordinates":[[9.89978,47.3129],[9.90078,47.3117],[9.90116,47.31086],[9.90176,47.31025],[9.90198,47.30952],[9.90178,47.3084],[9.90239,47.30759],[9.90233,47.30733],[9.90189,47.30691],[9.90161,47.30614],[9.90208,47.30539],[9.90191,47.30523],[9.90111,47.3051],[9.901,47.30495]]}},{"type":"Feature","properties":{"kind":"piste","difficulty":"easy","name":"Nordhang","aerialway":null,"osm":"way/1427170287"},"geometry":{"type":"LineString","coordinates":[[9.88914,47.3013],[9.8892,47.30142],[9.88981,47.30149],[9.89176,47.30153],[9.89184,47.30162],[9.89133,47.30197],[9.89156,47.3021],[9.89244,47.30195],[9.89316,47.30208],[9.89417,47.30204],[9.89531,47.30239],[9.89602,47.30238],[9.89701,47.30292],[9.89764,47.30297],[9.89785,47.30316],[9.89771,47.30337],[9.89676,47.30366],[9.89657,47.30383]]}},{"type":"Feature","properties":{"kind":"piste","difficulty":"intermediate","name":null,"aerialway":null,"osm":"way/1427170288"},"geometry":{"type":"LineString","coordinates":[[9.89135,47.29996],[9.8912,47.30007],[9.89127,47.3002],[9.89331,47.30156],[9.89486,47.30185],[9.89603,47.30225],[9.89623,47.30248],[9.89661,47.30402],[9.89676,47.3042],[9.89735,47.30444],[9.89812,47.3042]]}},{"type":"Feature","properties":{"kind":"piste","difficulty":"intermediate","name":null,"aerialway":null,"osm":"way/1428120938"},"geometry":{"type":"LineString","coordinates":[[9.89833,47.30462],[9.89782,47.30458]]}},{"type":"Feature","properties":{"kind":"piste","difficulty":"freeride","name":"Trüschel","aerialway":null,"osm":"way/1430365037"},"geometry":{"type":"LineString","coordinates":[[9.88838,47.3042],[9.88919,47.30392],[9.89031,47.3039],[9.89352,47.30347],[9.89457,47.30383],[9.89542,47.30394],[9.8957,47.30437],[9.89672,47.30433]]}},{"type":"Feature","properties":{"kind":"piste","difficulty":"novice","name":null,"aerialway":null,"osm":"way/1430373761"},"geometry":{"type":"LineString","coordinates":[[9.88905,47.30137],[9.88866,47.30142],[9.88844,47.30088],[9.8896,47.30035],[9.89004,47.29926],[9.89112,47.29838]]}},{"type":"Feature","properties":{"kind":"piste","difficulty":"intermediate","name":null,"aerialway":null,"osm":"way/1432117630"},"geometry":{"type":"LineString","coordinates":[[9.89304,47.29842],[9.89371,47.2979],[9.89292,47.29801]]}},{"type":"Feature","properties":{"kind":"piste","difficulty":"intermediate","name":null,"aerialway":null,"osm":"way/1432117631"},"geometry":{"type":"LineString","coordinates":[[9.89287,47.29817],[9.89295,47.29805]]}},{"type":"Feature","properties":{"kind":"piste","difficulty":"novice","name":null,"aerialway":null,"osm":"way/1432117635"},"geometry":{"type":"LineString","coordinates":[[9.88752,47.29559],[9.88784,47.29557],[9.88801,47.29578],[9.88736,47.29655],[9.88715,47.29753],[9.88731,47.29769],[9.88756,47.29768],[9.88795,47.29736],[9.88923,47.29682],[9.88791,47.29731],[9.88758,47.29763],[9.88724,47.29761],[9.88744,47.29728],[9.88747,47.29646],[9.88815,47.2957],[9.88779,47.29535],[9.88687,47.2959],[9.88626,47.2961],[9.88622,47.29574],[9.88646,47.29505],[9.88635,47.29451],[9.8866,47.29427],[9.88655,47.2942],[9.8864,47.29435],[9.88627,47.29466],[9.88638,47.29503],[9.88616,47.29556],[9.8862,47.29616],[9.88692,47.29595],[9.88752,47.29559]]}},{"type":"Feature","properties":{"kind":"piste","difficulty":"easy","name":"Hohes Licht","aerialway":null,"osm":"way/1442022288"},"geometry":{"type":"LineString","coordinates":[[9.8779,47.30933],[9.87803,47.30951],[9.87891,47.30918],[9.87982,47.3083],[9.88132,47.30716],[9.88191,47.30649],[9.88213,47.30538],[9.88336,47.30449]]}},{"type":"Feature","properties":{"kind":"piste","difficulty":"easy","name":null,"aerialway":null,"osm":"way/1443768902"},"geometry":{"type":"LineString","coordinates":[[9.89951,47.31311],[9.89958,47.31309]]}},{"type":"Feature","properties":{"kind":"piste","difficulty":"freeride","name":null,"aerialway":null,"osm":"way/1443793639"},"geometry":{"type":"LineString","coordinates":[[9.8922,47.3001],[9.89464,47.29943],[9.89534,47.29949],[9.89548,47.29967],[9.89551,47.30015],[9.89591,47.30068],[9.89621,47.3018],[9.89644,47.30221]]}},{"type":"Feature","properties":{"kind":"piste","difficulty":"easy","name":null,"aerialway":null,"osm":"way/1447174371"},"geometry":{"type":"LineString","coordinates":[[9.88296,47.30533],[9.88278,47.30485]]}},{"type":"Feature","properties":{"kind":"piste","difficulty":"easy","name":null,"aerialway":null,"osm":"way/1447459959"},"geometry":{"type":"LineString","coordinates":[[9.8948,47.31278],[9.89484,47.31273]]}},{"type":"Feature","properties":{"kind":"piste","difficulty":"intermediate","name":"Glaubicht","aerialway":null,"osm":"way/1447735717"},"geometry":{"type":"LineString","coordinates":[[9.89726,47.30442],[9.89782,47.30458]]}},{"type":"Feature","properties":{"kind":"piste","difficulty":"easy","name":null,"aerialway":null,"osm":"way/1447735719"},"geometry":{"type":"LineString","coordinates":[[9.89884,47.30453],[9.8985,47.30436]]}},{"type":"Feature","properties":{"kind":"piste","difficulty":"intermediate","name":null,"aerialway":null,"osm":"way/1448507572"},"geometry":{"type":"LineString","coordinates":[[9.89135,47.29996],[9.89144,47.29996]]}},{"type":"Feature","properties":{"kind":"piste","difficulty":"novice","name":"Bunny Line","aerialway":null,"osm":"way/1448507573"},"geometry":{"type":"LineString","coordinates":[[9.89283,47.29814],[9.89118,47.29859],[9.89121,47.29835],[9.89171,47.29792],[9.89162,47.29789],[9.89113,47.29831],[9.89104,47.29862],[9.89237,47.29838],[9.89283,47.29814]]}},{"type":"Feature","properties":{"kind":"piste","difficulty":"easy","name":null,"aerialway":null,"osm":"way/1452651339"},"geometry":{"type":"LineString","coordinates":[[9.89941,47.31311],[9.89932,47.31305]]}},{"type":"Feature","properties":{"kind":"piste","difficulty":"advanced","name":null,"aerialway":null,"osm":"way/1452651340"},"geometry":{"type":"LineString","coordinates":[[9.89958,47.31306],[9.89957,47.31282],[9.89974,47.31283],[9.89978,47.31302],[9.89958,47.31306]]}},{"type":"Feature","properties":{"kind":"piste","difficulty":"advanced","name":null,"aerialway":null,"osm":"way/1452651341"},"geometry":{"type":"LineString","coordinates":[[9.89958,47.31309],[9.89967,47.3128]]}},{"type":"Feature","properties":{"kind":"piste","difficulty":"intermediate","name":null,"aerialway":null,"osm":"way/1452651342"},"geometry":{"type":"LineString","coordinates":[[9.89921,47.3129],[9.89918,47.31282]]}},{"type":"Feature","properties":{"kind":"piste","difficulty":"intermediate","name":null,"aerialway":null,"osm":"way/1452651343"},"geometry":{"type":"LineString","coordinates":[[9.89887,47.31192],[9.89718,47.31201]]}},{"type":"Feature","properties":{"kind":"piste","difficulty":"novice","name":null,"aerialway":null,"osm":"way/1453578440"},"geometry":{"type":"LineString","coordinates":[[9.8895,47.29653],[9.89061,47.29572],[9.88988,47.29638],[9.8895,47.29653]]}},{"type":"Feature","properties":{"kind":"piste","difficulty":"easy","name":null,"aerialway":null,"osm":"way/1453578441"},"geometry":{"type":"LineString","coordinates":[[9.89583,47.31296],[9.89566,47.31297],[9.89565,47.31331]]}},{"type":"Feature","properties":{"kind":"piste","difficulty":"freeride","name":null,"aerialway":null,"osm":"way/1453578443"},"geometry":{"type":"LineString","coordinates":[[9.89535,47.31318],[9.89523,47.31345],[9.89431,47.31391],[9.89415,47.31466],[9.89372,47.31507]]}},{"type":"Feature","properties":{"kind":"piste","difficulty":"easy","name":null,"aerialway":null,"osm":"way/1456276228"},"geometry":{"type":"LineString","coordinates":[[9.88646,47.29868],[9.88689,47.29824]]}},{"type":"Feature","properties":{"kind":"piste","difficulty":"advanced","name":null,"aerialway":null,"osm":"way/1459674502"},"geometry":{"type":"LineString","coordinates":[[9.89976,47.31285],[9.89999,47.31088],[9.89991,47.31036],[9.89959,47.3101],[9.89854,47.30973],[9.89843,47.30955],[9.89861,47.30918],[9.89836,47.30897],[9.8971,47.30889],[9.89681,47.30873],[9.89665,47.309],[9.89696,47.30916],[9.89772,47.31051],[9.89832,47.31113],[9.89868,47.31185],[9.89883,47.3119],[9.89875,47.312],[9.89903,47.3127],[9.89928,47.31291],[9.89922,47.3123],[9.89891,47.31154],[9.89757,47.30973],[9.89738,47.30906],[9.89783,47.30896],[9.89832,47.30916],[9.89845,47.30931],[9.89827,47.30957],[9.89834,47.30977],[9.89935,47.31051],[9.89949,47.31097],[9.89953,47.31272],[9.89976,47.31285]]}},{"type":"Feature","properties":{"kind":"piste","difficulty":"advanced","name":null,"aerialway":null,"osm":"way/1459674503"},"geometry":{"type":"LineString","coordinates":[[9.89658,47.30797],[9.89656,47.30737],[9.89617,47.30593]]}},{"type":"Feature","properties":{"kind":"piste","difficulty":"advanced","name":null,"aerialway":null,"osm":"way/1459674504"},"geometry":{"type":"LineString","coordinates":[[9.89657,47.3082],[9.89577,47.30786],[9.89605,47.30574],[9.89615,47.30556],[9.89755,47.30459],[9.8975,47.30476],[9.89629,47.3058],[9.89671,47.30679],[9.89675,47.30758],[9.89648,47.30791],[9.89641,47.30719],[9.8962,47.30668],[9.89593,47.30774],[9.89648,47.30795],[9.89657,47.3082]]}},{"type":"Feature","properties":{"kind":"piste","difficulty":"intermediate","name":null,"aerialway":null,"osm":"way/1459817767"},"geometry":{"type":"LineString","coordinates":[[9.89079,47.2982],[9.89072,47.29719]]}},{"type":"Feature","properties":{"kind":"piste","difficulty":"novice","name":null,"aerialway":null,"osm":"way/1459935641"},"geometry":{"type":"LineString","coordinates":[[9.88977,47.29993],[9.89011,47.29921],[9.89075,47.29861],[9.8901,47.29911],[9.88974,47.29979],[9.88977,47.29993]]}},{"type":"Feature","properties":{"kind":"piste","difficulty":"novice","name":null,"aerialway":null,"osm":"way/1459935644"},"geometry":{"type":"LineString","coordinates":[[9.89238,47.29614],[9.89239,47.29688],[9.89187,47.29778],[9.89183,47.29762],[9.89233,47.29676],[9.89229,47.29622],[9.89232,47.29601],[9.89238,47.29614]]}},{"type":"Feature","properties":{"kind":"piste","difficulty":"intermediate","name":null,"aerialway":null,"osm":"way/1460607046"},"geometry":{"type":"LineString","coordinates":[[9.88478,47.30061],[9.88494,47.30039],[9.88534,47.30022]]}},{"type":"Feature","properties":{"kind":"piste","difficulty":"easy","name":null,"aerialway":null,"osm":"way/1460607047"},"geometry":{"type":"LineString","coordinates":[[9.88535,47.30013],[9.8849,47.30027],[9.88453,47.30021]]}},{"type":"Feature","properties":{"kind":"piste","difficulty":"intermediate","name":"Glaubicht","aerialway":null,"osm":"way/1526733321"},"geometry":{"type":"LineString","coordinates":[[9.89158,47.30003],[9.89144,47.29996],[9.89162,47.29992],[9.89205,47.30012]]}},{"type":"Feature","properties":{"kind":"piste","difficulty":"unknown","name":"Funsloipe","aerialway":null,"osm":"way/1558553794"},"geometry":{"type":"LineString","coordinates":[[9.88977,47.30022],[9.88935,47.30016],[9.88948,47.29953],[9.88862,47.30008],[9.88831,47.30009],[9.88834,47.29941],[9.88868,47.29862],[9.88853,47.29856],[9.8883,47.29868],[9.88811,47.29858]]}},{"type":"Feature","properties":{"kind":"piste","difficulty":"novice","name":null,"aerialway":null,"osm":"way/1558553799"},"geometry":{"type":"LineString","coordinates":[[9.89103,47.29964],[9.89129,47.29964]]}},{"type":"Feature","properties":{"kind":"piste","difficulty":"novice","name":"Bunny Line","aerialway":null,"osm":"way/1558604372"},"geometry":{"type":"LineString","coordinates":[[9.89139,47.29969],[9.89126,47.29951],[9.89262,47.2985],[9.89287,47.29817],[9.89107,47.29861],[9.89128,47.29819],[9.8918,47.29785],[9.89241,47.29678],[9.89235,47.29476],[9.89253,47.29409],[9.89193,47.29474],[9.89094,47.29529],[9.88989,47.29636],[9.88934,47.29675],[9.88799,47.29732],[9.88757,47.29766],[9.88729,47.29766],[9.88719,47.29753]]}},{"type":"Feature","properties":{"kind":"piste","difficulty":"unknown","name":"Uga-Park","aerialway":null,"osm":"way/1558604373"},"geometry":{"type":"LineString","coordinates":[[9.88792,47.29993],[9.88775,47.29945],[9.887,47.29861]]}},{"type":"Feature","properties":{"kind":"piste","difficulty":"easy","name":null,"aerialway":null,"osm":"way/1558604374"},"geometry":{"type":"LineString","coordinates":[[9.8912,47.30007],[9.88984,47.30075],[9.88846,47.3018],[9.88712,47.3011],[9.88625,47.30024],[9.88623,47.29958],[9.88663,47.29752],[9.88656,47.29676],[9.88613,47.29618]]}},{"type":"Feature","properties":{"kind":"piste","difficulty":"easy","name":null,"aerialway":null,"osm":"relation/19818022"},"geometry":{"type":"MultiLineString","coordinates":[[[9.88312,47.30471],[9.883,47.30508],[9.88291,47.30495],[9.88262,47.30515],[9.88287,47.3055],[9.88302,47.30653],[9.88192,47.30737],[9.88116,47.3075],[9.88173,47.30697],[9.88202,47.30645],[9.88228,47.3048],[9.88287,47.30483],[9.88312,47.30471]],[[9.88342,47.30463],[9.88522,47.30334],[9.88612,47.3034],[9.88689,47.30304],[9.88703,47.30313],[9.88614,47.30371],[9.88582,47.30406],[9.88576,47.3043],[9.88635,47.3048],[9.88653,47.30528],[9.88643,47.30554],[9.8858,47.30588],[9.88464,47.30628],[9.88356,47.30631],[9.88315,47.30514],[9.88342,47.30463]],[[9.88794,47.30223],[9.88726,47.30278],[9.88694,47.30177],[9.88794,47.30223]],[[9.88823,47.30184],[9.88831,47.30187],[9.88808,47.30205],[9.88689,47.30147],[9.88646,47.30075],[9.88727,47.30136],[9.88823,47.30184]],[[9.88025,47.30777],[9.87915,47.30886],[9.87803,47.30941],[9.87772,47.30943],[9.87771,47.30963],[9.87624,47.31048],[9.87602,47.31073],[9.87619,47.31078],[9.87613,47.3107],[9.87632,47.31053],[9.87782,47.31],[9.87855,47.31021],[9.879,47.31011],[9.87963,47.3097],[9.88104,47.30815],[9.88242,47.30761],[9.88353,47.30662],[9.88515,47.30626],[9.88664,47.30567],[9.88685,47.30527],[9.8866,47.30481],[9.8861,47.30442],[9.88609,47.30402],[9.88726,47.30316],[9.88736,47.30293],[9.88893,47.30148],[9.8898,47.30161],[9.89158,47.30162],[9.89165,47.30171],[9.89123,47.30201],[9.89141,47.30209],[9.89259,47.30196],[9.89313,47.30209],[9.89421,47.30207],[9.89534,47.30241],[9.8958,47.30238],[9.89528,47.30237],[9.89472,47.3021],[9.89422,47.30203],[9.89244,47.30189],[9.89154,47.302],[9.89186,47.30165],[9.89172,47.30151],[9.88919,47.3014],[9.88915,47.30131],[9.89011,47.30061],[9.89106,47.3002],[9.89097,47.29997],[9.88916,47.30107],[9.88844,47.30176],[9.88677,47.30066],[9.88648,47.30031],[9.8864,47.2999],[9.88677,47.2986],[9.88684,47.2979],[9.88706,47.29753],[9.88685,47.29677],[9.88613,47.29604],[9.88616,47.29556],[9.88637,47.29513],[9.88627,47.29466],[9.88655,47.2942],[9.88607,47.29331],[9.8863,47.2942],[9.88584,47.29496],[9.88548,47.29526],[9.88561,47.29577],[9.88553,47.29583],[9.88626,47.29685],[9.88639,47.2983],[9.88593,47.29969],[9.88518,47.30015],[9.88596,47.30012],[9.88643,47.30111],[9.88685,47.30272],[9.88666,47.30308],[9.88641,47.30325],[9.88583,47.30334],[9.88535,47.30315],[9.88502,47.30319],[9.88411,47.30371],[9.8834,47.3044],[9.88294,47.30466],[9.88213,47.30473],[9.88198,47.30497],[9.88178,47.30651],[9.88119,47.30684],[9.88025,47.30777]],[[9.89672,47.30281],[9.89667,47.30244],[9.89718,47.30284],[9.8978,47.30299],[9.89786,47.30321],[9.89756,47.30345],[9.89679,47.30367],[9.89754,47.30338],[9.89727,47.303],[9.89672,47.30281]],[[9.88679,47.28888],[9.88688,47.28819],[9.88706,47.28808],[9.88786,47.28795],[9.8889,47.28799],[9.88825,47.28692],[9.88832,47.28655],[9.88812,47.28645],[9.88789,47.28659],[9.88806,47.28659],[9.88836,47.28794],[9.88791,47.28785],[9.88607,47.28812],[9.88648,47.28924],[9.88614,47.29025],[9.88611,47.29118],[9.88624,47.29159],[9.88666,47.2919],[9.88677,47.29215],[9.88655,47.29266],[9.88622,47.29302],[9.88634,47.29319],[9.88639,47.29296],[9.88722,47.29238],[9.88737,47.29211],[9.8869,47.29053],[9.88681,47.28904],[9.88707,47.28899],[9.88717,47.28859],[9.8873,47.28852],[9.88824,47.28857],[9.88724,47.28849],[9.88699,47.28899],[9.8868,47.28899],[9.88679,47.28888]],[[9.87996,47.30849],[9.88056,47.30786],[9.88059,47.3082],[9.8799,47.30865],[9.87938,47.30954],[9.87873,47.30996],[9.87821,47.30987],[9.87996,47.30849]]]}},{"type":"Feature","properties":{"kind":"piste","difficulty":"advanced","name":null,"aerialway":null,"osm":"relation/19824133"},"geometry":{"type":"LineString","coordinates":[[9.88679,47.30541],[9.88664,47.30567],[9.88787,47.30469],[9.88907,47.30347],[9.89044,47.30266],[9.89066,47.30232],[9.89101,47.3022],[9.89183,47.30224],[9.89232,47.30199],[9.89175,47.3022],[9.89086,47.30217],[9.88957,47.30275],[9.8876,47.30434],[9.88679,47.30541]]}},{"type":"Feature","properties":{"kind":"piste","difficulty":"advanced","name":null,"aerialway":null,"osm":"relation/19824215"},"geometry":{"type":"MultiLineString","coordinates":[[[9.8925,47.31559],[9.89258,47.31547],[9.89278,47.31551],[9.89269,47.31565],[9.8925,47.31559]],[[9.89287,47.31536],[9.8917,47.31548],[9.89152,47.31611],[9.89169,47.31596],[9.89292,47.31576],[9.8939,47.31525],[9.8957,47.31516],[9.8961,47.31497],[9.89629,47.31449],[9.89604,47.31409],[9.89579,47.31313],[9.8948,47.31278],[9.89446,47.31321],[9.89512,47.31308],[9.89563,47.31342],[9.89592,47.31438],[9.8957,47.31476],[9.89403,47.31499],[9.89287,47.31536]]]}},{"type":"Feature","properties":{"kind":"piste","difficulty":"easy","name":null,"aerialway":null,"osm":"relation/19824217"},"geometry":{"type":"LineString","coordinates":[[9.89928,47.31306],[9.89642,47.31299],[9.89519,47.31273],[9.89486,47.31242],[9.89436,47.31228],[9.89245,47.31195],[9.89271,47.31165],[9.89268,47.31125],[9.89393,47.31025],[9.89582,47.30959],[9.89646,47.30925],[9.89681,47.30873],[9.89665,47.30812],[9.89672,47.30785],[9.89726,47.30751],[9.89956,47.30655],[9.90022,47.3056],[9.90144,47.30452],[9.90131,47.30432],[9.90047,47.30431],[9.89906,47.30455],[9.89852,47.30442],[9.8985,47.30461],[9.90054,47.30437],[9.9013,47.30446],[9.89976,47.3057],[9.89917,47.30658],[9.89742,47.30724],[9.89658,47.30772],[9.89648,47.30796],[9.8967,47.30869],[9.89626,47.30913],[9.89399,47.30996],[9.89315,47.31073],[9.89217,47.31134],[9.89254,47.31163],[9.8923,47.31193],[9.89237,47.31205],[9.89408,47.31238],[9.8946,47.31271],[9.89575,47.3131],[9.89594,47.31302],[9.89757,47.31321],[9.89891,47.31322],[9.89958,47.31312],[9.89928,47.31306]]}},{"type":"Feature","properties":{"kind":"piste","difficulty":"intermediate","name":null,"aerialway":null,"osm":"relation/21388216"},"geometry":{"type":"LineString","coordinates":[[9.89069,47.29731],[9.89073,47.29778],[9.89098,47.29801],[9.89091,47.29745],[9.89069,47.29731]]}},{"type":"Feature","properties":{"kind":"lift","difficulty":null,"name":"Uga-Express","aerialway":"chair_lift","osm":"way/27122715"},"geometry":{"type":"LineString","coordinates":[[9.88793,47.28669],[9.89122,47.29982]]}},{"type":"Feature","properties":{"kind":"lift","difficulty":null,"name":"Elsenkopf","aerialway":"chair_lift","osm":"way/29312162"},"geometry":{"type":"LineString","coordinates":[[9.89841,47.30409],[9.89158,47.30003]]}},{"type":"Feature","properties":{"kind":"lift","difficulty":null,"name":"Hohe Wacht","aerialway":"chair_lift","osm":"way/327496325"},"geometry":{"type":"LineString","coordinates":[[9.89812,47.3042],[9.89951,47.313]]}},{"type":"Feature","properties":{"kind":"lift","difficulty":null,"name":"Hohes Licht","aerialway":"chair_lift","osm":"way/1415491997"},"geometry":{"type":"LineString","coordinates":[[9.88542,47.30031],[9.87626,47.3107]]}}]}