{"type":"FeatureCollection","features":[{"type":"Feature","properties":{"kind":"lift","difficulty":null,"name":"Hoferlift","aerialway":"t-bar","osm":"way/28367072"},"geometry":{"type":"LineString","coordinates":[[11.64642,47.29078],[11.64382,47.2862]]}},{"type":"Feature","properties":{"kind":"piste","difficulty":"easy","name":null,"aerialway":null,"osm":"way/417721097"},"geometry":{"type":"LineString","coordinates":[[11.64387,47.28628],[11.64464,47.28641],[11.64547,47.28735],[11.64602,47.28876],[11.64607,47.2895],[11.64648,47.29041],[11.64638,47.29072]]}}]}