{"type":"FeatureCollection","features":[{"type":"Feature","properties":{"kind":"piste","difficulty":"easy","name":"Ferner Ost","aerialway":null,"osm":"way/60925590"},"geometry":{"type":"LineString","coordinates":[[10.69961,46.85261],[10.69989,46.8525],[10.70432,46.85616],[10.70436,46.85658]]}},{"type":"Feature","properties":{"kind":"piste","difficulty":"easy","name":"Murmel","aerialway":null,"osm":"way/60925594"},"geometry":{"type":"LineString","coordinates":[[10.71508,46.86302],[10.71573,46.86384],[10.71689,46.86477],[10.7185,46.86725],[10.71861,46.86815],[10.71801,46.87052],[10.71749,46.87071],[10.71657,46.87041],[10.71631,46.87056],[10.71749,46.87164],[10.71709,46.8724],[10.71642,46.87304],[10.71553,46.87478],[10.71528,46.87558],[10.71539,46.87582],[10.71573,46.87607],[10.71798,46.8771],[10.71809,46.87739],[10.71791,46.87799],[10.71741,46.87846],[10.71716,46.88003],[10.71649,46.88044],[10.71632,46.88087],[10.71661,46.88146],[10.71762,46.88235],[10.71764,46.88261],[10.71821,46.88339],[10.71832,46.88386],[10.71825,46.88408],[10.71759,46.88452],[10.71761,46.8847],[10.71789,46.88498],[10.71902,46.88559],[10.7193,46.88658],[10.71915,46.88667]]}},{"type":"Feature","properties":{"kind":"piste","difficulty":"easy","name":"Express","aerialway":null,"osm":"way/60925595"},"geometry":{"type":"LineString","coordinates":[[10.71315,46.86156],[10.71386,46.86174],[10.71508,46.86302],[10.71606,46.86311]]}},{"type":"Feature","properties":{"kind":"piste","difficulty":"intermediate","name":"Karles-Expert","aerialway":null,"osm":"way/60925596"},"geometry":{"type":"LineString","coordinates":[[10.69463,46.85725],[10.69684,46.85806],[10.69767,46.8581],[10.69903,46.85779],[10.70063,46.85784],[10.70252,46.85726]]}},{"type":"Feature","properties":{"kind":"piste","difficulty":"intermediate","name":"Vronipiste","aerialway":null,"osm":"way/60925601"},"geometry":{"type":"LineString","coordinates":[[10.70063,46.85784],[10.70171,46.85825],[10.70212,46.85856],[10.70219,46.8588],[10.70246,46.85892]]}},{"type":"Feature","properties":{"kind":"piste","difficulty":"easy","name":"Promenade","aerialway":null,"osm":"way/60925602"},"geometry":{"type":"LineString","coordinates":[[10.71767,46.85673],[10.71604,46.85605],[10.71513,46.85605],[10.71315,46.85645],[10.71175,46.85695],[10.71057,46.85767],[10.71002,46.85831],[10.70992,46.85956],[10.71058,46.86027],[10.71158,46.86079]]}},{"type":"Feature","properties":{"kind":"piste","difficulty":"easy","name":"Südtiroler Weg","aerialway":null,"osm":"way/60925603"},"geometry":{"type":"LineString","coordinates":[[10.70481,46.85587],[10.70496,46.85628],[10.70955,46.85872],[10.7105,46.85953],[10.71185,46.85998]]}},{"type":"Feature","properties":{"kind":"piste","difficulty":"intermediate","name":null,"aerialway":null,"osm":"way/60925604"},"geometry":{"type":"LineString","coordinates":[[10.71258,46.86089],[10.71231,46.86168]]}},{"type":"Feature","properties":{"kind":"piste","difficulty":"easy","name":"Südtiroler Weg","aerialway":null,"osm":"way/60925605"},"geometry":{"type":"LineString","coordinates":[[10.7105,46.85953],[10.71231,46.86168],[10.71222,46.86228],[10.71237,46.86295],[10.71276,46.8632],[10.71307,46.86314]]}},{"type":"Feature","properties":{"kind":"piste","difficulty":"easy","name":"Weissseeclasic","aerialway":null,"osm":"way/60925606"},"geometry":{"type":"LineString","coordinates":[[10.7022,46.84876],[10.70245,46.84876],[10.70456,46.84967],[10.70587,46.85048],[10.70625,46.85137],[10.70638,46.8532]]}},{"type":"Feature","properties":{"kind":"piste","difficulty":"easy","name":"Karles-Easy","aerialway":null,"osm":"way/60925607"},"geometry":{"type":"LineString","coordinates":[[10.69418,46.85687],[10.6941,46.85702],[10.69449,46.85723],[10.69508,46.85708],[10.69763,46.85771],[10.69903,46.85779],[10.69962,46.85746],[10.70064,46.85723],[10.70252,46.85726],[10.70491,46.85702],[10.70586,46.85726],[10.70708,46.85732]]}},{"type":"Feature","properties":{"kind":"piste","difficulty":"easy","name":"Nörder Ost","aerialway":null,"osm":"way/60925608"},"geometry":{"type":"LineString","coordinates":[[10.71767,46.85673],[10.71739,46.85686],[10.71707,46.85741],[10.71584,46.86279],[10.71508,46.86302]]}},{"type":"Feature","properties":{"kind":"piste","difficulty":"intermediate","name":null,"aerialway":null,"osm":"way/105949687"},"geometry":{"type":"LineString","coordinates":[[10.6494,46.82641],[10.64945,46.82725],[10.64901,46.8277],[10.64897,46.82799],[10.65004,46.82973]]}},{"type":"Feature","properties":{"kind":"piste","difficulty":"intermediate","name":null,"aerialway":null,"osm":"way/105949693"},"geometry":{"type":"LineString","coordinates":[[10.65157,46.83034],[10.65149,46.83055],[10.65199,46.83113],[10.65167,46.83165]]}},{"type":"Feature","properties":{"kind":"piste","difficulty":"intermediate","name":null,"aerialway":null,"osm":"way/105949701"},"geometry":{"type":"LineString","coordinates":[[10.64181,46.83727],[10.64177,46.83741]]}},{"type":"Feature","properties":{"kind":"piste","difficulty":"intermediate","name":null,"aerialway":null,"osm":"way/105949703"},"geometry":{"type":"LineString","coordinates":[[10.65029,46.83002],[10.65056,46.83051],[10.65101,46.83065],[10.65149,46.83055]]}},{"type":"Feature","properties":{"kind":"piste","difficulty":"intermediate","name":null,"aerialway":null,"osm":"way/105949706"},"geometry":{"type":"LineString","coordinates":[[10.65083,46.82913],[10.65055,46.8295],[10.65004,46.82973]]}},{"type":"Feature","properties":{"kind":"piste","difficulty":"intermediate","name":null,"aerialway":null,"osm":"way/105949713"},"geometry":{"type":"LineString","coordinates":[[10.64659,46.83335],[10.64648,46.83358],[10.64624,46.83363]]}},{"type":"Feature","properties":{"kind":"piste","difficulty":"novice","name":null,"aerialway":null,"osm":"way/105949721"},"geometry":{"type":"LineString","coordinates":[[10.64997,46.82895],[10.64976,46.8293],[10.65011,46.82948]]}},{"type":"Feature","properties":{"kind":"piste","difficulty":"intermediate","name":null,"aerialway":null,"osm":"way/105949725"},"geometry":{"type":"LineString","coordinates":[[10.65004,46.82973],[10.65003,46.82989],[10.65029,46.83002],[10.65121,46.82972]]}},{"type":"Feature","properties":{"kind":"piste","difficulty":"intermediate","name":null,"aerialway":null,"osm":"way/105949734"},"geometry":{"type":"LineString","coordinates":[[10.64177,46.83741],[10.64169,46.83785],[10.64189,46.83783]]}},{"type":"Feature","properties":{"kind":"piste","difficulty":"intermediate","name":null,"aerialway":null,"osm":"way/105949742"},"geometry":{"type":"LineString","coordinates":[[10.64437,46.83508],[10.64503,46.8353],[10.64434,46.83537],[10.644,46.83528],[10.64368,46.83554],[10.64379,46.83583],[10.64173,46.83592],[10.64163,46.83621],[10.64181,46.83727]]}},{"type":"Feature","properties":{"kind":"piste","difficulty":"intermediate","name":null,"aerialway":null,"osm":"way/105949754"},"geometry":{"type":"LineString","coordinates":[[10.64909,46.8228],[10.64881,46.82285],[10.64902,46.82411],[10.64942,46.82524],[10.64975,46.82564],[10.65098,46.8288],[10.65083,46.82913]]}},{"type":"Feature","properties":{"kind":"piste","difficulty":"intermediate","name":null,"aerialway":null,"osm":"way/105949778"},"geometry":{"type":"LineString","coordinates":[[10.64942,46.82524],[10.64915,46.82587],[10.6494,46.82641],[10.65043,46.82744]]}},{"type":"Feature","properties":{"kind":"piste","difficulty":"easy","name":null,"aerialway":null,"osm":"way/202093301"},"geometry":{"type":"LineString","coordinates":[[10.71689,46.86477],[10.71674,46.86453],[10.71664,46.86327],[10.71686,46.8623]]}},{"type":"Feature","properties":{"kind":"piste","difficulty":"easy","name":"Express","aerialway":null,"osm":"way/202106027"},"geometry":{"type":"LineString","coordinates":[[10.71341,46.86264],[10.71411,46.86247],[10.71479,46.86266]]}},{"type":"Feature","properties":{"kind":"piste","difficulty":"intermediate","name":null,"aerialway":null,"osm":"way/210550216"},"geometry":{"type":"LineString","coordinates":[[10.64818,46.832],[10.64662,46.83231],[10.64643,46.83293],[10.64659,46.83335]]}},{"type":"Feature","properties":{"kind":"piste","difficulty":"intermediate","name":null,"aerialway":null,"osm":"way/210550217"},"geometry":{"type":"LineString","coordinates":[[10.64659,46.83335],[10.647,46.834],[10.64688,46.8342],[10.64661,46.83425]]}},{"type":"Feature","properties":{"kind":"piste","difficulty":"intermediate","name":"Schmugglerin","aerialway":null,"osm":"way/324583676"},"geometry":{"type":"LineString","coordinates":[[10.69114,46.86684],[10.69149,46.86651],[10.6916,46.86703],[10.6918,46.86716],[10.69233,46.86674],[10.69252,46.86672],[10.69327,46.86719],[10.69557,46.8675],[10.69847,46.86754],[10.70028,46.86817],[10.70215,46.86918],[10.70261,46.8693],[10.70379,46.869],[10.70429,46.86904],[10.70469,46.86989],[10.70546,46.87065],[10.70765,46.87084],[10.70804,46.87076],[10.7086,46.8701],[10.70908,46.86998],[10.70974,46.87007],[10.71104,46.87169],[10.71199,46.87246],[10.71302,46.87304],[10.71432,46.87474],[10.71507,46.87535],[10.71475,46.87536]]}},{"type":"Feature","properties":{"kind":"piste","difficulty":"advanced","name":"Vronitunnel","aerialway":null,"osm":"way/324583680"},"geometry":{"type":"LineString","coordinates":[[10.70545,46.86003],[10.70608,46.86048],[10.70622,46.86082],[10.70522,46.86236],[10.70525,46.86261],[10.70585,46.86348],[10.70635,46.86516],[10.70786,46.86592],[10.70798,46.86642],[10.70886,46.86731],[10.70887,46.86776],[10.7078,46.86824],[10.7078,46.86843],[10.70812,46.86884],[10.70916,46.86933],[10.71104,46.87169],[10.71199,46.87246],[10.71292,46.87295],[10.71432,46.87474],[10.71499,46.87526]]}},{"type":"Feature","properties":{"kind":"piste","difficulty":"intermediate","name":"Wiesejaggl","aerialway":null,"osm":"way/324583682"},"geometry":{"type":"LineString","coordinates":[[10.70545,46.86003],[10.70643,46.86043],[10.70708,46.8605],[10.70978,46.86142],[10.71201,46.86257],[10.71237,46.86295]]}},{"type":"Feature","properties":{"kind":"piste","difficulty":"intermediate","name":"Karles-Expert","aerialway":null,"osm":"way/324586388"},"geometry":{"type":"LineString","coordinates":[[10.70246,46.85892],[10.70321,46.85873],[10.70353,46.85799],[10.70586,46.85726]]}},{"type":"Feature","properties":{"kind":"piste","difficulty":"intermediate","name":"16 Karles-Expert","aerialway":null,"osm":"way/324586389"},"geometry":{"type":"LineString","coordinates":[[10.70246,46.85892],[10.70512,46.85933],[10.7072,46.8595],[10.71146,46.86065]]}},{"type":"Feature","properties":{"kind":"piste","difficulty":"intermediate","name":"Weissseegenuss","aerialway":null,"osm":"way/325260051"},"geometry":{"type":"LineString","coordinates":[[10.70516,46.85004],[10.70805,46.85142],[10.70794,46.85277],[10.70684,46.85374],[10.71315,46.86156],[10.71346,46.86217],[10.71341,46.86264]]}},{"type":"Feature","properties":{"kind":"piste","difficulty":"easy","name":null,"aerialway":null,"osm":"way/325308038"},"geometry":{"type":"LineString","coordinates":[[10.71222,46.86228],[10.71265,46.86261],[10.71341,46.86264]]}},{"type":"Feature","properties":{"kind":"piste","difficulty":"easy","name":"Ferner West","aerialway":null,"osm":"way/432048567"},"geometry":{"type":"LineString","coordinates":[[10.69961,46.85261],[10.69927,46.85274],[10.70389,46.85653],[10.70436,46.85658],[10.70491,46.85702]]}},{"type":"Feature","properties":{"kind":"piste","difficulty":"easy","name":"Nörder West","aerialway":null,"osm":"way/473585190"},"geometry":{"type":"LineString","coordinates":[[10.71767,46.85673],[10.71854,46.85698],[10.71863,46.85732],[10.71686,46.8623],[10.71584,46.86279]]}},{"type":"Feature","properties":{"kind":"piste","difficulty":"advanced","name":"Adlerpiste","aerialway":null,"osm":"way/554335850"},"geometry":{"type":"LineString","coordinates":[[10.71402,46.87437],[10.71367,46.87485],[10.71306,46.8752],[10.71291,46.8758],[10.71297,46.87606],[10.71356,46.87685],[10.71523,46.87848],[10.71654,46.87938]]}},{"type":"Feature","properties":{"kind":"piste","difficulty":"intermediate","name":"Eisschwung","aerialway":null,"osm":"way/786994043"},"geometry":{"type":"LineString","coordinates":[[10.70698,46.85395],[10.70719,46.85642],[10.70708,46.85732]]}},{"type":"Feature","properties":{"kind":"piste","difficulty":"advanced","name":"Black Ibex","aerialway":null,"osm":"way/786994044"},"geometry":{"type":"LineString","coordinates":[[10.70319,46.84909],[10.70332,46.84974],[10.705,46.85222],[10.70568,46.8542]]}},{"type":"Feature","properties":{"kind":"piste","difficulty":"advanced","name":"Wiesejaggl","aerialway":null,"osm":"way/989026057"},"geometry":{"type":"LineString","coordinates":[[10.70798,46.86642],[10.70812,46.86658]]}},{"type":"Feature","properties":{"kind":"piste","difficulty":"easy","name":"Parkplatz","aerialway":null,"osm":"way/1125721382"},"geometry":{"type":"LineString","coordinates":[[10.71923,46.88636],[10.72159,46.88654],[10.72234,46.88671],[10.72402,46.88739]]}},{"type":"Feature","properties":{"kind":"piste","difficulty":"easy","name":null,"aerialway":null,"osm":"way/1125721384"},"geometry":{"type":"LineString","coordinates":[[10.71359,46.86326],[10.71341,46.86264]]}},{"type":"Feature","properties":{"kind":"piste","difficulty":"advanced","name":"Freier Fall","aerialway":null,"osm":"way/1125721386"},"geometry":{"type":"LineString","coordinates":[[10.70812,46.86658],[10.70788,46.86718],[10.7078,46.86824]]}},{"type":"Feature","properties":{"kind":"piste","difficulty":"advanced","name":"Wallfahrer","aerialway":null,"osm":"way/1125721387"},"geometry":{"type":"LineString","coordinates":[[10.69194,46.86707],[10.6931,46.86762],[10.69515,46.86823],[10.69985,46.86926],[10.70396,46.87049],[10.70546,46.87065]]}},{"type":"Feature","properties":{"kind":"piste","difficulty":"easy","name":"Kaunipiste","aerialway":null,"osm":"way/1125721388"},"geometry":{"type":"LineString","coordinates":[[10.71767,46.85673],[10.71684,46.85696],[10.71617,46.85766],[10.71556,46.86045],[10.71541,46.86183],[10.71508,46.86302]]}},{"type":"Feature","properties":{"kind":"piste","difficulty":"easy","name":"Weissseeclasic","aerialway":null,"osm":"way/1125721389"},"geometry":{"type":"LineString","coordinates":[[10.70481,46.85587],[10.70436,46.85658]]}},{"type":"Feature","properties":{"kind":"piste","difficulty":"easy","name":"Weissseeclasic","aerialway":null,"osm":"way/1125721390"},"geometry":{"type":"LineString","coordinates":[[10.70638,46.8532],[10.70568,46.8542],[10.70481,46.85587]]}},{"type":"Feature","properties":{"kind":"piste","difficulty":"intermediate","name":"Vronipiste","aerialway":null,"osm":"way/1125721391"},"geometry":{"type":"LineString","coordinates":[[10.70246,46.85892],[10.70545,46.86003]]}},{"type":"Feature","properties":{"kind":"piste","difficulty":"easy","name":null,"aerialway":null,"osm":"way/1288014244"},"geometry":{"type":"LineString","coordinates":[[10.71558,46.87575],[10.71504,46.8754]]}},{"type":"Feature","properties":{"kind":"piste","difficulty":"intermediate","name":"Weissseegenuss","aerialway":null,"osm":"way/1387387839"},"geometry":{"type":"LineString","coordinates":[[10.70638,46.8532],[10.70684,46.85374]]}},{"type":"Feature","properties":{"kind":"piste","difficulty":"intermediate","name":"18 Wiesejaggl","aerialway":null,"osm":"way/1387387840"},"geometry":{"type":"LineString","coordinates":[[10.70784,46.86078],[10.71004,46.86238],[10.71094,46.8632],[10.71237,46.86295]]}},{"type":"Feature","properties":{"kind":"piste","difficulty":"intermediate","name":null,"aerialway":null,"osm":"way/1389396267"},"geometry":{"type":"LineString","coordinates":[[10.65083,46.82913],[10.65157,46.83034],[10.65192,46.83048],[10.65202,46.83042],[10.65191,46.83038]]}},{"type":"Feature","properties":{"kind":"piste","difficulty":"easy","name":null,"aerialway":null,"osm":"way/1421305933"},"geometry":{"type":"LineString","coordinates":[[10.7029,46.85722],[10.70291,46.85694],[10.70334,46.85658],[10.70405,46.85669],[10.70436,46.85658]]}},{"type":"Feature","properties":{"kind":"piste","difficulty":"easy","name":null,"aerialway":null,"osm":"way/1422614106"},"geometry":{"type":"LineString","coordinates":[[10.6469,46.83417],[10.64695,46.83439],[10.64614,46.83471],[10.64586,46.83503],[10.64502,46.8353]]}},{"type":"Feature","properties":{"kind":"piste","difficulty":"easy","name":null,"aerialway":null,"osm":"way/1422614107"},"geometry":{"type":"LineString","coordinates":[[10.6498,46.82982],[10.65004,46.82973]]}},{"type":"Feature","properties":{"kind":"piste","difficulty":"easy","name":null,"aerialway":null,"osm":"way/1435081415"},"geometry":{"type":"LineString","coordinates":[[10.70927,46.85998],[10.70968,46.86015],[10.71015,46.8606],[10.71231,46.86168],[10.71321,46.86226],[10.71393,46.86251],[10.71486,46.86304],[10.71508,46.86302]]}},{"type":"Feature","properties":{"kind":"piste","difficulty":"easy","name":null,"aerialway":null,"osm":"way/1435081419"},"geometry":{"type":"LineString","coordinates":[[10.70985,46.86224],[10.71017,46.86229],[10.71085,46.86278],[10.71136,46.8629],[10.71173,46.86283]]}},{"type":"Feature","properties":{"kind":"piste","difficulty":"easy","name":null,"aerialway":null,"osm":"way/1435081551"},"geometry":{"type":"LineString","coordinates":[[10.71173,46.86283],[10.71237,46.86295]]}},{"type":"Feature","properties":{"kind":"piste","difficulty":"intermediate","name":"Kanonenrohr","aerialway":null,"osm":"way/1462054388"},"geometry":{"type":"LineString","coordinates":[[10.71425,46.86394],[10.71569,46.86377],[10.71689,46.86477],[10.7185,46.86725],[10.71861,46.86815],[10.7189,46.86889],[10.71893,46.87124],[10.71845,46.87172],[10.7172,46.87234],[10.71642,46.87304],[10.7153,46.8753],[10.71529,46.87566],[10.71557,46.87605],[10.71683,46.87664],[10.7169,46.87693],[10.71653,46.8788],[10.71648,46.88046],[10.71632,46.88087],[10.71661,46.88146],[10.71762,46.88235],[10.71764,46.88261],[10.71816,46.88329],[10.71865,46.88507],[10.71908,46.88571],[10.7193,46.88658],[10.71915,46.88667]]}},{"type":"Feature","properties":{"kind":"piste","difficulty":"advanced","name":"Steinbockwand","aerialway":null,"osm":"way/1462054389"},"geometry":{"type":"LineString","coordinates":[[10.69767,46.8581],[10.69921,46.85865],[10.7011,46.85971],[10.70195,46.85983],[10.70379,46.85975],[10.70469,46.85982],[10.70545,46.86003]]}},{"type":"Feature","properties":{"kind":"piste","difficulty":"advanced","name":"Vronitunnel Tunnel","aerialway":null,"osm":"way/1462056604"},"geometry":{"type":"LineString","coordinates":[[10.70622,46.86082],[10.70539,46.86207]]}},{"type":"Feature","properties":{"kind":"piste","difficulty":"intermediate","name":null,"aerialway":null,"osm":"way/1512990097"},"geometry":{"type":"LineString","coordinates":[[10.70675,46.86025],[10.7065,46.86026],[10.70647,46.86043]]}},{"type":"Feature","properties":{"kind":"piste","difficulty":"intermediate","name":null,"aerialway":null,"osm":"way/1512990098"},"geometry":{"type":"LineString","coordinates":[[10.7105,46.86154],[10.71041,46.86161],[10.71051,46.86175]]}},{"type":"Feature","properties":{"kind":"piste","difficulty":"advanced","name":null,"aerialway":null,"osm":"way/1552084078"},"geometry":{"type":"LineString","coordinates":[[10.70515,46.85266],[10.70477,46.8553],[10.70481,46.85587]]}},{"type":"Feature","properties":{"kind":"piste","difficulty":"intermediate","name":null,"aerialway":null,"osm":"way/1552084079"},"geometry":{"type":"LineString","coordinates":[[10.69423,46.85713],[10.69466,46.85694],[10.69538,46.85686],[10.69654,46.85708],[10.69765,46.8575],[10.69914,46.85743],[10.69967,46.85621],[10.70079,46.85602],[10.70353,46.85799],[10.70927,46.85998]]}},{"type":"Feature","properties":{"kind":"piste","difficulty":"intermediate","name":null,"aerialway":null,"osm":"way/1552084080"},"geometry":{"type":"LineString","coordinates":[[10.70252,46.85726],[10.70262,46.85618],[10.70309,46.85587]]}},{"type":"Feature","properties":{"kind":"piste","difficulty":"intermediate","name":null,"aerialway":null,"osm":"way/1552084081"},"geometry":{"type":"LineString","coordinates":[[10.70675,46.86025],[10.70663,46.85998],[10.70675,46.85982],[10.70764,46.8596]]}},{"type":"Feature","properties":{"kind":"lift","difficulty":null,"name":"Maseben","aerialway":"chair_lift","osm":"way/32479834"},"geometry":{"type":"LineString","coordinates":[[10.64248,46.83766],[10.6498,46.82982]]}},{"type":"Feature","properties":{"kind":"lift","difficulty":null,"name":"Maseben Schlepplift","aerialway":"t-bar","osm":"way/32479835"},"geometry":{"type":"LineString","coordinates":[[10.65192,46.83043],[10.64895,46.82242]]}},{"type":"Feature","properties":{"kind":"lift","difficulty":null,"name":"Fernerlift","aerialway":"t-bar","osm":"way/44800652"},"geometry":{"type":"LineString","coordinates":[[10.70436,46.85658],[10.69933,46.85237]]}},{"type":"Feature","properties":{"kind":"lift","difficulty":null,"name":"Nörderjoch I","aerialway":"t-bar","osm":"way/44800654"},"geometry":{"type":"LineString","coordinates":[[10.71552,46.86525],[10.7178,46.85621]]}},{"type":"Feature","properties":{"kind":"lift","difficulty":null,"name":"Ochsenalmbahn 2","aerialway":"chair_lift","osm":"way/44800656"},"geometry":{"type":"LineString","coordinates":[[10.71558,46.87575],[10.71437,46.86432]]}},{"type":"Feature","properties":{"kind":"lift","difficulty":null,"name":"Karlesjochbahn","aerialway":"gondola","osm":"way/60925598"},"geometry":{"type":"LineString","coordinates":[[10.71307,46.86314],[10.69418,46.85687]]}},{"type":"Feature","properties":{"kind":"lift","difficulty":null,"name":null,"aerialway":"magic_carpet","osm":"way/105949719"},"geometry":{"type":"LineString","coordinates":[[10.65011,46.82948],[10.64997,46.82895]]}},{"type":"Feature","properties":{"kind":"lift","difficulty":null,"name":"Falginjochbahn","aerialway":"cable_car","osm":"way/740374955"},"geometry":{"type":"LineString","coordinates":[[10.7139,46.86333],[10.7022,46.84876]]}},{"type":"Feature","properties":{"kind":"lift","difficulty":null,"name":"Weißseejochbahn","aerialway":"gondola","osm":"way/954007493"},"geometry":{"type":"LineString","coordinates":[[10.71475,46.87536],[10.69114,46.86684]]}},{"type":"Feature","properties":{"kind":"lift","difficulty":null,"name":null,"aerialway":"magic_carpet","osm":"way/1435081418"},"geometry":{"type":"LineString","coordinates":[[10.71173,46.86283],[10.71017,46.86229]]}},{"type":"Feature","properties":{"kind":"lift","difficulty":null,"name":"Sonnenlift","aerialway":"drag_lift","osm":"way/1512990096"},"geometry":{"type":"LineString","coordinates":[[10.7131,46.86244],[10.70614,46.86004]]}},{"type":"Feature","properties":{"kind":"lift","difficulty":null,"name":"Ochsenalmbahn 1","aerialway":"chair_lift","osm":"way/1526165266"},"geometry":{"type":"LineString","coordinates":[[10.71915,46.88667],[10.71558,46.87575]]}}]}