{"type":"FeatureCollection","features":[{"type":"Feature","properties":{"kind":"piste","difficulty":"easy","name":null,"aerialway":null,"osm":"way/48090873"},"geometry":{"type":"LineString","coordinates":[[11.76011,47.24764],[11.75972,47.24781],[11.75971,47.24934],[11.7604,47.24934]]}},{"type":"Feature","properties":{"kind":"piste","difficulty":"easy","name":null,"aerialway":null,"osm":"way/48091649"},"geometry":{"type":"LineString","coordinates":[[11.75314,47.2439],[11.75324,47.24374],[11.75343,47.24373],[11.75493,47.24422],[11.75693,47.24527],[11.75774,47.2455],[11.75886,47.24655],[11.75967,47.24763],[11.75972,47.24781],[11.75889,47.24861],[11.75851,47.2488],[11.75808,47.24889],[11.7566,47.24883],[11.75598,47.24906]]}},{"type":"Feature","properties":{"kind":"piste","difficulty":"easy","name":"6er Waidoffen Berg zu Tal","aerialway":null,"osm":"way/208310489"},"geometry":{"type":"LineString","coordinates":[[11.75414,47.2458],[11.75416,47.24621],[11.75522,47.24746],[11.75584,47.24847],[11.75598,47.24906]]}},{"type":"Feature","properties":{"kind":"piste","difficulty":"easy","name":null,"aerialway":null,"osm":"way/326949771"},"geometry":{"type":"LineString","coordinates":[[11.75324,47.24374],[11.75394,47.24422],[11.75486,47.24443],[11.75548,47.24493],[11.75662,47.24549],[11.75707,47.24559],[11.75835,47.24634],[11.75843,47.2466],[11.75891,47.24692],[11.75946,47.24767],[11.7595,47.24803],[11.75919,47.24932],[11.75949,47.24962],[11.76026,47.24941],[11.75992,47.24754],[11.7591,47.24651],[11.75899,47.24611],[11.75816,47.24522],[11.75758,47.24522],[11.7551,47.2441],[11.75422,47.24394],[11.75339,47.24361],[11.75324,47.24374]]}},{"type":"Feature","properties":{"kind":"piste","difficulty":"advanced","name":"Fun Line Hochfügen","aerialway":null,"osm":"way/564077147"},"geometry":{"type":"LineString","coordinates":[[11.75395,47.24578],[11.75377,47.24618],[11.75337,47.24635],[11.75334,47.24661],[11.75348,47.24684],[11.75402,47.24713],[11.75435,47.24762],[11.75434,47.24787],[11.75374,47.2481],[11.75424,47.24836],[11.75424,47.24856],[11.75396,47.24887],[11.75418,47.24903],[11.75531,47.24912],[11.75551,47.24933],[11.75543,47.24966],[11.75453,47.24978],[11.75437,47.25],[11.75492,47.25076],[11.75506,47.25149]]}},{"type":"Feature","properties":{"kind":"piste","difficulty":"intermediate","name":"Fun Line Hochfügen","aerialway":null,"osm":"way/1145433612"},"geometry":{"type":"LineString","coordinates":[[11.75435,47.24643],[11.75366,47.2474],[11.75313,47.24778],[11.75147,47.24842],[11.75256,47.24851],[11.75426,47.24895],[11.75531,47.24901],[11.75581,47.24968]]}},{"type":"Feature","properties":{"kind":"piste","difficulty":"easy","name":null,"aerialway":null,"osm":"way/1145433615"},"geometry":{"type":"LineString","coordinates":[[11.75608,47.25081],[11.75623,47.24915],[11.75651,47.24908],[11.75728,47.24966],[11.7576,47.24945],[11.75782,47.24899],[11.75919,47.24932],[11.7595,47.24803],[11.75946,47.24767],[11.75842,47.24821],[11.75641,47.24851],[11.75558,47.24899],[11.75497,47.25061],[11.75456,47.25109],[11.75431,47.25191],[11.7555,47.25135],[11.75608,47.25081]]}},{"type":"Feature","properties":{"kind":"piste","difficulty":"easy","name":null,"aerialway":null,"osm":"way/1145433616"},"geometry":{"type":"LineString","coordinates":[[11.75641,47.24851],[11.75576,47.24803],[11.75589,47.2474],[11.75479,47.24663],[11.75438,47.2459],[11.75511,47.24564],[11.75631,47.24563],[11.75662,47.24549],[11.7561,47.24522],[11.75608,47.24553],[11.7539,47.24575],[11.75384,47.246],[11.754,47.24643],[11.75462,47.24696],[11.75492,47.24781],[11.75551,47.24864],[11.75558,47.24899],[11.75641,47.24851]]}},{"type":"Feature","properties":{"kind":"piste","difficulty":"advanced","name":"Fun Line Hochfügen","aerialway":null,"osm":"way/1466714714"},"geometry":{"type":"LineString","coordinates":[[11.75414,47.2458],[11.75395,47.24578]]}},{"type":"Feature","properties":{"kind":"piste","difficulty":"easy","name":"6er Waidoffen Berg zu Tal","aerialway":null,"osm":"way/1466714715"},"geometry":{"type":"LineString","coordinates":[[11.7564,47.24502],[11.75644,47.24539],[11.75617,47.24556],[11.75481,47.24563],[11.75414,47.2458]]}},{"type":"Feature","properties":{"kind":"lift","difficulty":null,"name":"Waidoffen","aerialway":"chair_lift","osm":"way/30886471"},"geometry":{"type":"LineString","coordinates":[[11.75466,47.25313],[11.75314,47.2439]]}},{"type":"Feature","properties":{"kind":"lift","difficulty":null,"name":"Achteralm","aerialway":"platter","osm":"way/30958624"},"geometry":{"type":"LineString","coordinates":[[11.76041,47.24937],[11.76008,47.24747]]}}]}