{"type":"FeatureCollection","features":[{"type":"Feature","properties":{"kind":"lift","difficulty":null,"name":null,"aerialway":"rope_tow","osm":"way/83801568"},"geometry":{"type":"LineString","coordinates":[[15.9933,48.54926],[15.99035,48.5483]]}},{"type":"Feature","properties":{"kind":"piste","difficulty":"novice","name":"Fahndorfer Berg","aerialway":null,"osm":"way/370385669"},"geometry":{"type":"LineString","coordinates":[[15.99059,48.54818],[15.99042,48.54813],[15.99025,48.54828],[15.99032,48.54835],[15.99021,48.54829],[15.9904,48.54806],[15.99029,48.5479],[15.99048,48.54766],[15.99176,48.54779],[15.99284,48.54823],[15.99289,48.54898],[15.99336,48.5492],[15.99262,48.54902],[15.99273,48.54888],[15.99242,48.54847],[15.99153,48.54807],[15.99059,48.54818]]}}]}