{"type":"FeatureCollection","features":[{"type":"Feature","properties":{"kind":"piste","difficulty":"intermediate","name":"1a","aerialway":null,"osm":"way/138971766"},"geometry":{"type":"LineString","coordinates":[[11.89784,47.20883],[11.89691,47.20935],[11.89679,47.20957],[11.89697,47.21046],[11.89727,47.21091],[11.8976,47.21112],[11.89909,47.21129],[11.89987,47.21123],[11.90278,47.21051],[11.90313,47.21062],[11.90349,47.21098],[11.90356,47.21125],[11.90326,47.21152],[11.90237,47.21371],[11.90236,47.21579],[11.9022,47.21625],[11.90125,47.21695],[11.9002,47.21736],[11.89987,47.21761],[11.90011,47.21767]]}},{"type":"Feature","properties":{"kind":"piste","difficulty":"intermediate","name":"2","aerialway":null,"osm":"way/138971770"},"geometry":{"type":"LineString","coordinates":[[11.91125,47.19874],[11.9111,47.19845],[11.91126,47.19845],[11.91127,47.1982],[11.91066,47.19807],[11.9094,47.19893],[11.9088,47.1992],[11.90736,47.19979],[11.9061,47.19993],[11.90533,47.20035],[11.90507,47.20074],[11.90503,47.20121],[11.90513,47.20148],[11.90594,47.20208],[11.90619,47.20246],[11.90634,47.20287],[11.90631,47.20319],[11.90419,47.2036],[11.90294,47.20432],[11.90194,47.20469],[11.898,47.20863],[11.89726,47.20956]]}},{"type":"Feature","properties":{"kind":"lift","difficulty":null,"name":"Sonnalm","aerialway":"chair_lift","osm":"way/138971755"},"geometry":{"type":"LineString","coordinates":[[11.89726,47.20956],[11.91101,47.19846]]}},{"type":"Feature","properties":{"kind":"piste","difficulty":"easy","name":"4","aerialway":null,"osm":"way/138971769"},"geometry":{"type":"LineString","coordinates":[[11.9234,47.2002],[11.92235,47.20042],[11.91771,47.20228],[11.91443,47.20344],[11.91416,47.20394],[11.91423,47.20409]]}},{"type":"Feature","properties":{"kind":"lift","difficulty":null,"name":"Larchkopf","aerialway":"t-bar","osm":"way/124453894"},"geometry":{"type":"LineString","coordinates":[[11.91423,47.20409],[11.9234,47.2002]]}}]}