{"type":"FeatureCollection","features":[{"type":"Feature","properties":{"kind":"piste","difficulty":"intermediate","name":null,"aerialway":null,"osm":"way/62264109"},"geometry":{"type":"LineString","coordinates":[[13.15559,46.77558],[13.15547,46.77551]]}},{"type":"Feature","properties":{"kind":"lift","difficulty":null,"name":"Seeleit'n Lift","aerialway":"t-bar","osm":"way/373174017"},"geometry":{"type":"LineString","coordinates":[[13.15201,46.77456],[13.14672,46.77803]]}},{"type":"Feature","properties":{"kind":"lift","difficulty":null,"name":"Nassfeldlift","aerialway":"rope_tow","osm":"way/373174018"},"geometry":{"type":"LineString","coordinates":[[13.14662,46.77723],[13.146,46.78192]]}},{"type":"Feature","properties":{"kind":"lift","difficulty":null,"name":"Ochsenalmlift","aerialway":"t-bar","osm":"way/373174019"},"geometry":{"type":"LineString","coordinates":[[13.15339,46.77042],[13.15408,46.77416]]}},{"type":"Feature","properties":{"kind":"lift","difficulty":null,"name":"Übungslift","aerialway":"rope_tow","osm":"way/373174020"},"geometry":{"type":"LineString","coordinates":[[13.15421,46.77453],[13.15259,46.77464]]}},{"type":"Feature","properties":{"kind":"lift","difficulty":null,"name":"Übungslift","aerialway":"rope_tow","osm":"way/373174021"},"geometry":{"type":"LineString","coordinates":[[13.15292,46.77372],[13.15161,46.77425]]}},{"type":"Feature","properties":{"kind":"piste","difficulty":"intermediate","name":"B6","aerialway":null,"osm":"way/1013512827"},"geometry":{"type":"LineString","coordinates":[[13.15745,46.77708],[13.15749,46.77667],[13.15559,46.77558]]}},{"type":"Feature","properties":{"kind":"piste","difficulty":"intermediate","name":null,"aerialway":null,"osm":"way/1054820315"},"geometry":{"type":"LineString","coordinates":[[13.15401,46.77381],[13.15466,46.77351],[13.15493,46.77304],[13.155,46.77224],[13.15462,46.77099],[13.15432,46.77065],[13.15398,46.77048],[13.15339,46.77042]]}},{"type":"Feature","properties":{"kind":"piste","difficulty":"easy","name":null,"aerialway":null,"osm":"way/1054820316"},"geometry":{"type":"LineString","coordinates":[[13.15401,46.77381],[13.15419,46.77397],[13.15421,46.77453]]}},{"type":"Feature","properties":{"kind":"piste","difficulty":"easy","name":null,"aerialway":null,"osm":"way/1054820317"},"geometry":{"type":"LineString","coordinates":[[13.15259,46.77464],[13.1536,46.77446],[13.15421,46.77453]]}},{"type":"Feature","properties":{"kind":"piste","difficulty":"easy","name":null,"aerialway":null,"osm":"way/1054820318"},"geometry":{"type":"LineString","coordinates":[[13.15259,46.77464],[13.15201,46.77456]]}},{"type":"Feature","properties":{"kind":"piste","difficulty":"easy","name":null,"aerialway":null,"osm":"way/1054820319"},"geometry":{"type":"LineString","coordinates":[[13.15161,46.77425],[13.15229,46.77418],[13.15292,46.77372]]}},{"type":"Feature","properties":{"kind":"piste","difficulty":"easy","name":null,"aerialway":null,"osm":"way/1054820320"},"geometry":{"type":"LineString","coordinates":[[13.15161,46.77425],[13.15198,46.7745]]}},{"type":"Feature","properties":{"kind":"piste","difficulty":"easy","name":null,"aerialway":null,"osm":"way/1054820321"},"geometry":{"type":"LineString","coordinates":[[13.15205,46.77449],[13.15205,46.77426],[13.15229,46.77418]]}},{"type":"Feature","properties":{"kind":"piste","difficulty":"advanced","name":null,"aerialway":null,"osm":"way/1054820322"},"geometry":{"type":"LineString","coordinates":[[13.147,46.77784],[13.14689,46.77742],[13.14662,46.77723]]}},{"type":"Feature","properties":{"kind":"piste","difficulty":"intermediate","name":null,"aerialway":null,"osm":"way/1054820323"},"geometry":{"type":"LineString","coordinates":[[13.147,46.77784],[13.14771,46.77764],[13.14922,46.77661],[13.15094,46.77575],[13.15192,46.77504],[13.15219,46.77452]]}},{"type":"Feature","properties":{"kind":"piste","difficulty":"easy","name":null,"aerialway":null,"osm":"way/1054820324"},"geometry":{"type":"LineString","coordinates":[[13.14693,46.77771],[13.14703,46.77746],[13.14794,46.77669],[13.15031,46.77522],[13.15157,46.77454],[13.15198,46.7745]]}},{"type":"Feature","properties":{"kind":"piste","difficulty":"advanced","name":null,"aerialway":null,"osm":"way/1054820325"},"geometry":{"type":"LineString","coordinates":[[13.14604,46.78163],[13.1465,46.78115],[13.1467,46.78053],[13.147,46.77784]]}},{"type":"Feature","properties":{"kind":"piste","difficulty":"intermediate","name":null,"aerialway":null,"osm":"way/1054820326"},"geometry":{"type":"LineString","coordinates":[[13.14604,46.78163],[13.15193,46.77964],[13.1537,46.77876],[13.15423,46.77828],[13.15617,46.77734],[13.15745,46.77708]]}},{"type":"Feature","properties":{"kind":"piste","difficulty":"intermediate","name":null,"aerialway":null,"osm":"way/1054820328"},"geometry":{"type":"LineString","coordinates":[[13.15547,46.77551],[13.15454,46.77506],[13.15421,46.77453]]}},{"type":"Feature","properties":{"kind":"piste","difficulty":"intermediate","name":null,"aerialway":null,"osm":"way/1054820329"},"geometry":{"type":"LineString","coordinates":[[13.1537,46.77876],[13.15292,46.77855],[13.15254,46.77823],[13.15167,46.77789],[13.15071,46.77779],[13.14997,46.77752],[13.14951,46.77709],[13.14865,46.77663],[13.14854,46.77635]]}},{"type":"Feature","properties":{"kind":"piste","difficulty":"intermediate","name":null,"aerialway":null,"osm":"way/1054820330"},"geometry":{"type":"LineString","coordinates":[[13.15281,46.77383],[13.15496,46.77269]]}},{"type":"Feature","properties":{"kind":"piste","difficulty":"easy","name":null,"aerialway":null,"osm":"way/1054820331"},"geometry":{"type":"LineString","coordinates":[[13.15401,46.77381],[13.15292,46.77372]]}}]}