{"type":"FeatureCollection","features":[{"type":"Feature","properties":{"kind":"lift","difficulty":null,"name":"Kasererwiese","aerialway":"platter","osm":"way/25492348"},"geometry":{"type":"LineString","coordinates":[[11.4132,47.22947],[11.41293,47.22797]]}},{"type":"Feature","properties":{"kind":"lift","difficulty":null,"name":"Heiligwasserlift","aerialway":"t-bar","osm":"way/145920932"},"geometry":{"type":"LineString","coordinates":[[11.42661,47.22176],[11.42935,47.21866]]}},{"type":"Feature","properties":{"kind":"lift","difficulty":null,"name":"Übungslift Patscherkofel","aerialway":"t-bar","osm":"way/293962729"},"geometry":{"type":"LineString","coordinates":[[11.44851,47.20733],[11.45128,47.20768]]}},{"type":"Feature","properties":{"kind":"piste","difficulty":"intermediate","name":"Olympiaabfahrt","aerialway":null,"osm":"way/300095059"},"geometry":{"type":"LineString","coordinates":[[11.45175,47.21006],[11.45239,47.21033],[11.45261,47.21066],[11.45298,47.21195],[11.45289,47.21219],[11.45118,47.21197],[11.44889,47.2114],[11.44613,47.21162],[11.4453,47.21197],[11.44448,47.21207]]}},{"type":"Feature","properties":{"kind":"piste","difficulty":"intermediate","name":"Familienabfahrt","aerialway":null,"osm":"way/300095067"},"geometry":{"type":"LineString","coordinates":[[11.42666,47.21419],[11.4268,47.21464],[11.42708,47.21479],[11.42782,47.21471],[11.42826,47.2148],[11.42839,47.2155],[11.42875,47.2158],[11.42917,47.21678],[11.42954,47.2173],[11.43053,47.21823],[11.43051,47.21833],[11.42899,47.2181],[11.42859,47.21837]]}},{"type":"Feature","properties":{"kind":"piste","difficulty":"intermediate","name":"Familienabfahrt","aerialway":null,"osm":"way/300095073"},"geometry":{"type":"LineString","coordinates":[[11.44237,47.21044],[11.44166,47.21058],[11.44091,47.21043],[11.439,47.20948],[11.43887,47.20936],[11.43882,47.20859],[11.4387,47.20839],[11.43764,47.2074],[11.43683,47.20735],[11.43546,47.20789],[11.4353,47.20835],[11.43457,47.20931],[11.43438,47.20997],[11.43363,47.21079],[11.4332,47.2115],[11.43294,47.21233]]}},{"type":"Feature","properties":{"kind":"piste","difficulty":"easy","name":"Familienabfahrt","aerialway":null,"osm":"way/300095076"},"geometry":{"type":"LineString","coordinates":[[11.45175,47.21006],[11.45194,47.21003],[11.45183,47.20969],[11.45089,47.20885],[11.45052,47.20835],[11.44783,47.20775],[11.4473,47.20778],[11.44659,47.20803],[11.44591,47.20843],[11.44528,47.20949],[11.4446,47.21009],[11.44352,47.21038],[11.44237,47.21044]]}},{"type":"Feature","properties":{"kind":"piste","difficulty":"easy","name":"Kasererwiese","aerialway":null,"osm":"way/300095078"},"geometry":{"type":"LineString","coordinates":[[11.41293,47.22797],[11.41321,47.22835],[11.41331,47.2292],[11.4132,47.22947]]}},{"type":"Feature","properties":{"kind":"piste","difficulty":"advanced","name":"Olympiaabfahrt","aerialway":null,"osm":"way/300095079"},"geometry":{"type":"LineString","coordinates":[[11.43294,47.21233],[11.43272,47.21259],[11.43222,47.21269],[11.42973,47.21241],[11.42835,47.21256],[11.42774,47.21288],[11.42741,47.2137],[11.42693,47.21397],[11.42629,47.21413],[11.42622,47.21468],[11.42651,47.2151],[11.42766,47.21591],[11.42784,47.21649],[11.42777,47.21705]]}},{"type":"Feature","properties":{"kind":"piste","difficulty":"intermediate","name":"Rennstrecke","aerialway":null,"osm":"way/300095083"},"geometry":{"type":"LineString","coordinates":[[11.45183,47.20969],[11.45141,47.20942],[11.45024,47.20915],[11.4484,47.20848],[11.44591,47.20843]]}},{"type":"Feature","properties":{"kind":"lift","difficulty":null,"name":"Zauberteppich","aerialway":"magic_carpet","osm":"way/348787642"},"geometry":{"type":"LineString","coordinates":[[11.42543,47.22149],[11.42569,47.22085]]}},{"type":"Feature","properties":{"kind":"lift","difficulty":null,"name":"Patscherkofelbahn","aerialway":"gondola","osm":"way/485884144"},"geometry":{"type":"LineString","coordinates":[[11.42675,47.22207],[11.44194,47.21131],[11.45175,47.21006]]}},{"type":"Feature","properties":{"kind":"piste","difficulty":"easy","name":"Heiligwasserpiste","aerialway":null,"osm":"way/561327474"},"geometry":{"type":"LineString","coordinates":[[11.42935,47.21866],[11.42916,47.21864],[11.42869,47.21913],[11.42898,47.21938],[11.42902,47.21961],[11.42742,47.2213],[11.42661,47.22176]]}},{"type":"Feature","properties":{"kind":"lift","difficulty":null,"name":"Kinderlift","aerialway":"rope_tow","osm":"way/561327475"},"geometry":{"type":"LineString","coordinates":[[11.42537,47.22095],[11.42533,47.21952]]}},{"type":"Feature","properties":{"kind":"piste","difficulty":"advanced","name":"Weltcuphang","aerialway":null,"osm":"way/576104697"},"geometry":{"type":"LineString","coordinates":[[11.45219,47.21025],[11.45078,47.21044],[11.45001,47.21067],[11.44961,47.21083],[11.44889,47.2114]]}},{"type":"Feature","properties":{"kind":"piste","difficulty":"intermediate","name":"Patscher Alm Kurve","aerialway":null,"osm":"way/576104699"},"geometry":{"type":"LineString","coordinates":[[11.44237,47.21044],[11.44205,47.2102],[11.44138,47.21001],[11.44088,47.20946],[11.44068,47.20939],[11.44038,47.20942],[11.43983,47.20993]]}},{"type":"Feature","properties":{"kind":"piste","difficulty":"intermediate","name":"Ochsenschlagzufahrt","aerialway":null,"osm":"way/576104700"},"geometry":{"type":"LineString","coordinates":[[11.43983,47.20993],[11.43942,47.21025],[11.43847,47.21164],[11.43849,47.21248]]}},{"type":"Feature","properties":{"kind":"piste","difficulty":"intermediate","name":"Ochsenschlagzufahrt","aerialway":null,"osm":"way/576104701"},"geometry":{"type":"LineString","coordinates":[[11.44059,47.2119],[11.43953,47.21141],[11.43911,47.21064]]}},{"type":"Feature","properties":{"kind":"piste","difficulty":"easy","name":null,"aerialway":null,"osm":"way/837787702"},"geometry":{"type":"LineString","coordinates":[[11.4261,47.22156],[11.42675,47.22207]]}},{"type":"Feature","properties":{"kind":"piste","difficulty":"intermediate","name":null,"aerialway":null,"osm":"way/893446837"},"geometry":{"type":"LineString","coordinates":[[11.44448,47.21207],[11.44354,47.21169],[11.44237,47.21044]]}},{"type":"Feature","properties":{"kind":"piste","difficulty":"easy","name":"Familienabfahrt","aerialway":null,"osm":"way/893446838"},"geometry":{"type":"LineString","coordinates":[[11.44528,47.20949],[11.44337,47.20974],[11.44237,47.21044]]}},{"type":"Feature","properties":{"kind":"piste","difficulty":"easy","name":"Familienabfahrt","aerialway":null,"osm":"way/893446839"},"geometry":{"type":"LineString","coordinates":[[11.44237,47.21044],[11.44182,47.21114],[11.44194,47.21131]]}},{"type":"Feature","properties":{"kind":"piste","difficulty":"intermediate","name":"Heiligwasserpiste","aerialway":null,"osm":"way/893446840"},"geometry":{"type":"LineString","coordinates":[[11.42859,47.21837],[11.42854,47.2189],[11.42869,47.21913],[11.4267,47.22116],[11.4261,47.22156]]}},{"type":"Feature","properties":{"kind":"piste","difficulty":"intermediate","name":"Heiligwasserpiste","aerialway":null,"osm":"way/893446841"},"geometry":{"type":"LineString","coordinates":[[11.42859,47.21837],[11.42776,47.21947],[11.42615,47.22097],[11.4261,47.22156]]}},{"type":"Feature","properties":{"kind":"piste","difficulty":"intermediate","name":null,"aerialway":null,"osm":"way/893446842"},"geometry":{"type":"LineString","coordinates":[[11.42954,47.2173],[11.4288,47.21769],[11.42859,47.21837]]}},{"type":"Feature","properties":{"kind":"piste","difficulty":"advanced","name":null,"aerialway":null,"osm":"way/893446843"},"geometry":{"type":"LineString","coordinates":[[11.42777,47.21705],[11.42859,47.21837]]}},{"type":"Feature","properties":{"kind":"piste","difficulty":"advanced","name":"Olympiaabfahrt","aerialway":null,"osm":"way/893446844"},"geometry":{"type":"LineString","coordinates":[[11.44448,47.21207],[11.44059,47.2119],[11.43953,47.2121],[11.43636,47.21329],[11.43549,47.21342],[11.43502,47.21331],[11.43435,47.21277],[11.43376,47.21249],[11.43294,47.21233]]}},{"type":"Feature","properties":{"kind":"piste","difficulty":"intermediate","name":"Bäreneck","aerialway":null,"osm":"way/893446845"},"geometry":{"type":"LineString","coordinates":[[11.42844,47.21197],[11.42824,47.21207],[11.42803,47.21269],[11.42682,47.21284],[11.42628,47.21371]]}},{"type":"Feature","properties":{"kind":"piste","difficulty":"easy","name":"Olympiaabfahrt Zielschuss","aerialway":null,"osm":"way/901381512"},"geometry":{"type":"LineString","coordinates":[[11.42777,47.21705],[11.42643,47.21775],[11.42606,47.2182],[11.42601,47.21878],[11.4256,47.21991],[11.4261,47.22156]]}},{"type":"Feature","properties":{"kind":"piste","difficulty":"easy","name":null,"aerialway":null,"osm":"way/1112213818"},"geometry":{"type":"LineString","coordinates":[[11.45114,47.20766],[11.45039,47.2079],[11.44956,47.20786],[11.44877,47.20767],[11.44857,47.20754],[11.44857,47.20734]]}},{"type":"Feature","properties":{"kind":"piste","difficulty":"easy","name":"Familienabfahrt","aerialway":null,"osm":"way/1112213819"},"geometry":{"type":"LineString","coordinates":[[11.45183,47.20969],[11.45149,47.20906]]}},{"type":"Feature","properties":{"kind":"piste","difficulty":"intermediate","name":null,"aerialway":null,"osm":"way/1228948246"},"geometry":{"type":"LineString","coordinates":[[11.42628,47.21371],[11.42629,47.21413]]}},{"type":"Feature","properties":{"kind":"piste","difficulty":"intermediate","name":"Familienabfahrt","aerialway":null,"osm":"way/1228948247"},"geometry":{"type":"LineString","coordinates":[[11.42654,47.21391],[11.42666,47.21419]]}},{"type":"Feature","properties":{"kind":"piste","difficulty":"intermediate","name":"Familienabfahrt","aerialway":null,"osm":"way/1228948248"},"geometry":{"type":"LineString","coordinates":[[11.43294,47.21233],[11.4319,47.21198],[11.42844,47.21197],[11.42797,47.21164],[11.42652,47.21183],[11.42619,47.21212],[11.42618,47.21314],[11.42628,47.21371],[11.42654,47.21391]]}},{"type":"Feature","properties":{"kind":"piste","difficulty":"easy","name":null,"aerialway":null,"osm":"way/1329068228"},"geometry":{"type":"LineString","coordinates":[[11.42569,47.22085],[11.42537,47.22095]]}}]}