{"type":"FeatureCollection","features":[{"type":"Feature","properties":{"kind":"lift","difficulty":null,"name":"Mosen","aerialway":"t-bar","osm":"way/30070221"},"geometry":{"type":"LineString","coordinates":[[11.68235,47.50928],[11.67021,47.50852]]}},{"type":"Feature","properties":{"kind":"lift","difficulty":null,"name":"Christlum Express","aerialway":"chair_lift","osm":"way/30070222"},"geometry":{"type":"LineString","coordinates":[[11.697,47.51312],[11.68024,47.50785]]}},{"type":"Feature","properties":{"kind":"lift","difficulty":null,"name":"Nordhang","aerialway":"t-bar","osm":"way/30070244"},"geometry":{"type":"LineString","coordinates":[[11.68831,47.51319],[11.67396,47.50945]]}},{"type":"Feature","properties":{"kind":"lift","difficulty":null,"name":"Riederberg","aerialway":"chair_lift","osm":"way/30070248"},"geometry":{"type":"LineString","coordinates":[[11.69693,47.51328],[11.68263,47.50875]]}},{"type":"Feature","properties":{"kind":"lift","difficulty":null,"name":"Babylift","aerialway":"rope_tow","osm":"way/30070250"},"geometry":{"type":"LineString","coordinates":[[11.68313,47.50805],[11.6828,47.50862]]}},{"type":"Feature","properties":{"kind":"lift","difficulty":null,"name":"Brandtal","aerialway":"t-bar","osm":"way/30070252"},"geometry":{"type":"LineString","coordinates":[[11.68749,47.50375],[11.67239,47.50265]]}},{"type":"Feature","properties":{"kind":"lift","difficulty":null,"name":"Christlum","aerialway":"chair_lift","osm":"way/30070253"},"geometry":{"type":"LineString","coordinates":[[11.68198,47.50648],[11.66087,47.50388]]}},{"type":"Feature","properties":{"kind":"piste","difficulty":"intermediate","name":"Nordhangabfahrt","aerialway":null,"osm":"way/30089237"},"geometry":{"type":"LineString","coordinates":[[11.67455,47.5096],[11.67584,47.50917],[11.67673,47.5093],[11.67886,47.51011],[11.6821,47.51053],[11.68322,47.51122],[11.68559,47.51193],[11.68754,47.51278],[11.68858,47.51287],[11.68812,47.51313]]}},{"type":"Feature","properties":{"kind":"piste","difficulty":"easy","name":"Mosenabfahrt","aerialway":null,"osm":"way/30089462"},"geometry":{"type":"LineString","coordinates":[[11.67103,47.50858],[11.67126,47.5083],[11.67855,47.50874],[11.6811,47.50865],[11.68215,47.50873]]}},{"type":"Feature","properties":{"kind":"piste","difficulty":"intermediate","name":null,"aerialway":null,"osm":"way/30089486"},"geometry":{"type":"LineString","coordinates":[[11.67631,47.50857],[11.67673,47.5093]]}},{"type":"Feature","properties":{"kind":"piste","difficulty":"easy","name":"Brandtalabfahrt 1","aerialway":null,"osm":"way/30089502"},"geometry":{"type":"LineString","coordinates":[[11.67328,47.50272],[11.67309,47.50277],[11.67312,47.50303],[11.67745,47.50379],[11.6807,47.50459],[11.68302,47.5047],[11.68348,47.50464],[11.68443,47.50412],[11.68545,47.50405],[11.6869,47.50427],[11.68739,47.50412],[11.68749,47.50398],[11.68733,47.50374]]}},{"type":"Feature","properties":{"kind":"piste","difficulty":"easy","name":null,"aerialway":null,"osm":"way/30089517"},"geometry":{"type":"LineString","coordinates":[[11.68238,47.50574],[11.68302,47.5047]]}},{"type":"Feature","properties":{"kind":"piste","difficulty":"advanced","name":"Gföllalmgraben","aerialway":null,"osm":"way/30102829"},"geometry":{"type":"LineString","coordinates":[[11.66112,47.50391],[11.66089,47.50399],[11.66132,47.50432],[11.66203,47.50445],[11.6624,47.50475],[11.6631,47.50498],[11.66478,47.50404],[11.66596,47.50373],[11.673,47.50534]]}},{"type":"Feature","properties":{"kind":"piste","difficulty":"intermediate","name":"Zimmererabfahrt","aerialway":null,"osm":"way/30102893"},"geometry":{"type":"LineString","coordinates":[[11.66209,47.50245],[11.66181,47.50249],[11.66197,47.5031],[11.66596,47.50373],[11.6685,47.50335],[11.67098,47.50332],[11.67303,47.50382],[11.67553,47.5047],[11.68211,47.50585],[11.68238,47.50574]]}},{"type":"Feature","properties":{"kind":"piste","difficulty":"intermediate","name":"Brandtalabfahrt 2","aerialway":null,"osm":"way/30102907"},"geometry":{"type":"LineString","coordinates":[[11.67098,47.50332],[11.67312,47.50303],[11.68716,47.50393],[11.68747,47.50386]]}},{"type":"Feature","properties":{"kind":"piste","difficulty":"intermediate","name":null,"aerialway":null,"osm":"way/30102951"},"geometry":{"type":"LineString","coordinates":[[11.68235,47.50928],[11.68254,47.5093],[11.68277,47.50994],[11.68249,47.51023],[11.68257,47.51082]]}},{"type":"Feature","properties":{"kind":"piste","difficulty":"advanced","name":"Nordabfahrt","aerialway":null,"osm":"way/30102978"},"geometry":{"type":"LineString","coordinates":[[11.68266,47.50965],[11.68355,47.50999],[11.68644,47.51071]]}},{"type":"Feature","properties":{"kind":"piste","difficulty":"intermediate","name":null,"aerialway":null,"osm":"way/30102982"},"geometry":{"type":"LineString","coordinates":[[11.68858,47.51287],[11.68892,47.51251],[11.68927,47.51242]]}},{"type":"Feature","properties":{"kind":"piste","difficulty":"intermediate","name":null,"aerialway":null,"osm":"way/30103024"},"geometry":{"type":"LineString","coordinates":[[11.68024,47.50785],[11.67978,47.5077],[11.67945,47.50785],[11.67882,47.50771],[11.67877,47.50746],[11.67907,47.50712],[11.6812,47.50634],[11.68221,47.50643],[11.68198,47.50648]]}},{"type":"Feature","properties":{"kind":"piste","difficulty":"advanced","name":null,"aerialway":null,"osm":"way/30103077"},"geometry":{"type":"LineString","coordinates":[[11.66197,47.5031],[11.66229,47.50466]]}},{"type":"Feature","properties":{"kind":"piste","difficulty":"freeride","name":null,"aerialway":null,"osm":"way/30103096"},"geometry":{"type":"LineString","coordinates":[[11.6631,47.50498],[11.66434,47.50559],[11.66509,47.50612],[11.66589,47.50691],[11.66677,47.50729],[11.66799,47.50774],[11.67126,47.5083]]}},{"type":"Feature","properties":{"kind":"piste","difficulty":"intermediate","name":null,"aerialway":null,"osm":"way/30103156"},"geometry":{"type":"LineString","coordinates":[[11.68198,47.50648],[11.68245,47.5065],[11.6826,47.50637]]}},{"type":"Feature","properties":{"kind":"piste","difficulty":"easy","name":null,"aerialway":null,"osm":"way/30103184"},"geometry":{"type":"LineString","coordinates":[[11.6826,47.50637],[11.68228,47.50604],[11.68248,47.5053],[11.68233,47.5051]]}},{"type":"Feature","properties":{"kind":"lift","difficulty":null,"name":"Cabrio-Flitzer","aerialway":"chair_lift","osm":"way/125538054"},"geometry":{"type":"LineString","coordinates":[[11.68209,47.50562],[11.66209,47.50245]]}},{"type":"Feature","properties":{"kind":"piste","difficulty":"intermediate","name":null,"aerialway":null,"osm":"way/125538065"},"geometry":{"type":"LineString","coordinates":[[11.68878,47.5126],[11.68858,47.51287]]}},{"type":"Feature","properties":{"kind":"lift","difficulty":null,"name":"DinoJet","aerialway":"platter","osm":"way/549990293"},"geometry":{"type":"LineString","coordinates":[[11.68233,47.5051],[11.67724,47.50389]]}},{"type":"Feature","properties":{"kind":"piste","difficulty":"advanced","name":"Gföllalmgraben","aerialway":null,"osm":"way/659770653"},"geometry":{"type":"LineString","coordinates":[[11.673,47.50534],[11.67416,47.50555],[11.67543,47.50609],[11.67951,47.50657],[11.68109,47.5063],[11.68231,47.50642],[11.68198,47.50648]]}},{"type":"Feature","properties":{"kind":"piste","difficulty":"easy","name":null,"aerialway":null,"osm":"way/659770654"},"geometry":{"type":"LineString","coordinates":[[11.673,47.50534],[11.67466,47.50529]]}},{"type":"Feature","properties":{"kind":"piste","difficulty":"easy","name":null,"aerialway":null,"osm":"way/659770655"},"geometry":{"type":"LineString","coordinates":[[11.67505,47.50504],[11.67553,47.5047]]}},{"type":"Feature","properties":{"kind":"piste","difficulty":"intermediate","name":null,"aerialway":null,"osm":"way/659770656"},"geometry":{"type":"LineString","coordinates":[[11.67584,47.50917],[11.67735,47.50865]]}},{"type":"Feature","properties":{"kind":"piste","difficulty":"easy","name":null,"aerialway":null,"osm":"way/659770657"},"geometry":{"type":"LineString","coordinates":[[11.6811,47.50865],[11.68232,47.50829]]}},{"type":"Feature","properties":{"kind":"piste","difficulty":"intermediate","name":null,"aerialway":null,"osm":"way/659770658"},"geometry":{"type":"LineString","coordinates":[[11.68641,47.50916],[11.68651,47.50929],[11.68613,47.51032],[11.68644,47.51071]]}},{"type":"Feature","properties":{"kind":"piste","difficulty":"intermediate","name":null,"aerialway":null,"osm":"way/659770659"},"geometry":{"type":"LineString","coordinates":[[11.68906,47.51218],[11.68878,47.5126]]}},{"type":"Feature","properties":{"kind":"piste","difficulty":"advanced","name":"Nordabfahrt","aerialway":null,"osm":"way/659770660"},"geometry":{"type":"LineString","coordinates":[[11.68906,47.51218],[11.68927,47.51242],[11.6908,47.51286],[11.69315,47.5129],[11.69563,47.51365],[11.69617,47.51367],[11.69705,47.5134]]}},{"type":"Feature","properties":{"kind":"piste","difficulty":"intermediate","name":"Nordabfahrt","aerialway":null,"osm":"way/659770661"},"geometry":{"type":"LineString","coordinates":[[11.68644,47.51071],[11.68807,47.5109],[11.68906,47.51218]]}},{"type":"Feature","properties":{"kind":"piste","difficulty":"easy","name":null,"aerialway":null,"osm":"way/659770666"},"geometry":{"type":"LineString","coordinates":[[11.67724,47.50389],[11.67708,47.50404],[11.67706,47.50429],[11.67794,47.50454],[11.68248,47.5053]]}},{"type":"Feature","properties":{"kind":"piste","difficulty":"intermediate","name":null,"aerialway":null,"osm":"way/659770667"},"geometry":{"type":"LineString","coordinates":[[11.67312,47.50303],[11.67706,47.50429]]}},{"type":"Feature","properties":{"kind":"piste","difficulty":"easy","name":null,"aerialway":null,"osm":"way/677504068"},"geometry":{"type":"LineString","coordinates":[[11.68065,47.50817],[11.6811,47.50865]]}},{"type":"Feature","properties":{"kind":"piste","difficulty":"easy","name":"Mosenabfahrt","aerialway":null,"osm":"way/1070936373"},"geometry":{"type":"LineString","coordinates":[[11.68263,47.50875],[11.68215,47.50873],[11.68257,47.50918],[11.68254,47.5093],[11.68235,47.50928]]}},{"type":"Feature","properties":{"kind":"piste","difficulty":"easy","name":null,"aerialway":null,"osm":"way/1321816092"},"geometry":{"type":"LineString","coordinates":[[11.67466,47.50529],[11.67486,47.50526],[11.67505,47.50504]]}},{"type":"Feature","properties":{"kind":"piste","difficulty":"intermediate","name":"Südabfahrt","aerialway":null,"osm":"relation/9174133"},"geometry":{"type":"MultiLineString","coordinates":[[[11.68024,47.50785],[11.6798,47.50774],[11.67986,47.5079],[11.68065,47.50817],[11.68232,47.50829],[11.6832,47.50779],[11.68348,47.50739],[11.68325,47.50683],[11.6826,47.50637],[11.6833,47.50616],[11.68489,47.50597],[11.68658,47.50625],[11.68807,47.50627],[11.68936,47.5068]],[[11.68936,47.5068],[11.68967,47.5075],[11.69041,47.50831]],[[11.69041,47.50831],[11.69135,47.50865],[11.69334,47.51025],[11.69488,47.51057]],[[11.69488,47.51057],[11.69571,47.51085],[11.69674,47.51196],[11.69688,47.5129],[11.69738,47.51312]]]}},{"type":"Feature","properties":{"kind":"piste","difficulty":"easy","name":null,"aerialway":null,"osm":"relation/9174134"},"geometry":{"type":"MultiLineString","coordinates":[[[11.6874,47.5046],[11.6876,47.50463],[11.68804,47.50502],[11.68847,47.50575],[11.68936,47.5068]],[[11.68727,47.50416],[11.68718,47.50433],[11.6874,47.5046]]]}}]}