{"type":"FeatureCollection","features":[{"type":"Feature","properties":{"kind":"lift","difficulty":null,"name":"Hochalmbahn","aerialway":"gondola","osm":"way/40385638"},"geometry":{"type":"LineString","coordinates":[[12.99117,47.22386],[12.95775,47.22056]]}},{"type":"Feature","properties":{"kind":"lift","difficulty":null,"name":"Kreuzbodenbahn","aerialway":"chair_lift","osm":"way/78106207"},"geometry":{"type":"LineString","coordinates":[[12.99033,47.23236],[12.97989,47.22975]]}},{"type":"Feature","properties":{"kind":"lift","difficulty":null,"name":"Gipfelbahn","aerialway":"gondola","osm":"way/99858746"},"geometry":{"type":"LineString","coordinates":[[12.96427,47.22123],[12.93629,47.21431]]}},{"type":"Feature","properties":{"kind":"lift","difficulty":null,"name":"Gratlift","aerialway":"t-bar","osm":"way/99858747"},"geometry":{"type":"LineString","coordinates":[[12.95819,47.22101],[12.94565,47.21977]]}},{"type":"Feature","properties":{"kind":"lift","difficulty":null,"name":"Jackalmlift II","aerialway":"t-bar","osm":"way/244618320"},"geometry":{"type":"LineString","coordinates":[[12.97526,47.22252],[12.95907,47.21967]]}},{"type":"Feature","properties":{"kind":"lift","difficulty":null,"name":"Jackalmlift I","aerialway":"t-bar","osm":"way/244627354"},"geometry":{"type":"LineString","coordinates":[[12.97528,47.22248],[12.95908,47.21963]]}},{"type":"Feature","properties":{"kind":"lift","difficulty":null,"name":"Kreuzboden Tellerlift","aerialway":"platter","osm":"way/244628743"},"geometry":{"type":"LineString","coordinates":[[12.98395,47.22844],[12.97958,47.22914]]}},{"type":"Feature","properties":{"kind":"lift","difficulty":null,"name":"Schwazerlift 1","aerialway":"rope_tow","osm":"way/244661606"},"geometry":{"type":"LineString","coordinates":[[12.99196,47.22464],[12.98859,47.22415]]}},{"type":"Feature","properties":{"kind":"lift","difficulty":null,"name":"Schwazerlift 2","aerialway":"rope_tow","osm":"way/268099978"},"geometry":{"type":"LineString","coordinates":[[12.99198,47.22461],[12.98862,47.22407]]}},{"type":"Feature","properties":{"kind":"lift","difficulty":null,"name":null,"aerialway":"magic_carpet","osm":"way/268099979"},"geometry":{"type":"LineString","coordinates":[[12.99236,47.22362],[12.992,47.22365]]}},{"type":"Feature","properties":{"kind":"lift","difficulty":null,"name":"ÜL Tal","aerialway":"magic_carpet","osm":"way/268099980"},"geometry":{"type":"LineString","coordinates":[[12.99003,47.2233],[12.98976,47.22329]]}},{"type":"Feature","properties":{"kind":"piste","difficulty":"intermediate","name":"Talabfahrt","aerialway":null,"osm":"way/397807669"},"geometry":{"type":"LineString","coordinates":[[12.97933,47.23053],[12.98156,47.23097],[12.98296,47.23107]]}},{"type":"Feature","properties":{"kind":"piste","difficulty":"intermediate","name":"9","aerialway":null,"osm":"way/397807671"},"geometry":{"type":"LineString","coordinates":[[12.96052,47.22817],[12.96201,47.22853],[12.96374,47.22868]]}},{"type":"Feature","properties":{"kind":"piste","difficulty":"easy","name":"4","aerialway":null,"osm":"way/397807674"},"geometry":{"type":"LineString","coordinates":[[12.96157,47.22767],[12.96168,47.22736],[12.96153,47.22709],[12.96064,47.22669],[12.95962,47.22643],[12.95918,47.22606],[12.9579,47.22581],[12.9573,47.22541],[12.95661,47.22537],[12.9561,47.22502],[12.95621,47.22492],[12.95997,47.22423],[12.96085,47.22439],[12.96298,47.22442],[12.9637,47.2246],[12.96425,47.22431],[12.9651,47.2242],[12.96905,47.22402],[12.97095,47.22342],[12.97178,47.22346],[12.9723,47.22332]]}},{"type":"Feature","properties":{"kind":"piste","difficulty":"easy","name":"6 Kreuzboden-Übungshang","aerialway":null,"osm":"way/397807679"},"geometry":{"type":"LineString","coordinates":[[12.98002,47.22907],[12.98014,47.22922],[12.9815,47.22927],[12.98388,47.22866],[12.98395,47.22844]]}},{"type":"Feature","properties":{"kind":"piste","difficulty":"intermediate","name":"4 Obere Verbindung","aerialway":null,"osm":"way/397809878"},"geometry":{"type":"LineString","coordinates":[[12.95844,47.22098],[12.95801,47.22185],[12.95809,47.22301],[12.95842,47.2235],[12.95965,47.22425]]}},{"type":"Feature","properties":{"kind":"piste","difficulty":"easy","name":"Mulde","aerialway":null,"osm":"way/397809882"},"geometry":{"type":"LineString","coordinates":[[12.94651,47.21986],[12.94533,47.21867],[12.94355,47.21771],[12.94294,47.21725]]}},{"type":"Feature","properties":{"kind":"piste","difficulty":"easy","name":"3a Familienabfahrt","aerialway":null,"osm":"way/397809884"},"geometry":{"type":"LineString","coordinates":[[12.93629,47.21431],[12.93637,47.21403],[12.93617,47.21353],[12.93628,47.21297],[12.93754,47.21371],[12.93927,47.21434],[12.94097,47.21414],[12.94129,47.21402],[12.94185,47.21341],[12.94336,47.21463],[12.94437,47.21506],[12.94716,47.2169]]}},{"type":"Feature","properties":{"kind":"piste","difficulty":"easy","name":"3","aerialway":null,"osm":"way/397809888"},"geometry":{"type":"LineString","coordinates":[[12.93637,47.21414],[12.93815,47.21437],[12.93927,47.21434],[12.94055,47.21482],[12.941,47.21516],[12.94206,47.21647],[12.94294,47.21725],[12.94494,47.21679],[12.94716,47.2169],[12.94915,47.21745],[12.95034,47.21834],[12.95213,47.21906],[12.95322,47.21917],[12.95498,47.2189],[12.9561,47.21913],[12.95691,47.21961],[12.958,47.21991]]}},{"type":"Feature","properties":{"kind":"piste","difficulty":"easy","name":null,"aerialway":null,"osm":"way/397809893"},"geometry":{"type":"LineString","coordinates":[[12.958,47.21991],[12.95837,47.22048],[12.95844,47.22098]]}},{"type":"Feature","properties":{"kind":"piste","difficulty":"intermediate","name":"1a Piste zwischen Skiweg","aerialway":null,"osm":"way/397809899"},"geometry":{"type":"LineString","coordinates":[[12.97562,47.22233],[12.97567,47.22247],[12.97489,47.2227],[12.97464,47.22308],[12.97472,47.22341],[12.97647,47.22583]]}},{"type":"Feature","properties":{"kind":"piste","difficulty":"easy","name":null,"aerialway":null,"osm":"way/397809902"},"geometry":{"type":"LineString","coordinates":[[12.97567,47.22247],[12.976,47.22252],[12.97603,47.22272],[12.97513,47.22309],[12.97477,47.22344],[12.97384,47.22514],[12.97331,47.22578],[12.9745,47.22537],[12.9754,47.22529],[12.97604,47.22491],[12.97715,47.22482],[12.97737,47.22463],[12.97754,47.22464],[12.97756,47.22475],[12.97647,47.22583]]}},{"type":"Feature","properties":{"kind":"piste","difficulty":"easy","name":null,"aerialway":null,"osm":"way/397809905"},"geometry":{"type":"LineString","coordinates":[[12.97627,47.22593],[12.97431,47.22692],[12.97257,47.22708],[12.97235,47.22719],[12.97234,47.22734],[12.97306,47.22767],[12.9745,47.22807],[12.97607,47.22802],[12.97721,47.22813],[12.97767,47.22803],[12.97832,47.22847],[12.97919,47.22845],[12.98034,47.22882],[12.98095,47.22945],[12.98098,47.23005]]}},{"type":"Feature","properties":{"kind":"piste","difficulty":"advanced","name":"5 Talabfahrt","aerialway":null,"osm":"way/397810327"},"geometry":{"type":"LineString","coordinates":[[12.98455,47.22383],[12.98475,47.22273],[12.98486,47.22268],[12.98533,47.22413],[12.98548,47.22414],[12.98558,47.22355],[12.98544,47.22227],[12.98506,47.22099],[12.98613,47.22226],[12.98636,47.22288],[12.98736,47.22384],[12.99086,47.22404],[12.99126,47.22399],[12.9913,47.22388],[12.99117,47.22386]]}},{"type":"Feature","properties":{"kind":"lift","difficulty":null,"name":"Waldalmbahn","aerialway":"gondola","osm":"way/441900768"},"geometry":{"type":"LineString","coordinates":[[12.98085,47.23028],[12.95478,47.22851]]}},{"type":"Feature","properties":{"kind":"piste","difficulty":"intermediate","name":"9","aerialway":null,"osm":"way/456353218"},"geometry":{"type":"LineString","coordinates":[[12.95478,47.22851],[12.95499,47.22803],[12.95583,47.22779],[12.9589,47.22794],[12.96052,47.22817],[12.96157,47.22767]]}},{"type":"Feature","properties":{"kind":"piste","difficulty":"intermediate","name":"9 Waldalm - Kreuzboden","aerialway":null,"osm":"way/472322822"},"geometry":{"type":"LineString","coordinates":[[12.96157,47.22767],[12.964,47.22879],[12.96477,47.22893],[12.96753,47.22903],[12.96975,47.22971],[12.97281,47.22937],[12.97466,47.22942],[12.97522,47.22968],[12.97528,47.23036],[12.97558,47.23061],[12.97612,47.23071],[12.97759,47.23079],[12.97933,47.23053],[12.98047,47.22996],[12.9809,47.22956],[12.98131,47.22949],[12.98273,47.22964],[12.98295,47.22987],[12.98299,47.23029],[12.9829,47.2307],[12.983,47.23132],[12.98295,47.23391],[12.98495,47.23589],[12.9856,47.23622],[12.98703,47.23547],[12.98812,47.23508],[12.98978,47.23518],[12.98993,47.23344],[12.99052,47.23263],[12.99052,47.23243],[12.99033,47.23236]]}},{"type":"Feature","properties":{"kind":"piste","difficulty":"easy","name":null,"aerialway":null,"osm":"way/472323525"},"geometry":{"type":"LineString","coordinates":[[12.958,47.21991],[12.96222,47.2209],[12.9654,47.22198],[12.97028,47.22259],[12.9723,47.22332],[12.97292,47.22328],[12.97461,47.22279],[12.97562,47.22233]]}},{"type":"Feature","properties":{"kind":"piste","difficulty":"novice","name":"Schwazerlift 2","aerialway":null,"osm":"way/762625798"},"geometry":{"type":"LineString","coordinates":[[12.98862,47.22407],[12.98945,47.22394],[12.99166,47.22432],[12.99198,47.22461]]}},{"type":"Feature","properties":{"kind":"piste","difficulty":"intermediate","name":null,"aerialway":null,"osm":"way/762627992"},"geometry":{"type":"LineString","coordinates":[[12.95844,47.2209],[12.96059,47.22105],[12.96055,47.22125],[12.96039,47.22129],[12.96013,47.22115],[12.96045,47.22116]]}},{"type":"Feature","properties":{"kind":"piste","difficulty":"intermediate","name":null,"aerialway":null,"osm":"way/762627993"},"geometry":{"type":"LineString","coordinates":[[12.9606,47.22125],[12.95975,47.22215],[12.95975,47.22231],[12.96147,47.22215],[12.96394,47.22147]]}},{"type":"Feature","properties":{"kind":"piste","difficulty":"intermediate","name":null,"aerialway":null,"osm":"way/762627994"},"geometry":{"type":"LineString","coordinates":[[12.96045,47.22116],[12.9606,47.22125]]}},{"type":"Feature","properties":{"kind":"piste","difficulty":"novice","name":"Schwazerlift 1","aerialway":null,"osm":"way/810834058"},"geometry":{"type":"LineString","coordinates":[[12.98859,47.22415],[12.98913,47.22442],[12.99053,47.22465],[12.99153,47.22476],[12.99196,47.22464]]}},{"type":"Feature","properties":{"kind":"lift","difficulty":null,"name":null,"aerialway":"zip_line","osm":"way/831851564"},"geometry":{"type":"LineString","coordinates":[[12.98034,47.22958],[12.98044,47.22906]]}},{"type":"Feature","properties":{"kind":"piste","difficulty":"easy","name":null,"aerialway":null,"osm":"way/1053420099"},"geometry":{"type":"LineString","coordinates":[[12.98098,47.23005],[12.98085,47.23028]]}},{"type":"Feature","properties":{"kind":"piste","difficulty":"intermediate","name":"Talabfahrt","aerialway":null,"osm":"way/1053420100"},"geometry":{"type":"LineString","coordinates":[[12.97995,47.22977],[12.97978,47.22985],[12.97989,47.22998],[12.98067,47.23004],[12.98085,47.23018]]}},{"type":"Feature","properties":{"kind":"piste","difficulty":"easy","name":null,"aerialway":null,"osm":"way/1053420101"},"geometry":{"type":"LineString","coordinates":[[12.95775,47.22056],[12.95974,47.22032]]}},{"type":"Feature","properties":{"kind":"piste","difficulty":"easy","name":null,"aerialway":null,"osm":"way/1053420102"},"geometry":{"type":"LineString","coordinates":[[12.95844,47.22098],[12.95819,47.22101]]}},{"type":"Feature","properties":{"kind":"piste","difficulty":"easy","name":null,"aerialway":null,"osm":"way/1053420103"},"geometry":{"type":"LineString","coordinates":[[12.95977,47.2198],[12.9601,47.22041]]}},{"type":"Feature","properties":{"kind":"piste","difficulty":"easy","name":null,"aerialway":null,"osm":"way/1053420104"},"geometry":{"type":"LineString","coordinates":[[12.95933,47.21967],[12.95964,47.21961],[12.95958,47.21984],[12.95983,47.21997]]}},{"type":"Feature","properties":{"kind":"piste","difficulty":"easy","name":null,"aerialway":null,"osm":"way/1053420105"},"geometry":{"type":"LineString","coordinates":[[12.96394,47.22147],[12.96444,47.22133],[12.96427,47.22123]]}},{"type":"Feature","properties":{"kind":"piste","difficulty":"easy","name":null,"aerialway":null,"osm":"way/1053420106"},"geometry":{"type":"LineString","coordinates":[[12.97517,47.2226],[12.97526,47.22252]]}},{"type":"Feature","properties":{"kind":"piste","difficulty":"easy","name":null,"aerialway":null,"osm":"way/1053420107"},"geometry":{"type":"LineString","coordinates":[[12.97538,47.2225],[12.97528,47.22248]]}},{"type":"Feature","properties":{"kind":"piste","difficulty":"easy","name":null,"aerialway":null,"osm":"way/1141319673"},"geometry":{"type":"LineString","coordinates":[[12.97647,47.22583],[12.97627,47.22593]]}},{"type":"Feature","properties":{"kind":"piste","difficulty":"advanced","name":"5 Talabfahrt","aerialway":null,"osm":"way/1356635003"},"geometry":{"type":"LineString","coordinates":[[12.97496,47.2237],[12.97619,47.22382],[12.9769,47.22348],[12.97809,47.2221],[12.97843,47.22206],[12.97873,47.22215],[12.98074,47.22396],[12.98225,47.22423],[12.98256,47.22417],[12.983,47.22396],[12.98316,47.22368],[12.9836,47.22342],[12.9838,47.2224],[12.98352,47.22195],[12.98364,47.22174],[12.98411,47.22228],[12.98455,47.22383]]}}]}