{"type":"FeatureCollection","features":[{"type":"Feature","properties":{"kind":"lift","difficulty":null,"name":"Schlepplift Mattehanshöhe (Innerkrems)","aerialway":"t-bar","osm":"way/205059681"},"geometry":{"type":"LineString","coordinates":[[13.75239,46.98526],[13.75816,46.984]]}},{"type":"Feature","properties":{"kind":"lift","difficulty":null,"name":"Mattehanslift (Schönfeld)","aerialway":"t-bar","osm":"way/205063117"},"geometry":{"type":"LineString","coordinates":[[13.77401,46.98212],[13.7672,46.98008]]}},{"type":"Feature","properties":{"kind":"lift","difficulty":null,"name":"Schilchernocklift","aerialway":"t-bar","osm":"way/205063118"},"geometry":{"type":"LineString","coordinates":[[13.77487,46.98398],[13.78858,46.9871]]}},{"type":"Feature","properties":{"kind":"piste","difficulty":"easy","name":null,"aerialway":null,"osm":"way/206134432"},"geometry":{"type":"LineString","coordinates":[[13.75768,46.98411],[13.75777,46.98441],[13.75742,46.98519],[13.75668,46.98584],[13.75598,46.98626],[13.75507,46.9865],[13.75419,46.98635],[13.7533,46.98596]]}},{"type":"Feature","properties":{"kind":"piste","difficulty":"easy","name":null,"aerialway":null,"osm":"way/206134433"},"geometry":{"type":"LineString","coordinates":[[13.7459,46.99347],[13.74831,46.99329],[13.74933,46.99299],[13.75014,46.99244],[13.7506,46.99185],[13.75347,46.98938],[13.75427,46.98821],[13.75434,46.98791],[13.7533,46.98596],[13.75234,46.98539],[13.75256,46.98523]]}},{"type":"Feature","properties":{"kind":"piste","difficulty":"easy","name":null,"aerialway":null,"osm":"way/206134435"},"geometry":{"type":"LineString","coordinates":[[13.75294,46.98566],[13.7523,46.98567]]}},{"type":"Feature","properties":{"kind":"piste","difficulty":"easy","name":"17 - Skiroute Schönfeld","aerialway":null,"osm":"way/610058086"},"geometry":{"type":"LineString","coordinates":[[13.75768,46.98411],[13.75699,46.98355],[13.75709,46.98332],[13.75695,46.98294],[13.75702,46.98279],[13.75763,46.98264],[13.75857,46.98201],[13.75877,46.98174],[13.75952,46.98156],[13.7604,46.98162],[13.76195,46.98197],[13.7631,46.98173],[13.76386,46.98134],[13.76578,46.98089],[13.76751,46.98012]]}},{"type":"Feature","properties":{"kind":"piste","difficulty":"intermediate","name":"13 - Knappenabfahrt","aerialway":null,"osm":"way/610058087"},"geometry":{"type":"LineString","coordinates":[[13.76751,46.98012],[13.76876,46.9799],[13.76985,46.98043],[13.7703,46.98084],[13.77035,46.98127],[13.77088,46.9816],[13.77217,46.98179],[13.77363,46.98218],[13.77401,46.98212]]}},{"type":"Feature","properties":{"kind":"piste","difficulty":"easy","name":"14 - Schilcherbergabfahrt","aerialway":null,"osm":"way/610058088"},"geometry":{"type":"LineString","coordinates":[[13.78771,46.9869],[13.78643,46.98755],[13.78408,46.98836],[13.7828,46.98937],[13.7814,46.98956],[13.78091,46.98943],[13.78052,46.98883],[13.78034,46.98802],[13.77953,46.98719],[13.77867,46.98648],[13.77537,46.98501],[13.77487,46.98398]]}},{"type":"Feature","properties":{"kind":"piste","difficulty":"novice","name":"Ziehweg","aerialway":null,"osm":"way/610058089"},"geometry":{"type":"LineString","coordinates":[[13.774,46.98215],[13.77406,46.98278],[13.77384,46.98315],[13.7744,46.98397]]}},{"type":"Feature","properties":{"kind":"piste","difficulty":"novice","name":"Ziehweg","aerialway":null,"osm":"way/610069590"},"geometry":{"type":"LineString","coordinates":[[13.7744,46.98397],[13.77483,46.98404]]}}]}