{"type":"FeatureCollection","features":[{"type":"Feature","properties":{"kind":"lift","difficulty":null,"name":"Lachtal","aerialway":"chair_lift","osm":"way/28826250"},"geometry":{"type":"LineString","coordinates":[[14.36562,47.25171],[14.35391,47.26338]]}},{"type":"Feature","properties":{"kind":"piste","difficulty":"easy","name":"Panorama Abfahrt","aerialway":null,"osm":"way/28873793"},"geometry":{"type":"LineString","coordinates":[[14.35363,47.26338],[14.35055,47.26381],[14.34941,47.2638],[14.34919,47.26365]]}},{"type":"Feature","properties":{"kind":"piste","difficulty":"easy","name":"Paulipiste","aerialway":null,"osm":"way/28874013"},"geometry":{"type":"LineString","coordinates":[[14.35771,47.25919],[14.35698,47.25688],[14.35602,47.25666],[14.35444,47.25581],[14.35439,47.25569],[14.35503,47.25525]]}},{"type":"Feature","properties":{"kind":"piste","difficulty":"advanced","name":"Lärchenschuss","aerialway":null,"osm":"way/28874037"},"geometry":{"type":"LineString","coordinates":[[14.35859,47.2578],[14.35852,47.25751],[14.35953,47.25655],[14.36355,47.25323]]}},{"type":"Feature","properties":{"kind":"lift","difficulty":null,"name":"Hebertlift 2","aerialway":"t-bar","osm":"way/46891335"},"geometry":{"type":"LineString","coordinates":[[14.36567,47.25144],[14.3587,47.2576]]}},{"type":"Feature","properties":{"kind":"piste","difficulty":"easy","name":"Skiweg Tanzstatt","aerialway":null,"osm":"way/46891337"},"geometry":{"type":"LineString","coordinates":[[14.36173,47.25565],[14.36261,47.2566],[14.36413,47.2571],[14.36446,47.25742],[14.36475,47.25856]]}},{"type":"Feature","properties":{"kind":"piste","difficulty":"intermediate","name":"Nici-Hang","aerialway":null,"osm":"way/46891338"},"geometry":{"type":"LineString","coordinates":[[14.36413,47.2571],[14.36469,47.25646],[14.36519,47.25528],[14.36589,47.25497],[14.3664,47.2541],[14.36627,47.25355]]}},{"type":"Feature","properties":{"kind":"lift","difficulty":null,"name":"Schönberglift","aerialway":"t-bar","osm":"way/46891340"},"geometry":{"type":"LineString","coordinates":[[14.36875,47.25612],[14.37662,47.26163]]}},{"type":"Feature","properties":{"kind":"piste","difficulty":"intermediate","name":"Sonnenhang","aerialway":null,"osm":"way/46891343"},"geometry":{"type":"LineString","coordinates":[[14.37638,47.26172],[14.37586,47.26154],[14.37472,47.26054],[14.37239,47.25958],[14.37113,47.25923],[14.36665,47.25843]]}},{"type":"Feature","properties":{"kind":"piste","difficulty":"intermediate","name":"Kamelbuckel","aerialway":null,"osm":"way/46891350"},"geometry":{"type":"LineString","coordinates":[[14.37662,47.26163],[14.37733,47.26124],[14.37753,47.26069],[14.37754,47.26008],[14.37703,47.25984],[14.37649,47.25932],[14.37658,47.259],[14.37601,47.25833],[14.37473,47.25768],[14.37421,47.25684],[14.37363,47.25673],[14.37273,47.25679],[14.37221,47.25661],[14.37089,47.25582],[14.36966,47.25568],[14.36875,47.25612]]}},{"type":"Feature","properties":{"kind":"piste","difficulty":"easy","name":"Skiweg Lachtal","aerialway":null,"osm":"way/46910673"},"geometry":{"type":"LineString","coordinates":[[14.36577,47.25992],[14.3664,47.25961],[14.36636,47.25913],[14.36716,47.25747]]}},{"type":"Feature","properties":{"kind":"piste","difficulty":"intermediate","name":"Kanonenrohr","aerialway":null,"osm":"way/46910674"},"geometry":{"type":"LineString","coordinates":[[14.35859,47.2578],[14.359,47.25766],[14.36042,47.25634],[14.36339,47.25492],[14.36358,47.25392],[14.36425,47.25342],[14.36554,47.2534],[14.36591,47.25367],[14.36627,47.25355]]}},{"type":"Feature","properties":{"kind":"piste","difficulty":"intermediate","name":"Sepp'n-Leit'n","aerialway":null,"osm":"way/46913174"},"geometry":{"type":"LineString","coordinates":[[14.35633,47.26099],[14.35838,47.25825],[14.35859,47.2578]]}},{"type":"Feature","properties":{"kind":"piste","difficulty":"intermediate","name":"Hebert Abfahrt","aerialway":null,"osm":"way/46913177"},"geometry":{"type":"LineString","coordinates":[[14.36355,47.25323],[14.36473,47.25185],[14.36549,47.25133],[14.36576,47.2514]]}},{"type":"Feature","properties":{"kind":"piste","difficulty":"easy","name":"Kleinlachtalweg","aerialway":null,"osm":"way/46913178"},"geometry":{"type":"LineString","coordinates":[[14.35503,47.25525],[14.35641,47.25506],[14.35782,47.25408],[14.35984,47.25317],[14.36151,47.2531],[14.36355,47.25323]]}},{"type":"Feature","properties":{"kind":"piste","difficulty":"intermediate","name":"Rennstrecke Schönberg","aerialway":null,"osm":"way/92727675"},"geometry":{"type":"LineString","coordinates":[[14.37677,47.2615],[14.37262,47.25768],[14.37227,47.25719],[14.37221,47.25661]]}},{"type":"Feature","properties":{"kind":"piste","difficulty":"intermediate","name":"Karli Haas Piste","aerialway":null,"osm":"way/92727676"},"geometry":{"type":"LineString","coordinates":[[14.34383,47.27067],[14.34526,47.27087],[14.34607,47.27078],[14.34732,47.27032],[14.34782,47.27032],[14.3499,47.26866],[14.35108,47.26798]]}},{"type":"Feature","properties":{"kind":"piste","difficulty":"easy","name":"Kircherlhang","aerialway":null,"osm":"way/92727698"},"geometry":{"type":"LineString","coordinates":[[14.37545,47.26559],[14.37533,47.2654],[14.37444,47.26563],[14.37189,47.26708],[14.37166,47.26691],[14.36963,47.26632],[14.3683,47.26283],[14.36767,47.26204],[14.36742,47.26142],[14.36679,47.26073],[14.36613,47.26035],[14.36608,47.25983]]}},{"type":"Feature","properties":{"kind":"lift","difficulty":null,"name":"Dietrichalmlift","aerialway":"t-bar","osm":"way/92727712"},"geometry":{"type":"LineString","coordinates":[[14.37569,47.27646],[14.36973,47.26826]]}},{"type":"Feature","properties":{"kind":"lift","difficulty":null,"name":"Zinkenlift","aerialway":"t-bar","osm":"way/92727730"},"geometry":{"type":"LineString","coordinates":[[14.3476,47.26287],[14.34383,47.27067]]}},{"type":"Feature","properties":{"kind":"piste","difficulty":"intermediate","name":"Sonnenhang","aerialway":null,"osm":"way/92727744"},"geometry":{"type":"LineString","coordinates":[[14.37545,47.26559],[14.37646,47.26441],[14.37668,47.26395],[14.37659,47.26245],[14.37648,47.26202],[14.37618,47.26182]]}},{"type":"Feature","properties":{"kind":"lift","difficulty":null,"name":"Schönberg Schaukel","aerialway":"chair_lift","osm":"way/92727780"},"geometry":{"type":"LineString","coordinates":[[14.36663,47.25899],[14.37533,47.26565]]}},{"type":"Feature","properties":{"kind":"piste","difficulty":"intermediate","name":"Himmelreich","aerialway":null,"osm":"way/92727825"},"geometry":{"type":"LineString","coordinates":[[14.37189,47.26708],[14.37224,47.26845],[14.37215,47.27011],[14.37176,47.27182],[14.37185,47.27266],[14.37245,47.27344],[14.37315,47.27393],[14.37359,47.27449],[14.3737,47.27497],[14.37402,47.2753],[14.37537,47.27641],[14.37566,47.27642]]}},{"type":"Feature","properties":{"kind":"lift","difficulty":null,"name":"Tanzstattlift","aerialway":"t-bar","osm":"way/265939890"},"geometry":{"type":"LineString","coordinates":[[14.36545,47.25996],[14.36938,47.26804]]}},{"type":"Feature","properties":{"kind":"lift","difficulty":null,"name":"Hebert 1","aerialway":"platter","osm":"way/265997116"},"geometry":{"type":"LineString","coordinates":[[14.3656,47.25142],[14.36368,47.25312]]}},{"type":"Feature","properties":{"kind":"piste","difficulty":"intermediate","name":null,"aerialway":null,"osm":"way/265997303"},"geometry":{"type":"LineString","coordinates":[[14.36355,47.25323],[14.36425,47.25342],[14.36544,47.25433],[14.36555,47.25453],[14.36607,47.25457]]}},{"type":"Feature","properties":{"kind":"piste","difficulty":"intermediate","name":null,"aerialway":null,"osm":"way/265998620"},"geometry":{"type":"LineString","coordinates":[[14.37363,47.25673],[14.36968,47.25784],[14.36763,47.25868]]}},{"type":"Feature","properties":{"kind":"piste","difficulty":"intermediate","name":"Almrausch","aerialway":null,"osm":"way/265999484"},"geometry":{"type":"LineString","coordinates":[[14.37533,47.2654],[14.37207,47.26267],[14.37078,47.26182],[14.37031,47.26095],[14.36941,47.26066],[14.36799,47.25976],[14.36665,47.25843]]}},{"type":"Feature","properties":{"kind":"piste","difficulty":"intermediate","name":"Windkanal","aerialway":null,"osm":"way/266000137"},"geometry":{"type":"LineString","coordinates":[[14.37618,47.26182],[14.37515,47.26234],[14.37451,47.26313],[14.37367,47.26367],[14.37195,47.26425],[14.37024,47.2645],[14.3689,47.26453]]}},{"type":"Feature","properties":{"kind":"piste","difficulty":"easy","name":"Kircherlhang","aerialway":null,"osm":"way/266000845"},"geometry":{"type":"LineString","coordinates":[[14.36915,47.26762],[14.3698,47.26718],[14.36963,47.26632]]}},{"type":"Feature","properties":{"kind":"piste","difficulty":"intermediate","name":"Hirzmannn","aerialway":null,"osm":"way/266001992"},"geometry":{"type":"LineString","coordinates":[[14.37761,47.26004],[14.37751,47.25833],[14.37711,47.25782],[14.37702,47.25748],[14.37713,47.25673],[14.37743,47.25616],[14.37734,47.25532],[14.3782,47.25439],[14.37784,47.25322],[14.37791,47.25271],[14.37779,47.25265],[14.37685,47.25311],[14.3764,47.25365],[14.37552,47.25241],[14.37565,47.25172]]}},{"type":"Feature","properties":{"kind":"lift","difficulty":null,"name":"Zauberteppich","aerialway":"magic_carpet","osm":"way/266005803"},"geometry":{"type":"LineString","coordinates":[[14.36522,47.25111],[14.36466,47.25087]]}},{"type":"Feature","properties":{"kind":"lift","difficulty":null,"name":"Teddy-Seillift","aerialway":"rope_tow","osm":"way/266006293"},"geometry":{"type":"LineString","coordinates":[[14.36445,47.25081],[14.36347,47.25146]]}},{"type":"Feature","properties":{"kind":"piste","difficulty":"intermediate","name":"Nici-Hang","aerialway":null,"osm":"way/266008079"},"geometry":{"type":"LineString","coordinates":[[14.35612,47.26139],[14.35805,47.25961],[14.35908,47.25884],[14.36028,47.2582],[14.36413,47.2571]]}},{"type":"Feature","properties":{"kind":"piste","difficulty":"intermediate","name":"Karl Haas Piste","aerialway":null,"osm":"way/266009526"},"geometry":{"type":"LineString","coordinates":[[14.34919,47.26365],[14.34911,47.2597],[14.35008,47.25912],[14.35008,47.2581],[14.35138,47.25575],[14.35194,47.25536],[14.35248,47.25526],[14.3545,47.25539],[14.35503,47.25525]]}},{"type":"Feature","properties":{"kind":"piste","difficulty":"advanced","name":"Haltersteig","aerialway":null,"osm":"way/266009738"},"geometry":{"type":"LineString","coordinates":[[14.34383,47.27067],[14.34358,47.27063],[14.34345,47.27041],[14.34507,47.26736],[14.34637,47.2639],[14.34687,47.26371],[14.34747,47.26282],[14.34762,47.26279],[14.3476,47.26287]]}},{"type":"Feature","properties":{"kind":"piste","difficulty":"advanced","name":null,"aerialway":null,"osm":"way/266009812"},"geometry":{"type":"LineString","coordinates":[[14.34637,47.2639],[14.34695,47.26192],[14.34711,47.26064],[14.34911,47.2597]]}},{"type":"Feature","properties":{"kind":"piste","difficulty":"easy","name":null,"aerialway":null,"osm":"way/266333508"},"geometry":{"type":"LineString","coordinates":[[14.36725,47.25731],[14.36725,47.25664],[14.3677,47.25593]]}},{"type":"Feature","properties":{"kind":"piste","difficulty":"intermediate","name":null,"aerialway":null,"osm":"way/266333867"},"geometry":{"type":"LineString","coordinates":[[14.37759,47.26035],[14.37761,47.26004]]}},{"type":"Feature","properties":{"kind":"piste","difficulty":"intermediate","name":"Hirzmannn","aerialway":null,"osm":"way/266334030"},"geometry":{"type":"LineString","coordinates":[[14.37565,47.25172],[14.37506,47.25189],[14.37441,47.25242],[14.37425,47.2527],[14.37405,47.25229]]}},{"type":"Feature","properties":{"kind":"piste","difficulty":"intermediate","name":"Hirzmannn","aerialway":null,"osm":"way/266334060"},"geometry":{"type":"LineString","coordinates":[[14.37405,47.25229],[14.37358,47.25249],[14.37307,47.25292],[14.37218,47.25401],[14.37079,47.25444],[14.37012,47.25487],[14.36875,47.25612]]}},{"type":"Feature","properties":{"kind":"piste","difficulty":"easy","name":null,"aerialway":null,"osm":"way/266334401"},"geometry":{"type":"LineString","coordinates":[[14.35667,47.26045],[14.35448,47.2598],[14.35086,47.2568]]}},{"type":"Feature","properties":{"kind":"piste","difficulty":"easy","name":"Skiweg Lachtal","aerialway":null,"osm":"way/267944302"},"geometry":{"type":"LineString","coordinates":[[14.36745,47.25583],[14.36721,47.25572]]}},{"type":"Feature","properties":{"kind":"piste","difficulty":"easy","name":"Skiweg Lachtal","aerialway":null,"osm":"way/267944303"},"geometry":{"type":"LineString","coordinates":[[14.36721,47.25572],[14.36671,47.25468],[14.36655,47.2538],[14.36627,47.25355],[14.36632,47.25327],[14.36593,47.25246],[14.36602,47.25175],[14.36576,47.2514]]}},{"type":"Feature","properties":{"kind":"piste","difficulty":"easy","name":"Skiweg Lachtal","aerialway":null,"osm":"way/267944521"},"geometry":{"type":"LineString","coordinates":[[14.36741,47.2571],[14.36751,47.25692]]}},{"type":"Feature","properties":{"kind":"piste","difficulty":"easy","name":"Skiweg Lachtal","aerialway":null,"osm":"way/267944522"},"geometry":{"type":"LineString","coordinates":[[14.36751,47.25692],[14.36762,47.2567],[14.36875,47.25612],[14.36745,47.25583]]}},{"type":"Feature","properties":{"kind":"piste","difficulty":"easy","name":"Skiweg Lachtal","aerialway":null,"osm":"way/267944523"},"geometry":{"type":"LineString","coordinates":[[14.36716,47.25747],[14.36725,47.25731]]}},{"type":"Feature","properties":{"kind":"piste","difficulty":"easy","name":"Skiweg Lachtal","aerialway":null,"osm":"way/267944524"},"geometry":{"type":"LineString","coordinates":[[14.36725,47.25731],[14.36741,47.2571]]}},{"type":"Feature","properties":{"kind":"piste","difficulty":"easy","name":"Skiweg Tanzstatt","aerialway":null,"osm":"way/565769171"},"geometry":{"type":"LineString","coordinates":[[14.36475,47.25864],[14.36513,47.25969],[14.36577,47.25992]]}},{"type":"Feature","properties":{"kind":"piste","difficulty":"easy","name":"Skiweg Tanzstatt","aerialway":null,"osm":"way/565769172"},"geometry":{"type":"LineString","coordinates":[[14.36475,47.25856],[14.36475,47.25864]]}},{"type":"Feature","properties":{"kind":"piste","difficulty":"unknown","name":null,"aerialway":null,"osm":"way/911594349"},"geometry":{"type":"LineString","coordinates":[[14.36576,47.2514],[14.3656,47.25142]]}},{"type":"Feature","properties":{"kind":"piste","difficulty":"unknown","name":null,"aerialway":null,"osm":"way/911594350"},"geometry":{"type":"LineString","coordinates":[[14.36576,47.2514],[14.36567,47.25144]]}},{"type":"Feature","properties":{"kind":"piste","difficulty":"unknown","name":null,"aerialway":null,"osm":"way/911594351"},"geometry":{"type":"LineString","coordinates":[[14.36576,47.2514],[14.36562,47.25171]]}},{"type":"Feature","properties":{"kind":"piste","difficulty":"unknown","name":null,"aerialway":null,"osm":"way/911594352"},"geometry":{"type":"LineString","coordinates":[[14.36368,47.25312],[14.36365,47.25311]]}},{"type":"Feature","properties":{"kind":"piste","difficulty":"unknown","name":null,"aerialway":null,"osm":"way/911594702"},"geometry":{"type":"LineString","coordinates":[[14.35391,47.26338],[14.35363,47.26338]]}},{"type":"Feature","properties":{"kind":"piste","difficulty":"intermediate","name":"Nici-Hang","aerialway":null,"osm":"way/911594703"},"geometry":{"type":"LineString","coordinates":[[14.35363,47.26338],[14.35389,47.26352],[14.35452,47.26332],[14.35591,47.26199],[14.35633,47.26099]]}},{"type":"Feature","properties":{"kind":"piste","difficulty":"easy","name":"Panorama Abfahrt","aerialway":null,"osm":"way/911594704"},"geometry":{"type":"LineString","coordinates":[[14.35378,47.26385],[14.35308,47.2634]]}},{"type":"Feature","properties":{"kind":"piste","difficulty":"unknown","name":null,"aerialway":null,"osm":"way/911597224"},"geometry":{"type":"LineString","coordinates":[[14.36524,47.25977],[14.36545,47.25996]]}},{"type":"Feature","properties":{"kind":"piste","difficulty":"unknown","name":null,"aerialway":null,"osm":"way/911597225"},"geometry":{"type":"LineString","coordinates":[[14.36644,47.25893],[14.36673,47.25891],[14.36663,47.25899]]}},{"type":"Feature","properties":{"kind":"piste","difficulty":"unknown","name":null,"aerialway":null,"osm":"way/911597227"},"geometry":{"type":"LineString","coordinates":[[14.37533,47.26565],[14.37545,47.26559]]}},{"type":"Feature","properties":{"kind":"piste","difficulty":"unknown","name":null,"aerialway":null,"osm":"way/911597228"},"geometry":{"type":"LineString","coordinates":[[14.36982,47.2684],[14.37189,47.26708]]}},{"type":"Feature","properties":{"kind":"piste","difficulty":"intermediate","name":"Karli Haas Piste","aerialway":null,"osm":"way/1047695176"},"geometry":{"type":"LineString","coordinates":[[14.35108,47.26798],[14.35102,47.26759],[14.34961,47.26584],[14.3491,47.26458],[14.34919,47.26365]]}},{"type":"Feature","properties":{"kind":"piste","difficulty":"intermediate","name":"Panorama Abfahrt","aerialway":null,"osm":"way/1047695403"},"geometry":{"type":"LineString","coordinates":[[14.35108,47.26798],[14.35178,47.26759],[14.35214,47.26721],[14.35276,47.26619],[14.35378,47.26385],[14.35448,47.26353],[14.35452,47.26332]]}},{"type":"Feature","properties":{"kind":"piste","difficulty":"intermediate","name":"6","aerialway":null,"osm":"way/1047696554"},"geometry":{"type":"LineString","coordinates":[[14.34919,47.26365],[14.34883,47.26285],[14.34783,47.26275],[14.3476,47.26287]]}},{"type":"Feature","properties":{"kind":"piste","difficulty":"easy","name":"Hebertweg","aerialway":null,"osm":"way/1125020090"},"geometry":{"type":"LineString","coordinates":[[14.3638,47.2529],[14.3626,47.25244],[14.36449,47.2512],[14.36549,47.25133]]}},{"type":"Feature","properties":{"kind":"piste","difficulty":"easy","name":null,"aerialway":null,"osm":"way/1125020093"},"geometry":{"type":"LineString","coordinates":[[14.36347,47.25146],[14.3645,47.25091],[14.36522,47.25111]]}},{"type":"Feature","properties":{"kind":"piste","difficulty":"unknown","name":null,"aerialway":null,"osm":"way/1125020094"},"geometry":{"type":"LineString","coordinates":[[14.36453,47.25084],[14.3645,47.25091]]}},{"type":"Feature","properties":{"kind":"piste","difficulty":"advanced","name":null,"aerialway":null,"osm":"way/1125020095"},"geometry":{"type":"LineString","coordinates":[[14.35754,47.26008],[14.36211,47.25959],[14.36254,47.25986],[14.36308,47.26054],[14.36417,47.26062],[14.36495,47.26049],[14.36531,47.26027],[14.36524,47.25977]]}},{"type":"Feature","properties":{"kind":"piste","difficulty":"intermediate","name":"Himmelreich","aerialway":null,"osm":"way/1234737373"},"geometry":{"type":"LineString","coordinates":[[14.37012,47.26821],[14.37196,47.27095]]}},{"type":"Feature","properties":{"kind":"piste","difficulty":"intermediate","name":"Sonnenhang","aerialway":null,"osm":"way/1234737376"},"geometry":{"type":"LineString","coordinates":[[14.37662,47.26163],[14.37638,47.26172]]}},{"type":"Feature","properties":{"kind":"piste","difficulty":"intermediate","name":"Sonnenhang","aerialway":null,"osm":"way/1234737377"},"geometry":{"type":"LineString","coordinates":[[14.37618,47.26182],[14.37586,47.26154]]}},{"type":"Feature","properties":{"kind":"piste","difficulty":"intermediate","name":null,"aerialway":null,"osm":"way/1234737378"},"geometry":{"type":"LineString","coordinates":[[14.37638,47.26172],[14.37618,47.26182]]}},{"type":"Feature","properties":{"kind":"piste","difficulty":"intermediate","name":null,"aerialway":null,"osm":"way/1342498504"},"geometry":{"type":"LineString","coordinates":[[14.35887,47.25719],[14.35698,47.25688]]}}]}