{"type":"FeatureCollection","features":[{"type":"Feature","properties":{"kind":"lift","difficulty":null,"name":"Hinterfeldlift","aerialway":"platter","osm":"way/41690582"},"geometry":{"type":"LineString","coordinates":[[11.15145,47.31136],[11.15431,47.31143]]}},{"type":"Feature","properties":{"kind":"lift","difficulty":null,"name":"Seewald I","aerialway":"t-bar","osm":"way/146138345"},"geometry":{"type":"LineString","coordinates":[[11.16112,47.31308],[11.16183,47.31005],[11.16267,47.30946],[11.1656,47.30913]]}},{"type":"Feature","properties":{"kind":"lift","difficulty":null,"name":"Seewald II","aerialway":"t-bar","osm":"way/146138346"},"geometry":{"type":"LineString","coordinates":[[11.16432,47.31055],[11.17471,47.31112]]}},{"type":"Feature","properties":{"kind":"lift","difficulty":null,"name":"Brennerköpfl","aerialway":"t-bar","osm":"way/146138348"},"geometry":{"type":"LineString","coordinates":[[11.17739,47.31264],[11.17464,47.31095]]}},{"type":"Feature","properties":{"kind":"lift","difficulty":null,"name":"Gschwandtkopf","aerialway":"chair_lift","osm":"way/146138349"},"geometry":{"type":"LineString","coordinates":[[11.17941,47.32442],[11.17915,47.31397]]}},{"type":"Feature","properties":{"kind":"lift","difficulty":null,"name":"Brunnental","aerialway":"t-bar","osm":"way/146138352"},"geometry":{"type":"LineString","coordinates":[[11.18229,47.32395],[11.18076,47.3202]]}},{"type":"Feature","properties":{"kind":"lift","difficulty":null,"name":"Happy Schleppi","aerialway":"platter","osm":"way/146138353"},"geometry":{"type":"LineString","coordinates":[[11.17966,47.32454],[11.18187,47.32427]]}},{"type":"Feature","properties":{"kind":"lift","difficulty":null,"name":"Übungslift Sportalm","aerialway":"drag_lift","osm":"way/146138356"},"geometry":{"type":"LineString","coordinates":[[11.177,47.3248],[11.17794,47.32393]]}},{"type":"Feature","properties":{"kind":"lift","difficulty":null,"name":"Olympia","aerialway":"t-bar","osm":"way/146138357"},"geometry":{"type":"LineString","coordinates":[[11.17844,47.32388],[11.17841,47.32104]]}},{"type":"Feature","properties":{"kind":"lift","difficulty":null,"name":"Zauberteppich Sportalm","aerialway":"drag_lift","osm":"way/147556773"},"geometry":{"type":"LineString","coordinates":[[11.17828,47.32403],[11.1781,47.32384]]}},{"type":"Feature","properties":{"kind":"piste","difficulty":"easy","name":"Seewald I-Abfahrt","aerialway":null,"osm":"way/469363357"},"geometry":{"type":"LineString","coordinates":[[11.16526,47.30921],[11.16479,47.3095],[11.16296,47.30971],[11.16229,47.31017],[11.16196,47.31101],[11.16177,47.3126],[11.16112,47.31308]]}},{"type":"Feature","properties":{"kind":"piste","difficulty":"easy","name":null,"aerialway":null,"osm":"way/469363358"},"geometry":{"type":"LineString","coordinates":[[11.16525,47.30917],[11.1653,47.31045],[11.16495,47.31084],[11.16435,47.31094]]}},{"type":"Feature","properties":{"kind":"piste","difficulty":"easy","name":null,"aerialway":null,"osm":"way/469363359"},"geometry":{"type":"LineString","coordinates":[[11.16479,47.3095],[11.16477,47.30986],[11.16423,47.31051],[11.16435,47.31094],[11.16258,47.31151],[11.1623,47.31256],[11.16177,47.3126]]}},{"type":"Feature","properties":{"kind":"piste","difficulty":"easy","name":"Brennerköpfl-Abfahrt","aerialway":null,"osm":"way/469363360"},"geometry":{"type":"LineString","coordinates":[[11.17739,47.31264],[11.17724,47.31276],[11.17673,47.31255],[11.17495,47.31133],[11.1745,47.3112],[11.17462,47.31112]]}},{"type":"Feature","properties":{"kind":"piste","difficulty":"easy","name":"Seewald II-Abfahrt","aerialway":null,"osm":"way/469363361"},"geometry":{"type":"LineString","coordinates":[[11.1745,47.3112],[11.17321,47.31136],[11.17071,47.31119],[11.16904,47.31092],[11.16536,47.311],[11.16425,47.31065],[11.16444,47.31055]]}},{"type":"Feature","properties":{"kind":"piste","difficulty":"easy","name":null,"aerialway":null,"osm":"way/469363362"},"geometry":{"type":"LineString","coordinates":[[11.17602,47.31207],[11.17576,47.31281],[11.17546,47.31298],[11.17419,47.31324],[11.17275,47.31289],[11.17131,47.31271],[11.169,47.31202],[11.16731,47.31194],[11.166,47.31171],[11.16529,47.31148],[11.16435,47.31094]]}},{"type":"Feature","properties":{"kind":"piste","difficulty":"easy","name":"Olympia-Abfahrt","aerialway":null,"osm":"way/469363363"},"geometry":{"type":"LineString","coordinates":[[11.17915,47.31397],[11.17928,47.31388],[11.17939,47.31406],[11.17892,47.31431],[11.17868,47.31496],[11.17893,47.3163],[11.17862,47.31746],[11.17872,47.31849],[11.17831,47.31938],[11.17896,47.32118],[11.1787,47.32386],[11.17919,47.32436],[11.17924,47.32457],[11.17937,47.32457],[11.17941,47.32442]]}},{"type":"Feature","properties":{"kind":"piste","difficulty":"easy","name":"Brunnental-Abfahrt","aerialway":null,"osm":"way/469363364"},"geometry":{"type":"LineString","coordinates":[[11.18092,47.3206],[11.18068,47.32063],[11.18036,47.32105],[11.18039,47.32162],[11.18081,47.32235],[11.18126,47.32284],[11.18124,47.32322],[11.18207,47.32403],[11.18196,47.32414]]}},{"type":"Feature","properties":{"kind":"piste","difficulty":"easy","name":"Gschwandtkopf-Abfahrt","aerialway":null,"osm":"way/469363366"},"geometry":{"type":"LineString","coordinates":[[11.17929,47.31411],[11.17928,47.31476],[11.17969,47.31576],[11.17958,47.31652],[11.17961,47.31794],[11.18013,47.31915],[11.18004,47.31999],[11.18036,47.32105],[11.18004,47.32177],[11.17961,47.32444],[11.17969,47.32451],[11.1796,47.32454],[11.17973,47.32453]]}},{"type":"Feature","properties":{"kind":"piste","difficulty":"easy","name":"Waldabfahrt","aerialway":null,"osm":"way/469363367"},"geometry":{"type":"LineString","coordinates":[[11.17591,47.31341],[11.17562,47.31347],[11.17468,47.31506],[11.17514,47.31629],[11.17528,47.31714],[11.17681,47.31819],[11.17731,47.31895],[11.17831,47.31938]]}},{"type":"Feature","properties":{"kind":"piste","difficulty":"easy","name":null,"aerialway":null,"osm":"way/469363368"},"geometry":{"type":"LineString","coordinates":[[11.17724,47.31276],[11.17688,47.31298],[11.17674,47.31342],[11.17619,47.31339]]}},{"type":"Feature","properties":{"kind":"piste","difficulty":"easy","name":"Hinterfeld-Abfahrt","aerialway":null,"osm":"way/469363369"},"geometry":{"type":"LineString","coordinates":[[11.15398,47.31142],[11.15349,47.31169],[11.15234,47.31172],[11.15141,47.3115],[11.15128,47.3114],[11.15145,47.31136]]}},{"type":"Feature","properties":{"kind":"piste","difficulty":"easy","name":null,"aerialway":null,"osm":"way/1060300554"},"geometry":{"type":"LineString","coordinates":[[11.18139,47.32448],[11.1805,47.32427]]}},{"type":"Feature","properties":{"kind":"piste","difficulty":"easy","name":null,"aerialway":null,"osm":"way/1060300555"},"geometry":{"type":"LineString","coordinates":[[11.18159,47.3243],[11.18124,47.32418]]}},{"type":"Feature","properties":{"kind":"piste","difficulty":"easy","name":null,"aerialway":null,"osm":"way/1060300556"},"geometry":{"type":"LineString","coordinates":[[11.18207,47.32403],[11.18229,47.32395]]}},{"type":"Feature","properties":{"kind":"piste","difficulty":"easy","name":null,"aerialway":null,"osm":"way/1060300557"},"geometry":{"type":"LineString","coordinates":[[11.1787,47.32386],[11.1785,47.32398],[11.17844,47.32379]]}},{"type":"Feature","properties":{"kind":"piste","difficulty":"easy","name":"Olympia-Abfahrt","aerialway":null,"osm":"way/1060300558"},"geometry":{"type":"LineString","coordinates":[[11.17841,47.32121],[11.17868,47.32149],[11.17883,47.32205]]}},{"type":"Feature","properties":{"kind":"piste","difficulty":"easy","name":null,"aerialway":null,"osm":"way/1060662185"},"geometry":{"type":"LineString","coordinates":[[11.17498,47.31116],[11.17489,47.31132]]}},{"type":"Feature","properties":{"kind":"lift","difficulty":null,"name":null,"aerialway":"yes","osm":"way/1129611294"},"geometry":{"type":"LineString","coordinates":[[11.16426,47.31062],[11.16426,47.31062]]}},{"type":"Feature","properties":{"kind":"piste","difficulty":"easy","name":"Brennerköpfl-Abfahrt","aerialway":null,"osm":"way/1130695254"},"geometry":{"type":"LineString","coordinates":[[11.17925,47.31388],[11.17884,47.31356],[11.17806,47.31342],[11.17591,47.31341]]}},{"type":"Feature","properties":{"kind":"piste","difficulty":"easy","name":"Happy Schleppi-Abfahrt","aerialway":null,"osm":"way/1130695255"},"geometry":{"type":"LineString","coordinates":[[11.18196,47.32414],[11.17961,47.32444]]}},{"type":"Feature","properties":{"kind":"piste","difficulty":"unknown","name":"Sportalm-Abfahrt","aerialway":null,"osm":"way/1130695256"},"geometry":{"type":"LineString","coordinates":[[11.1785,47.32398],[11.17708,47.32489]]}},{"type":"Feature","properties":{"kind":"piste","difficulty":"easy","name":null,"aerialway":null,"osm":"way/1352408478"},"geometry":{"type":"LineString","coordinates":[[11.17576,47.31281],[11.17562,47.31347]]}},{"type":"Feature","properties":{"kind":"piste","difficulty":"easy","name":null,"aerialway":null,"osm":"way/1352408479"},"geometry":{"type":"LineString","coordinates":[[11.16196,47.31101],[11.16258,47.31151]]}}]}