{"type":"FeatureCollection","features":[{"type":"Feature","properties":{"kind":"lift","difficulty":null,"name":"Ehrwalder Almbahn","aerialway":"gondola","osm":"way/25524994"},"geometry":{"type":"LineString","coordinates":[[10.93835,47.38734],[10.96775,47.38528]]}},{"type":"Feature","properties":{"kind":"lift","difficulty":null,"name":"Sonnenkar","aerialway":"chair_lift","osm":"way/30100450"},"geometry":{"type":"LineString","coordinates":[[10.99188,47.40992],[10.98151,47.41389]]}},{"type":"Feature","properties":{"kind":"lift","difficulty":null,"name":"Wetterwandeckbahn","aerialway":"chair_lift","osm":"way/30100452"},"geometry":{"type":"LineString","coordinates":[[10.9918,47.40909],[10.97652,47.40052]]}},{"type":"Feature","properties":{"kind":"piste","difficulty":"intermediate","name":"Brunntal","aerialway":null,"osm":"way/30100453"},"geometry":{"type":"LineString","coordinates":[[10.99165,47.40954],[10.99136,47.40898],[10.99193,47.40801],[10.9932,47.40657],[10.99302,47.40548],[10.99334,47.40504],[10.99381,47.405],[10.99558,47.40544],[10.99764,47.40663],[10.99862,47.40676],[11.00191,47.4064],[11.00495,47.40638],[11.00538,47.40653]]}},{"type":"Feature","properties":{"kind":"piste","difficulty":"easy","name":null,"aerialway":null,"osm":"way/48040590"},"geometry":{"type":"LineString","coordinates":[[10.97949,47.41296],[10.97958,47.41305]]}},{"type":"Feature","properties":{"kind":"lift","difficulty":null,"name":"Gaistal","aerialway":"chair_lift","osm":"way/51036445"},"geometry":{"type":"LineString","coordinates":[[10.98486,47.37545],[10.98788,47.38609]]}},{"type":"Feature","properties":{"kind":"piste","difficulty":"easy","name":"10-Issental","aerialway":null,"osm":"way/51036446"},"geometry":{"type":"LineString","coordinates":[[10.9879,47.38617],[10.98673,47.38594],[10.98662,47.38574],[10.98772,47.38399],[10.98902,47.38324],[10.98901,47.38294],[10.98797,47.38208],[10.98751,47.3809],[10.98687,47.38056],[10.98475,47.38115],[10.98394,47.38125],[10.98238,47.38055],[10.98173,47.38044],[10.98003,47.38052],[10.97944,47.38069],[10.97839,47.38187],[10.97658,47.38286],[10.97619,47.38319],[10.9721,47.38417]]}},{"type":"Feature","properties":{"kind":"lift","difficulty":null,"name":"Ganghofer Blitz","aerialway":"chair_lift","osm":"way/51036448"},"geometry":{"type":"LineString","coordinates":[[10.95243,47.38485],[10.97209,47.3903]]}},{"type":"Feature","properties":{"kind":"piste","difficulty":"intermediate","name":"9 - Mitte","aerialway":null,"osm":"way/51041007"},"geometry":{"type":"LineString","coordinates":[[10.98618,47.38569],[10.98712,47.38464],[10.98695,47.38353],[10.98654,47.38257],[10.98616,47.38214],[10.98578,47.38213]]}},{"type":"Feature","properties":{"kind":"piste","difficulty":"easy","name":"3 - Klämmli","aerialway":null,"osm":"way/51041009"},"geometry":{"type":"LineString","coordinates":[[10.97222,47.38995],[10.9728,47.39011],[10.97392,47.39018],[10.97443,47.38984],[10.97518,47.38892],[10.97532,47.38824],[10.97474,47.38698],[10.97236,47.38518],[10.96888,47.38465]]}},{"type":"Feature","properties":{"kind":"piste","difficulty":"advanced","name":"8-Panorama","aerialway":null,"osm":"way/100649258"},"geometry":{"type":"LineString","coordinates":[[10.98466,47.38698],[10.98452,47.38736],[10.98225,47.3883],[10.98096,47.3892],[10.97574,47.38956],[10.9754,47.38939],[10.97518,47.38892]]}},{"type":"Feature","properties":{"kind":"piste","difficulty":"easy","name":"3 - Klämmli (Almplatz)","aerialway":null,"osm":"way/100649266"},"geometry":{"type":"LineString","coordinates":[[10.9721,47.38417],[10.96888,47.38465]]}},{"type":"Feature","properties":{"kind":"piste","difficulty":"easy","name":"12 - Gaistal","aerialway":null,"osm":"way/100649268"},"geometry":{"type":"LineString","coordinates":[[10.99006,47.3844],[10.99159,47.3831],[10.99316,47.3805],[10.99295,47.37998],[10.99186,47.37905],[10.99136,47.37818],[10.98843,47.37751],[10.98788,47.37713],[10.9864,47.37687],[10.98546,47.37641],[10.98453,47.3755]]}},{"type":"Feature","properties":{"kind":"lift","difficulty":null,"name":"Forschungsbahn","aerialway":"cable_car","osm":"way/202969212"},"geometry":{"type":"LineString","coordinates":[[10.97978,47.41363],[10.979,47.41646]]}},{"type":"Feature","properties":{"kind":"lift","difficulty":null,"name":"Issentalkopf","aerialway":"chair_lift","osm":"way/276553259"},"geometry":{"type":"LineString","coordinates":[[10.96776,47.38296],[10.98429,47.38697]]}},{"type":"Feature","properties":{"kind":"piste","difficulty":"easy","name":"Weißes Tal","aerialway":null,"osm":"way/306460410"},"geometry":{"type":"LineString","coordinates":[[10.98128,47.41374],[10.98045,47.41284],[10.97911,47.4117],[10.9791,47.41152],[10.97952,47.41116],[10.98066,47.41112],[10.98293,47.41182],[10.98445,47.41197],[10.98647,47.41153],[10.98721,47.41085],[10.98778,47.41051],[10.99165,47.40954]]}},{"type":"Feature","properties":{"kind":"piste","difficulty":"intermediate","name":"Weißes Tal Süd","aerialway":null,"osm":"way/306460416"},"geometry":{"type":"LineString","coordinates":[[10.97514,47.41046],[10.97511,47.41029],[10.9754,47.41018],[10.97656,47.41018],[10.98169,47.40969],[10.98509,47.40905],[10.98653,47.40924],[10.98688,47.40955],[10.98717,47.41014],[10.98793,47.41046]]}},{"type":"Feature","properties":{"kind":"piste","difficulty":"intermediate","name":"Wetterwandeck Ost","aerialway":null,"osm":"way/317500351"},"geometry":{"type":"LineString","coordinates":[[10.97652,47.40052],[10.97628,47.40034],[10.97648,47.40017],[10.97703,47.40006],[10.9774,47.40013],[10.97801,47.40053],[10.97907,47.40171],[10.97958,47.40335]]}},{"type":"Feature","properties":{"kind":"piste","difficulty":"easy","name":"Wetterwandeck","aerialway":null,"osm":"way/317500352"},"geometry":{"type":"LineString","coordinates":[[10.97958,47.40335],[10.9834,47.40536],[10.98783,47.40641],[10.98843,47.40673],[10.98879,47.40709],[10.98929,47.40794],[10.99068,47.40862],[10.99165,47.40954]]}},{"type":"Feature","properties":{"kind":"piste","difficulty":"intermediate","name":"Sonnenkar","aerialway":null,"osm":"way/317501202"},"geometry":{"type":"LineString","coordinates":[[10.98151,47.41389],[10.98128,47.41374],[10.98171,47.41332],[10.98405,47.41242],[10.98601,47.4119]]}},{"type":"Feature","properties":{"kind":"piste","difficulty":"intermediate","name":"Aspen Run","aerialway":null,"osm":"way/317501203"},"geometry":{"type":"LineString","coordinates":[[10.98141,47.41368],[10.98204,47.41387],[10.98253,47.41446],[10.98297,47.41462],[10.98369,47.41455],[10.98651,47.41238],[10.98792,47.41179],[10.99007,47.41115],[10.99069,47.41024],[10.99125,47.40978]]}},{"type":"Feature","properties":{"kind":"piste","difficulty":"intermediate","name":"Weisses Tal","aerialway":null,"osm":"way/317501900"},"geometry":{"type":"LineString","coordinates":[[10.98601,47.4119],[10.98702,47.41154],[10.98853,47.41054],[10.99144,47.40972],[10.99165,47.40954]]}},{"type":"Feature","properties":{"kind":"piste","difficulty":"intermediate","name":null,"aerialway":null,"osm":"way/317559285"},"geometry":{"type":"LineString","coordinates":[[10.98469,47.4123],[10.98541,47.41315]]}},{"type":"Feature","properties":{"kind":"piste","difficulty":"intermediate","name":null,"aerialway":null,"osm":"way/317559286"},"geometry":{"type":"LineString","coordinates":[[10.99441,47.40898],[10.99339,47.40892],[10.99165,47.40954]]}},{"type":"Feature","properties":{"kind":"piste","difficulty":"intermediate","name":"Super-G","aerialway":null,"osm":"way/317559288"},"geometry":{"type":"LineString","coordinates":[[10.98711,47.40297],[10.99105,47.40433],[10.99274,47.4051],[10.99321,47.40509]]}},{"type":"Feature","properties":{"kind":"lift","difficulty":null,"name":"Brunntal","aerialway":"t-bar","osm":"way/317559289"},"geometry":{"type":"LineString","coordinates":[[11.00538,47.40653],[10.9927,47.40937]]}},{"type":"Feature","properties":{"kind":"piste","difficulty":"easy","name":null,"aerialway":null,"osm":"way/331277461"},"geometry":{"type":"LineString","coordinates":[[10.97236,47.38518],[10.97097,47.38511],[10.96984,47.38522]]}},{"type":"Feature","properties":{"kind":"piste","difficulty":"easy","name":null,"aerialway":null,"osm":"way/331277462"},"geometry":{"type":"LineString","coordinates":[[10.97413,47.38755],[10.97458,47.38727],[10.97474,47.38698]]}},{"type":"Feature","properties":{"kind":"lift","difficulty":null,"name":"Hochbrand","aerialway":"t-bar","osm":"way/331277463"},"geometry":{"type":"LineString","coordinates":[[10.96453,47.38544],[10.97134,47.38879],[10.97249,47.39031]]}},{"type":"Feature","properties":{"kind":"lift","difficulty":null,"name":"Klämmli","aerialway":"t-bar","osm":"way/331277464"},"geometry":{"type":"LineString","coordinates":[[10.96984,47.38522],[10.9747,47.38785]]}},{"type":"Feature","properties":{"kind":"piste","difficulty":"easy","name":"11 - Hochfeldern","aerialway":null,"osm":"way/405878141"},"geometry":{"type":"LineString","coordinates":[[10.98466,47.38698],[10.98774,47.38646],[10.99001,47.38623],[10.99028,47.38589],[10.99016,47.38467],[10.98914,47.3829],[10.98848,47.38209],[10.98845,47.38174],[10.98905,47.38117],[10.98946,47.38096],[10.99036,47.38067],[10.99222,47.38057],[10.99275,47.38044],[10.9928,47.38021],[10.99245,47.37984],[10.99105,47.37926],[10.98779,47.37905],[10.98564,47.37929],[10.98427,47.37998],[10.98207,47.38006],[10.97959,47.38064]]}},{"type":"Feature","properties":{"kind":"piste","difficulty":"easy","name":"10a-Klawing","aerialway":null,"osm":"way/405878799"},"geometry":{"type":"LineString","coordinates":[[10.97537,47.38344],[10.9737,47.38279],[10.97248,47.38301],[10.97091,47.38276],[10.96909,47.3834]]}},{"type":"Feature","properties":{"kind":"piste","difficulty":"easy","name":null,"aerialway":null,"osm":"way/490663529"},"geometry":{"type":"LineString","coordinates":[[10.98985,47.40999],[10.98983,47.40976]]}},{"type":"Feature","properties":{"kind":"piste","difficulty":"unknown","name":null,"aerialway":null,"osm":"way/685575985"},"geometry":{"type":"LineString","coordinates":[[10.93952,47.35097],[10.94025,47.35129],[10.94343,47.35198],[10.94592,47.35468],[10.94753,47.35521],[10.94931,47.35535],[10.95079,47.35566],[10.95238,47.35758],[10.95427,47.35898]]}},{"type":"Feature","properties":{"kind":"piste","difficulty":"unknown","name":null,"aerialway":null,"osm":"way/685575986"},"geometry":{"type":"LineString","coordinates":[[10.95756,47.36677],[10.95828,47.36715],[10.95736,47.36834],[10.95656,47.37001],[10.95759,47.37074],[10.95708,47.3713],[10.95718,47.37283],[10.95707,47.37436],[10.95728,47.37602]]}},{"type":"Feature","properties":{"kind":"lift","difficulty":null,"name":"Zugspitz-Gletscherbahn","aerialway":"cable_car","osm":"way/837978514"},"geometry":{"type":"LineString","coordinates":[[10.98003,47.41365],[10.9857,47.42099]]}},{"type":"Feature","properties":{"kind":"piste","difficulty":"easy","name":null,"aerialway":null,"osm":"way/1001671702"},"geometry":{"type":"LineString","coordinates":[[10.99165,47.40954],[10.99191,47.40915],[10.9918,47.40909]]}},{"type":"Feature","properties":{"kind":"piste","difficulty":"easy","name":null,"aerialway":null,"osm":"way/1001671703"},"geometry":{"type":"LineString","coordinates":[[10.99179,47.40968],[10.99199,47.40989],[10.99188,47.40992]]}},{"type":"Feature","properties":{"kind":"piste","difficulty":"easy","name":null,"aerialway":null,"osm":"way/1001671704"},"geometry":{"type":"LineString","coordinates":[[10.99165,47.40954],[10.99179,47.40968]]}},{"type":"Feature","properties":{"kind":"piste","difficulty":"easy","name":"Weißes Tal","aerialway":null,"osm":"way/1137822011"},"geometry":{"type":"LineString","coordinates":[[10.98136,47.41114],[10.97989,47.41098],[10.97931,47.41103],[10.97897,47.41128],[10.97885,47.41155],[10.97923,47.41201],[10.9805,47.41296],[10.98046,47.41321],[10.98107,47.41335],[10.98119,47.41315],[10.98003,47.41246],[10.97916,47.41168],[10.97924,47.41146],[10.97946,47.41133],[10.9806,47.41131],[10.98335,47.41205],[10.98474,47.41207],[10.98656,47.41161],[10.98846,47.41049],[10.99206,47.40951],[10.99189,47.40938],[10.99115,47.40949],[10.99023,47.40984],[10.98823,47.41032],[10.98763,47.41032],[10.98662,47.41137],[10.9853,47.41175],[10.98296,47.4117],[10.98136,47.41114]]}},{"type":"Feature","properties":{"kind":"piste","difficulty":"intermediate","name":"Weißes Tal Süd","aerialway":null,"osm":"way/1137822014"},"geometry":{"type":"LineString","coordinates":[[10.97503,47.41027],[10.97561,47.41012],[10.97629,47.41015],[10.98199,47.40952],[10.98511,47.4089],[10.98665,47.40913],[10.98706,47.40947],[10.98763,47.41032],[10.98731,47.41057],[10.98681,47.40971],[10.98542,47.40912],[10.98189,47.40989],[10.97993,47.40991],[10.97505,47.41044],[10.97503,47.41027]]}},{"type":"Feature","properties":{"kind":"piste","difficulty":"easy","name":"Wetterwandeck","aerialway":null,"osm":"way/1137822015"},"geometry":{"type":"LineString","coordinates":[[10.97979,47.40324],[10.983,47.40501],[10.98581,47.40581],[10.98667,47.40584],[10.98855,47.40655],[10.98919,47.40701],[10.98938,47.40769],[10.98969,47.40799],[10.99128,47.40876],[10.99189,47.40938],[10.99115,47.40949],[10.99055,47.40863],[10.98903,47.40803],[10.98869,47.40769],[10.98844,47.4069],[10.98769,47.40643],[10.98711,47.40629],[10.98615,47.40629],[10.98509,47.40579],[10.98396,47.40566],[10.98218,47.40505],[10.97961,47.40352],[10.97979,47.40324]]}},{"type":"Feature","properties":{"kind":"piste","difficulty":"intermediate","name":"Aspen Run","aerialway":null,"osm":"way/1137822016"},"geometry":{"type":"LineString","coordinates":[[10.98222,47.41415],[10.98227,47.41444],[10.983,47.41477],[10.98414,47.41468],[10.98629,47.41304],[10.98678,47.41243],[10.98889,47.41157],[10.99015,47.41131],[10.99037,47.41116],[10.99066,47.41055],[10.99111,47.41],[10.99211,47.40961],[10.99046,47.41014],[10.99003,47.41059],[10.98987,47.41114],[10.98854,47.41141],[10.98622,47.41229],[10.98516,47.41282],[10.98307,47.41446],[10.98272,47.41439],[10.98202,47.41378],[10.98157,47.41365],[10.98193,47.41382],[10.98222,47.41415]]}},{"type":"Feature","properties":{"kind":"piste","difficulty":"intermediate","name":"Sonnenkar","aerialway":null,"osm":"way/1137822017"},"geometry":{"type":"LineString","coordinates":[[10.99038,47.40996],[10.99206,47.40951],[10.99211,47.40961],[10.98847,47.41084],[10.98702,47.41164],[10.98388,47.41267],[10.98194,47.41356],[10.98152,47.41361],[10.98107,47.41335],[10.98119,47.41315],[10.98301,47.41264],[10.98392,47.41209],[10.98474,47.41207],[10.98656,47.41161],[10.98846,47.41049],[10.99038,47.40996]]}},{"type":"Feature","properties":{"kind":"piste","difficulty":"easy","name":"Wetterwandeck West","aerialway":null,"osm":"way/1147651176"},"geometry":{"type":"LineString","coordinates":[[10.97979,47.40324],[10.97961,47.40352],[10.97825,47.40295],[10.97741,47.40241],[10.976,47.40185],[10.97575,47.40162],[10.97547,47.40098],[10.97575,47.4003],[10.97601,47.40017],[10.97628,47.40044],[10.976,47.40068],[10.97608,47.40111],[10.97629,47.40143],[10.97979,47.40324]]}},{"type":"Feature","properties":{"kind":"piste","difficulty":"easy","name":"Wetterwandeck West","aerialway":null,"osm":"way/1147651177"},"geometry":{"type":"LineString","coordinates":[[10.97628,47.40034],[10.97589,47.40057],[10.97579,47.40117],[10.97594,47.40138],[10.97671,47.4019],[10.97958,47.40335]]}},{"type":"Feature","properties":{"kind":"piste","difficulty":"intermediate","name":"Brunntal","aerialway":null,"osm":"way/1147651181"},"geometry":{"type":"LineString","coordinates":[[10.99307,47.40497],[10.99354,47.40488],[10.99528,47.40521],[10.99731,47.40641],[10.99806,47.40665],[10.9988,47.40671],[11.0023,47.40625],[11.00522,47.40628],[11.00543,47.4065],[11.00217,47.40648],[10.99935,47.40686],[10.99862,47.40685],[10.99776,47.40673],[10.99702,47.40646],[10.99557,47.40557],[10.99481,47.40528],[10.99329,47.40514],[10.99317,47.40523],[10.99311,47.40575],[10.99328,47.40659],[10.99198,47.40811],[10.9915,47.4089],[10.99128,47.40876],[10.99308,47.4065],[10.99291,47.4058],[10.99307,47.40497]]}},{"type":"Feature","properties":{"kind":"piste","difficulty":"intermediate","name":"Super-G","aerialway":null,"osm":"way/1147651182"},"geometry":{"type":"LineString","coordinates":[[10.98814,47.40325],[10.98939,47.40316],[10.9911,47.40402],[10.99127,47.40422],[10.99026,47.40394],[10.98954,47.40338],[10.98846,47.40341],[10.98814,47.40325]]}},{"type":"Feature","properties":{"kind":"piste","difficulty":"intermediate","name":"Super-G","aerialway":null,"osm":"way/1147651183"},"geometry":{"type":"LineString","coordinates":[[10.99295,47.40529],[10.99307,47.40497],[10.99208,47.40467],[10.99127,47.40422],[10.98859,47.40346],[10.98739,47.40294],[10.98725,47.40312],[10.99051,47.40422],[10.99295,47.40529]]}},{"type":"Feature","properties":{"kind":"piste","difficulty":"intermediate","name":"Super-G","aerialway":null,"osm":"way/1147651185"},"geometry":{"type":"LineString","coordinates":[[10.98819,47.40336],[10.98953,47.40328],[10.99126,47.40442]]}},{"type":"Feature","properties":{"kind":"piste","difficulty":"intermediate","name":"Panoramaabfahrt","aerialway":null,"osm":"way/1147651186"},"geometry":{"type":"LineString","coordinates":[[10.97884,47.40098],[10.98021,47.40136],[10.98191,47.40142],[10.98503,47.40189],[10.98739,47.40294],[10.98725,47.40312],[10.98503,47.40221],[10.98428,47.40202],[10.98229,47.40173],[10.97993,47.4016],[10.97904,47.40135],[10.97884,47.40098]]}},{"type":"Feature","properties":{"kind":"piste","difficulty":"intermediate","name":"Panoramaabfahrt","aerialway":null,"osm":"way/1147651187"},"geometry":{"type":"LineString","coordinates":[[10.97865,47.40115],[10.98005,47.40149],[10.98151,47.40154],[10.98478,47.40194],[10.98711,47.40297],[10.98765,47.40385],[10.98767,47.40413],[10.98725,47.40545],[10.98739,47.40627]]}},{"type":"Feature","properties":{"kind":"piste","difficulty":"intermediate","name":"Wetterwandeck Ost","aerialway":null,"osm":"way/1147651188"},"geometry":{"type":"LineString","coordinates":[[10.97923,47.40282],[10.97869,47.40156],[10.97783,47.40067],[10.9771,47.40026],[10.97628,47.40044],[10.97601,47.40017],[10.9766,47.39999],[10.9774,47.4],[10.97788,47.40015],[10.97831,47.40046],[10.97884,47.40098],[10.97977,47.40302],[10.97979,47.40324],[10.97923,47.40294],[10.97923,47.40282]]}},{"type":"Feature","properties":{"kind":"piste","difficulty":"easy","name":"Klämmli-Abfahrt","aerialway":null,"osm":"way/1236583981"},"geometry":{"type":"LineString","coordinates":[[10.97209,47.3903],[10.9723,47.39035],[10.9728,47.39011]]}},{"type":"Feature","properties":{"kind":"piste","difficulty":"intermediate","name":"5 - Hochbrand","aerialway":null,"osm":"way/1350336801"},"geometry":{"type":"LineString","coordinates":[[10.9723,47.39044],[10.97137,47.39108],[10.97059,47.39097],[10.96888,47.38916],[10.96754,47.38837],[10.96448,47.38758]]}},{"type":"Feature","properties":{"kind":"piste","difficulty":"intermediate","name":"4 - Jägerhütte","aerialway":null,"osm":"way/1350336802"},"geometry":{"type":"LineString","coordinates":[[10.96448,47.38758],[10.96379,47.38723],[10.96143,47.38727],[10.96052,47.38717],[10.95642,47.38617],[10.95431,47.38478]]}},{"type":"Feature","properties":{"kind":"piste","difficulty":"easy","name":"2b - Bordercross/Ganghofer","aerialway":null,"osm":"way/1350336803"},"geometry":{"type":"LineString","coordinates":[[10.95863,47.38463],[10.95775,47.38499],[10.95699,47.38505],[10.95431,47.38478]]}},{"type":"Feature","properties":{"kind":"piste","difficulty":"easy","name":"2 - Ganghofer","aerialway":null,"osm":"way/1350336804"},"geometry":{"type":"LineString","coordinates":[[10.96888,47.38465],[10.96713,47.38463],[10.96603,47.38507],[10.96258,47.38525],[10.96226,47.38535],[10.96219,47.38608],[10.962,47.38616],[10.96099,47.3858],[10.96042,47.38535],[10.95918,47.38476],[10.95752,47.38424],[10.95576,47.3844],[10.95431,47.38478],[10.95216,47.3845]]}},{"type":"Feature","properties":{"kind":"piste","difficulty":"intermediate","name":"7 - Rennstrecke","aerialway":null,"osm":"way/1350336805"},"geometry":{"type":"LineString","coordinates":[[10.97222,47.38995],[10.97249,47.38984],[10.97195,47.38915],[10.97171,47.38857],[10.97017,47.38729],[10.96849,47.3864],[10.96689,47.38616],[10.96438,47.38518]]}},{"type":"Feature","properties":{"kind":"piste","difficulty":"intermediate","name":"2a -Steilhang/Ganghofer","aerialway":null,"osm":"way/1350336806"},"geometry":{"type":"LineString","coordinates":[[10.96258,47.38525],[10.96214,47.38512],[10.96029,47.38529]]}},{"type":"Feature","properties":{"kind":"piste","difficulty":"easy","name":"1 - Talabfahrt","aerialway":null,"osm":"way/1350336807"},"geometry":{"type":"LineString","coordinates":[[10.95216,47.3845],[10.95116,47.38437],[10.9488,47.38453],[10.94759,47.38522],[10.94383,47.38541],[10.94277,47.38564],[10.94171,47.38563],[10.9406,47.38607],[10.93865,47.38718]]}},{"type":"Feature","properties":{"kind":"piste","difficulty":"unknown","name":"10-Abzweiger unter Gaistallift","aerialway":null,"osm":"way/1351554646"},"geometry":{"type":"LineString","coordinates":[[10.98788,47.38185],[10.98675,47.3818],[10.98616,47.38214],[10.98633,47.3819],[10.98637,47.38143],[10.98684,47.38077],[10.98679,47.38057]]}},{"type":"Feature","properties":{"kind":"piste","difficulty":"intermediate","name":"9 - Illegale","aerialway":null,"osm":"way/1351554647"},"geometry":{"type":"LineString","coordinates":[[10.98578,47.38213],[10.98394,47.38125]]}},{"type":"Feature","properties":{"kind":"piste","difficulty":"intermediate","name":"9 - Steilhang","aerialway":null,"osm":"way/1351554648"},"geometry":{"type":"LineString","coordinates":[[10.98466,47.38698],[10.98551,47.38643],[10.98618,47.38569]]}},{"type":"Feature","properties":{"kind":"piste","difficulty":"unknown","name":"3 - Klämmli (zum Issental)","aerialway":null,"osm":"way/1351554649"},"geometry":{"type":"LineString","coordinates":[[10.97236,47.38518],[10.97129,47.38401],[10.96751,47.38305]]}},{"type":"Feature","properties":{"kind":"piste","difficulty":"intermediate","name":"11a - Bielers Hang","aerialway":null,"osm":"way/1351554650"},"geometry":{"type":"LineString","coordinates":[[10.98785,47.38177],[10.98954,47.38063],[10.98966,47.38019],[10.98965,47.37775]]}},{"type":"Feature","properties":{"kind":"piste","difficulty":"easy","name":"11 - Umfahrung (Gaistalberg)","aerialway":null,"osm":"way/1351554651"},"geometry":{"type":"LineString","coordinates":[[10.98835,47.38642],[10.98818,47.38667],[10.98679,47.38742],[10.98899,47.38682],[10.98981,47.38628]]}},{"type":"Feature","properties":{"kind":"piste","difficulty":"intermediate","name":"13 - Böhmig","aerialway":null,"osm":"way/1351554652"},"geometry":{"type":"LineString","coordinates":[[10.9879,47.38617],[10.98866,47.38604],[10.98982,47.38536]]}},{"type":"Feature","properties":{"kind":"piste","difficulty":"unknown","name":"Ziehweg von 11/13 auf 10","aerialway":null,"osm":"way/1351554653"},"geometry":{"type":"LineString","coordinates":[[10.99026,47.38577],[10.98962,47.38517],[10.98862,47.38485],[10.98772,47.38399]]}},{"type":"Feature","properties":{"kind":"piste","difficulty":"unknown","name":null,"aerialway":null,"osm":"way/1468460659"},"geometry":{"type":"LineString","coordinates":[[10.95744,47.36641],[10.95756,47.36677]]}},{"type":"Feature","properties":{"kind":"piste","difficulty":"advanced","name":null,"aerialway":null,"osm":"way/1468684798"},"geometry":{"type":"LineString","coordinates":[[11.01651,47.39636],[11.01523,47.3974],[11.01129,47.39835],[11.00703,47.40417],[11.00744,47.40564],[11.00688,47.40616],[11.0059,47.40658],[11.00538,47.40653]]}}]}