{"type":"FeatureCollection","features":[{"type":"Feature","properties":{"kind":"lift","difficulty":null,"name":"Skilift Zederhaus","aerialway":"drag_lift","osm":"way/197170840"},"geometry":{"type":"LineString","coordinates":[[13.48294,47.15956],[13.48055,47.15803]]}},{"type":"Feature","properties":{"kind":"piste","difficulty":"easy","name":null,"aerialway":null,"osm":"way/431037531"},"geometry":{"type":"LineString","coordinates":[[13.48055,47.15803],[13.48061,47.15835],[13.48133,47.15868],[13.48267,47.1597],[13.48294,47.1597],[13.48294,47.15956]]}}]}