{"type":"FeatureCollection","features":[{"type":"Feature","properties":{"kind":"lift","difficulty":null,"name":"Dorfberglift","aerialway":"t-bar","osm":"way/257933066"},"geometry":{"type":"LineString","coordinates":[[12.48177,46.73744],[12.50712,46.73358]]}},{"type":"Feature","properties":{"kind":"piste","difficulty":"intermediate","name":null,"aerialway":null,"osm":"way/257933921"},"geometry":{"type":"LineString","coordinates":[[12.50668,46.73365],[12.50533,46.73434],[12.50234,46.73474],[12.49839,46.73558],[12.49485,46.73609],[12.49364,46.73609],[12.48931,46.73652],[12.4833,46.73746],[12.48207,46.73758],[12.48182,46.73743]]}},{"type":"Feature","properties":{"kind":"piste","difficulty":"intermediate","name":null,"aerialway":null,"osm":"way/257933922"},"geometry":{"type":"LineString","coordinates":[[12.49094,46.73765],[12.49213,46.73783],[12.49306,46.73773],[12.49151,46.7369],[12.49138,46.73629],[12.49131,46.7369],[12.49091,46.73722],[12.49102,46.73757],[12.49094,46.73765],[12.4902,46.7375],[12.4893,46.73755],[12.48897,46.7377],[12.48758,46.73769],[12.48543,46.73711]]}},{"type":"Feature","properties":{"kind":"piste","difficulty":"intermediate","name":null,"aerialway":null,"osm":"way/257933923"},"geometry":{"type":"LineString","coordinates":[[12.50256,46.73471],[12.50113,46.73528],[12.50062,46.73538],[12.49963,46.73529]]}},{"type":"Feature","properties":{"kind":"piste","difficulty":"easy","name":null,"aerialway":null,"osm":"way/257933924"},"geometry":{"type":"LineString","coordinates":[[12.49055,46.73756],[12.48758,46.73769],[12.48654,46.73744],[12.48487,46.73728],[12.4833,46.73746]]}},{"type":"Feature","properties":{"kind":"lift","difficulty":null,"name":"Kanterlift","aerialway":"platter","osm":"way/258732776"},"geometry":{"type":"LineString","coordinates":[[12.49161,46.72621],[12.49025,46.7223]]}},{"type":"Feature","properties":{"kind":"lift","difficulty":null,"name":null,"aerialway":"magic_carpet","osm":"way/338902951"},"geometry":{"type":"LineString","coordinates":[[12.48209,46.73714],[12.48241,46.73702]]}},{"type":"Feature","properties":{"kind":"piste","difficulty":"easy","name":null,"aerialway":null,"osm":"way/781537646"},"geometry":{"type":"LineString","coordinates":[[12.49039,46.72273],[12.49091,46.72332],[12.49114,46.72392],[12.4918,46.7259],[12.49161,46.72621]]}}]}