{"type":"FeatureCollection","features":[{"type":"Feature","properties":{"kind":"lift","difficulty":null,"name":"Nagelköpfl","aerialway":"t-bar","osm":"way/462969520"},"geometry":{"type":"LineString","coordinates":[[12.68351,47.29118],[12.6683,47.28971]]}},{"type":"Feature","properties":{"kind":"lift","difficulty":null,"name":null,"aerialway":"rope_tow","osm":"way/462969521"},"geometry":{"type":"LineString","coordinates":[[12.68312,47.2914],[12.6797,47.2923]]}},{"type":"Feature","properties":{"kind":"lift","difficulty":null,"name":null,"aerialway":"rope_tow","osm":"way/462969522"},"geometry":{"type":"LineString","coordinates":[[12.68313,47.29144],[12.67974,47.29234]]}},{"type":"Feature","properties":{"kind":"piste","difficulty":"intermediate","name":null,"aerialway":null,"osm":"way/1073421224"},"geometry":{"type":"LineString","coordinates":[[12.66886,47.28976],[12.669,47.28994],[12.66968,47.29008],[12.67224,47.29023],[12.68229,47.29123],[12.68351,47.29118]]}},{"type":"Feature","properties":{"kind":"piste","difficulty":"novice","name":null,"aerialway":null,"osm":"way/1073421225"},"geometry":{"type":"LineString","coordinates":[[12.6797,47.2923],[12.68136,47.29169],[12.68312,47.2914]]}},{"type":"Feature","properties":{"kind":"piste","difficulty":"novice","name":null,"aerialway":null,"osm":"way/1073421226"},"geometry":{"type":"LineString","coordinates":[[12.67974,47.29234],[12.6814,47.29211],[12.68313,47.29144]]}}]}