{"type":"FeatureCollection","features":[{"type":"Feature","properties":{"kind":"lift","difficulty":null,"name":"Zirbenjet","aerialway":"chair_lift","osm":"way/33174066"},"geometry":{"type":"LineString","coordinates":[[13.67343,47.17581],[13.66019,47.17431]]}},{"type":"Feature","properties":{"kind":"lift","difficulty":null,"name":"Samson-Sesselbahn","aerialway":"chair_lift","osm":"way/33197854"},"geometry":{"type":"LineString","coordinates":[[13.69345,47.16929],[13.66669,47.16687]]}},{"type":"Feature","properties":{"kind":"lift","difficulty":null,"name":"Lift I","aerialway":"drag_lift","osm":"way/33197855"},"geometry":{"type":"LineString","coordinates":[[13.69318,47.16809],[13.68637,47.16669]]}},{"type":"Feature","properties":{"kind":"piste","difficulty":"easy","name":"Liebestal Abfahrt","aerialway":null,"osm":"way/33197857"},"geometry":{"type":"LineString","coordinates":[[13.66019,47.17431],[13.66,47.17419],[13.66157,47.17388],[13.66293,47.17263],[13.66374,47.17236],[13.66496,47.17156],[13.66539,47.17115],[13.66565,47.17051],[13.66662,47.17044],[13.66756,47.16999],[13.66882,47.16967],[13.67064,47.16945],[13.67184,47.16953],[13.67219,47.16938],[13.67331,47.16929],[13.67363,47.1695]]}},{"type":"Feature","properties":{"kind":"piste","difficulty":"easy","name":null,"aerialway":null,"osm":"way/33197859"},"geometry":{"type":"LineString","coordinates":[[13.66669,47.16707],[13.66778,47.16756],[13.6703,47.16833],[13.67219,47.16938]]}},{"type":"Feature","properties":{"kind":"piste","difficulty":"advanced","name":"Rader Steilhang","aerialway":null,"osm":"way/33197863"},"geometry":{"type":"LineString","coordinates":[[13.66662,47.17044],[13.66896,47.17141],[13.6711,47.17261]]}},{"type":"Feature","properties":{"kind":"piste","difficulty":"easy","name":null,"aerialway":null,"osm":"way/33197868"},"geometry":{"type":"LineString","coordinates":[[13.6703,47.16833],[13.67336,47.16841]]}},{"type":"Feature","properties":{"kind":"piste","difficulty":"easy","name":null,"aerialway":null,"osm":"way/33197870"},"geometry":{"type":"LineString","coordinates":[[13.66669,47.16707],[13.66781,47.16798],[13.66798,47.16826],[13.66686,47.17031]]}},{"type":"Feature","properties":{"kind":"piste","difficulty":"advanced","name":"Weißpriacher Hang","aerialway":null,"osm":"way/33197872"},"geometry":{"type":"LineString","coordinates":[[13.66019,47.17431],[13.65996,47.17437],[13.66021,47.17489],[13.66081,47.17527],[13.66207,47.17546],[13.66285,47.17548],[13.66486,47.17512],[13.66605,47.17447],[13.66811,47.17449],[13.66984,47.174],[13.67103,47.17424],[13.67185,47.17422],[13.67265,47.17465]]}},{"type":"Feature","properties":{"kind":"piste","difficulty":"advanced","name":null,"aerialway":null,"osm":"way/33197874"},"geometry":{"type":"LineString","coordinates":[[13.66984,47.174],[13.67026,47.17356],[13.67137,47.1729]]}},{"type":"Feature","properties":{"kind":"piste","difficulty":"intermediate","name":"Hiasla Abfahrt","aerialway":null,"osm":"way/33197877"},"geometry":{"type":"LineString","coordinates":[[13.67819,47.16606],[13.67951,47.16541],[13.68164,47.16527],[13.68543,47.1655]]}},{"type":"Feature","properties":{"kind":"piste","difficulty":"easy","name":"Moserkopfabfahrt","aerialway":null,"osm":"way/33197879"},"geometry":{"type":"LineString","coordinates":[[13.66669,47.16687],[13.66663,47.16677],[13.66712,47.16649],[13.66811,47.16526],[13.66891,47.16219],[13.66919,47.16188],[13.67112,47.16078],[13.67208,47.15996],[13.67269,47.15927],[13.67372,47.15736],[13.67541,47.15777],[13.67651,47.15837],[13.67689,47.15908],[13.67691,47.15997],[13.67662,47.16038],[13.67659,47.16071],[13.67677,47.16094],[13.67776,47.16126],[13.68067,47.16315],[13.68337,47.16375],[13.68505,47.16505],[13.68543,47.1655],[13.68682,47.16568],[13.68886,47.16528],[13.68951,47.16535],[13.6924,47.16649],[13.69341,47.16784],[13.6934,47.16836],[13.69363,47.16923],[13.69345,47.16929]]}},{"type":"Feature","properties":{"kind":"piste","difficulty":"easy","name":null,"aerialway":null,"osm":"way/33197882"},"geometry":{"type":"LineString","coordinates":[[13.68673,47.16765],[13.68711,47.16729],[13.68716,47.16672],[13.68791,47.16677]]}},{"type":"Feature","properties":{"kind":"piste","difficulty":"easy","name":null,"aerialway":null,"osm":"way/33197885"},"geometry":{"type":"LineString","coordinates":[[13.69079,47.16955],[13.69318,47.16873],[13.69329,47.16862],[13.69325,47.16826]]}},{"type":"Feature","properties":{"kind":"piste","difficulty":"easy","name":"Familienabfahrt","aerialway":null,"osm":"way/33197887"},"geometry":{"type":"LineString","coordinates":[[13.66669,47.16687],[13.66659,47.1669],[13.66669,47.16707],[13.66834,47.16746],[13.67109,47.1677],[13.67219,47.16817],[13.67336,47.16841],[13.67359,47.169],[13.67363,47.1695],[13.67316,47.17028],[13.67195,47.17116],[13.67125,47.17189],[13.67108,47.17226],[13.6711,47.17261],[13.67137,47.1729],[13.67362,47.17319],[13.67517,47.17318],[13.67707,47.17296],[13.6809,47.17231],[13.68346,47.17106],[13.68403,47.17065],[13.68434,47.17021],[13.68538,47.16951],[13.6862,47.16935],[13.68765,47.1693],[13.69197,47.16972],[13.69333,47.16956],[13.69359,47.16943],[13.69345,47.16929]]}},{"type":"Feature","properties":{"kind":"piste","difficulty":"easy","name":null,"aerialway":null,"osm":"way/33197891"},"geometry":{"type":"LineString","coordinates":[[13.66,47.17419],[13.66133,47.17341],[13.66151,47.17311],[13.66217,47.17262],[13.66359,47.1712],[13.66383,47.1708],[13.6639,47.1702],[13.66424,47.16983],[13.66532,47.16916],[13.66587,47.16845],[13.66622,47.1674],[13.66669,47.16707]]}},{"type":"Feature","properties":{"kind":"piste","difficulty":"intermediate","name":"Schmiedabfahrt","aerialway":null,"osm":"way/33197895"},"geometry":{"type":"LineString","coordinates":[[13.66674,47.16672],[13.66813,47.16641],[13.67181,47.1663],[13.6736,47.1658],[13.67564,47.1658],[13.68238,47.16647],[13.68673,47.16765],[13.69254,47.16896]]}},{"type":"Feature","properties":{"kind":"piste","difficulty":"advanced","name":"Stöffei Steilhang","aerialway":null,"osm":"way/33197899"},"geometry":{"type":"LineString","coordinates":[[13.67336,47.16841],[13.67548,47.16874],[13.67784,47.16882],[13.67846,47.16896],[13.67967,47.16972],[13.68034,47.16991],[13.68186,47.16965],[13.68358,47.16978],[13.68538,47.16951]]}},{"type":"Feature","properties":{"kind":"piste","difficulty":"easy","name":"Übungspiste I","aerialway":null,"osm":"way/33197901"},"geometry":{"type":"LineString","coordinates":[[13.68682,47.16568],[13.68791,47.16677],[13.69292,47.16711]]}},{"type":"Feature","properties":{"kind":"piste","difficulty":"easy","name":null,"aerialway":null,"osm":"way/33197909"},"geometry":{"type":"LineString","coordinates":[[13.67137,47.1729],[13.67265,47.17465],[13.67363,47.17569],[13.67361,47.17587],[13.67343,47.17581]]}},{"type":"Feature","properties":{"kind":"piste","difficulty":"easy","name":null,"aerialway":null,"osm":"way/33262905"},"geometry":{"type":"LineString","coordinates":[[13.6934,47.16836],[13.69318,47.16809]]}},{"type":"Feature","properties":{"kind":"piste","difficulty":"easy","name":null,"aerialway":null,"osm":"way/33262906"},"geometry":{"type":"LineString","coordinates":[[13.68724,47.16684],[13.68716,47.16672]]}},{"type":"Feature","properties":{"kind":"piste","difficulty":"easy","name":null,"aerialway":null,"osm":"way/49678453"},"geometry":{"type":"LineString","coordinates":[[13.67278,47.17481],[13.67351,47.17381],[13.67362,47.17319]]}},{"type":"Feature","properties":{"kind":"piste","difficulty":"expert","name":"Mausefalle","aerialway":null,"osm":"way/49679161"},"geometry":{"type":"LineString","coordinates":[[13.66269,47.17284],[13.66484,47.1728],[13.66591,47.17304],[13.66731,47.17297],[13.6674,47.1731],[13.66725,47.17346],[13.66815,47.17399],[13.669,47.17415],[13.66984,47.174]]}},{"type":"Feature","properties":{"kind":"piste","difficulty":"advanced","name":"Hainerer-Steilhang","aerialway":null,"osm":"way/49679163"},"geometry":{"type":"LineString","coordinates":[[13.66829,47.16457],[13.6686,47.16425],[13.669,47.16412],[13.67059,47.16415],[13.67175,47.16319],[13.67233,47.16228],[13.6727,47.16207],[13.67476,47.16147],[13.67571,47.16136],[13.67677,47.16094]]}},{"type":"Feature","properties":{"kind":"piste","difficulty":"easy","name":null,"aerialway":null,"osm":"way/49679165"},"geometry":{"type":"LineString","coordinates":[[13.67278,47.1591],[13.67269,47.15877],[13.67224,47.15817],[13.67106,47.15764],[13.66991,47.1576],[13.66982,47.15742],[13.66996,47.15735]]}},{"type":"Feature","properties":{"kind":"piste","difficulty":"easy","name":null,"aerialway":null,"osm":"way/49679922"},"geometry":{"type":"LineString","coordinates":[[13.67181,47.1663],[13.67229,47.16653],[13.67261,47.1673],[13.67336,47.16841]]}},{"type":"Feature","properties":{"kind":"piste","difficulty":"easy","name":null,"aerialway":null,"osm":"way/49679923"},"geometry":{"type":"LineString","coordinates":[[13.68538,47.16951],[13.68599,47.16864],[13.68601,47.1679],[13.68673,47.16765]]}},{"type":"Feature","properties":{"kind":"lift","difficulty":null,"name":"Moserkopflift","aerialway":"t-bar","osm":"way/150504180"},"geometry":{"type":"LineString","coordinates":[[13.67642,47.14989],[13.66976,47.15788]]}},{"type":"Feature","properties":{"kind":"piste","difficulty":"easy","name":"Moserkopf Familienabfahrt","aerialway":null,"osm":"way/150504183"},"geometry":{"type":"LineString","coordinates":[[13.67003,47.15754],[13.66996,47.15735],[13.67023,47.15691],[13.66963,47.1565],[13.66905,47.15558],[13.66864,47.15521],[13.66874,47.15467],[13.66898,47.15435],[13.66869,47.15302],[13.66918,47.15174],[13.66976,47.1513],[13.67044,47.15116],[13.6731,47.15171],[13.67497,47.15058],[13.67506,47.15034],[13.67595,47.14976],[13.67642,47.14989]]}},{"type":"Feature","properties":{"kind":"piste","difficulty":"easy","name":null,"aerialway":null,"osm":"way/150504186"},"geometry":{"type":"LineString","coordinates":[[13.67003,47.15754],[13.6718,47.15727],[13.67372,47.15736]]}},{"type":"Feature","properties":{"kind":"piste","difficulty":"intermediate","name":null,"aerialway":null,"osm":"way/151066376"},"geometry":{"type":"LineString","coordinates":[[13.67318,47.15825],[13.67282,47.15794],[13.67322,47.15728],[13.67289,47.15656],[13.67169,47.15542],[13.67152,47.15503]]}},{"type":"Feature","properties":{"kind":"piste","difficulty":"intermediate","name":"Langwiesenabfahrt","aerialway":null,"osm":"way/151066377"},"geometry":{"type":"LineString","coordinates":[[13.67023,47.15691],[13.67076,47.15615],[13.67091,47.15562],[13.67152,47.15503],[13.6715,47.15438],[13.67305,47.15371],[13.67391,47.15201],[13.6741,47.15116]]}},{"type":"Feature","properties":{"kind":"piste","difficulty":"easy","name":null,"aerialway":null,"osm":"way/151238157"},"geometry":{"type":"LineString","coordinates":[[13.66996,47.15735],[13.67028,47.15752]]}},{"type":"Feature","properties":{"kind":"piste","difficulty":"easy","name":null,"aerialway":null,"osm":"way/151725071"},"geometry":{"type":"LineString","coordinates":[[13.69254,47.16896],[13.69314,47.16897],[13.6936,47.16914]]}},{"type":"Feature","properties":{"kind":"lift","difficulty":null,"name":"Lift II","aerialway":"drag_lift","osm":"way/198220443"},"geometry":{"type":"LineString","coordinates":[[13.69319,47.16805],[13.68641,47.16667]]}},{"type":"Feature","properties":{"kind":"piste","difficulty":"easy","name":"Weißpriacher Hang","aerialway":null,"osm":"way/405312812"},"geometry":{"type":"LineString","coordinates":[[13.66811,47.17449],[13.66834,47.17478],[13.66923,47.17513],[13.67363,47.17569]]}},{"type":"Feature","properties":{"kind":"piste","difficulty":"easy","name":"Übungspiste V","aerialway":null,"osm":"way/405313033"},"geometry":{"type":"LineString","coordinates":[[13.68706,47.16697],[13.69325,47.16826]]}},{"type":"Feature","properties":{"kind":"piste","difficulty":"easy","name":"Übungspiste V","aerialway":null,"osm":"way/1053039615"},"geometry":{"type":"LineString","coordinates":[[13.68723,47.16687],[13.68717,47.16699]]}},{"type":"Feature","properties":{"kind":"piste","difficulty":"easy","name":null,"aerialway":null,"osm":"way/1138982082"},"geometry":{"type":"LineString","coordinates":[[13.69341,47.16784],[13.69475,47.16757],[13.69507,47.16776]]}},{"type":"Feature","properties":{"kind":"piste","difficulty":"easy","name":null,"aerialway":null,"osm":"way/1369737328"},"geometry":{"type":"LineString","coordinates":[[13.66359,47.1712],[13.66429,47.17081],[13.66565,47.17051]]}},{"type":"Feature","properties":{"kind":"piste","difficulty":"advanced","name":null,"aerialway":null,"osm":"way/1370268095"},"geometry":{"type":"LineString","coordinates":[[13.66686,47.17031],[13.66716,47.17063]]}}]}