{"type":"FeatureCollection","features":[{"type":"Feature","properties":{"kind":"lift","difficulty":null,"name":"Brandachfeldlift","aerialway":"platter","osm":"way/61492406"},"geometry":{"type":"LineString","coordinates":[[11.02565,47.07038],[11.03017,47.07182]]}},{"type":"Feature","properties":{"kind":"piste","difficulty":"novice","name":null,"aerialway":null,"osm":"way/201610148"},"geometry":{"type":"LineString","coordinates":[[11.02998,47.07176],[11.02958,47.07142],[11.02684,47.0705],[11.02565,47.07038]]}},{"type":"Feature","properties":{"kind":"lift","difficulty":null,"name":null,"aerialway":"rope_tow","osm":"way/467455723"},"geometry":{"type":"LineString","coordinates":[[11.02741,47.06982],[11.0278,47.07011]]}}]}