{"type":"FeatureCollection","features":[{"type":"Feature","properties":{"kind":"lift","difficulty":null,"name":"Fantasticlift","aerialway":"drag_lift","osm":"way/146957533"},"geometry":{"type":"LineString","coordinates":[[14.78734,48.65371],[14.78497,48.65426]]}},{"type":"Feature","properties":{"kind":"lift","difficulty":null,"name":"Panoramalift","aerialway":"drag_lift","osm":"way/146957534"},"geometry":{"type":"LineString","coordinates":[[14.78638,48.65307],[14.78077,48.65324]]}},{"type":"Feature","properties":{"kind":"piste","difficulty":"intermediate","name":null,"aerialway":null,"osm":"way/863994214"},"geometry":{"type":"LineString","coordinates":[[14.78148,48.65315],[14.78203,48.65281],[14.78491,48.65276],[14.78633,48.65307]]}},{"type":"Feature","properties":{"kind":"piste","difficulty":"intermediate","name":null,"aerialway":null,"osm":"way/863994215"},"geometry":{"type":"LineString","coordinates":[[14.78156,48.65326],[14.78202,48.65339],[14.78608,48.65332],[14.78633,48.65307]]}},{"type":"Feature","properties":{"kind":"piste","difficulty":"easy","name":null,"aerialway":null,"osm":"way/863994216"},"geometry":{"type":"LineString","coordinates":[[14.78531,48.65421],[14.78734,48.65371]]}},{"type":"Feature","properties":{"kind":"piste","difficulty":"intermediate","name":null,"aerialway":null,"osm":"way/863994217"},"geometry":{"type":"LineString","coordinates":[[14.7812,48.65415],[14.78173,48.65388],[14.78323,48.65385],[14.78362,48.65417],[14.78473,48.65423],[14.78487,48.65398],[14.78531,48.65394]]}},{"type":"Feature","properties":{"kind":"piste","difficulty":"easy","name":null,"aerialway":null,"osm":"way/863994218"},"geometry":{"type":"LineString","coordinates":[[14.78525,48.65413],[14.78531,48.65394],[14.78673,48.65367],[14.78734,48.65371]]}}]}