{"type":"FeatureCollection","features":[{"type":"Feature","properties":{"kind":"lift","difficulty":null,"name":"Doppelsesselbahn Schetteregg","aerialway":"chair_lift","osm":"way/151053606"},"geometry":{"type":"LineString","coordinates":[[9.98345,47.41675],[9.97308,47.40855]]}},{"type":"Feature","properties":{"kind":"lift","difficulty":null,"name":"Übungslift Amagmach","aerialway":"j-bar","osm":"way/151055862"},"geometry":{"type":"LineString","coordinates":[[9.98385,47.41855],[9.98241,47.4176]]}},{"type":"Feature","properties":{"kind":"lift","difficulty":null,"name":"Schlepplift Brongen","aerialway":"t-bar","osm":"way/151060462"},"geometry":{"type":"LineString","coordinates":[[9.98413,47.41687],[9.9812,47.4129]]}},{"type":"Feature","properties":{"kind":"lift","difficulty":null,"name":"Schlepplift Kopach","aerialway":"j-bar","osm":"way/151060572"},"geometry":{"type":"LineString","coordinates":[[9.98593,47.41698],[9.98393,47.41454]]}},{"type":"Feature","properties":{"kind":"lift","difficulty":null,"name":"Schlepplift Obere Schetteregg","aerialway":"t-bar","osm":"way/215003499"},"geometry":{"type":"LineString","coordinates":[[9.97282,47.41279],[9.97226,47.40801]]}},{"type":"Feature","properties":{"kind":"lift","difficulty":null,"name":"Schlepplift Litten","aerialway":"t-bar","osm":"way/215003500"},"geometry":{"type":"LineString","coordinates":[[9.97681,47.41694],[9.97636,47.41228]]}},{"type":"Feature","properties":{"kind":"piste","difficulty":"advanced","name":"11 Fuchs-Piste","aerialway":null,"osm":"way/478549388"},"geometry":{"type":"LineString","coordinates":[[9.97655,47.41273],[9.97716,47.41466],[9.97721,47.41637],[9.97681,47.41694]]}},{"type":"Feature","properties":{"kind":"piste","difficulty":"easy","name":"4 Hasen-Piste","aerialway":null,"osm":"way/478549389"},"geometry":{"type":"LineString","coordinates":[[9.98393,47.41454],[9.98398,47.41514],[9.98417,47.41547],[9.98524,47.41668],[9.98593,47.41698]]}},{"type":"Feature","properties":{"kind":"piste","difficulty":"easy","name":"7 Reh-Piste","aerialway":null,"osm":"way/478549390"},"geometry":{"type":"LineString","coordinates":[[9.9812,47.4129],[9.98113,47.41337],[9.98145,47.41428],[9.98333,47.41639],[9.98403,47.41666],[9.98413,47.41687]]}},{"type":"Feature","properties":{"kind":"piste","difficulty":"intermediate","name":"8 Bären-Hang","aerialway":null,"osm":"way/478549658"},"geometry":{"type":"LineString","coordinates":[[9.97308,47.40855],[9.97293,47.40863],[9.97576,47.41096],[9.97748,47.41295],[9.98046,47.41537],[9.98284,47.41663],[9.98332,47.41681],[9.98345,47.41675]]}},{"type":"Feature","properties":{"kind":"piste","difficulty":"intermediate","name":"8a","aerialway":null,"osm":"way/478549659"},"geometry":{"type":"LineString","coordinates":[[9.97658,47.41191],[9.97698,47.41117],[9.97703,47.41066],[9.97716,47.41059],[9.97782,47.41129],[9.97915,47.41235],[9.98088,47.41342],[9.98097,47.41369],[9.98057,47.41499],[9.98111,47.41574]]}},{"type":"Feature","properties":{"kind":"piste","difficulty":"easy","name":"6 Dachs-Piste","aerialway":null,"osm":"way/478550402"},"geometry":{"type":"LineString","coordinates":[[9.9723,47.4084],[9.97271,47.40857],[9.97284,47.40894],[9.97348,47.41179],[9.97336,47.41255],[9.97282,47.41279]]}},{"type":"Feature","properties":{"kind":"piste","difficulty":"intermediate","name":"9 Luchs-Piste","aerialway":null,"osm":"way/478550403"},"geometry":{"type":"LineString","coordinates":[[9.9723,47.4084],[9.97171,47.40856],[9.97077,47.4092],[9.97101,47.41155],[9.9709,47.41377],[9.97241,47.41473],[9.97321,47.41547],[9.97582,47.41635],[9.97681,47.41694]]}},{"type":"Feature","properties":{"kind":"piste","difficulty":"intermediate","name":"10 Adler-Abfahrt","aerialway":null,"osm":"way/478550516"},"geometry":{"type":"LineString","coordinates":[[9.9812,47.4129],[9.98242,47.41324],[9.98263,47.41351],[9.98282,47.41414],[9.98317,47.41455],[9.98398,47.41514],[9.98359,47.41596],[9.98357,47.41627],[9.98369,47.41646],[9.98403,47.41666],[9.98541,47.41682]]}},{"type":"Feature","properties":{"kind":"piste","difficulty":"easy","name":null,"aerialway":null,"osm":"way/562032246"},"geometry":{"type":"LineString","coordinates":[[9.97877,47.41397],[9.97816,47.41434],[9.97812,47.4146],[9.97967,47.41539],[9.98111,47.41574]]}},{"type":"Feature","properties":{"kind":"piste","difficulty":"easy","name":null,"aerialway":null,"osm":"way/562032629"},"geometry":{"type":"LineString","coordinates":[[9.97315,47.4103],[9.97669,47.41203]]}},{"type":"Feature","properties":{"kind":"piste","difficulty":"intermediate","name":"9 Luchs-Piste","aerialway":null,"osm":"way/562032630"},"geometry":{"type":"LineString","coordinates":[[9.97118,47.40886],[9.96997,47.40938],[9.96905,47.41006],[9.96897,47.41022],[9.96918,47.41078],[9.96889,47.41159],[9.96952,47.41262],[9.9709,47.41377]]}},{"type":"Feature","properties":{"kind":"piste","difficulty":"easy","name":null,"aerialway":null,"osm":"way/562063899"},"geometry":{"type":"LineString","coordinates":[[9.97692,47.4123],[9.97686,47.41263],[9.97655,47.41273],[9.97282,47.41279]]}},{"type":"Feature","properties":{"kind":"piste","difficulty":"advanced","name":null,"aerialway":null,"osm":"way/901667810"},"geometry":{"type":"LineString","coordinates":[[9.97682,47.41373],[9.97748,47.41395],[9.97779,47.41431],[9.97814,47.41514],[9.97795,47.41547],[9.97721,47.41573]]}},{"type":"Feature","properties":{"kind":"piste","difficulty":"easy","name":null,"aerialway":null,"osm":"way/901667811"},"geometry":{"type":"LineString","coordinates":[[9.98232,47.41788],[9.98141,47.41872],[9.98137,47.41899],[9.98149,47.41911],[9.98189,47.41912],[9.98311,47.4186],[9.98375,47.41853]]}},{"type":"Feature","properties":{"kind":"piste","difficulty":"easy","name":null,"aerialway":null,"osm":"way/901667812"},"geometry":{"type":"LineString","coordinates":[[9.98249,47.41765],[9.98233,47.41808],[9.98269,47.41839],[9.98382,47.41853]]}},{"type":"Feature","properties":{"kind":"piste","difficulty":"easy","name":null,"aerialway":null,"osm":"way/1435087217"},"geometry":{"type":"LineString","coordinates":[[9.97807,47.41452],[9.97789,47.41455]]}},{"type":"Feature","properties":{"kind":"piste","difficulty":"easy","name":null,"aerialway":null,"osm":"way/1435087218"},"geometry":{"type":"LineString","coordinates":[[9.97821,47.41352],[9.98004,47.41374],[9.98108,47.41403],[9.98145,47.41428]]}},{"type":"Feature","properties":{"kind":"piste","difficulty":"easy","name":null,"aerialway":null,"osm":"way/1435087219"},"geometry":{"type":"LineString","coordinates":[[9.98333,47.41639],[9.98317,47.41661],[9.98322,47.41677]]}},{"type":"Feature","properties":{"kind":"piste","difficulty":"intermediate","name":null,"aerialway":null,"osm":"way/1453740606"},"geometry":{"type":"LineString","coordinates":[[9.97271,47.40857],[9.97367,47.40893],[9.97515,47.40984],[9.97596,47.41071],[9.9764,47.4117]]}},{"type":"Feature","properties":{"kind":"piste","difficulty":"intermediate","name":null,"aerialway":null,"osm":"way/1453740607"},"geometry":{"type":"LineString","coordinates":[[9.97299,47.40852],[9.9723,47.4084]]}},{"type":"Feature","properties":{"kind":"lift","difficulty":null,"name":null,"aerialway":"drag_lift","osm":"way/1463512650"},"geometry":{"type":"LineString","coordinates":[[9.94756,47.42085],[9.9499,47.41672]]}},{"type":"Feature","properties":{"kind":"piste","difficulty":"easy","name":null,"aerialway":null,"osm":"way/1470258655"},"geometry":{"type":"LineString","coordinates":[[9.98249,47.41765],[9.98307,47.4174],[9.98407,47.41723]]}}]}