{"type":"FeatureCollection","features":[{"type":"Feature","properties":{"kind":"piste","difficulty":"intermediate","name":"Märchenwald","aerialway":null,"osm":"way/30254300"},"geometry":{"type":"LineString","coordinates":[[14.17413,46.77777],[14.17376,46.77794],[14.17233,46.77938],[14.17214,46.77934],[14.17201,46.77895],[14.17183,46.77894],[14.17104,46.77967],[14.17038,46.77906],[14.16935,46.77746],[14.16918,46.77743],[14.16836,46.7778],[14.16829,46.77726]]}},{"type":"Feature","properties":{"kind":"lift","difficulty":null,"name":"Paulsberglift","aerialway":"t-bar","osm":"way/276701599"},"geometry":{"type":"LineString","coordinates":[[14.16668,46.7764],[14.17479,46.77755]]}},{"type":"Feature","properties":{"kind":"lift","difficulty":null,"name":"Nordlift","aerialway":"t-bar","osm":"way/276701600"},"geometry":{"type":"LineString","coordinates":[[14.17927,46.78784],[14.17406,46.77757]]}},{"type":"Feature","properties":{"kind":"lift","difficulty":null,"name":null,"aerialway":"magic_carpet","osm":"way/391803870"},"geometry":{"type":"LineString","coordinates":[[14.16495,46.77567],[14.16496,46.77539]]}},{"type":"Feature","properties":{"kind":"lift","difficulty":null,"name":"Bärentallift","aerialway":"t-bar","osm":"way/391803871"},"geometry":{"type":"LineString","coordinates":[[14.16086,46.7793],[14.16159,46.77634]]}},{"type":"Feature","properties":{"kind":"piste","difficulty":"intermediate","name":"Bärentalpiste","aerialway":null,"osm":"way/391803872"},"geometry":{"type":"LineString","coordinates":[[14.16271,46.77166],[14.16216,46.77199],[14.16105,46.77606],[14.16043,46.77893],[14.16086,46.7793]]}},{"type":"Feature","properties":{"kind":"lift","difficulty":null,"name":"Hochecklift","aerialway":"t-bar","osm":"way/391803918"},"geometry":{"type":"LineString","coordinates":[[14.16677,46.77573],[14.16288,46.77145]]}},{"type":"Feature","properties":{"kind":"lift","difficulty":null,"name":"Muldenlift","aerialway":"platter","osm":"way/391803921"},"geometry":{"type":"LineString","coordinates":[[14.16782,46.77674],[14.16286,46.77874]]}},{"type":"Feature","properties":{"kind":"piste","difficulty":"easy","name":"Muldenpiste","aerialway":null,"osm":"way/391803922"},"geometry":{"type":"LineString","coordinates":[[14.16782,46.77674],[14.1675,46.77709],[14.16634,46.77771],[14.1633,46.77871],[14.16286,46.77874]]}},{"type":"Feature","properties":{"kind":"piste","difficulty":"easy","name":"Paulsbergabfahrt","aerialway":null,"osm":"way/391803923"},"geometry":{"type":"LineString","coordinates":[[14.17408,46.77745],[14.17355,46.77755],[14.17087,46.77732],[14.16856,46.77694],[14.16668,46.7764]]}},{"type":"Feature","properties":{"kind":"piste","difficulty":"easy","name":"Silberkrugabfahrt","aerialway":null,"osm":"way/391803924"},"geometry":{"type":"LineString","coordinates":[[14.17429,46.77803],[14.17468,46.77737],[14.17511,46.77721],[14.17611,46.77737],[14.17917,46.77884],[14.18087,46.7798],[14.1826,46.78154],[14.18315,46.78236],[14.18406,46.78288],[14.18516,46.78319],[14.18558,46.78372],[14.18508,46.78398],[14.18435,46.784],[14.18239,46.78348],[14.1821,46.78356],[14.18143,46.78496],[14.18078,46.78575],[14.18062,46.78613],[14.17964,46.78693],[14.17927,46.78784]]}},{"type":"Feature","properties":{"kind":"piste","difficulty":"intermediate","name":"Slalompiste","aerialway":null,"osm":"way/391803927"},"geometry":{"type":"LineString","coordinates":[[14.16324,46.77186],[14.16288,46.77193],[14.16275,46.77233],[14.16382,46.77296],[14.16413,46.77347],[14.16462,46.77376],[14.16483,46.7744],[14.16565,46.77486],[14.16613,46.77553],[14.16677,46.77573]]}},{"type":"Feature","properties":{"kind":"lift","difficulty":null,"name":"Sonnenlift","aerialway":"platter","osm":"way/391803928"},"geometry":{"type":"LineString","coordinates":[[14.1691,46.77594],[14.17508,46.77711]]}},{"type":"Feature","properties":{"kind":"piste","difficulty":"easy","name":"Sonnenpiste","aerialway":null,"osm":"way/391803929"},"geometry":{"type":"LineString","coordinates":[[14.17508,46.77711],[14.17437,46.7772],[14.17052,46.77655],[14.16942,46.77629],[14.1691,46.77594]]}},{"type":"Feature","properties":{"kind":"piste","difficulty":"intermediate","name":"Winterleitn","aerialway":null,"osm":"way/391803943"},"geometry":{"type":"LineString","coordinates":[[14.18315,46.78236],[14.18315,46.78276],[14.18297,46.78308],[14.18239,46.78348]]}},{"type":"Feature","properties":{"kind":"lift","difficulty":null,"name":"Babylift","aerialway":"rope_tow","osm":"way/391904114"},"geometry":{"type":"LineString","coordinates":[[14.16526,46.77567],[14.16525,46.77515]]}},{"type":"Feature","properties":{"kind":"lift","difficulty":null,"name":"Bärentallift","aerialway":"t-bar","osm":"way/587883653"},"geometry":{"type":"LineString","coordinates":[[14.16159,46.77634],[14.16162,46.7762]]}},{"type":"Feature","properties":{"kind":"lift","difficulty":null,"name":"Bärentallift","aerialway":"t-bar","osm":"way/587883654"},"geometry":{"type":"LineString","coordinates":[[14.16162,46.7762],[14.16284,46.7711]]}}]}