{"type":"FeatureCollection","features":[{"type":"Feature","properties":{"kind":"piste","difficulty":"novice","name":"Panhanswiese (9)","aerialway":null,"osm":"way/99743232"},"geometry":{"type":"LineString","coordinates":[[15.82694,47.63444],[15.82796,47.63301],[15.82846,47.63312],[15.82774,47.63396],[15.82768,47.63451],[15.82728,47.63456],[15.82694,47.63444]]}},{"type":"Feature","properties":{"kind":"lift","difficulty":null,"name":"Happy-Lift","aerialway":"t-bar","osm":"way/99743235"},"geometry":{"type":"LineString","coordinates":[[15.82777,47.63295],[15.82644,47.63499]]}},{"type":"Feature","properties":{"kind":"piste","difficulty":"easy","name":"Familienabfahrt Family","aerialway":null,"osm":"way/909599345"},"geometry":{"type":"LineString","coordinates":[[15.83147,47.63031],[15.83066,47.63065],[15.83009,47.63136],[15.83043,47.63152]]}},{"type":"Feature","properties":{"kind":"piste","difficulty":"easy","name":"Pistenverbindung (8)","aerialway":null,"osm":"way/1465697784"},"geometry":{"type":"LineString","coordinates":[[15.82687,47.62927],[15.82743,47.62979],[15.82874,47.63046],[15.82896,47.63106],[15.83009,47.63136]]}}]}