{"type":"FeatureCollection","features":[{"type":"Feature","properties":{"kind":"lift","difficulty":null,"name":"Hölzlberg","aerialway":"chair_lift","osm":"way/144458452"},"geometry":{"type":"LineString","coordinates":[[14.68837,47.26608],[14.67822,47.25869]]}},{"type":"Feature","properties":{"kind":"lift","difficulty":null,"name":"Mirtlerlift","aerialway":"drag_lift","osm":"way/144458456"},"geometry":{"type":"LineString","coordinates":[[14.68846,47.26604],[14.68319,47.26143]]}},{"type":"Feature","properties":{"kind":"lift","difficulty":null,"name":null,"aerialway":"magic_carpet","osm":"way/736891148"},"geometry":{"type":"LineString","coordinates":[[14.69007,47.26558],[14.68954,47.26524]]}},{"type":"Feature","properties":{"kind":"piste","difficulty":"intermediate","name":"FIS","aerialway":null,"osm":"way/1201185846"},"geometry":{"type":"LineString","coordinates":[[14.6783,47.25875],[14.67811,47.25875],[14.67821,47.25887],[14.67855,47.25882],[14.67872,47.25785],[14.67891,47.25755],[14.6794,47.2572],[14.68021,47.2571],[14.68065,47.25741],[14.68368,47.26043],[14.68405,47.26123]]}},{"type":"Feature","properties":{"kind":"piste","difficulty":"intermediate","name":"Riedl","aerialway":null,"osm":"way/1201185847"},"geometry":{"type":"LineString","coordinates":[[14.67821,47.25887],[14.68004,47.26023],[14.68031,47.2607],[14.68036,47.2613],[14.68064,47.26164],[14.68163,47.2619],[14.68262,47.26163],[14.68339,47.26209]]}},{"type":"Feature","properties":{"kind":"piste","difficulty":"easy","name":"Mirtler","aerialway":null,"osm":"way/1201185848"},"geometry":{"type":"LineString","coordinates":[[14.68351,47.26171],[14.68405,47.26123],[14.6842,47.26172],[14.68822,47.26553],[14.68848,47.26587],[14.68846,47.26604]]}},{"type":"Feature","properties":{"kind":"piste","difficulty":"easy","name":null,"aerialway":null,"osm":"way/1201185849"},"geometry":{"type":"LineString","coordinates":[[14.68852,47.26599],[14.68848,47.26612],[14.68837,47.26608]]}},{"type":"Feature","properties":{"kind":"piste","difficulty":"intermediate","name":"Rennpiste","aerialway":null,"osm":"way/1201185850"},"geometry":{"type":"LineString","coordinates":[[14.68351,47.26171],[14.68339,47.26209],[14.6853,47.26363],[14.68739,47.26521],[14.68806,47.26537]]}},{"type":"Feature","properties":{"kind":"piste","difficulty":"easy","name":"Autobahn","aerialway":null,"osm":"way/1201185851"},"geometry":{"type":"LineString","coordinates":[[14.6794,47.2572],[14.67965,47.25726],[14.67954,47.25758],[14.67981,47.25899],[14.67998,47.25949],[14.68032,47.25992],[14.68041,47.26051],[14.68008,47.26081],[14.67788,47.26061]]}},{"type":"Feature","properties":{"kind":"piste","difficulty":"intermediate","name":"Schlurt","aerialway":null,"osm":"way/1201185852"},"geometry":{"type":"LineString","coordinates":[[14.6785,47.26168],[14.67877,47.26335],[14.67993,47.26427],[14.68084,47.2644],[14.6853,47.26363]]}},{"type":"Feature","properties":{"kind":"piste","difficulty":"easy","name":"Autobahn","aerialway":null,"osm":"way/1381702952"},"geometry":{"type":"LineString","coordinates":[[14.6785,47.26168],[14.68014,47.26234],[14.68064,47.26235],[14.68209,47.26202],[14.68249,47.26166]]}},{"type":"Feature","properties":{"kind":"piste","difficulty":"easy","name":"Funtastic Slope (Skiautobahn)","aerialway":null,"osm":"way/1381702953"},"geometry":{"type":"LineString","coordinates":[[14.67788,47.26061],[14.67759,47.26061],[14.67735,47.26077],[14.67718,47.2612],[14.67738,47.26121],[14.67775,47.26093],[14.67785,47.26101],[14.67774,47.26119],[14.67783,47.26136],[14.6785,47.26168]]}},{"type":"Feature","properties":{"kind":"piste","difficulty":"intermediate","name":"Autobahn","aerialway":null,"osm":"way/1453947873"},"geometry":{"type":"LineString","coordinates":[[14.68249,47.26166],[14.68317,47.26108],[14.68316,47.26053],[14.6829,47.26003],[14.68309,47.25984]]}},{"type":"Feature","properties":{"kind":"piste","difficulty":"novice","name":"Ski GaalaXie","aerialway":null,"osm":"way/1453947874"},"geometry":{"type":"LineString","coordinates":[[14.69039,47.26553],[14.68984,47.26505],[14.68919,47.26531],[14.68965,47.26575],[14.69039,47.26553]]}},{"type":"Feature","properties":{"kind":"piste","difficulty":"intermediate","name":"Mirtlerpiste","aerialway":null,"osm":"way/1453947875"},"geometry":{"type":"LineString","coordinates":[[14.68919,47.26531],[14.68834,47.26474],[14.68706,47.26345],[14.68546,47.26244],[14.68418,47.26108],[14.68359,47.26167],[14.68843,47.26593],[14.68955,47.26565],[14.68919,47.26531]]}},{"type":"Feature","properties":{"kind":"piste","difficulty":"advanced","name":"Rennpiste","aerialway":null,"osm":"way/1453947876"},"geometry":{"type":"LineString","coordinates":[[14.68249,47.26166],[14.68278,47.26142],[14.68765,47.26525],[14.68735,47.26529],[14.68249,47.26166]]}},{"type":"Feature","properties":{"kind":"piste","difficulty":"easy","name":"Mirtler","aerialway":null,"osm":"way/1463926309"},"geometry":{"type":"LineString","coordinates":[[14.68368,47.26043],[14.68445,47.26074],[14.6846,47.26094],[14.6846,47.26132],[14.68678,47.26317],[14.68883,47.26544],[14.68886,47.2658],[14.68852,47.26599]]}},{"type":"Feature","properties":{"kind":"piste","difficulty":"easy","name":"Mirtler","aerialway":null,"osm":"way/1463926310"},"geometry":{"type":"LineString","coordinates":[[14.6846,47.26132],[14.68467,47.26218]]}},{"type":"Feature","properties":{"kind":"piste","difficulty":"easy","name":"Mirtler","aerialway":null,"osm":"way/1463926311"},"geometry":{"type":"LineString","coordinates":[[14.68405,47.26123],[14.6846,47.26132]]}}]}