{"type":"FeatureCollection","features":[{"type":"Feature","properties":{"kind":"piste","difficulty":"easy","name":null,"aerialway":null,"osm":"way/50831976"},"geometry":{"type":"LineString","coordinates":[[10.6202,47.06093],[10.62307,47.06109],[10.62558,47.06202],[10.6267,47.06259],[10.62826,47.06294],[10.63272,47.06446],[10.63431,47.06514],[10.63503,47.06584],[10.63583,47.06634],[10.63703,47.06683],[10.63959,47.06746],[10.6407,47.06795],[10.64209,47.06909],[10.64436,47.06998],[10.64565,47.07027],[10.6453,47.07036]]}},{"type":"Feature","properties":{"kind":"piste","difficulty":"intermediate","name":"Nordabfahrt","aerialway":null,"osm":"way/92795353"},"geometry":{"type":"LineString","coordinates":[[10.69594,47.04308],[10.69602,47.04433],[10.69661,47.04543],[10.69577,47.04765],[10.69501,47.04838],[10.69137,47.04902],[10.68884,47.04995],[10.6794,47.05054]]}},{"type":"Feature","properties":{"kind":"piste","difficulty":"easy","name":null,"aerialway":null,"osm":"way/135309787"},"geometry":{"type":"LineString","coordinates":[[10.64384,47.06841],[10.6436,47.06843],[10.64354,47.06881],[10.64405,47.06909],[10.6454,47.07023],[10.64551,47.07013]]}},{"type":"Feature","properties":{"kind":"piste","difficulty":"easy","name":"Südabfahrt","aerialway":null,"osm":"way/138021814"},"geometry":{"type":"LineString","coordinates":[[10.68186,47.04507],[10.6797,47.04641],[10.67858,47.04683],[10.67746,47.04754]]}},{"type":"Feature","properties":{"kind":"piste","difficulty":"easy","name":"Südabfahrt","aerialway":null,"osm":"way/138021838"},"geometry":{"type":"LineString","coordinates":[[10.67746,47.04754],[10.67717,47.04826]]}},{"type":"Feature","properties":{"kind":"piste","difficulty":"easy","name":"Südabfahrt","aerialway":null,"osm":"way/226441332"},"geometry":{"type":"LineString","coordinates":[[10.69594,47.04308],[10.69479,47.0427],[10.69342,47.04112],[10.69159,47.04097],[10.68824,47.04141],[10.68711,47.04179],[10.68591,47.04259],[10.68322,47.04396],[10.68186,47.04507]]}},{"type":"Feature","properties":{"kind":"piste","difficulty":"intermediate","name":"Lange Abfahrt","aerialway":null,"osm":"way/245926507"},"geometry":{"type":"LineString","coordinates":[[10.62462,47.0723],[10.62525,47.07169],[10.62815,47.07024],[10.63152,47.06875],[10.63468,47.06698],[10.63703,47.06683]]}},{"type":"Feature","properties":{"kind":"piste","difficulty":"easy","name":"Südabfahrt","aerialway":null,"osm":"way/254373775"},"geometry":{"type":"LineString","coordinates":[[10.67717,47.04826],[10.67551,47.04868],[10.67551,47.04879],[10.67841,47.04881],[10.67973,47.04908],[10.68135,47.04973]]}},{"type":"Feature","properties":{"kind":"piste","difficulty":"easy","name":"Südabfahrt","aerialway":null,"osm":"way/254373779"},"geometry":{"type":"LineString","coordinates":[[10.68135,47.04973],[10.68071,47.05009],[10.6794,47.05054]]}},{"type":"Feature","properties":{"kind":"piste","difficulty":"easy","name":"Hammer 1","aerialway":null,"osm":"way/254379468"},"geometry":{"type":"LineString","coordinates":[[10.68903,47.05167],[10.68891,47.05136],[10.68852,47.05114],[10.68439,47.05105],[10.68277,47.05113],[10.68141,47.05136],[10.68022,47.05177]]}},{"type":"Feature","properties":{"kind":"piste","difficulty":"easy","name":null,"aerialway":null,"osm":"way/254379470"},"geometry":{"type":"LineString","coordinates":[[10.67887,47.04954],[10.67896,47.04963],[10.67884,47.04999],[10.67767,47.05113],[10.67498,47.05237]]}},{"type":"Feature","properties":{"kind":"piste","difficulty":"easy","name":null,"aerialway":null,"osm":"way/254379472"},"geometry":{"type":"LineString","coordinates":[[10.68439,47.05105],[10.6836,47.05094],[10.68327,47.05053],[10.68239,47.05028]]}},{"type":"Feature","properties":{"kind":"piste","difficulty":"easy","name":null,"aerialway":null,"osm":"way/254379473"},"geometry":{"type":"LineString","coordinates":[[10.67888,47.05074],[10.67733,47.05121],[10.67678,47.05116]]}},{"type":"Feature","properties":{"kind":"piste","difficulty":"easy","name":null,"aerialway":null,"osm":"way/254380013"},"geometry":{"type":"LineString","coordinates":[[10.67839,47.05],[10.67854,47.05038]]}},{"type":"Feature","properties":{"kind":"piste","difficulty":"easy","name":null,"aerialway":null,"osm":"way/254386389"},"geometry":{"type":"LineString","coordinates":[[10.67925,47.05094],[10.6795,47.05079],[10.6794,47.05054]]}},{"type":"Feature","properties":{"kind":"piste","difficulty":"easy","name":null,"aerialway":null,"osm":"way/254386390"},"geometry":{"type":"LineString","coordinates":[[10.6794,47.05054],[10.67888,47.05074],[10.67882,47.05096],[10.67904,47.05133],[10.6792,47.05129]]}},{"type":"Feature","properties":{"kind":"piste","difficulty":"easy","name":null,"aerialway":null,"osm":"way/560769029"},"geometry":{"type":"LineString","coordinates":[[10.6436,47.06843],[10.64244,47.06841],[10.642,47.06874],[10.64198,47.06896]]}},{"type":"Feature","properties":{"kind":"piste","difficulty":"easy","name":null,"aerialway":null,"osm":"way/1057671068"},"geometry":{"type":"LineString","coordinates":[[10.68105,47.05041],[10.67925,47.05094]]}},{"type":"Feature","properties":{"kind":"piste","difficulty":"novice","name":null,"aerialway":null,"osm":"way/1486285798"},"geometry":{"type":"LineString","coordinates":[[10.62226,47.06116],[10.62151,47.06107],[10.62151,47.06096],[10.62296,47.06089],[10.62455,47.06139],[10.6268,47.06246],[10.62839,47.06275],[10.63136,47.06386],[10.63279,47.06426],[10.63436,47.06499],[10.63483,47.0653],[10.63515,47.06572],[10.63633,47.06637],[10.63785,47.0669],[10.64014,47.06742],[10.64082,47.06773],[10.64229,47.06902],[10.64441,47.06988],[10.64523,47.07008],[10.64506,47.07025],[10.64451,47.07011],[10.64206,47.06919],[10.63968,47.06764],[10.63703,47.06698],[10.63486,47.06597],[10.6341,47.06533],[10.63311,47.06481],[10.62913,47.06343],[10.62664,47.06272],[10.62437,47.06175],[10.62226,47.06116]]}},{"type":"Feature","properties":{"kind":"piste","difficulty":"easy","name":null,"aerialway":null,"osm":"way/1486319409"},"geometry":{"type":"LineString","coordinates":[[10.64506,47.07025],[10.64562,47.07032],[10.64563,47.07021],[10.64523,47.07008],[10.64506,47.07025]]}},{"type":"Feature","properties":{"kind":"lift","difficulty":null,"name":"Sattelbodenbahn","aerialway":"chair_lift","osm":"way/60522832"},"geometry":{"type":"LineString","coordinates":[[10.6792,47.05129],[10.69384,47.04364]]}},{"type":"Feature","properties":{"kind":"lift","difficulty":null,"name":"Fendels-Ried-Bahn","aerialway":"gondola","osm":"way/60522834"},"geometry":{"type":"LineString","coordinates":[[10.66083,47.05737],[10.67925,47.05094]]}},{"type":"Feature","properties":{"kind":"lift","difficulty":null,"name":"Hammerlift","aerialway":"t-bar","osm":"way/94189939"},"geometry":{"type":"LineString","coordinates":[[10.68012,47.05177],[10.68969,47.05167]]}},{"type":"Feature","properties":{"kind":"lift","difficulty":null,"name":"Fidriollift","aerialway":"platter","osm":"way/135309789"},"geometry":{"type":"LineString","coordinates":[[10.64554,47.07015],[10.64353,47.0681]]}},{"type":"Feature","properties":{"kind":"lift","difficulty":null,"name":"Zinggelift","aerialway":"t-bar","osm":"way/138021839"},"geometry":{"type":"LineString","coordinates":[[10.67498,47.05237],[10.67924,47.04928]]}},{"type":"Feature","properties":{"kind":"lift","difficulty":null,"name":"Tellerlift","aerialway":"platter","osm":"way/138021840"},"geometry":{"type":"LineString","coordinates":[[10.67678,47.05116],[10.67855,47.04988]]}},{"type":"Feature","properties":{"kind":"lift","difficulty":null,"name":null,"aerialway":"zip_line","osm":"way/458180094"},"geometry":{"type":"LineString","coordinates":[[10.65934,47.07852],[10.65924,47.0787]]}},{"type":"Feature","properties":{"kind":"lift","difficulty":null,"name":"Planggerlift","aerialway":"t-bar","osm":"way/92795360"},"geometry":{"type":"LineString","coordinates":[[10.69576,47.0427],[10.7088,47.04035]]}},{"type":"Feature","properties":{"kind":"piste","difficulty":"intermediate","name":"Plangger süd","aerialway":null,"osm":"way/92795404"},"geometry":{"type":"LineString","coordinates":[[10.70732,47.03778],[10.70658,47.03762],[10.70547,47.03784],[10.70385,47.03829],[10.70245,47.0389]]}},{"type":"Feature","properties":{"kind":"piste","difficulty":"advanced","name":"Plangger black","aerialway":null,"osm":"way/226441725"},"geometry":{"type":"LineString","coordinates":[[10.70245,47.0389],[10.70103,47.03977],[10.6969,47.04119],[10.69342,47.04112]]}},{"type":"Feature","properties":{"kind":"piste","difficulty":"intermediate","name":null,"aerialway":null,"osm":"way/254368976"},"geometry":{"type":"LineString","coordinates":[[10.70216,47.04152],[10.70193,47.042]]}},{"type":"Feature","properties":{"kind":"piste","difficulty":"intermediate","name":"Plangger süd","aerialway":null,"osm":"way/254368977"},"geometry":{"type":"LineString","coordinates":[[10.70811,47.04048],[10.70802,47.03967],[10.70814,47.03942],[10.70791,47.03848],[10.70768,47.03809]]}},{"type":"Feature","properties":{"kind":"piste","difficulty":"intermediate","name":"Plangger süd","aerialway":null,"osm":"way/254368978"},"geometry":{"type":"LineString","coordinates":[[10.70245,47.0389],[10.70226,47.03931],[10.7024,47.03985],[10.7021,47.04049],[10.70216,47.04152]]}},{"type":"Feature","properties":{"kind":"piste","difficulty":"advanced","name":null,"aerialway":null,"osm":"way/254373778"},"geometry":{"type":"LineString","coordinates":[[10.69764,47.04103],[10.6964,47.04222],[10.69613,47.0429],[10.69594,47.04308]]}},{"type":"Feature","properties":{"kind":"piste","difficulty":"intermediate","name":null,"aerialway":null,"osm":"way/254374187"},"geometry":{"type":"LineString","coordinates":[[10.70193,47.042],[10.69594,47.04308]]}},{"type":"Feature","properties":{"kind":"piste","difficulty":"easy","name":null,"aerialway":null,"osm":"way/254374512"},"geometry":{"type":"LineString","coordinates":[[10.69384,47.04364],[10.69463,47.0433],[10.69479,47.0427]]}},{"type":"Feature","properties":{"kind":"piste","difficulty":"intermediate","name":null,"aerialway":null,"osm":"way/254374513"},"geometry":{"type":"LineString","coordinates":[[10.69384,47.04364],[10.69523,47.04344],[10.69594,47.04308]]}},{"type":"Feature","properties":{"kind":"piste","difficulty":"intermediate","name":null,"aerialway":null,"osm":"way/254375282"},"geometry":{"type":"LineString","coordinates":[[10.69594,47.04308],[10.69578,47.04294],[10.69576,47.0427]]}},{"type":"Feature","properties":{"kind":"piste","difficulty":"advanced","name":null,"aerialway":null,"osm":"way/254379166"},"geometry":{"type":"LineString","coordinates":[[10.70811,47.04048],[10.70809,47.0407],[10.70781,47.041],[10.7063,47.04176],[10.70508,47.0419],[10.70403,47.04168],[10.70193,47.042]]}}]}