{"type":"FeatureCollection","features":[{"type":"Feature","properties":{"kind":"lift","difficulty":null,"name":"Knabllift","aerialway":"t-bar","osm":"way/154298554"},"geometry":{"type":"LineString","coordinates":[[13.37815,47.46354],[13.37399,47.4643]]}},{"type":"Feature","properties":{"kind":"lift","difficulty":null,"name":"Ostermaislift","aerialway":"t-bar","osm":"way/154298557"},"geometry":{"type":"LineString","coordinates":[[13.37923,47.46657],[13.37041,47.46776]]}},{"type":"Feature","properties":{"kind":"lift","difficulty":null,"name":null,"aerialway":"j-bar","osm":"way/184555045"},"geometry":{"type":"LineString","coordinates":[[13.38106,47.45516],[13.38397,47.45541]]}},{"type":"Feature","properties":{"kind":"piste","difficulty":"intermediate","name":null,"aerialway":null,"osm":"way/1204308052"},"geometry":{"type":"LineString","coordinates":[[13.37438,47.46423],[13.37492,47.46383],[13.37744,47.46337],[13.37815,47.46354]]}},{"type":"Feature","properties":{"kind":"piste","difficulty":"intermediate","name":null,"aerialway":null,"osm":"way/1204308053"},"geometry":{"type":"LineString","coordinates":[[13.37103,47.46767],[13.371,47.46839],[13.37122,47.46963],[13.37128,47.47092],[13.37151,47.47146],[13.37183,47.47168],[13.37315,47.47171],[13.37436,47.47131],[13.37675,47.4696],[13.37762,47.46839],[13.37809,47.46749],[13.37915,47.46695],[13.37928,47.46682],[13.37923,47.46657]]}},{"type":"Feature","properties":{"kind":"piste","difficulty":"intermediate","name":null,"aerialway":null,"osm":"way/1204308054"},"geometry":{"type":"LineString","coordinates":[[13.371,47.46839],[13.37141,47.46873],[13.3721,47.46892],[13.37341,47.46902],[13.37484,47.46894],[13.37751,47.46854]]}},{"type":"Feature","properties":{"kind":"piste","difficulty":"intermediate","name":null,"aerialway":null,"osm":"way/1204308055"},"geometry":{"type":"LineString","coordinates":[[13.3721,47.46892],[13.37401,47.47006],[13.37481,47.4702],[13.37592,47.47019]]}}]}