{"type":"FeatureCollection","features":[{"type":"Feature","properties":{"kind":"piste","difficulty":"easy","name":null,"aerialway":null,"osm":"way/201154039"},"geometry":{"type":"LineString","coordinates":[[9.69104,47.25368],[9.6905,47.25394],[9.68844,47.25569],[9.6825,47.25788],[9.68223,47.25811],[9.68226,47.25826]]}},{"type":"Feature","properties":{"kind":"piste","difficulty":"easy","name":null,"aerialway":null,"osm":"way/201154040"},"geometry":{"type":"LineString","coordinates":[[9.68977,47.25459],[9.68762,47.25556],[9.68573,47.2562],[9.68512,47.25695]]}},{"type":"Feature","properties":{"kind":"lift","difficulty":null,"name":"Schilift Gröllerkopf","aerialway":"t-bar","osm":"way/201154041"},"geometry":{"type":"LineString","coordinates":[[9.68226,47.25826],[9.68833,47.25609],[9.69137,47.25338]]}},{"type":"Feature","properties":{"kind":"piste","difficulty":"easy","name":null,"aerialway":null,"osm":"way/1442886971"},"geometry":{"type":"LineString","coordinates":[[9.6901,47.25432],[9.68875,47.25459],[9.68827,47.25449],[9.68756,47.25402],[9.68699,47.25405],[9.68655,47.25444],[9.68566,47.25624]]}},{"type":"Feature","properties":{"kind":"lift","difficulty":null,"name":null,"aerialway":"t-bar","osm":"way/1442886972"},"geometry":{"type":"LineString","coordinates":[[9.684,47.25594],[9.68579,47.25553]]}},{"type":"Feature","properties":{"kind":"piste","difficulty":"easy","name":null,"aerialway":null,"osm":"way/1442886973"},"geometry":{"type":"LineString","coordinates":[[9.68512,47.25695],[9.68483,47.25657],[9.68494,47.25592],[9.68435,47.256],[9.68394,47.25641],[9.68396,47.25704],[9.68386,47.2572],[9.68266,47.25782]]}},{"type":"Feature","properties":{"kind":"piste","difficulty":"easy","name":null,"aerialway":null,"osm":"way/1442886974"},"geometry":{"type":"LineString","coordinates":[[9.68618,47.25512],[9.68534,47.25553],[9.68388,47.25591],[9.68378,47.25626],[9.68392,47.25655]]}},{"type":"Feature","properties":{"kind":"piste","difficulty":"easy","name":null,"aerialway":null,"osm":"way/1442886975"},"geometry":{"type":"LineString","coordinates":[[9.68602,47.25548],[9.6847,47.2559]]}},{"type":"Feature","properties":{"kind":"piste","difficulty":"easy","name":null,"aerialway":null,"osm":"way/1442886976"},"geometry":{"type":"LineString","coordinates":[[9.68435,47.256],[9.684,47.25594]]}},{"type":"Feature","properties":{"kind":"piste","difficulty":"easy","name":null,"aerialway":null,"osm":"way/1442886977"},"geometry":{"type":"LineString","coordinates":[[9.68388,47.25591],[9.68402,47.25596]]}},{"type":"Feature","properties":{"kind":"piste","difficulty":"easy","name":null,"aerialway":null,"osm":"way/1442886978"},"geometry":{"type":"LineString","coordinates":[[9.68579,47.25553],[9.68574,47.25562]]}},{"type":"Feature","properties":{"kind":"piste","difficulty":"easy","name":null,"aerialway":null,"osm":"way/1442886979"},"geometry":{"type":"LineString","coordinates":[[9.68579,47.25553],[9.68534,47.25553]]}},{"type":"Feature","properties":{"kind":"piste","difficulty":"easy","name":null,"aerialway":null,"osm":"way/1442886980"},"geometry":{"type":"LineString","coordinates":[[9.68491,47.25703],[9.68458,47.25722],[9.68432,47.25764],[9.68389,47.25788],[9.68338,47.25803],[9.6823,47.25801]]}},{"type":"Feature","properties":{"kind":"piste","difficulty":"easy","name":null,"aerialway":null,"osm":"way/1442886981"},"geometry":{"type":"LineString","coordinates":[[9.68442,47.25754],[9.68423,47.2579],[9.68362,47.25797]]}},{"type":"Feature","properties":{"kind":"piste","difficulty":"easy","name":null,"aerialway":null,"osm":"way/1442886982"},"geometry":{"type":"LineString","coordinates":[[9.68441,47.25762],[9.68448,47.2579],[9.68438,47.258],[9.68352,47.25821],[9.68287,47.25799]]}}]}