{"type":"FeatureCollection","features":[{"type":"Feature","properties":{"kind":"lift","difficulty":null,"name":"Gipfellift","aerialway":"t-bar","osm":"way/73871409"},"geometry":{"type":"LineString","coordinates":[[15.77063,47.90192],[15.77227,47.90152]]}},{"type":"Feature","properties":{"kind":"piste","difficulty":"easy","name":null,"aerialway":null,"osm":"way/84162413"},"geometry":{"type":"LineString","coordinates":[[15.77007,47.90218],[15.76883,47.9036],[15.76841,47.90446],[15.7685,47.90513]]}},{"type":"Feature","properties":{"kind":"piste","difficulty":"easy","name":null,"aerialway":null,"osm":"way/84162434"},"geometry":{"type":"LineString","coordinates":[[15.77201,47.91058],[15.77179,47.91046],[15.77162,47.90967],[15.77129,47.90922],[15.7709,47.90808],[15.77109,47.90791]]}},{"type":"Feature","properties":{"kind":"piste","difficulty":"intermediate","name":null,"aerialway":null,"osm":"way/84162435"},"geometry":{"type":"LineString","coordinates":[[15.77007,47.90218],[15.77039,47.90224],[15.77073,47.90249],[15.77164,47.90538],[15.77275,47.90707],[15.77242,47.90732],[15.77194,47.90726]]}},{"type":"Feature","properties":{"kind":"lift","difficulty":null,"name":null,"aerialway":"t-bar","osm":"way/84162440"},"geometry":{"type":"LineString","coordinates":[[15.77194,47.90726],[15.76992,47.90176]]}},{"type":"Feature","properties":{"kind":"piste","difficulty":"easy","name":null,"aerialway":null,"osm":"way/84162443"},"geometry":{"type":"LineString","coordinates":[[15.76977,47.90658],[15.77081,47.90697],[15.77135,47.90736],[15.77204,47.90741],[15.77194,47.90726]]}},{"type":"Feature","properties":{"kind":"lift","difficulty":null,"name":null,"aerialway":"rope_tow","osm":"way/84162444"},"geometry":{"type":"LineString","coordinates":[[15.77109,47.90791],[15.77201,47.91058]]}},{"type":"Feature","properties":{"kind":"lift","difficulty":null,"name":"Tellerlift","aerialway":"platter","osm":"way/84162446"},"geometry":{"type":"LineString","coordinates":[[15.77006,47.90718],[15.76789,47.90468]]}},{"type":"Feature","properties":{"kind":"piste","difficulty":"easy","name":null,"aerialway":null,"osm":"way/84162448"},"geometry":{"type":"LineString","coordinates":[[15.76808,47.90489],[15.7685,47.90513],[15.76977,47.90658],[15.77024,47.90713],[15.77022,47.90723],[15.77006,47.90718]]}}]}