{"type":"FeatureCollection","features":[{"type":"Feature","properties":{"kind":"piste","difficulty":"easy","name":"Verbindungsweg Mooslift - Karlift","aerialway":null,"osm":"way/25684120"},"geometry":{"type":"LineString","coordinates":[[10.74462,47.40775],[10.74417,47.408],[10.74326,47.40811],[10.74218,47.40791],[10.74162,47.40796],[10.73991,47.409]]}},{"type":"Feature","properties":{"kind":"lift","difficulty":null,"name":"Almkopfbahn","aerialway":"mixed_lift","osm":"way/29044207"},"geometry":{"type":"LineString","coordinates":[[10.77688,47.42708],[10.76026,47.41884]]}},{"type":"Feature","properties":{"kind":"lift","difficulty":null,"name":"Berwanger SunnAlmBahn","aerialway":"chair_lift","osm":"way/29044208"},"geometry":{"type":"LineString","coordinates":[[10.75218,47.40966],[10.7608,47.41837]]}},{"type":"Feature","properties":{"kind":"lift","difficulty":null,"name":"Mooslift","aerialway":"t-bar","osm":"way/29044211"},"geometry":{"type":"LineString","coordinates":[[10.7385,47.40823],[10.74213,47.40919]]}},{"type":"Feature","properties":{"kind":"piste","difficulty":"intermediate","name":"Rastkopf","aerialway":null,"osm":"way/30087134"},"geometry":{"type":"LineString","coordinates":[[10.7292,47.40004],[10.72946,47.39891],[10.7297,47.39889],[10.73093,47.39817],[10.7314,47.39819],[10.73265,47.39781],[10.73299,47.39788],[10.73269,47.3985],[10.73193,47.3987],[10.73115,47.39939],[10.73059,47.39949],[10.73094,47.39973],[10.73081,47.39983],[10.72983,47.39947],[10.72966,47.39958],[10.72958,47.39991],[10.7292,47.40004]]}},{"type":"Feature","properties":{"kind":"lift","difficulty":null,"name":"Schilift Rinnen","aerialway":"t-bar","osm":"way/30087135"},"geometry":{"type":"LineString","coordinates":[[10.7188,47.40342],[10.72356,47.40313]]}},{"type":"Feature","properties":{"kind":"piste","difficulty":"easy","name":"Verbindung Rastkopf Moos","aerialway":null,"osm":"way/30087139"},"geometry":{"type":"LineString","coordinates":[[10.73694,47.40428],[10.73737,47.40441],[10.73804,47.40486],[10.73872,47.40564],[10.73895,47.40616],[10.73893,47.40648],[10.7384,47.40725],[10.73875,47.40798],[10.73842,47.4077],[10.73824,47.40724],[10.73826,47.40706],[10.73873,47.4065],[10.73857,47.40569],[10.73801,47.40499],[10.73745,47.40461],[10.73629,47.40426],[10.73694,47.40428]]}},{"type":"Feature","properties":{"kind":"piste","difficulty":"easy","name":"Moos (Nord und Süd)","aerialway":null,"osm":"way/30087141"},"geometry":{"type":"LineString","coordinates":[[10.73892,47.40826],[10.73861,47.4082],[10.73864,47.40797],[10.74191,47.40767],[10.74201,47.40867],[10.74173,47.40915],[10.74114,47.40946],[10.74017,47.4092],[10.73962,47.40881],[10.73972,47.40845],[10.73892,47.40826]]}},{"type":"Feature","properties":{"kind":"lift","difficulty":null,"name":"Egghof Sun Jet","aerialway":"chair_lift","osm":"way/30087155"},"geometry":{"type":"LineString","coordinates":[[10.74754,47.41232],[10.75684,47.41324]]}},{"type":"Feature","properties":{"kind":"piste","difficulty":"easy","name":"Familienabfahrt Emmne","aerialway":null,"osm":"way/30087219"},"geometry":{"type":"LineString","coordinates":[[10.7513,47.41265],[10.7478,47.41243],[10.74775,47.41188],[10.75203,47.41184],[10.75521,47.41201],[10.75806,47.41244],[10.75771,47.41295],[10.75729,47.41294],[10.75684,47.41322],[10.75559,47.41315],[10.75405,47.41274],[10.7513,47.41265]]}},{"type":"Feature","properties":{"kind":"piste","difficulty":"intermediate","name":"Almkopf rot","aerialway":null,"osm":"way/30087288"},"geometry":{"type":"LineString","coordinates":[[10.76456,47.42164],[10.76465,47.42142],[10.76441,47.42133],[10.76231,47.42164],[10.7623,47.4208],[10.76209,47.42049],[10.76081,47.42019],[10.76099,47.41994],[10.76288,47.41959],[10.76398,47.41925],[10.7601,47.41876],[10.76045,47.41863],[10.76044,47.41831],[10.76087,47.41848],[10.7612,47.41833],[10.76299,47.41894],[10.76426,47.41902],[10.76447,47.41921],[10.76433,47.41943],[10.76235,47.42006],[10.76282,47.42023],[10.76343,47.42097],[10.76457,47.421],[10.7655,47.42164],[10.76525,47.42211],[10.76456,47.42164]]}},{"type":"Feature","properties":{"kind":"piste","difficulty":"intermediate","name":"Almkopf rot","aerialway":null,"osm":"way/30087292"},"geometry":{"type":"LineString","coordinates":[[10.7655,47.42164],[10.76457,47.421],[10.76609,47.4216],[10.76905,47.42151],[10.7695,47.42161],[10.77207,47.42123],[10.7726,47.42153],[10.77433,47.42158],[10.77523,47.42201],[10.77597,47.42205],[10.7762,47.4215],[10.77678,47.4213],[10.77982,47.42076],[10.78028,47.42111],[10.78007,47.42244],[10.77973,47.42275],[10.77972,47.42355],[10.77893,47.42442],[10.77828,47.42566],[10.77729,47.427],[10.77883,47.42422],[10.77927,47.42369],[10.77962,47.42244],[10.77989,47.42217],[10.77969,47.42152],[10.77943,47.4213],[10.77685,47.42164],[10.77607,47.42226],[10.77515,47.42247],[10.77441,47.42235],[10.77315,47.42175],[10.77121,47.42198],[10.76772,47.42196],[10.7655,47.42164]]}},{"type":"Feature","properties":{"kind":"piste","difficulty":"easy","name":"Almkopf blau","aerialway":null,"osm":"way/30748607"},"geometry":{"type":"LineString","coordinates":[[10.76302,47.42367],[10.76314,47.42457],[10.76289,47.42574],[10.76305,47.42622],[10.76357,47.42653],[10.76468,47.42659],[10.76548,47.42679],[10.76657,47.42663],[10.76889,47.42682],[10.76965,47.42667],[10.77092,47.426],[10.77276,47.42582],[10.77463,47.42528],[10.7756,47.42572],[10.77773,47.42567],[10.7777,47.42617],[10.77726,47.42692],[10.77711,47.4269],[10.77732,47.42619],[10.77456,47.42607],[10.77191,47.42614],[10.76974,47.42699],[10.76836,47.42728],[10.7631,47.4268],[10.76285,47.42666],[10.76241,47.42558],[10.76274,47.42418],[10.76251,47.42303],[10.76224,47.42275],[10.76365,47.42222],[10.76456,47.42164],[10.76525,47.42211],[10.76287,47.42279],[10.76302,47.42367]]}},{"type":"Feature","properties":{"kind":"piste","difficulty":"easy","name":"Bilig","aerialway":null,"osm":"way/30748608"},"geometry":{"type":"LineString","coordinates":[[10.74689,47.41353],[10.74696,47.41336],[10.74665,47.41309],[10.74661,47.41358],[10.74615,47.41388],[10.74489,47.41377],[10.74381,47.41344],[10.74301,47.4136],[10.742,47.41353],[10.74157,47.41322],[10.74055,47.41378],[10.73889,47.41397],[10.73874,47.41354],[10.74032,47.41357],[10.74154,47.41301],[10.74214,47.41335],[10.74299,47.4134],[10.74379,47.41325],[10.74476,47.41359],[10.74514,47.4135],[10.74589,47.41372],[10.74637,47.41354],[10.74657,47.41294],[10.74684,47.41264],[10.74708,47.41314],[10.74728,47.41305],[10.74719,47.41266],[10.74741,47.41252],[10.74728,47.41325],[10.74689,47.41353]]}},{"type":"Feature","properties":{"kind":"piste","difficulty":"easy","name":"Thaneller Sonnenhang","aerialway":null,"osm":"way/30748609"},"geometry":{"type":"LineString","coordinates":[[10.7391,47.41814],[10.73939,47.41794],[10.73911,47.41715],[10.73943,47.41668],[10.73879,47.4163],[10.73894,47.41411],[10.73841,47.41215],[10.73774,47.41076],[10.7373,47.41075],[10.73727,47.41514],[10.73761,47.41585],[10.73774,47.41724],[10.7385,47.4176],[10.7391,47.41814]]}},{"type":"Feature","properties":{"kind":"lift","difficulty":null,"name":"Bärenbadlift","aerialway":"t-bar","osm":"way/48470846"},"geometry":{"type":"LineString","coordinates":[[10.75174,47.41412],[10.7516,47.41247]]}},{"type":"Feature","properties":{"kind":"piste","difficulty":"intermediate","name":"Almkopf Teichle","aerialway":null,"osm":"way/48470854"},"geometry":{"type":"LineString","coordinates":[[10.77207,47.42123],[10.77311,47.42088],[10.77371,47.4203],[10.77423,47.42026],[10.77578,47.42124],[10.77678,47.4213],[10.7762,47.4215],[10.77561,47.42137],[10.77434,47.42069],[10.77229,47.42139],[10.77207,47.42123]]}},{"type":"Feature","properties":{"kind":"piste","difficulty":"advanced","name":"Schwarzes Loch","aerialway":null,"osm":"way/48470857"},"geometry":{"type":"LineString","coordinates":[[10.75663,47.41522],[10.75815,47.41617],[10.75987,47.41699],[10.76063,47.41806],[10.75818,47.41666],[10.75647,47.41533],[10.75663,47.41522]]}},{"type":"Feature","properties":{"kind":"piste","difficulty":"easy","name":"Verbindungsweg Mooslift - Karlift","aerialway":null,"osm":"way/48534543"},"geometry":{"type":"LineString","coordinates":[[10.73974,47.40918],[10.7387,47.41029],[10.73826,47.41055],[10.73807,47.41046]]}},{"type":"Feature","properties":{"kind":"piste","difficulty":"easy","name":"Broatla","aerialway":null,"osm":"way/48534552"},"geometry":{"type":"LineString","coordinates":[[10.73967,47.41642],[10.73911,47.41715],[10.73925,47.41754],[10.74005,47.41742],[10.74144,47.41696],[10.74255,47.4165],[10.74374,47.41575],[10.74452,47.41547],[10.74557,47.4153],[10.74662,47.41484],[10.74686,47.41452],[10.74672,47.41403],[10.74697,47.41355],[10.74655,47.41415],[10.74666,47.41447],[10.7465,47.41468],[10.74532,47.41508],[10.74297,47.41561],[10.74197,47.41561],[10.74037,47.41643],[10.73967,47.41642]]}},{"type":"Feature","properties":{"kind":"piste","difficulty":"easy","name":"Singerbichl","aerialway":null,"osm":"way/48534553"},"geometry":{"type":"LineString","coordinates":[[10.74939,47.41187],[10.74964,47.4114],[10.75072,47.41099],[10.75099,47.41064],[10.75104,47.40985],[10.75149,47.40942],[10.75178,47.40944],[10.75198,47.40961],[10.75155,47.41054],[10.75164,47.41103],[10.75203,47.41184],[10.75137,47.4119],[10.75106,47.41111],[10.75013,47.41155],[10.7501,47.41184],[10.74939,47.41187]]}},{"type":"Feature","properties":{"kind":"piste","difficulty":"intermediate","name":"Hochalm","aerialway":null,"osm":"way/48534554"},"geometry":{"type":"LineString","coordinates":[[10.75987,47.41699],[10.75816,47.41502],[10.75789,47.41407],[10.75813,47.41363],[10.75812,47.41306],[10.75771,47.41295],[10.75806,47.41244],[10.75923,47.4138],[10.76057,47.4157],[10.7609,47.41647],[10.76082,47.41725],[10.76152,47.41792],[10.7612,47.41833],[10.76087,47.41848],[10.76044,47.41831],[10.76063,47.41806],[10.75987,47.41699]]}},{"type":"Feature","properties":{"kind":"piste","difficulty":"easy","name":"Bärenbad","aerialway":null,"osm":"way/48534793"},"geometry":{"type":"LineString","coordinates":[[10.75153,47.41395],[10.75181,47.41403],[10.75347,47.41539],[10.75563,47.41511],[10.75671,47.41513],[10.75647,47.41533],[10.75602,47.41523],[10.75316,47.41563],[10.75216,47.41536],[10.75126,47.41408],[10.75105,47.41418],[10.75082,47.41395],[10.75084,47.4134],[10.7513,47.41265],[10.7519,47.41267],[10.75121,47.41343],[10.75153,47.41395]]}},{"type":"Feature","properties":{"kind":"lift","difficulty":null,"name":"Rastkopfbahn","aerialway":"chair_lift","osm":"way/125745584"},"geometry":{"type":"LineString","coordinates":[[10.73038,47.40609],[10.73307,47.39806]]}},{"type":"Feature","properties":{"kind":"piste","difficulty":"easy","name":"Verbindung - Rastkopflift","aerialway":null,"osm":"way/125745589"},"geometry":{"type":"LineString","coordinates":[[10.72343,47.40358],[10.72475,47.40393],[10.72683,47.40484],[10.7283,47.40511],[10.72927,47.40551],[10.7302,47.4056]]}},{"type":"Feature","properties":{"kind":"piste","difficulty":"easy","name":"Verbindungsweg Rinnen - Rastkopflift","aerialway":null,"osm":"way/125745591"},"geometry":{"type":"LineString","coordinates":[[10.7302,47.4056],[10.73122,47.40583],[10.73151,47.40607]]}},{"type":"Feature","properties":{"kind":"piste","difficulty":"easy","name":null,"aerialway":null,"osm":"way/154977153"},"geometry":{"type":"LineString","coordinates":[[10.73247,47.40763],[10.73264,47.40715]]}},{"type":"Feature","properties":{"kind":"lift","difficulty":null,"name":"Braunilift","aerialway":"platter","osm":"way/155050124"},"geometry":{"type":"LineString","coordinates":[[10.75128,47.41441],[10.75186,47.41587]]}},{"type":"Feature","properties":{"kind":"lift","difficulty":null,"name":"Sonnenbichllift","aerialway":"t-bar","osm":"way/338900768"},"geometry":{"type":"LineString","coordinates":[[10.78699,47.4194],[10.78439,47.42075]]}},{"type":"Feature","properties":{"kind":"lift","difficulty":null,"name":null,"aerialway":"magic_carpet","osm":"way/370531247"},"geometry":{"type":"LineString","coordinates":[[10.78701,47.41965],[10.78688,47.41983]]}},{"type":"Feature","properties":{"kind":"lift","difficulty":null,"name":null,"aerialway":"magic_carpet","osm":"way/370531248"},"geometry":{"type":"LineString","coordinates":[[10.78744,47.41956],[10.7875,47.41969]]}},{"type":"Feature","properties":{"kind":"piste","difficulty":"advanced","name":"Rastkopf Steilhang","aerialway":null,"osm":"way/394978724"},"geometry":{"type":"LineString","coordinates":[[10.7319,47.4022],[10.73091,47.40225],[10.73089,47.40176],[10.73057,47.4011],[10.72879,47.40078],[10.7291,47.40044],[10.72994,47.40026],[10.73043,47.40046],[10.73129,47.40111],[10.7319,47.4022]]}},{"type":"Feature","properties":{"kind":"piste","difficulty":"intermediate","name":"Rastkopf","aerialway":null,"osm":"way/394978736"},"geometry":{"type":"LineString","coordinates":[[10.7315,47.40589],[10.73229,47.40601],[10.73237,47.40568],[10.73237,47.40384],[10.73195,47.40293],[10.7319,47.4022],[10.73091,47.40225],[10.73084,47.40291],[10.73109,47.40351],[10.7313,47.40393],[10.73188,47.40433],[10.73185,47.40556],[10.7315,47.40589]]}},{"type":"Feature","properties":{"kind":"piste","difficulty":"intermediate","name":"Rastkopf","aerialway":null,"osm":"way/394978744"},"geometry":{"type":"LineString","coordinates":[[10.7292,47.40004],[10.72958,47.39991],[10.73019,47.40012],[10.73065,47.39976],[10.73079,47.39982],[10.73028,47.40019],[10.7291,47.40044],[10.72785,47.40146],[10.72733,47.40213],[10.72732,47.40249],[10.72779,47.40279],[10.72749,47.40291],[10.7267,47.40246],[10.72665,47.40222],[10.72719,47.40147],[10.72817,47.40081],[10.72848,47.40035],[10.7292,47.40004]]}},{"type":"Feature","properties":{"kind":"piste","difficulty":"easy","name":null,"aerialway":null,"osm":"way/394978755"},"geometry":{"type":"LineString","coordinates":[[10.73253,47.40688],[10.73196,47.40654],[10.73038,47.40609]]}},{"type":"Feature","properties":{"kind":"piste","difficulty":"easy","name":"Rastkopf","aerialway":null,"osm":"way/394978762"},"geometry":{"type":"LineString","coordinates":[[10.73088,47.40624],[10.7315,47.40589],[10.73229,47.40601],[10.73159,47.4061],[10.73137,47.40636],[10.73088,47.40624]]}},{"type":"Feature","properties":{"kind":"piste","difficulty":"easy","name":"Rinnen Ost","aerialway":null,"osm":"way/394978767"},"geometry":{"type":"LineString","coordinates":[[10.71888,47.40339],[10.71906,47.40394],[10.71959,47.40426],[10.72028,47.40453],[10.72138,47.4046],[10.72343,47.40358],[10.72316,47.40321],[10.72265,47.40318],[10.71888,47.40339]]}},{"type":"Feature","properties":{"kind":"piste","difficulty":"intermediate","name":"Tuiftal","aerialway":null,"osm":"way/394978777"},"geometry":{"type":"LineString","coordinates":[[10.7259,47.40051],[10.72514,47.40011],[10.72434,47.39993],[10.72231,47.40019]]}},{"type":"Feature","properties":{"kind":"piste","difficulty":"intermediate","name":"Rinnen West","aerialway":null,"osm":"way/394978790"},"geometry":{"type":"LineString","coordinates":[[10.71888,47.40339],[10.71896,47.40294],[10.72118,47.40289],[10.72174,47.40274],[10.72209,47.40279],[10.72265,47.40318],[10.71888,47.40339]]}},{"type":"Feature","properties":{"kind":"piste","difficulty":"intermediate","name":"Tuiftal","aerialway":null,"osm":"way/394978804"},"geometry":{"type":"LineString","coordinates":[[10.72739,47.40166],[10.72633,47.40173],[10.72461,47.40123]]}},{"type":"Feature","properties":{"kind":"piste","difficulty":"intermediate","name":"Tuiftal","aerialway":null,"osm":"way/394978811"},"geometry":{"type":"LineString","coordinates":[[10.72461,47.40123],[10.72348,47.40094],[10.72231,47.40019],[10.72101,47.3998],[10.72054,47.39977],[10.72018,47.39991]]}},{"type":"Feature","properties":{"kind":"piste","difficulty":"intermediate","name":"Rastkopf","aerialway":null,"osm":"way/394978817"},"geometry":{"type":"LineString","coordinates":[[10.72779,47.40279],[10.7292,47.40222],[10.73058,47.4021],[10.73091,47.40225]]}},{"type":"Feature","properties":{"kind":"piste","difficulty":"intermediate","name":null,"aerialway":null,"osm":"way/394978831"},"geometry":{"type":"LineString","coordinates":[[10.72578,47.40162],[10.7259,47.40051]]}},{"type":"Feature","properties":{"kind":"piste","difficulty":"easy","name":"Verbindung Rastkopf Moos","aerialway":null,"osm":"way/394978846"},"geometry":{"type":"LineString","coordinates":[[10.73171,47.40351],[10.73245,47.40337],[10.73291,47.40313],[10.73353,47.40311],[10.73455,47.40417],[10.73553,47.40412],[10.73751,47.40455],[10.73809,47.40498],[10.73874,47.40584],[10.73887,47.40626],[10.73881,47.40656],[10.73833,47.40716],[10.73873,47.40803],[10.73865,47.40815]]}},{"type":"Feature","properties":{"kind":"piste","difficulty":"easy","name":"Verbindung Thanellerkarlift - Rastkopf","aerialway":null,"osm":"way/394978852"},"geometry":{"type":"LineString","coordinates":[[10.73578,47.41282],[10.73552,47.41223],[10.73401,47.41136],[10.73359,47.41064],[10.73354,47.41014],[10.73254,47.40836],[10.73247,47.40763]]}},{"type":"Feature","properties":{"kind":"piste","difficulty":"easy","name":"Verbindungsweg Mooslift - Karlift","aerialway":null,"osm":"way/437871160"},"geometry":{"type":"LineString","coordinates":[[10.73991,47.409],[10.73974,47.40918]]}},{"type":"Feature","properties":{"kind":"piste","difficulty":"easy","name":null,"aerialway":null,"osm":"way/596206570"},"geometry":{"type":"LineString","coordinates":[[10.73264,47.40715],[10.73253,47.40688]]}},{"type":"Feature","properties":{"kind":"piste","difficulty":"easy","name":"Verbindungsweg Thanellerkarlift Rastkopf","aerialway":null,"osm":"way/603978505"},"geometry":{"type":"LineString","coordinates":[[10.7374,47.41432],[10.73652,47.41386],[10.73592,47.41316],[10.73578,47.41282]]}},{"type":"Feature","properties":{"kind":"piste","difficulty":"easy","name":"Verbindung Thaneller - Moos","aerialway":null,"osm":"way/638151573"},"geometry":{"type":"LineString","coordinates":[[10.73956,47.41354],[10.7394,47.41216],[10.74027,47.41077],[10.74025,47.41043],[10.73981,47.40959],[10.74002,47.40825]]}},{"type":"Feature","properties":{"kind":"lift","difficulty":null,"name":"Obere Karbahn I","aerialway":"gondola","osm":"way/740374954"},"geometry":{"type":"LineString","coordinates":[[10.74684,47.41264],[10.74072,47.41566]]}},{"type":"Feature","properties":{"kind":"lift","difficulty":null,"name":"Obere Karbahn II","aerialway":"gondola","osm":"way/750694545"},"geometry":{"type":"LineString","coordinates":[[10.74072,47.41566],[10.73638,47.42281]]}},{"type":"Feature","properties":{"kind":"piste","difficulty":"intermediate","name":"Hüttenhang","aerialway":null,"osm":"way/750694546"},"geometry":{"type":"LineString","coordinates":[[10.73616,47.42002],[10.73668,47.41952],[10.73747,47.41827],[10.73838,47.41754],[10.73774,47.41724],[10.73755,47.41741],[10.73636,47.41874],[10.73624,47.41909],[10.73573,47.41969],[10.73616,47.42002]]}},{"type":"Feature","properties":{"kind":"piste","difficulty":"intermediate","name":"Brunnental","aerialway":null,"osm":"way/750694547"},"geometry":{"type":"LineString","coordinates":[[10.73742,47.4204],[10.73652,47.42006],[10.7385,47.4176],[10.7391,47.41814],[10.73742,47.4204]]}},{"type":"Feature","properties":{"kind":"piste","difficulty":"easy","name":"Rastkopf hinterer Lehner","aerialway":null,"osm":"way/750694548"},"geometry":{"type":"LineString","coordinates":[[10.73312,47.40312],[10.73313,47.40483],[10.73279,47.40646],[10.73196,47.40654]]}},{"type":"Feature","properties":{"kind":"piste","difficulty":"intermediate","name":"Tunnelhang","aerialway":null,"osm":"way/750694549"},"geometry":{"type":"LineString","coordinates":[[10.75987,47.41699],[10.75815,47.41617],[10.75663,47.41522],[10.75671,47.41513],[10.75804,47.41512],[10.75987,47.41699]]}},{"type":"Feature","properties":{"kind":"piste","difficulty":"easy","name":"Verbindung Almkopf -Sonnbichl","aerialway":null,"osm":"way/750694550"},"geometry":{"type":"LineString","coordinates":[[10.77982,47.42076],[10.78007,47.42088],[10.78167,47.42026],[10.78307,47.42],[10.78394,47.41997],[10.78375,47.41981],[10.78111,47.42011],[10.78095,47.42028],[10.78026,47.42033],[10.77965,47.42068],[10.77982,47.42076]]}},{"type":"Feature","properties":{"kind":"piste","difficulty":"easy","name":"Sonnbichllift","aerialway":null,"osm":"way/750694551"},"geometry":{"type":"LineString","coordinates":[[10.78721,47.41955],[10.78705,47.41932],[10.78622,47.41938],[10.78382,47.41986],[10.78394,47.41997],[10.78341,47.4201],[10.7833,47.42036],[10.78272,47.42052],[10.78231,47.42055],[10.78167,47.42026],[10.78122,47.42043],[10.7825,47.42069],[10.78287,47.42058],[10.78445,47.42056],[10.78573,47.41992],[10.78721,47.41955]]}},{"type":"Feature","properties":{"kind":"piste","difficulty":"easy","name":"Brauni","aerialway":null,"osm":"way/751274312"},"geometry":{"type":"LineString","coordinates":[[10.75126,47.41408],[10.75216,47.41536],[10.75206,47.41565],[10.75173,47.41578],[10.75122,47.41523],[10.75104,47.41443],[10.75105,47.41418],[10.75126,47.41408]]}},{"type":"Feature","properties":{"kind":"piste","difficulty":"intermediate","name":"Tuiftal","aerialway":null,"osm":"way/751274313"},"geometry":{"type":"LineString","coordinates":[[10.72018,47.39991],[10.71994,47.40025],[10.71997,47.40074],[10.72203,47.40286],[10.71963,47.4031],[10.71892,47.40342]]}},{"type":"Feature","properties":{"kind":"piste","difficulty":"novice","name":"Verbindung Sonnbichllift - Almkopfbahn","aerialway":null,"osm":"way/777486416"},"geometry":{"type":"LineString","coordinates":[[10.78439,47.42075],[10.78433,47.42109],[10.78398,47.42146],[10.78228,47.42252],[10.78048,47.42329],[10.78059,47.42348],[10.78001,47.42405],[10.77897,47.42421]]}},{"type":"Feature","properties":{"kind":"lift","difficulty":null,"name":"Thanellerbahn","aerialway":"chair_lift","osm":"way/842254185"},"geometry":{"type":"LineString","coordinates":[[10.73862,47.40983],[10.73996,47.41586]]}},{"type":"Feature","properties":{"kind":"piste","difficulty":"easy","name":"Familienabfahrt Emmne","aerialway":null,"osm":"way/1278872023"},"geometry":{"type":"LineString","coordinates":[[10.75684,47.41324],[10.75699,47.41316],[10.75699,47.41296],[10.75649,47.41277],[10.7533,47.41233],[10.74777,47.41209],[10.7474,47.4122],[10.74754,47.41232]]}},{"type":"Feature","properties":{"kind":"piste","difficulty":"easy","name":"Bärenbad","aerialway":null,"osm":"way/1278872024"},"geometry":{"type":"LineString","coordinates":[[10.75182,47.41224],[10.75145,47.41238],[10.75139,47.41281],[10.75104,47.41344],[10.7512,47.41392],[10.75148,47.41415],[10.75174,47.41412]]}},{"type":"Feature","properties":{"kind":"piste","difficulty":"easy","name":"Brauni","aerialway":null,"osm":"way/1278872025"},"geometry":{"type":"LineString","coordinates":[[10.7518,47.4157],[10.75192,47.41553],[10.75188,47.41521],[10.7516,47.41463],[10.75128,47.41441]]}},{"type":"Feature","properties":{"kind":"piste","difficulty":"easy","name":"Bärenbad","aerialway":null,"osm":"way/1278872026"},"geometry":{"type":"LineString","coordinates":[[10.7516,47.41463],[10.75171,47.41416]]}},{"type":"Feature","properties":{"kind":"piste","difficulty":"easy","name":"Bärenbad","aerialway":null,"osm":"way/1278872027"},"geometry":{"type":"LineString","coordinates":[[10.7512,47.41392],[10.75128,47.41441]]}},{"type":"Feature","properties":{"kind":"piste","difficulty":"easy","name":"Familienabfahrt Emmne","aerialway":null,"osm":"way/1278872029"},"geometry":{"type":"LineString","coordinates":[[10.75162,47.41266],[10.74995,47.41218]]}},{"type":"Feature","properties":{"kind":"piste","difficulty":"easy","name":"Bilig","aerialway":null,"osm":"way/1278872030"},"geometry":{"type":"LineString","coordinates":[[10.74738,47.41227],[10.74684,47.41264]]}},{"type":"Feature","properties":{"kind":"piste","difficulty":"easy","name":"Bilig","aerialway":null,"osm":"way/1278872031"},"geometry":{"type":"LineString","coordinates":[[10.73807,47.41384],[10.74004,47.41368],[10.74139,47.41337],[10.74271,47.41348],[10.7438,47.41339],[10.74542,47.41373],[10.74613,47.41374],[10.74649,47.41358],[10.7466,47.41303],[10.74725,47.41313],[10.74738,47.41227]]}},{"type":"Feature","properties":{"kind":"piste","difficulty":"easy","name":"Singerbichl","aerialway":null,"osm":"way/1278872032"},"geometry":{"type":"LineString","coordinates":[[10.75182,47.41224],[10.75129,47.41076],[10.75136,47.41005],[10.75177,47.40955],[10.752,47.4095],[10.75218,47.40966]]}},{"type":"Feature","properties":{"kind":"piste","difficulty":"easy","name":"Singerbichl","aerialway":null,"osm":"way/1278872033"},"geometry":{"type":"LineString","coordinates":[[10.74995,47.41218],[10.74975,47.41174],[10.74987,47.41149],[10.75129,47.41076]]}},{"type":"Feature","properties":{"kind":"piste","difficulty":"easy","name":"Brauni","aerialway":null,"osm":"way/1278872034"},"geometry":{"type":"LineString","coordinates":[[10.7518,47.4157],[10.75144,47.4154],[10.75119,47.41461],[10.75128,47.41441]]}},{"type":"Feature","properties":{"kind":"piste","difficulty":"intermediate","name":"Hüttenhang","aerialway":null,"osm":"way/1278872035"},"geometry":{"type":"LineString","coordinates":[[10.73702,47.4202],[10.7363,47.4199],[10.73621,47.41973],[10.73708,47.41839],[10.73777,47.41764],[10.73828,47.41658]]}},{"type":"Feature","properties":{"kind":"piste","difficulty":"easy","name":"Thaneller Sonnenhang","aerialway":null,"osm":"way/1278872036"},"geometry":{"type":"LineString","coordinates":[[10.73828,47.41658],[10.73791,47.41239],[10.73759,47.41048],[10.73776,47.41005],[10.73805,47.40989],[10.73862,47.40983]]}},{"type":"Feature","properties":{"kind":"piste","difficulty":"advanced","name":"Brunnental","aerialway":null,"osm":"way/1278872038"},"geometry":{"type":"LineString","coordinates":[[10.73702,47.4202],[10.73811,47.41879],[10.73881,47.41746],[10.73863,47.41684],[10.73828,47.41658]]}},{"type":"Feature","properties":{"kind":"piste","difficulty":"easy","name":"Broatla","aerialway":null,"osm":"way/1278872040"},"geometry":{"type":"LineString","coordinates":[[10.73864,47.41788],[10.74049,47.41689],[10.74355,47.41564],[10.74669,47.41475],[10.74691,47.41442],[10.74693,47.41373],[10.74725,47.41313]]}},{"type":"Feature","properties":{"kind":"piste","difficulty":"easy","name":"Broatla","aerialway":null,"osm":"way/1278872041"},"geometry":{"type":"LineString","coordinates":[[10.74072,47.41566],[10.74038,47.41603],[10.74053,47.41626],[10.74085,47.41639],[10.74174,47.41643]]}},{"type":"Feature","properties":{"kind":"piste","difficulty":"easy","name":"Thaneller Sonnenhang","aerialway":null,"osm":"way/1278872042"},"geometry":{"type":"LineString","coordinates":[[10.74047,47.41585],[10.74019,47.41581],[10.74009,47.41561],[10.73816,47.41504]]}},{"type":"Feature","properties":{"kind":"piste","difficulty":"easy","name":"Thaneller Sonnenhang","aerialway":null,"osm":"way/1278872043"},"geometry":{"type":"LineString","coordinates":[[10.73996,47.41586],[10.73981,47.41611],[10.7393,47.41617],[10.73819,47.41554]]}},{"type":"Feature","properties":{"kind":"piste","difficulty":"easy","name":"Broatla","aerialway":null,"osm":"way/1278872044"},"geometry":{"type":"LineString","coordinates":[[10.73981,47.41611],[10.74053,47.41626]]}},{"type":"Feature","properties":{"kind":"piste","difficulty":"easy","name":"Verbindungsweg Thanellerkarlift Rastkopf","aerialway":null,"osm":"way/1278872045"},"geometry":{"type":"LineString","coordinates":[[10.73816,47.41504],[10.7374,47.41432]]}},{"type":"Feature","properties":{"kind":"piste","difficulty":"easy","name":"Moos Süd","aerialway":null,"osm":"way/1278872046"},"geometry":{"type":"LineString","coordinates":[[10.74153,47.40904],[10.74156,47.40881],[10.74074,47.40842],[10.73944,47.40815],[10.73865,47.40815],[10.73863,47.40826]]}},{"type":"Feature","properties":{"kind":"piste","difficulty":"easy","name":"Moos Nord","aerialway":null,"osm":"way/1278872047"},"geometry":{"type":"LineString","coordinates":[[10.74153,47.40904],[10.74139,47.40914],[10.74098,47.40907],[10.73995,47.40877]]}},{"type":"Feature","properties":{"kind":"piste","difficulty":"intermediate","name":"Hochalm","aerialway":null,"osm":"way/1278872048"},"geometry":{"type":"LineString","coordinates":[[10.7608,47.41837],[10.76109,47.41834],[10.76114,47.41816],[10.75909,47.41461],[10.75829,47.41297],[10.7575,47.41266],[10.75649,47.41277]]}},{"type":"Feature","properties":{"kind":"piste","difficulty":"advanced","name":"Schwarzes Loch","aerialway":null,"osm":"way/1278872049"},"geometry":{"type":"LineString","coordinates":[[10.76092,47.41786],[10.75908,47.41692],[10.75643,47.4152]]}},{"type":"Feature","properties":{"kind":"piste","difficulty":"intermediate","name":"Tunnelhang","aerialway":null,"osm":"way/1278872050"},"geometry":{"type":"LineString","coordinates":[[10.75643,47.4152],[10.7531,47.4155],[10.75266,47.41538],[10.75162,47.41431],[10.75126,47.41419]]}},{"type":"Feature","properties":{"kind":"piste","difficulty":"intermediate","name":"Tunnelhang","aerialway":null,"osm":"way/1278872051"},"geometry":{"type":"LineString","coordinates":[[10.76041,47.41695],[10.7592,47.41649],[10.75709,47.41536],[10.75643,47.4152]]}},{"type":"Feature","properties":{"kind":"piste","difficulty":"easy","name":"Verbindungsweg Mooslift - Karlift","aerialway":null,"osm":"way/1278872053"},"geometry":{"type":"LineString","coordinates":[[10.73818,47.41054],[10.73783,47.41031],[10.73776,47.41005]]}},{"type":"Feature","properties":{"kind":"piste","difficulty":"intermediate","name":"Netzhang","aerialway":null,"osm":"way/1441913983"},"geometry":{"type":"LineString","coordinates":[[10.73638,47.42281],[10.73767,47.42258],[10.73883,47.42221],[10.73952,47.42183],[10.73945,47.42144],[10.73896,47.42102],[10.7385,47.42069],[10.73784,47.42045]]}},{"type":"Feature","properties":{"kind":"piste","difficulty":"advanced","name":"Brunnental","aerialway":null,"osm":"way/1475110504"},"geometry":{"type":"LineString","coordinates":[[10.73655,47.42281],[10.73784,47.42045]]}},{"type":"Feature","properties":{"kind":"piste","difficulty":"intermediate","name":"Netzhang","aerialway":null,"osm":"way/1475110505"},"geometry":{"type":"LineString","coordinates":[[10.73784,47.42045],[10.73978,47.41928],[10.7398,47.41895],[10.73966,47.41867],[10.73881,47.41746]]}},{"type":"Feature","properties":{"kind":"piste","difficulty":"intermediate","name":null,"aerialway":null,"osm":"way/1475110506"},"geometry":{"type":"LineString","coordinates":[[10.73784,47.42045],[10.73702,47.4202]]}},{"type":"Feature","properties":{"kind":"piste","difficulty":"intermediate","name":"Netzhang","aerialway":null,"osm":"way/1475110507"},"geometry":{"type":"LineString","coordinates":[[10.73939,47.41794],[10.7391,47.41814],[10.73953,47.41881],[10.73951,47.41908],[10.7392,47.4194],[10.73843,47.41974],[10.7376,47.42032],[10.73822,47.42048],[10.7388,47.42003],[10.73966,47.42011],[10.7399,47.41995],[10.73998,47.4188],[10.73939,47.41794]]}},{"type":"Feature","properties":{"kind":"piste","difficulty":"intermediate","name":null,"aerialway":null,"osm":"way/1552522805"},"geometry":{"type":"LineString","coordinates":[[10.73307,47.39806],[10.73168,47.39839],[10.72963,47.39918],[10.7294,47.40018],[10.72842,47.40074],[10.72747,47.4015],[10.72716,47.40206],[10.7271,47.40232],[10.72738,47.40278],[10.72779,47.40279]]}},{"type":"Feature","properties":{"kind":"piste","difficulty":"intermediate","name":null,"aerialway":null,"osm":"way/1552522806"},"geometry":{"type":"LineString","coordinates":[[10.73089,47.40223],[10.73146,47.40229],[10.73158,47.40333],[10.7322,47.40414],[10.73221,47.40531],[10.73209,47.40582],[10.73121,47.40632]]}},{"type":"Feature","properties":{"kind":"piste","difficulty":"easy","name":null,"aerialway":null,"osm":"way/1552522807"},"geometry":{"type":"LineString","coordinates":[[10.72203,47.40286],[10.72253,47.40351],[10.72241,47.40382],[10.72128,47.40404],[10.71892,47.40342]]}},{"type":"Feature","properties":{"kind":"piste","difficulty":"intermediate","name":null,"aerialway":null,"osm":"way/1552522808"},"geometry":{"type":"LineString","coordinates":[[10.72203,47.40286],[10.72289,47.40312],[10.72343,47.40358]]}},{"type":"Feature","properties":{"kind":"piste","difficulty":"intermediate","name":null,"aerialway":null,"osm":"way/1552523959"},"geometry":{"type":"LineString","coordinates":[[10.76093,47.41841],[10.76128,47.41863]]}},{"type":"Feature","properties":{"kind":"piste","difficulty":"intermediate","name":null,"aerialway":null,"osm":"way/1552523960"},"geometry":{"type":"LineString","coordinates":[[10.76026,47.41884],[10.76059,47.41867],[10.76128,47.41863],[10.76302,47.41906],[10.76424,47.41912],[10.76165,47.4201],[10.76257,47.42045],[10.76303,47.42118],[10.7644,47.42116],[10.76528,47.42159],[10.77065,47.42176],[10.77236,47.42163],[10.77419,47.42175],[10.77539,47.42216],[10.77604,47.4221],[10.77657,47.4215],[10.77962,47.42101],[10.78004,47.42179],[10.7795,47.42365],[10.77893,47.42425],[10.77734,47.42686],[10.77733,47.42706]]}},{"type":"Feature","properties":{"kind":"piste","difficulty":"intermediate","name":null,"aerialway":null,"osm":"way/1552523961"},"geometry":{"type":"LineString","coordinates":[[10.7712,47.42172],[10.77416,47.42051],[10.77657,47.4215]]}},{"type":"Feature","properties":{"kind":"piste","difficulty":"easy","name":null,"aerialway":null,"osm":"way/1552523962"},"geometry":{"type":"LineString","coordinates":[[10.76494,47.42137],[10.76426,47.42212],[10.76263,47.4228],[10.76291,47.42368],[10.76291,47.42481],[10.76266,47.42568],[10.76314,47.42656],[10.76459,47.42678],[10.76896,47.42692],[10.76995,47.42669],[10.77182,47.426],[10.77644,47.42581],[10.7773,47.42595],[10.77752,47.4262],[10.77743,47.42671]]}},{"type":"Feature","properties":{"kind":"piste","difficulty":"easy","name":null,"aerialway":null,"osm":"way/1552527013"},"geometry":{"type":"LineString","coordinates":[[10.77962,47.42101],[10.77985,47.42069],[10.7805,47.42038],[10.78354,47.41996],[10.78442,47.4201],[10.78678,47.41931],[10.78727,47.41949],[10.7876,47.41941]]}},{"type":"Feature","properties":{"kind":"piste","difficulty":"easy","name":null,"aerialway":null,"osm":"way/1552527014"},"geometry":{"type":"LineString","coordinates":[[10.78472,47.42058],[10.78376,47.42048],[10.78228,47.42061],[10.7815,47.42044],[10.78052,47.42078],[10.78029,47.42146],[10.78002,47.42176]]}},{"type":"Feature","properties":{"kind":"piste","difficulty":"easy","name":null,"aerialway":null,"osm":"way/1552527015"},"geometry":{"type":"LineString","coordinates":[[10.78344,47.4205],[10.7839,47.42001]]}},{"type":"Feature","properties":{"kind":"piste","difficulty":"easy","name":null,"aerialway":null,"osm":"way/1552527016"},"geometry":{"type":"LineString","coordinates":[[10.78418,47.42049],[10.78561,47.41974]]}},{"type":"Feature","properties":{"kind":"piste","difficulty":"easy","name":null,"aerialway":null,"osm":"way/1552527017"},"geometry":{"type":"LineString","coordinates":[[10.78688,47.41983],[10.78683,47.41972],[10.78727,47.41949]]}},{"type":"Feature","properties":{"kind":"piste","difficulty":"easy","name":null,"aerialway":null,"osm":"way/1552527018"},"geometry":{"type":"LineString","coordinates":[[10.7875,47.41969],[10.78727,47.41949]]}},{"type":"Feature","properties":{"kind":"piste","difficulty":"advanced","name":null,"aerialway":null,"osm":"way/1556532762"},"geometry":{"type":"LineString","coordinates":[[10.72903,47.40039],[10.73087,47.40099],[10.73146,47.40229]]}},{"type":"Feature","properties":{"kind":"piste","difficulty":"easy","name":null,"aerialway":null,"osm":"way/1556532763"},"geometry":{"type":"LineString","coordinates":[[10.72251,47.40355],[10.72343,47.40358]]}}]}