{"type":"FeatureCollection","features":[{"type":"Feature","properties":{"kind":"piste","difficulty":"intermediate","name":"Seenabfahrt","aerialway":null,"osm":"way/32142660"},"geometry":{"type":"LineString","coordinates":[[13.74111,46.8364],[13.73881,46.83683],[13.7374,46.83741],[13.73719,46.83776],[13.73724,46.83825]]}},{"type":"Feature","properties":{"kind":"piste","difficulty":"intermediate","name":"Thermenabfahrt","aerialway":null,"osm":"way/32142843"},"geometry":{"type":"LineString","coordinates":[[13.74931,46.82281],[13.75097,46.82128],[13.75153,46.82101],[13.75214,46.82095],[13.75393,46.82159],[13.75483,46.82219],[13.75596,46.82236]]}},{"type":"Feature","properties":{"kind":"piste","difficulty":"intermediate","name":"Priedröfabfahrt","aerialway":null,"osm":"way/49807002"},"geometry":{"type":"LineString","coordinates":[[13.7556,46.82291],[13.75526,46.82338],[13.75499,46.82413],[13.7552,46.8244]]}},{"type":"Feature","properties":{"kind":"piste","difficulty":"intermediate","name":"Sonnwiesnabfahrt","aerialway":null,"osm":"way/49807004"},"geometry":{"type":"LineString","coordinates":[[13.75852,46.82511],[13.75989,46.82458],[13.76118,46.8235],[13.76125,46.82305],[13.76156,46.82272],[13.76256,46.8224],[13.76316,46.82206],[13.76347,46.82171],[13.76384,46.82164],[13.76496,46.82184],[13.76621,46.82141],[13.76718,46.82092],[13.7676,46.82057],[13.76829,46.81955],[13.76908,46.81788],[13.77133,46.81677]]}},{"type":"Feature","properties":{"kind":"piste","difficulty":"intermediate","name":"Talabfahrt Sonnwiesn","aerialway":null,"osm":"way/49807005"},"geometry":{"type":"LineString","coordinates":[[13.77133,46.81677],[13.7716,46.8165],[13.77186,46.81566],[13.77174,46.81526],[13.77239,46.81507],[13.77284,46.81475],[13.77297,46.81449],[13.7731,46.81347],[13.77266,46.81272],[13.77268,46.81236],[13.77244,46.812],[13.77245,46.81149],[13.77276,46.81144],[13.77273,46.81161]]}},{"type":"Feature","properties":{"kind":"piste","difficulty":"easy","name":"Höhenabfahrt","aerialway":null,"osm":"way/49807043"},"geometry":{"type":"LineString","coordinates":[[13.74111,46.8364],[13.74141,46.83638],[13.74173,46.83581],[13.74306,46.83199],[13.74375,46.82924],[13.74416,46.8281]]}},{"type":"Feature","properties":{"kind":"piste","difficulty":"easy","name":null,"aerialway":null,"osm":"way/49807044"},"geometry":{"type":"LineString","coordinates":[[13.74416,46.8281],[13.74363,46.82767]]}},{"type":"Feature","properties":{"kind":"piste","difficulty":"intermediate","name":null,"aerialway":null,"osm":"way/102685317"},"geometry":{"type":"LineString","coordinates":[[13.74513,46.8493],[13.7454,46.84935],[13.74514,46.84912],[13.74431,46.84864],[13.74306,46.84839]]}},{"type":"Feature","properties":{"kind":"piste","difficulty":"intermediate","name":"Rosennockabfahrt","aerialway":null,"osm":"way/102685318"},"geometry":{"type":"LineString","coordinates":[[13.74142,46.84789],[13.74038,46.84771],[13.73926,46.84734],[13.73913,46.84708],[13.73942,46.84569],[13.73938,46.84523],[13.73884,46.84482],[13.73652,46.84368]]}},{"type":"Feature","properties":{"kind":"piste","difficulty":"easy","name":"Verbindungsabfahrt Sonnwiesen","aerialway":null,"osm":"way/102685319"},"geometry":{"type":"LineString","coordinates":[[13.78043,46.80869],[13.77844,46.80972],[13.77694,46.81109],[13.77544,46.81139],[13.77395,46.81118]]}},{"type":"Feature","properties":{"kind":"piste","difficulty":"intermediate","name":"Spitzeggabfahrt","aerialway":null,"osm":"way/102685320"},"geometry":{"type":"LineString","coordinates":[[13.74557,46.84922],[13.7454,46.84935],[13.7459,46.8495],[13.74648,46.84952],[13.74776,46.84926],[13.74866,46.84945],[13.75017,46.85049],[13.75264,46.85171],[13.75496,46.85219],[13.75579,46.85229],[13.75628,46.85221],[13.7568,46.85182],[13.7562,46.85099]]}},{"type":"Feature","properties":{"kind":"piste","difficulty":"intermediate","name":"Nock IN-abfahrt","aerialway":null,"osm":"way/102685321"},"geometry":{"type":"LineString","coordinates":[[13.75776,46.85087],[13.75929,46.84961],[13.75939,46.84883],[13.7601,46.84809],[13.76149,46.84716],[13.76386,46.84608]]}},{"type":"Feature","properties":{"kind":"piste","difficulty":"intermediate","name":"Schartenabfahrt","aerialway":null,"osm":"way/102685322"},"geometry":{"type":"LineString","coordinates":[[13.74595,46.85046],[13.74531,46.85034],[13.74455,46.84994],[13.74306,46.84839],[13.74142,46.84789]]}},{"type":"Feature","properties":{"kind":"piste","difficulty":"easy","name":"Priedröfabfahrt","aerialway":null,"osm":"way/141813047"},"geometry":{"type":"LineString","coordinates":[[13.74978,46.82284],[13.74964,46.82344],[13.74921,46.82421],[13.74751,46.82591],[13.74871,46.82653],[13.75015,46.82806],[13.7502,46.82943],[13.75082,46.82857],[13.75096,46.82858],[13.75085,46.82889],[13.751,46.82989],[13.75147,46.83152],[13.75126,46.83183],[13.75048,46.8324],[13.75042,46.83271],[13.75098,46.83344],[13.75167,46.83407],[13.75241,46.83451],[13.75331,46.83546],[13.75383,46.83579],[13.75413,46.83617],[13.75417,46.83655],[13.75432,46.83623],[13.75411,46.83552],[13.75313,46.83393],[13.75321,46.83357],[13.75373,46.8329],[13.75452,46.8326],[13.75552,46.83242],[13.75628,46.83176],[13.75634,46.83137],[13.75542,46.82999],[13.75596,46.82932],[13.75647,46.82818],[13.75637,46.82762],[13.75586,46.82728],[13.75582,46.8266],[13.75625,46.82615],[13.75771,46.82559],[13.75813,46.82514]]}},{"type":"Feature","properties":{"kind":"piste","difficulty":"easy","name":"Priedröfabfahrt","aerialway":null,"osm":"way/141827182"},"geometry":{"type":"LineString","coordinates":[[13.7587,46.8296],[13.75871,46.82995],[13.75852,46.83017],[13.75906,46.83065],[13.75953,46.83209],[13.75977,46.83245],[13.76044,46.83488],[13.76094,46.83525],[13.76111,46.83556],[13.76099,46.83585],[13.76053,46.8363]]}},{"type":"Feature","properties":{"kind":"piste","difficulty":"easy","name":"Priedröfabfahrt","aerialway":null,"osm":"way/141827196"},"geometry":{"type":"LineString","coordinates":[[13.75813,46.82514],[13.75924,46.82408],[13.75965,46.82351],[13.75983,46.8235],[13.75914,46.826],[13.7579,46.82699],[13.75882,46.82757],[13.75858,46.82828],[13.7587,46.8296]]}},{"type":"Feature","properties":{"kind":"piste","difficulty":"easy","name":null,"aerialway":null,"osm":"way/144781927"},"geometry":{"type":"LineString","coordinates":[[13.77516,46.81028],[13.77634,46.81082],[13.77739,46.81075],[13.77865,46.8109],[13.77879,46.81076]]}},{"type":"Feature","properties":{"kind":"piste","difficulty":"intermediate","name":"Panoramaabfahrt","aerialway":null,"osm":"way/144783340"},"geometry":{"type":"LineString","coordinates":[[13.74165,46.8214],[13.74205,46.82156],[13.7424,46.82192],[13.74236,46.8231],[13.74196,46.82621],[13.7421,46.82702],[13.74247,46.82739]]}},{"type":"Feature","properties":{"kind":"piste","difficulty":"intermediate","name":"Priedröfabfahrt","aerialway":null,"osm":"way/144783341"},"geometry":{"type":"LineString","coordinates":[[13.74931,46.82281],[13.75123,46.82293],[13.75184,46.82283],[13.75255,46.82247],[13.75292,46.82242],[13.75531,46.82264],[13.7556,46.82291]]}},{"type":"Feature","properties":{"kind":"piste","difficulty":"intermediate","name":"Schartenabfahrt","aerialway":null,"osm":"way/144784240"},"geometry":{"type":"LineString","coordinates":[[13.74268,46.84487],[13.74188,46.84497],[13.74069,46.84555],[13.73978,46.84548],[13.73938,46.84523]]}},{"type":"Feature","properties":{"kind":"piste","difficulty":"easy","name":null,"aerialway":null,"osm":"way/144784247"},"geometry":{"type":"LineString","coordinates":[[13.74134,46.84452],[13.74188,46.84497]]}},{"type":"Feature","properties":{"kind":"piste","difficulty":"easy","name":null,"aerialway":null,"osm":"way/144784249"},"geometry":{"type":"LineString","coordinates":[[13.74389,46.8485],[13.7443,46.8482],[13.7452,46.84785]]}},{"type":"Feature","properties":{"kind":"piste","difficulty":"easy","name":null,"aerialway":null,"osm":"way/144784250"},"geometry":{"type":"LineString","coordinates":[[13.74268,46.84487],[13.74159,46.84407]]}},{"type":"Feature","properties":{"kind":"piste","difficulty":"easy","name":"Höhenabfahrt","aerialway":null,"osm":"way/248905936"},"geometry":{"type":"LineString","coordinates":[[13.74265,46.82771],[13.74247,46.82766],[13.74247,46.82739]]}},{"type":"Feature","properties":{"kind":"piste","difficulty":"easy","name":"Höhenabfahrt","aerialway":null,"osm":"way/248905937"},"geometry":{"type":"LineString","coordinates":[[13.74375,46.82866],[13.74364,46.8284],[13.74295,46.82791],[13.74236,46.8278],[13.74239,46.82749]]}},{"type":"Feature","properties":{"kind":"piste","difficulty":"easy","name":"Höhenabfahrt","aerialway":null,"osm":"way/248905938"},"geometry":{"type":"LineString","coordinates":[[13.74111,46.8364],[13.7411,46.83593],[13.74375,46.82866]]}},{"type":"Feature","properties":{"kind":"piste","difficulty":"easy","name":"Priedröfabfahrt","aerialway":null,"osm":"way/248905941"},"geometry":{"type":"LineString","coordinates":[[13.74363,46.82767],[13.74348,46.82749],[13.74336,46.82642],[13.74382,46.82503],[13.74454,46.82438],[13.74713,46.82311]]}},{"type":"Feature","properties":{"kind":"piste","difficulty":"easy","name":"Schartenabfahrt","aerialway":null,"osm":"way/248905942"},"geometry":{"type":"LineString","coordinates":[[13.746,46.85032],[13.7464,46.84977],[13.74656,46.84915],[13.74582,46.8486],[13.74541,46.84806]]}},{"type":"Feature","properties":{"kind":"piste","difficulty":"intermediate","name":"Schartenabfahrt","aerialway":null,"osm":"way/248905943"},"geometry":{"type":"LineString","coordinates":[[13.7452,46.84785],[13.74513,46.84753],[13.74378,46.84593],[13.74268,46.84487]]}},{"type":"Feature","properties":{"kind":"piste","difficulty":"intermediate","name":"Seenabfahrt","aerialway":null,"osm":"way/248905944"},"geometry":{"type":"LineString","coordinates":[[13.74041,46.84055],[13.74088,46.84092],[13.74158,46.84366],[13.74159,46.84407],[13.74115,46.8447],[13.74051,46.84487],[13.73953,46.84474],[13.73652,46.84368]]}},{"type":"Feature","properties":{"kind":"piste","difficulty":"intermediate","name":"Seenabfahrt","aerialway":null,"osm":"way/248905945"},"geometry":{"type":"LineString","coordinates":[[13.73724,46.83825],[13.74041,46.84055]]}},{"type":"Feature","properties":{"kind":"piste","difficulty":"intermediate","name":"Talabfahrt Priedölf","aerialway":null,"osm":"way/248905952"},"geometry":{"type":"LineString","coordinates":[[13.75875,46.82797],[13.75898,46.82826],[13.76038,46.82859],[13.76184,46.8301],[13.76262,46.83051],[13.76341,46.83068],[13.76336,46.83093]]}},{"type":"Feature","properties":{"kind":"piste","difficulty":"intermediate","name":"Wiesernockabfahrt","aerialway":null,"osm":"way/248905953"},"geometry":{"type":"LineString","coordinates":[[13.74173,46.83581],[13.74261,46.83541],[13.74398,46.83503],[13.74488,46.83448],[13.74686,46.83241],[13.74834,46.83118],[13.7505,46.83049],[13.75121,46.83052],[13.7528,46.83141],[13.75283,46.83197],[13.7522,46.83254],[13.75224,46.83279],[13.75346,46.83328],[13.75606,46.83364],[13.75874,46.83477],[13.75896,46.83463],[13.75949,46.83361],[13.75941,46.83216],[13.75956,46.83058],[13.76007,46.82977],[13.76044,46.82942],[13.76118,46.82948]]}},{"type":"Feature","properties":{"kind":"piste","difficulty":"intermediate","name":null,"aerialway":null,"osm":"way/248905954"},"geometry":{"type":"LineString","coordinates":[[13.75595,46.82248],[13.75577,46.82243]]}},{"type":"Feature","properties":{"kind":"piste","difficulty":"intermediate","name":null,"aerialway":null,"osm":"way/248905955"},"geometry":{"type":"LineString","coordinates":[[13.73652,46.84368],[13.73655,46.8439]]}},{"type":"Feature","properties":{"kind":"piste","difficulty":"intermediate","name":"Priedröfabfahrt","aerialway":null,"osm":"way/248905956"},"geometry":{"type":"LineString","coordinates":[[13.75852,46.82511],[13.75891,46.82514],[13.75927,46.82533]]}},{"type":"Feature","properties":{"kind":"piste","difficulty":"easy","name":null,"aerialway":null,"osm":"way/248905958"},"geometry":{"type":"LineString","coordinates":[[13.74247,46.82739],[13.74344,46.82695]]}},{"type":"Feature","properties":{"kind":"piste","difficulty":"easy","name":null,"aerialway":null,"osm":"way/248905959"},"geometry":{"type":"LineString","coordinates":[[13.75549,46.82188],[13.75541,46.822],[13.75596,46.82236]]}},{"type":"Feature","properties":{"kind":"piste","difficulty":"intermediate","name":"Langalmabfahrt","aerialway":null,"osm":"way/248905961"},"geometry":{"type":"LineString","coordinates":[[13.74111,46.8364],[13.73942,46.83619],[13.73583,46.8347],[13.73406,46.83417],[13.73326,46.83381],[13.73317,46.83356],[13.73335,46.83358]]}},{"type":"Feature","properties":{"kind":"piste","difficulty":"easy","name":null,"aerialway":null,"osm":"way/248905962"},"geometry":{"type":"LineString","coordinates":[[13.74364,46.8284],[13.74361,46.82815],[13.74391,46.82794]]}},{"type":"Feature","properties":{"kind":"piste","difficulty":"intermediate","name":null,"aerialway":null,"osm":"way/248905964"},"geometry":{"type":"LineString","coordinates":[[13.7719,46.81645],[13.77207,46.81673],[13.77188,46.81682]]}},{"type":"Feature","properties":{"kind":"piste","difficulty":"intermediate","name":null,"aerialway":null,"osm":"way/248905965"},"geometry":{"type":"LineString","coordinates":[[13.77133,46.81677],[13.77201,46.81661]]}},{"type":"Feature","properties":{"kind":"piste","difficulty":"advanced","name":"Radentheiner Steif","aerialway":null,"osm":"way/319321036"},"geometry":{"type":"LineString","coordinates":[[13.74067,46.83654],[13.74057,46.8368],[13.74112,46.83819],[13.74139,46.83843],[13.74149,46.8389],[13.74137,46.83991],[13.74088,46.84092]]}},{"type":"Feature","properties":{"kind":"piste","difficulty":"intermediate","name":"Maibrunnabfahrt","aerialway":null,"osm":"way/368370888"},"geometry":{"type":"LineString","coordinates":[[13.79362,46.78969],[13.79319,46.79005],[13.79114,46.79108],[13.79093,46.79169],[13.79127,46.79208],[13.79181,46.79236],[13.79179,46.7927],[13.79102,46.79326],[13.78951,46.79403],[13.78915,46.79431],[13.7889,46.79471],[13.78885,46.79562],[13.7895,46.79789],[13.78935,46.79844],[13.78818,46.8],[13.78808,46.80074],[13.78864,46.80158],[13.78961,46.80221],[13.79029,46.80341],[13.7905,46.80482],[13.79035,46.80526],[13.78942,46.806],[13.78676,46.80753],[13.7851,46.80756],[13.78316,46.80833],[13.7806,46.80859],[13.78026,46.80893],[13.77926,46.81077],[13.77885,46.81098],[13.77879,46.81076]]}},{"type":"Feature","properties":{"kind":"piste","difficulty":"intermediate","name":"Strohsackabfahrt","aerialway":null,"osm":"way/368370890"},"geometry":{"type":"LineString","coordinates":[[13.80182,46.78961],[13.80209,46.78974],[13.80137,46.79039],[13.80081,46.79066],[13.80018,46.79065]]}},{"type":"Feature","properties":{"kind":"piste","difficulty":"intermediate","name":"Sonnenhang","aerialway":null,"osm":"way/368370891"},"geometry":{"type":"LineString","coordinates":[[13.79909,46.79028],[13.79885,46.78992]]}},{"type":"Feature","properties":{"kind":"piste","difficulty":"intermediate","name":"Strohsackabfahrt","aerialway":null,"osm":"way/368370892"},"geometry":{"type":"LineString","coordinates":[[13.80018,46.79065],[13.79953,46.79066],[13.79816,46.79102],[13.7973,46.79152],[13.79707,46.7927],[13.79708,46.79395]]}},{"type":"Feature","properties":{"kind":"piste","difficulty":"intermediate","name":"Strohsackabfahrt","aerialway":null,"osm":"way/368370893"},"geometry":{"type":"LineString","coordinates":[[13.79677,46.79542],[13.79696,46.79578],[13.79789,46.79639],[13.79897,46.79671]]}},{"type":"Feature","properties":{"kind":"piste","difficulty":"advanced","name":"Klammerstich","aerialway":null,"osm":"way/368370895"},"geometry":{"type":"LineString","coordinates":[[13.79953,46.79066],[13.79905,46.79091],[13.79853,46.79149],[13.79823,46.79292],[13.79733,46.79356],[13.79708,46.79395]]}},{"type":"Feature","properties":{"kind":"piste","difficulty":"advanced","name":"Weltcupabfahrt Franz Klammer","aerialway":null,"osm":"way/368370896"},"geometry":{"type":"LineString","coordinates":[[13.79613,46.79725],[13.79656,46.79889],[13.79746,46.79973],[13.79733,46.80079],[13.79817,46.8022],[13.79838,46.80302],[13.7983,46.80377],[13.79801,46.80453],[13.79748,46.80492],[13.79644,46.80532]]}},{"type":"Feature","properties":{"kind":"piste","difficulty":"intermediate","name":"Strohsackabfahrt","aerialway":null,"osm":"way/368370897"},"geometry":{"type":"LineString","coordinates":[[13.79613,46.79725],[13.797,46.79724],[13.79897,46.79671],[13.7999,46.79673],[13.80099,46.79694],[13.80206,46.79732],[13.80406,46.79864],[13.80446,46.79894],[13.80566,46.80032],[13.80619,46.80048],[13.80706,46.80046],[13.8073,46.8006]]}},{"type":"Feature","properties":{"kind":"piste","difficulty":"intermediate","name":"Strohsackabfahrt","aerialway":null,"osm":"way/368370898"},"geometry":{"type":"LineString","coordinates":[[13.79708,46.79395],[13.79677,46.79542],[13.79611,46.79684],[13.79613,46.79725]]}},{"type":"Feature","properties":{"kind":"piste","difficulty":"intermediate","name":"Maibrunn-Weltcupabfahrt","aerialway":null,"osm":"way/368370899"},"geometry":{"type":"LineString","coordinates":[[13.79644,46.80532],[13.79401,46.80546],[13.79231,46.80603],[13.78914,46.80616]]}},{"type":"Feature","properties":{"kind":"piste","difficulty":"easy","name":null,"aerialway":null,"osm":"way/368370900"},"geometry":{"type":"LineString","coordinates":[[13.78676,46.80753],[13.78667,46.80793],[13.78707,46.8088],[13.78792,46.80983],[13.78765,46.8102],[13.78698,46.81037]]}},{"type":"Feature","properties":{"kind":"piste","difficulty":"easy","name":null,"aerialway":null,"osm":"way/368370901"},"geometry":{"type":"LineString","coordinates":[[13.78714,46.81054],[13.78698,46.81037],[13.78441,46.81122],[13.7838,46.81177],[13.78382,46.81243]]}},{"type":"Feature","properties":{"kind":"piste","difficulty":"easy","name":null,"aerialway":null,"osm":"way/368370903"},"geometry":{"type":"LineString","coordinates":[[13.80566,46.80032],[13.8057,46.80059],[13.80533,46.80235]]}},{"type":"Feature","properties":{"kind":"piste","difficulty":"easy","name":"Kaiserburgabfahrt","aerialway":null,"osm":"way/368370904"},"geometry":{"type":"LineString","coordinates":[[13.80086,46.81176],[13.80039,46.81234],[13.79963,46.81257],[13.7989,46.81261],[13.79891,46.81233]]}},{"type":"Feature","properties":{"kind":"piste","difficulty":"advanced","name":"Weltcupabfahrt Franz Klammer","aerialway":null,"osm":"way/368370905"},"geometry":{"type":"LineString","coordinates":[[13.79644,46.80532],[13.79637,46.80548],[13.79658,46.80616],[13.79743,46.80762],[13.79787,46.80806],[13.79903,46.80877],[13.7993,46.80962],[13.8007,46.81083],[13.80084,46.81115],[13.80086,46.81176]]}},{"type":"Feature","properties":{"kind":"piste","difficulty":"intermediate","name":"Sonnenhang","aerialway":null,"osm":"way/368370907"},"geometry":{"type":"LineString","coordinates":[[13.80018,46.79065],[13.79959,46.79009],[13.79827,46.78983],[13.79556,46.78955],[13.79362,46.78969]]}},{"type":"Feature","properties":{"kind":"piste","difficulty":"intermediate","name":"Sonnenhang","aerialway":null,"osm":"way/368370908"},"geometry":{"type":"LineString","coordinates":[[13.79362,46.78969],[13.79431,46.78996]]}},{"type":"Feature","properties":{"kind":"piste","difficulty":"intermediate","name":"Sonnenhang","aerialway":null,"osm":"way/368370909"},"geometry":{"type":"LineString","coordinates":[[13.79431,46.78996],[13.79484,46.79037]]}},{"type":"Feature","properties":{"kind":"piste","difficulty":"easy","name":"Maibrunn-Weltcupabfahrt","aerialway":null,"osm":"way/368370910"},"geometry":{"type":"LineString","coordinates":[[13.79431,46.78996],[13.79454,46.79038],[13.79531,46.79119],[13.79627,46.79297],[13.79705,46.79364]]}},{"type":"Feature","properties":{"kind":"piste","difficulty":"easy","name":"Kaiserburgabfahrt","aerialway":null,"osm":"way/368372555"},"geometry":{"type":"LineString","coordinates":[[13.82696,46.78376],[13.82551,46.78383]]}},{"type":"Feature","properties":{"kind":"piste","difficulty":"easy","name":"Kaiserburgabfahrt","aerialway":null,"osm":"way/368372556"},"geometry":{"type":"LineString","coordinates":[[13.80533,46.80235],[13.80518,46.80299],[13.80447,46.80442],[13.8034,46.80618],[13.80335,46.80741],[13.80345,46.80778],[13.80334,46.80853],[13.80276,46.80972],[13.80203,46.81047]]}},{"type":"Feature","properties":{"kind":"piste","difficulty":"easy","name":"Kaiserburgabfahrt","aerialway":null,"osm":"way/368372557"},"geometry":{"type":"LineString","coordinates":[[13.80518,46.80299],[13.8055,46.80461],[13.80548,46.80516],[13.80512,46.80656],[13.80469,46.8074],[13.80334,46.80853]]}},{"type":"Feature","properties":{"kind":"piste","difficulty":"intermediate","name":"Kaiserburgabfahrt","aerialway":null,"osm":"way/368372908"},"geometry":{"type":"LineString","coordinates":[[13.82687,46.78334],[13.82685,46.78326],[13.82646,46.78337],[13.82588,46.78374],[13.82551,46.78383]]}},{"type":"Feature","properties":{"kind":"piste","difficulty":"intermediate","name":"Kaiserburgabfahrt","aerialway":null,"osm":"way/368372909"},"geometry":{"type":"LineString","coordinates":[[13.82688,46.78327],[13.82613,46.78327],[13.82551,46.78383]]}},{"type":"Feature","properties":{"kind":"piste","difficulty":"easy","name":"Kaiserburgabfahrt","aerialway":null,"osm":"way/368374368"},"geometry":{"type":"LineString","coordinates":[[13.82657,46.78398],[13.82629,46.78381]]}},{"type":"Feature","properties":{"kind":"piste","difficulty":"easy","name":null,"aerialway":null,"osm":"way/368374369"},"geometry":{"type":"LineString","coordinates":[[13.83045,46.78723],[13.8303,46.78731],[13.82971,46.7871],[13.82908,46.78669],[13.82887,46.78638],[13.82806,46.78594],[13.82659,46.7855],[13.82305,46.78495],[13.82035,46.78512]]}},{"type":"Feature","properties":{"kind":"piste","difficulty":"novice","name":"Skiweg zur Hirschsprungabfahrt","aerialway":null,"osm":"way/368374370"},"geometry":{"type":"LineString","coordinates":[[13.83045,46.78727],[13.83061,46.78773],[13.83054,46.78861],[13.83072,46.78936],[13.83132,46.78955]]}},{"type":"Feature","properties":{"kind":"piste","difficulty":"intermediate","name":"Hirschsprungabfahrt","aerialway":null,"osm":"way/368374371"},"geometry":{"type":"LineString","coordinates":[[13.83132,46.78955],[13.83097,46.79058],[13.83038,46.79077],[13.82864,46.79054],[13.82811,46.7902],[13.82826,46.78986],[13.8282,46.78973],[13.82742,46.78958],[13.82697,46.78963]]}},{"type":"Feature","properties":{"kind":"piste","difficulty":"intermediate","name":"Muldenabfahrt","aerialway":null,"osm":"way/368374372"},"geometry":{"type":"LineString","coordinates":[[13.82901,46.78657],[13.8275,46.78631],[13.82687,46.78646],[13.8265,46.78699],[13.82657,46.78792]]}},{"type":"Feature","properties":{"kind":"piste","difficulty":"advanced","name":"Buckelpiste Hirschsprung","aerialway":null,"osm":"way/368374373"},"geometry":{"type":"LineString","coordinates":[[13.83045,46.78727],[13.82844,46.78922],[13.82742,46.78958]]}},{"type":"Feature","properties":{"kind":"piste","difficulty":"advanced","name":"Muldenabfahrt","aerialway":null,"osm":"way/368374374"},"geometry":{"type":"LineString","coordinates":[[13.82703,46.78427],[13.827,46.78456],[13.82645,46.78534],[13.82672,46.78656]]}},{"type":"Feature","properties":{"kind":"piste","difficulty":"easy","name":null,"aerialway":null,"osm":"way/368374375"},"geometry":{"type":"LineString","coordinates":[[13.82696,46.78376],[13.82696,46.78418]]}},{"type":"Feature","properties":{"kind":"piste","difficulty":"intermediate","name":"Muldenabfahrt","aerialway":null,"osm":"way/368375277"},"geometry":{"type":"LineString","coordinates":[[13.82243,46.78433],[13.82223,46.78453],[13.82224,46.78469],[13.82286,46.78582],[13.82368,46.7882],[13.82367,46.78851],[13.823,46.78997]]}},{"type":"Feature","properties":{"kind":"piste","difficulty":"unknown","name":null,"aerialway":null,"osm":"way/368375279"},"geometry":{"type":"LineString","coordinates":[[13.823,46.78997],[13.8232,46.78997],[13.82314,46.7898]]}},{"type":"Feature","properties":{"kind":"piste","difficulty":"intermediate","name":null,"aerialway":null,"osm":"way/368375280"},"geometry":{"type":"LineString","coordinates":[[13.82331,46.79007],[13.82326,46.79012]]}},{"type":"Feature","properties":{"kind":"piste","difficulty":"easy","name":"Muldenabfahrt","aerialway":null,"osm":"way/368375281"},"geometry":{"type":"LineString","coordinates":[[13.82323,46.79014],[13.82276,46.79018],[13.82242,46.79007],[13.82231,46.78991],[13.82232,46.7895],[13.82105,46.78866],[13.8202,46.7885],[13.8196,46.78874],[13.82018,46.78878],[13.81937,46.78926],[13.82052,46.78936],[13.82061,46.78948],[13.81879,46.79029],[13.81723,46.79172],[13.81512,46.79296]]}},{"type":"Feature","properties":{"kind":"piste","difficulty":"unknown","name":null,"aerialway":null,"osm":"way/368375282"},"geometry":{"type":"LineString","coordinates":[[13.82331,46.79013],[13.82347,46.79012]]}},{"type":"Feature","properties":{"kind":"piste","difficulty":"easy","name":null,"aerialway":null,"osm":"way/368375283"},"geometry":{"type":"LineString","coordinates":[[13.82326,46.79012],[13.82323,46.79014]]}},{"type":"Feature","properties":{"kind":"piste","difficulty":"intermediate","name":"Hirschsprungabfahrt","aerialway":null,"osm":"way/368375286"},"geometry":{"type":"LineString","coordinates":[[13.82697,46.78963],[13.82689,46.79004],[13.82463,46.79068],[13.8241,46.79065],[13.82326,46.79012]]}},{"type":"Feature","properties":{"kind":"piste","difficulty":"intermediate","name":"Muldenabfahrt","aerialway":null,"osm":"way/368375287"},"geometry":{"type":"LineString","coordinates":[[13.82657,46.78792],[13.82639,46.78819],[13.82558,46.78872],[13.82456,46.7897]]}},{"type":"Feature","properties":{"kind":"piste","difficulty":"intermediate","name":null,"aerialway":null,"osm":"way/368375288"},"geometry":{"type":"LineString","coordinates":[[13.82456,46.7897],[13.82356,46.78991],[13.82331,46.79007]]}},{"type":"Feature","properties":{"kind":"piste","difficulty":"intermediate","name":null,"aerialway":null,"osm":"way/368375289"},"geometry":{"type":"LineString","coordinates":[[13.82657,46.78792],[13.82665,46.78866],[13.82697,46.78963],[13.82456,46.7897]]}},{"type":"Feature","properties":{"kind":"piste","difficulty":"intermediate","name":"FIS K70","aerialway":null,"osm":"way/368376350"},"geometry":{"type":"LineString","coordinates":[[13.83097,46.79058],[13.83095,46.79245],[13.83075,46.79331],[13.83025,46.7938],[13.82921,46.79438],[13.82856,46.79491],[13.82804,46.79548],[13.82767,46.79613],[13.82753,46.79725],[13.82797,46.79833],[13.82791,46.79924],[13.82747,46.79964],[13.82433,46.80096],[13.82318,46.80172],[13.82274,46.80236],[13.82266,46.80276],[13.82264,46.80313],[13.82296,46.80409],[13.82295,46.80441],[13.82258,46.8046],[13.82167,46.80472],[13.82101,46.80503],[13.82113,46.80668],[13.82092,46.80673],[13.81957,46.80639],[13.81713,46.80718],[13.81573,46.80684],[13.8141,46.80675],[13.81277,46.8065],[13.81205,46.80648],[13.81089,46.8067],[13.81025,46.80636],[13.81097,46.80691],[13.81224,46.80706],[13.81659,46.80889],[13.81728,46.80929],[13.81873,46.8095],[13.81877,46.80959],[13.81757,46.80971],[13.81307,46.80962],[13.81164,46.80942],[13.811,46.8096],[13.80798,46.80949],[13.80765,46.80989],[13.80831,46.80972],[13.81252,46.81066],[13.81124,46.81079],[13.80792,46.81067],[13.80445,46.81112]]}},{"type":"Feature","properties":{"kind":"piste","difficulty":"intermediate","name":"FIS K70","aerialway":null,"osm":"way/368376351"},"geometry":{"type":"LineString","coordinates":[[13.82117,46.80664],[13.82127,46.80691],[13.82187,46.80738],[13.82186,46.80784],[13.82156,46.80809],[13.82025,46.80853],[13.8216,46.80997],[13.82168,46.81066],[13.82118,46.81164],[13.82119,46.81262],[13.82099,46.81315],[13.82076,46.81348],[13.82002,46.814]]}},{"type":"Feature","properties":{"kind":"piste","difficulty":"intermediate","name":null,"aerialway":null,"osm":"way/368661576"},"geometry":{"type":"LineString","coordinates":[[13.8073,46.8006],[13.80739,46.80075]]}},{"type":"Feature","properties":{"kind":"piste","difficulty":"intermediate","name":null,"aerialway":null,"osm":"way/368661577"},"geometry":{"type":"LineString","coordinates":[[13.8073,46.8006],[13.80732,46.80073],[13.80712,46.80091],[13.80692,46.80083]]}},{"type":"Feature","properties":{"kind":"piste","difficulty":"intermediate","name":"Kaiserburgabfahrt","aerialway":null,"osm":"way/368661579"},"geometry":{"type":"LineString","coordinates":[[13.8147,46.79061],[13.81416,46.79157],[13.8141,46.79199],[13.81452,46.79263],[13.8151,46.7929]]}},{"type":"Feature","properties":{"kind":"piste","difficulty":"intermediate","name":"Priedröfabfahrt","aerialway":null,"osm":"way/390634402"},"geometry":{"type":"LineString","coordinates":[[13.7552,46.8244],[13.75569,46.82486],[13.75565,46.82514],[13.75462,46.82618],[13.75464,46.82631],[13.75515,46.82631],[13.75725,46.82585]]}},{"type":"Feature","properties":{"kind":"piste","difficulty":"intermediate","name":"Brunnachabfahrt","aerialway":null,"osm":"way/394038796"},"geometry":{"type":"LineString","coordinates":[[13.74924,46.8539],[13.7502,46.85395],[13.75112,46.85384],[13.75259,46.85326],[13.7537,46.85328],[13.75586,46.853],[13.75627,46.85277],[13.75709,46.85145],[13.75776,46.85087],[13.75983,46.85087],[13.76102,46.85075],[13.76196,46.85045],[13.76252,46.84985],[13.76261,46.84911],[13.76253,46.84836],[13.76273,46.84754],[13.76319,46.84679],[13.76386,46.84608]]}},{"type":"Feature","properties":{"kind":"piste","difficulty":"intermediate","name":"Nock IN-abfahrt","aerialway":null,"osm":"way/394038797"},"geometry":{"type":"LineString","coordinates":[[13.74924,46.8539],[13.75124,46.85269],[13.75183,46.85251],[13.75239,46.8525],[13.75378,46.85302],[13.75401,46.85324]]}},{"type":"Feature","properties":{"kind":"piste","difficulty":"easy","name":null,"aerialway":null,"osm":"way/394038798"},"geometry":{"type":"LineString","coordinates":[[13.75258,46.85258],[13.75283,46.85208],[13.75316,46.85184]]}},{"type":"Feature","properties":{"kind":"piste","difficulty":"intermediate","name":"Brunnachabfahrt","aerialway":null,"osm":"way/478126763"},"geometry":{"type":"LineString","coordinates":[[13.74974,46.85648],[13.74897,46.85517],[13.74812,46.85435],[13.74821,46.85416],[13.74924,46.8539]]}},{"type":"Feature","properties":{"kind":"piste","difficulty":"easy","name":null,"aerialway":null,"osm":"way/672697239"},"geometry":{"type":"LineString","coordinates":[[13.78698,46.81037],[13.78571,46.81031],[13.78463,46.81044],[13.78412,46.81139]]}},{"type":"Feature","properties":{"kind":"piste","difficulty":"novice","name":"Verbindung Bachlift - Maibrunnbahn","aerialway":null,"osm":"way/674003767"},"geometry":{"type":"LineString","coordinates":[[13.7838,46.81177],[13.78216,46.81159]]}},{"type":"Feature","properties":{"kind":"piste","difficulty":"easy","name":"Lernhang Kaiserburg","aerialway":null,"osm":"way/674004154"},"geometry":{"type":"LineString","coordinates":[[13.80203,46.81047],[13.803,46.81077],[13.80474,46.81092],[13.80484,46.81103],[13.80039,46.81234]]}},{"type":"Feature","properties":{"kind":"piste","difficulty":"novice","name":"Verbindung Bachlift - Maibrunnbahn","aerialway":null,"osm":"way/674090349"},"geometry":{"type":"LineString","coordinates":[[13.78216,46.81159],[13.78142,46.81158],[13.78058,46.81138],[13.77998,46.81143],[13.77885,46.81098]]}},{"type":"Feature","properties":{"kind":"piste","difficulty":"easy","name":"Piste zum Sonnleitenlift","aerialway":null,"osm":"way/674091826"},"geometry":{"type":"LineString","coordinates":[[13.76386,46.84608],[13.76396,46.84524],[13.76379,46.84502]]}},{"type":"Feature","properties":{"kind":"piste","difficulty":"easy","name":"Piste Sonnleitenlift","aerialway":null,"osm":"way/674092804"},"geometry":{"type":"LineString","coordinates":[[13.75948,46.84574],[13.75966,46.84546],[13.76016,46.84536],[13.76338,46.84486],[13.76379,46.84502]]}},{"type":"Feature","properties":{"kind":"piste","difficulty":"easy","name":"Untere Bunnachabfahrt über den Übungshang","aerialway":null,"osm":"way/674093915"},"geometry":{"type":"LineString","coordinates":[[13.7647,46.84558],[13.76477,46.84485],[13.76561,46.84419],[13.76603,46.84426],[13.7659,46.84434]]}},{"type":"Feature","properties":{"kind":"piste","difficulty":"novice","name":"Übungshang","aerialway":null,"osm":"way/674094317"},"geometry":{"type":"LineString","coordinates":[[13.76525,46.84403],[13.76541,46.84376]]}},{"type":"Feature","properties":{"kind":"piste","difficulty":"novice","name":"Verbindungsweg Sonnenleitlift - Nationalparkbahn Brunnach","aerialway":null,"osm":"way/674094524"},"geometry":{"type":"LineString","coordinates":[[13.76379,46.84502],[13.76456,46.84489]]}},{"type":"Feature","properties":{"kind":"piste","difficulty":"novice","name":"Verbindungsweg Sonnenleitlift - Nationalparkbahn Brunnach Teil2","aerialway":null,"osm":"way/674094618"},"geometry":{"type":"LineString","coordinates":[[13.76456,46.84489],[13.76477,46.84485]]}},{"type":"Feature","properties":{"kind":"piste","difficulty":"novice","name":"Skiweg Nock-In - Rosennockabfahrt","aerialway":null,"osm":"way/674096023"},"geometry":{"type":"LineString","coordinates":[[13.74974,46.85648],[13.74946,46.85681],[13.74882,46.85632],[13.74799,46.85631],[13.74569,46.85506],[13.74566,46.85443],[13.74541,46.85371],[13.74454,46.85273],[13.74469,46.85252],[13.74458,46.85198],[13.74482,46.85172],[13.74465,46.85092],[13.7418,46.84864],[13.74089,46.84821],[13.74068,46.84776]]}},{"type":"Feature","properties":{"kind":"piste","difficulty":"novice","name":"Skiweg Rosennockabfahrt - Schartenabfahrt","aerialway":null,"osm":"way/674096476"},"geometry":{"type":"LineString","coordinates":[[13.74068,46.84776],[13.74116,46.84735],[13.74232,46.84707],[13.74284,46.84668],[13.7426,46.84552],[13.74268,46.84487]]}},{"type":"Feature","properties":{"kind":"piste","difficulty":"easy","name":"Ski- und Rodelweg Wöllaner Nock","aerialway":null,"osm":"way/674106174"},"geometry":{"type":"LineString","coordinates":[[13.82833,46.77653],[13.82804,46.77669],[13.82806,46.77703],[13.8275,46.77677],[13.8272,46.77622],[13.82727,46.77585],[13.82685,46.77597],[13.82647,46.77663],[13.82696,46.77912],[13.82766,46.7809]]}},{"type":"Feature","properties":{"kind":"piste","difficulty":"easy","name":"Skiweg Strocksackabfahrt - Kaiserburgabfahrt","aerialway":null,"osm":"way/674286979"},"geometry":{"type":"LineString","coordinates":[[13.80412,46.79869],[13.80462,46.79869],[13.8058,46.79841],[13.8073,46.79781],[13.80856,46.79786],[13.80958,46.79769],[13.81028,46.7982],[13.81186,46.79868],[13.81176,46.79877]]}},{"type":"Feature","properties":{"kind":"piste","difficulty":"easy","name":"Verbindung untere Strosackabfahrt - Kaiserburgbahn Mittelstation","aerialway":null,"osm":"way/674289032"},"geometry":{"type":"LineString","coordinates":[[13.80546,46.80011],[13.80735,46.79967],[13.80796,46.79996]]}},{"type":"Feature","properties":{"kind":"piste","difficulty":"easy","name":"Kaiserburgabfahrt","aerialway":null,"osm":"way/674290446"},"geometry":{"type":"LineString","coordinates":[[13.81176,46.79877],[13.80991,46.79867],[13.80879,46.79901],[13.80734,46.8008],[13.80597,46.80127],[13.80586,46.80177],[13.80533,46.80235]]}},{"type":"Feature","properties":{"kind":"piste","difficulty":"intermediate","name":"Kaiserburgabfahrt","aerialway":null,"osm":"way/674293549"},"geometry":{"type":"LineString","coordinates":[[13.80203,46.81047],[13.80194,46.8107],[13.80086,46.81176]]}},{"type":"Feature","properties":{"kind":"piste","difficulty":"novice","name":null,"aerialway":null,"osm":"way/674294600"},"geometry":{"type":"LineString","coordinates":[[13.78387,46.81107],[13.78348,46.81119],[13.78331,46.81145],[13.7833,46.81167],[13.78355,46.8118]]}},{"type":"Feature","properties":{"kind":"piste","difficulty":"novice","name":"Umgehung Maibrunnabfahrt - Startbereich","aerialway":null,"osm":"way/674297498"},"geometry":{"type":"LineString","coordinates":[[13.79653,46.79325],[13.79632,46.79326],[13.79591,46.79293],[13.79442,46.79141],[13.79343,46.79104],[13.79206,46.79103],[13.79161,46.79078]]}},{"type":"Feature","properties":{"kind":"piste","difficulty":"easy","name":"Brunnachabfahrt","aerialway":null,"osm":"way/674298143"},"geometry":{"type":"LineString","coordinates":[[13.76386,46.84608],[13.7647,46.84558],[13.76615,46.84437],[13.76603,46.84426]]}},{"type":"Feature","properties":{"kind":"piste","difficulty":"intermediate","name":"Kaiserburgabfahrt","aerialway":null,"osm":"way/674309978"},"geometry":{"type":"LineString","coordinates":[[13.82551,46.78383],[13.82283,46.78424],[13.82107,46.78479],[13.81836,46.786],[13.8182,46.78637],[13.81721,46.78686],[13.81585,46.78794],[13.81515,46.7888],[13.81476,46.78963],[13.8147,46.79061],[13.8151,46.7929],[13.81554,46.79356],[13.816,46.79389],[13.81728,46.79436],[13.81792,46.79497],[13.81834,46.79577],[13.81832,46.7966],[13.81766,46.79757],[13.8169,46.79791],[13.81554,46.79817],[13.81336,46.7981],[13.81285,46.79847],[13.81176,46.79877]]}},{"type":"Feature","properties":{"kind":"piste","difficulty":"easy","name":null,"aerialway":null,"osm":"way/754062570"},"geometry":{"type":"LineString","coordinates":[[13.74521,46.84936],[13.74526,46.84976],[13.74595,46.85046]]}},{"type":"Feature","properties":{"kind":"piste","difficulty":"intermediate","name":"Mallnockabfahrt","aerialway":null,"osm":"way/754062571"},"geometry":{"type":"LineString","coordinates":[[13.74595,46.85046],[13.74661,46.85131],[13.74706,46.85337],[13.74821,46.85416]]}},{"type":"Feature","properties":{"kind":"piste","difficulty":"intermediate","name":"Mallnockabfahrt","aerialway":null,"osm":"way/754062572"},"geometry":{"type":"LineString","coordinates":[[13.74685,46.85241],[13.74793,46.85232],[13.74948,46.85239],[13.75077,46.85296],[13.75259,46.85326]]}},{"type":"Feature","properties":{"kind":"piste","difficulty":"intermediate","name":null,"aerialway":null,"osm":"way/754064083"},"geometry":{"type":"LineString","coordinates":[[13.7719,46.81645],[13.77208,46.81652],[13.77208,46.81641],[13.77175,46.81595]]}},{"type":"Feature","properties":{"kind":"piste","difficulty":"advanced","name":"Priedröfabfahrt","aerialway":null,"osm":"way/1041940950"},"geometry":{"type":"LineString","coordinates":[[13.7552,46.8244],[13.75698,46.82485],[13.75761,46.82522],[13.75807,46.82524]]}},{"type":"Feature","properties":{"kind":"piste","difficulty":"intermediate","name":"Priedröfabfahrt","aerialway":null,"osm":"way/1041940951"},"geometry":{"type":"LineString","coordinates":[[13.75807,46.82524],[13.75852,46.82511]]}},{"type":"Feature","properties":{"kind":"piste","difficulty":"easy","name":null,"aerialway":null,"osm":"way/1041940952"},"geometry":{"type":"LineString","coordinates":[[13.75596,46.82236],[13.7556,46.82291]]}},{"type":"Feature","properties":{"kind":"piste","difficulty":"intermediate","name":"Priedröfabfahrt","aerialway":null,"osm":"way/1041940953"},"geometry":{"type":"LineString","coordinates":[[13.74247,46.82127],[13.7424,46.82192],[13.74287,46.82239],[13.74409,46.82278],[13.748,46.82312],[13.74931,46.82281]]}},{"type":"Feature","properties":{"kind":"piste","difficulty":"intermediate","name":"Panoramaabfahrt","aerialway":null,"osm":"way/1041948774"},"geometry":{"type":"LineString","coordinates":[[13.74165,46.8214],[13.74143,46.82153],[13.74125,46.82628],[13.74132,46.82715],[13.74161,46.82724],[13.74147,46.82705]]}},{"type":"Feature","properties":{"kind":"piste","difficulty":"intermediate","name":null,"aerialway":null,"osm":"way/1041948775"},"geometry":{"type":"LineString","coordinates":[[13.74247,46.82739],[13.74306,46.82755],[13.74401,46.82818]]}},{"type":"Feature","properties":{"kind":"piste","difficulty":"intermediate","name":null,"aerialway":null,"osm":"way/1041948776"},"geometry":{"type":"LineString","coordinates":[[13.74239,46.82749],[13.74161,46.82724]]}},{"type":"Feature","properties":{"kind":"piste","difficulty":"intermediate","name":null,"aerialway":null,"osm":"way/1041948777"},"geometry":{"type":"LineString","coordinates":[[13.7421,46.82702],[13.74161,46.82724]]}},{"type":"Feature","properties":{"kind":"piste","difficulty":"intermediate","name":null,"aerialway":null,"osm":"way/1041948778"},"geometry":{"type":"LineString","coordinates":[[13.74247,46.82127],[13.74165,46.8214]]}},{"type":"Feature","properties":{"kind":"piste","difficulty":"intermediate","name":"Langalmabfahrt","aerialway":null,"osm":"way/1041950610"},"geometry":{"type":"LineString","coordinates":[[13.7409,46.83665],[13.74114,46.83663],[13.74111,46.8364]]}},{"type":"Feature","properties":{"kind":"piste","difficulty":"intermediate","name":"Seenabfahrt","aerialway":null,"osm":"way/1041950611"},"geometry":{"type":"LineString","coordinates":[[13.74131,46.83676],[13.7414,46.83654],[13.74111,46.8364]]}},{"type":"Feature","properties":{"kind":"piste","difficulty":"easy","name":"Höhenabfahrt","aerialway":null,"osm":"way/1041950612"},"geometry":{"type":"LineString","coordinates":[[13.7415,46.83582],[13.7412,46.83609],[13.74111,46.8364]]}},{"type":"Feature","properties":{"kind":"piste","difficulty":"intermediate","name":"Seenabfahrt","aerialway":null,"osm":"way/1041950613"},"geometry":{"type":"LineString","coordinates":[[13.74051,46.84487],[13.73938,46.84523]]}},{"type":"Feature","properties":{"kind":"piste","difficulty":"intermediate","name":null,"aerialway":null,"osm":"way/1041950614"},"geometry":{"type":"LineString","coordinates":[[13.73652,46.84368],[13.73664,46.84336]]}},{"type":"Feature","properties":{"kind":"piste","difficulty":"easy","name":"Priedröfabfahrt","aerialway":null,"osm":"way/1091342073"},"geometry":{"type":"LineString","coordinates":[[13.76053,46.8363],[13.7606,46.83642],[13.7614,46.83645]]}},{"type":"Feature","properties":{"kind":"piste","difficulty":"easy","name":"Schartenabfahrt","aerialway":null,"osm":"way/1091342083"},"geometry":{"type":"LineString","coordinates":[[13.74595,46.85046],[13.746,46.85032]]}},{"type":"Feature","properties":{"kind":"piste","difficulty":"easy","name":"Schartenabfahrt","aerialway":null,"osm":"way/1091342084"},"geometry":{"type":"LineString","coordinates":[[13.74541,46.84806],[13.7452,46.84785]]}},{"type":"Feature","properties":{"kind":"piste","difficulty":"easy","name":null,"aerialway":null,"osm":"way/1110812346"},"geometry":{"type":"LineString","coordinates":[[13.82696,46.78418],[13.8273,46.78455],[13.82864,46.78533],[13.82925,46.78552],[13.82964,46.786],[13.83004,46.78687],[13.83045,46.78723]]}},{"type":"Feature","properties":{"kind":"piste","difficulty":"easy","name":null,"aerialway":null,"osm":"way/1110812347"},"geometry":{"type":"LineString","coordinates":[[13.82657,46.78398],[13.82696,46.78418]]}},{"type":"Feature","properties":{"kind":"piste","difficulty":"easy","name":"Kaiserburgabfahrt","aerialway":null,"osm":"way/1110812348"},"geometry":{"type":"LineString","coordinates":[[13.82687,46.78334],[13.82707,46.78345],[13.82696,46.78376]]}},{"type":"Feature","properties":{"kind":"piste","difficulty":"easy","name":"Kaiserburgabfahrt","aerialway":null,"osm":"way/1110812349"},"geometry":{"type":"LineString","coordinates":[[13.82673,46.78351],[13.82687,46.78334]]}},{"type":"Feature","properties":{"kind":"piste","difficulty":"easy","name":"Ski- und Rodelweg Wöllaner Nock","aerialway":null,"osm":"way/1110812350"},"geometry":{"type":"LineString","coordinates":[[13.82766,46.7809],[13.82774,46.78138],[13.82765,46.78216],[13.82687,46.78334]]}},{"type":"Feature","properties":{"kind":"piste","difficulty":"novice","name":"Skiroute 29 Verbindung Langalmabfahrt","aerialway":null,"osm":"way/1337684289"},"geometry":{"type":"LineString","coordinates":[[13.74247,46.82766],[13.74185,46.82801],[13.74121,46.82918],[13.74128,46.83062],[13.74045,46.83195],[13.73964,46.83291],[13.73831,46.83388],[13.73722,46.83489],[13.7368,46.8351]]}},{"type":"Feature","properties":{"kind":"lift","difficulty":null,"name":"Kaiserburgbahn I","aerialway":"gondola","osm":"way/26703389"},"geometry":{"type":"LineString","coordinates":[[13.79891,46.81233],[13.80839,46.80014]]}},{"type":"Feature","properties":{"kind":"lift","difficulty":null,"name":"Maibrunnbahn","aerialway":"chair_lift","osm":"way/26710665"},"geometry":{"type":"LineString","coordinates":[[13.77879,46.81076],[13.79362,46.78969]]}},{"type":"Feature","properties":{"kind":"lift","difficulty":null,"name":"Priedröflift","aerialway":"t-bar","osm":"way/26710669"},"geometry":{"type":"LineString","coordinates":[[13.75577,46.82243],[13.74247,46.82127]]}},{"type":"Feature","properties":{"kind":"lift","difficulty":null,"name":"Höhenlift","aerialway":"t-bar","osm":"way/26710672"},"geometry":{"type":"LineString","coordinates":[[13.74401,46.82818],[13.74136,46.83627]]}},{"type":"Feature","properties":{"kind":"lift","difficulty":null,"name":"Wiesernockbahn","aerialway":"chair_lift","osm":"way/26710673"},"geometry":{"type":"LineString","coordinates":[[13.73664,46.84336],[13.74131,46.83676]]}},{"type":"Feature","properties":{"kind":"lift","difficulty":null,"name":"Schartenbahn","aerialway":"chair_lift","osm":"way/26710674"},"geometry":{"type":"LineString","coordinates":[[13.73655,46.8439],[13.74513,46.8493]]}},{"type":"Feature","properties":{"kind":"lift","difficulty":null,"name":"Spitzeckbahn","aerialway":"chair_lift","osm":"way/26710675"},"geometry":{"type":"LineString","coordinates":[[13.7562,46.85099],[13.74557,46.84922]]}},{"type":"Feature","properties":{"kind":"lift","difficulty":null,"name":"Biosphärenparkbahn Brunnach","aerialway":"gondola","osm":"way/26710676"},"geometry":{"type":"LineString","coordinates":[[13.7659,46.84434],[13.74996,46.85664]]}},{"type":"Feature","properties":{"kind":"lift","difficulty":null,"name":"Sonnwiesenbahn II","aerialway":"chair_lift","osm":"way/29359843"},"geometry":{"type":"LineString","coordinates":[[13.77188,46.81682],[13.75549,46.82188]]}},{"type":"Feature","properties":{"kind":"lift","difficulty":null,"name":"Panoramalift","aerialway":"platter","osm":"way/29361393"},"geometry":{"type":"LineString","coordinates":[[13.74147,46.82705],[13.74165,46.8214]]}},{"type":"Feature","properties":{"kind":"lift","difficulty":null,"name":"Sonnwiesenbahn I","aerialway":"chair_lift","osm":"way/29361395"},"geometry":{"type":"LineString","coordinates":[[13.77273,46.81161],[13.7719,46.81645]]}},{"type":"Feature","properties":{"kind":"lift","difficulty":null,"name":"Strohsackbahn","aerialway":"chair_lift","osm":"way/29361396"},"geometry":{"type":"LineString","coordinates":[[13.80692,46.80083],[13.80182,46.78961]]}},{"type":"Feature","properties":{"kind":"lift","difficulty":null,"name":"Sonnenhanglift","aerialway":"t-bar","osm":"way/29361398"},"geometry":{"type":"LineString","coordinates":[[13.79484,46.79037],[13.79964,46.79027]]}},{"type":"Feature","properties":{"kind":"lift","difficulty":null,"name":"Hirschsprunglift","aerialway":"t-bar","osm":"way/29361399"},"geometry":{"type":"LineString","coordinates":[[13.82347,46.79012],[13.83198,46.7895]]}},{"type":"Feature","properties":{"kind":"lift","difficulty":null,"name":"Kaiserburgbahn II","aerialway":"gondola","osm":"way/29361400"},"geometry":{"type":"LineString","coordinates":[[13.80881,46.79995],[13.82673,46.78351]]}},{"type":"Feature","properties":{"kind":"lift","difficulty":null,"name":"Muldenlift","aerialway":"t-bar","osm":"way/29545332"},"geometry":{"type":"LineString","coordinates":[[13.82309,46.78989],[13.82675,46.78373]]}},{"type":"Feature","properties":{"kind":"lift","difficulty":null,"name":"Trattniglift","aerialway":"platter","osm":"way/102685323"},"geometry":{"type":"LineString","coordinates":[[13.77395,46.81118],[13.77516,46.81028]]}},{"type":"Feature","properties":{"kind":"lift","difficulty":null,"name":"Millstätter See Bahn","aerialway":"chair_lift","osm":"way/244854314"},"geometry":{"type":"LineString","coordinates":[[13.73335,46.83358],[13.7409,46.83665]]}},{"type":"Feature","properties":{"kind":"lift","difficulty":null,"name":"Nockalmbahn","aerialway":"gondola","osm":"way/248905939"},"geometry":{"type":"LineString","coordinates":[[13.76336,46.83093],[13.74265,46.82771]]}},{"type":"Feature","properties":{"kind":"lift","difficulty":null,"name":"Bachlift","aerialway":"platter","osm":"way/321177888"},"geometry":{"type":"LineString","coordinates":[[13.78382,46.81243],[13.78724,46.81047]]}},{"type":"Feature","properties":{"kind":"lift","difficulty":null,"name":"Sonnleitenlift","aerialway":"drag_lift","osm":"way/478126764"},"geometry":{"type":"LineString","coordinates":[[13.76379,46.84502],[13.75948,46.84574]]}},{"type":"Feature","properties":{"kind":"lift","difficulty":null,"name":"Ottinger Förderband","aerialway":"magic_carpet","osm":"way/674005525"},"geometry":{"type":"LineString","coordinates":[[13.80179,46.81226],[13.80355,46.81156]]}},{"type":"Feature","properties":{"kind":"lift","difficulty":null,"name":"Zauberteppich an der Talstation der Nationalparkbahn","aerialway":"magic_carpet","osm":"way/674093501"},"geometry":{"type":"LineString","coordinates":[[13.76541,46.84376],[13.76525,46.84403]]}},{"type":"Feature","properties":{"kind":"lift","difficulty":null,"name":"Bach Starlift","aerialway":"magic_carpet","osm":"way/674294456"},"geometry":{"type":"LineString","coordinates":[[13.78355,46.8118],[13.78387,46.81107]]}},{"type":"Feature","properties":{"kind":"lift","difficulty":null,"name":null,"aerialway":"drag_lift","osm":"way/1230888695"},"geometry":{"type":"LineString","coordinates":[[13.79884,46.81187],[13.79849,46.80948],[13.79773,46.80858],[13.79669,46.80764]]}},{"type":"Feature","properties":{"kind":"lift","difficulty":null,"name":null,"aerialway":"magic_carpet","osm":"way/1473714330"},"geometry":{"type":"LineString","coordinates":[[13.78417,46.81108],[13.7846,46.80979]]}},{"type":"Feature","properties":{"kind":"lift","difficulty":null,"name":null,"aerialway":"magic_carpet","osm":"way/1473714331"},"geometry":{"type":"LineString","coordinates":[[13.78273,46.81151],[13.78297,46.81123]]}}]}