{"type":"FeatureCollection","features":[{"type":"Feature","properties":{"kind":"lift","difficulty":null,"name":"Zirbenlift 2","aerialway":"platter","osm":"way/204891348"},"geometry":{"type":"LineString","coordinates":[[13.99721,46.86561],[13.99127,46.86557]]}},{"type":"Feature","properties":{"kind":"lift","difficulty":null,"name":"Zirbenlift 1","aerialway":"t-bar","osm":"way/204891350"},"geometry":{"type":"LineString","coordinates":[[13.99756,46.86547],[13.98892,46.86504]]}},{"type":"Feature","properties":{"kind":"piste","difficulty":"easy","name":null,"aerialway":null,"osm":"way/204892665"},"geometry":{"type":"LineString","coordinates":[[13.98953,46.86508],[13.99012,46.86486],[13.99093,46.86401],[13.99123,46.86343],[13.99141,46.86242]]}},{"type":"Feature","properties":{"kind":"piste","difficulty":"easy","name":null,"aerialway":null,"osm":"way/204893518"},"geometry":{"type":"LineString","coordinates":[[13.98757,46.86285],[13.98742,46.86348],[13.98863,46.86516]]}},{"type":"Feature","properties":{"kind":"lift","difficulty":null,"name":"Kegellift","aerialway":"t-bar","osm":"way/204893519"},"geometry":{"type":"LineString","coordinates":[[13.99789,46.85994],[13.9869,46.86304]]}},{"type":"Feature","properties":{"kind":"lift","difficulty":null,"name":"Stoichartlift","aerialway":"t-bar","osm":"way/204893853"},"geometry":{"type":"LineString","coordinates":[[13.99195,46.87504],[13.98825,46.86484]]}},{"type":"Feature","properties":{"kind":"piste","difficulty":"intermediate","name":"Stoichartabfahrt 2","aerialway":null,"osm":"way/204894818"},"geometry":{"type":"LineString","coordinates":[[13.98863,46.86516],[13.98821,46.86541],[13.98795,46.86605],[13.98685,46.86723],[13.98591,46.86767],[13.98632,46.86838],[13.9868,46.86854],[13.98846,46.86863],[13.98918,46.86965],[13.99051,46.87027]]}},{"type":"Feature","properties":{"kind":"piste","difficulty":"intermediate","name":"Stoichartabfahrt 1","aerialway":null,"osm":"way/204907977"},"geometry":{"type":"LineString","coordinates":[[13.98863,46.86516],[13.98931,46.86745],[13.99102,46.87154],[13.99163,46.87331],[13.99187,46.87458],[13.99218,46.87487],[13.99215,46.87508],[13.99193,46.87499]]}},{"type":"Feature","properties":{"kind":"piste","difficulty":"easy","name":null,"aerialway":null,"osm":"way/204907978"},"geometry":{"type":"LineString","coordinates":[[13.98836,46.8652],[13.98863,46.86516],[13.98969,46.86544]]}},{"type":"Feature","properties":{"kind":"lift","difficulty":null,"name":"Verbindungslift","aerialway":"rope_tow","osm":"way/204911100"},"geometry":{"type":"LineString","coordinates":[[13.98748,46.86274],[13.98644,46.86183]]}},{"type":"Feature","properties":{"kind":"lift","difficulty":null,"name":"4er Sesselbahn Sonnlift","aerialway":"chair_lift","osm":"way/204911102"},"geometry":{"type":"LineString","coordinates":[[13.97799,46.85001],[13.9861,46.86175]]}},{"type":"Feature","properties":{"kind":"piste","difficulty":"advanced","name":"Kruckenabfahrt 1","aerialway":null,"osm":"way/204911103"},"geometry":{"type":"LineString","coordinates":[[13.96974,46.8392],[13.97121,46.83951],[13.97213,46.84016],[13.97281,46.84249],[13.97358,46.84323],[13.97492,46.84508],[13.9764,46.84584],[13.97758,46.84715],[13.97748,46.8477],[13.97803,46.84844],[13.97813,46.8492],[13.97846,46.84978],[13.97839,46.84999],[13.97826,46.85001],[13.97829,46.84988],[13.97802,46.84975]]}},{"type":"Feature","properties":{"kind":"piste","difficulty":"intermediate","name":"Sonnenabfahrt 2","aerialway":null,"osm":"way/204911104"},"geometry":{"type":"LineString","coordinates":[[13.98629,46.86186],[13.98573,46.86188],[13.98305,46.86106],[13.98211,46.86041],[13.98244,46.85923],[13.98172,46.85738],[13.98167,46.85613],[13.98129,46.85504],[13.9813,46.8534]]}},{"type":"Feature","properties":{"kind":"piste","difficulty":"advanced","name":"Kruckenabfahrt 2","aerialway":null,"osm":"way/204911105"},"geometry":{"type":"LineString","coordinates":[[13.97121,46.83951],[13.97124,46.83995],[13.97044,46.84045],[13.9723,46.84282],[13.97429,46.84691],[13.97521,46.84805],[13.97588,46.84854],[13.97762,46.84944],[13.97811,46.85001],[13.97826,46.85001]]}},{"type":"Feature","properties":{"kind":"piste","difficulty":"easy","name":null,"aerialway":null,"osm":"way/204911109"},"geometry":{"type":"LineString","coordinates":[[13.98629,46.86186],[13.9873,46.86276],[13.98744,46.86309]]}},{"type":"Feature","properties":{"kind":"piste","difficulty":"intermediate","name":"Sonnenabfahrt 1","aerialway":null,"osm":"way/204911113"},"geometry":{"type":"LineString","coordinates":[[13.9861,46.86175],[13.98629,46.86186],[13.98621,46.86116],[13.98556,46.86006],[13.98494,46.85849],[13.98545,46.85777],[13.9857,46.85697],[13.98505,46.85536],[13.98431,46.8547],[13.9813,46.8534],[13.98133,46.85214],[13.97938,46.85059],[13.97826,46.85001],[13.97805,46.85022],[13.97783,46.85],[13.9779,46.84989],[13.97799,46.85001]]}},{"type":"Feature","properties":{"kind":"lift","difficulty":null,"name":"Kruckenlift","aerialway":"t-bar","osm":"way/204911115"},"geometry":{"type":"LineString","coordinates":[[13.97808,46.84985],[13.96949,46.83886]]}},{"type":"Feature","properties":{"kind":"piste","difficulty":"intermediate","name":"Sonnenabfahrt 3","aerialway":null,"osm":"way/204911117"},"geometry":{"type":"LineString","coordinates":[[13.98629,46.86186],[13.98643,46.86123],[13.98627,46.85995],[13.9865,46.85917],[13.98621,46.85794],[13.9857,46.85697]]}},{"type":"Feature","properties":{"kind":"piste","difficulty":"easy","name":null,"aerialway":null,"osm":"way/204911119"},"geometry":{"type":"LineString","coordinates":[[13.98854,46.86491],[13.98944,46.86501],[13.99012,46.86486]]}},{"type":"Feature","properties":{"kind":"piste","difficulty":"easy","name":"Zirbenkeglabfahrt 1","aerialway":null,"osm":"way/204911123"},"geometry":{"type":"LineString","coordinates":[[13.99227,46.86591],[13.99622,46.86588],[13.99744,46.86567],[13.99756,46.86547]]}},{"type":"Feature","properties":{"kind":"piste","difficulty":"intermediate","name":"Kegelabfahrt","aerialway":null,"osm":"way/204911124"},"geometry":{"type":"LineString","coordinates":[[13.98757,46.86285],[13.98768,46.86306],[13.98862,46.86326],[13.99141,46.86242],[13.99303,46.86211],[13.99438,46.86142],[13.99552,46.86105],[13.99719,46.86095],[13.99789,46.85994]]}},{"type":"Feature","properties":{"kind":"piste","difficulty":"easy","name":null,"aerialway":null,"osm":"way/1039021021"},"geometry":{"type":"LineString","coordinates":[[13.99141,46.86242],[13.99293,46.86448],[13.99337,46.86591]]}},{"type":"Feature","properties":{"kind":"piste","difficulty":"easy","name":null,"aerialway":null,"osm":"way/1039021022"},"geometry":{"type":"LineString","coordinates":[[13.9842,46.86142],[13.98359,46.86174],[13.98371,46.86194],[13.98495,46.86289],[13.98586,46.8639],[13.98632,46.86464],[13.98622,46.86586],[13.98571,46.86689],[13.98559,46.86766],[13.98582,46.86819],[13.9868,46.86854]]}},{"type":"Feature","properties":{"kind":"piste","difficulty":"intermediate","name":null,"aerialway":null,"osm":"way/1056454718"},"geometry":{"type":"LineString","coordinates":[[13.98757,46.86285],[13.98748,46.86274]]}},{"type":"Feature","properties":{"kind":"piste","difficulty":"intermediate","name":null,"aerialway":null,"osm":"way/1056454719"},"geometry":{"type":"LineString","coordinates":[[13.98644,46.86183],[13.98629,46.86186]]}},{"type":"Feature","properties":{"kind":"piste","difficulty":"easy","name":"Zirbenkeglabfahrt 1","aerialway":null,"osm":"way/1056454720"},"geometry":{"type":"LineString","coordinates":[[13.99184,46.86557],[13.99227,46.86591]]}},{"type":"Feature","properties":{"kind":"piste","difficulty":"easy","name":"Zirbenkeglabfahrt 1","aerialway":null,"osm":"way/1056454721"},"geometry":{"type":"LineString","coordinates":[[13.99708,46.86573],[13.99715,46.86561]]}},{"type":"Feature","properties":{"kind":"piste","difficulty":"easy","name":null,"aerialway":null,"osm":"way/1462400673"},"geometry":{"type":"LineString","coordinates":[[13.99705,46.86569],[13.99752,46.8656],[13.9976,46.86581],[13.99618,46.86615],[13.99437,46.86604],[13.99386,46.86622],[13.9921,46.86632],[13.99106,46.86617],[13.99018,46.86587],[13.98882,46.86526],[13.98882,46.86509],[13.98924,46.86529],[13.98945,46.86526],[13.98942,46.86504],[13.98965,46.86506],[13.98972,46.86529],[13.99115,46.86571],[13.99166,46.86568],[13.99177,46.86554],[13.99205,46.86566],[13.99705,46.86569]]}},{"type":"Feature","properties":{"kind":"piste","difficulty":"intermediate","name":null,"aerialway":null,"osm":"way/1462400674"},"geometry":{"type":"LineString","coordinates":[[13.98918,46.86542],[13.98882,46.86526],[13.98882,46.86509],[13.98838,46.86517],[13.99197,46.87504],[13.99247,46.87504],[13.99171,46.87289],[13.99173,46.8722],[13.99118,46.87119],[13.9904,46.86899],[13.98956,46.86727],[13.98895,46.86562],[13.98918,46.86542]]}},{"type":"Feature","properties":{"kind":"piste","difficulty":"intermediate","name":null,"aerialway":null,"osm":"way/1462400675"},"geometry":{"type":"LineString","coordinates":[[13.98838,46.86517],[13.98801,46.86543],[13.98806,46.86561],[13.98789,46.86597],[13.98737,46.86663],[13.98673,46.86719],[13.9864,46.86727],[13.98579,46.86771],[13.98625,46.86844],[13.98845,46.86871],[13.98901,46.86968],[13.99025,46.87032],[13.99012,46.86996],[13.98936,46.86957],[13.98856,46.86841],[13.98825,46.86861],[13.98643,46.8684],[13.98608,46.86774],[13.98649,46.86762],[13.98708,46.86721],[13.98777,46.86653],[13.98839,46.86545],[13.98838,46.86517]]}},{"type":"Feature","properties":{"kind":"piste","difficulty":"easy","name":"Zirbenkeglabfahrt 1","aerialway":null,"osm":"way/1462610291"},"geometry":{"type":"LineString","coordinates":[[13.98953,46.86508],[13.98969,46.86544],[13.99106,46.86588],[13.99227,46.86591]]}},{"type":"Feature","properties":{"kind":"piste","difficulty":"intermediate","name":null,"aerialway":null,"osm":"way/1462610292"},"geometry":{"type":"LineString","coordinates":[[13.98742,46.86275],[13.98753,46.86271],[13.98771,46.86303],[13.98812,46.86317],[13.989,46.86303],[13.98949,46.86276],[13.99038,46.86259],[13.99112,46.86224],[13.99354,46.86167],[13.99521,46.86087],[13.99614,46.86062],[13.99719,46.86086],[13.99734,46.86062],[13.99739,46.86004],[13.99794,46.8599],[13.99719,46.86103],[13.99495,46.8614],[13.99328,46.86218],[13.99109,46.86268],[13.9905,46.86315],[13.98813,46.86328],[13.98759,46.86307],[13.98742,46.86275]]}},{"type":"Feature","properties":{"kind":"piste","difficulty":"easy","name":null,"aerialway":null,"osm":"way/1462610294"},"geometry":{"type":"LineString","coordinates":[[13.99336,46.86565],[13.99323,46.86565],[13.9929,46.86449],[13.99215,46.86342],[13.99153,46.86278],[13.99102,46.86402],[13.99025,46.86487],[13.98965,46.86506],[13.98878,46.86502],[13.98876,46.86491],[13.98943,46.86496],[13.99007,46.86483],[13.99088,46.864],[13.99133,46.86268],[13.99157,46.86265],[13.99226,46.8634],[13.99296,46.86447],[13.99336,46.86565]]}},{"type":"Feature","properties":{"kind":"piste","difficulty":"intermediate","name":null,"aerialway":null,"osm":"way/1462658920"},"geometry":{"type":"LineString","coordinates":[[13.98607,46.8619],[13.98598,46.86175],[13.98619,46.86167],[13.98578,46.86116],[13.98547,46.86018],[13.98455,46.8586],[13.9852,46.85792],[13.98547,46.85718],[13.98482,46.85525],[13.98433,46.85492],[13.98196,46.8539],[13.98113,46.85321],[13.98105,46.85285],[13.9812,46.85229],[13.98104,46.85199],[13.98017,46.85115],[13.97872,46.85009],[13.97829,46.85004],[13.97808,46.85025],[13.97783,46.84992],[13.97796,46.84991],[13.97803,46.84999],[13.97786,46.85],[13.97815,46.85021],[13.9781,46.85001],[13.97829,46.84991],[13.97799,46.84973],[13.97835,46.84992],[13.97866,46.84988],[13.98038,46.85109],[13.98128,46.85193],[13.98152,46.85256],[13.98183,46.85284],[13.98192,46.85337],[13.98303,46.85403],[13.98333,46.85396],[13.98406,46.85442],[13.98452,46.85451],[13.9847,46.85485],[13.98493,46.85481],[13.9852,46.85512],[13.98562,46.85628],[13.98607,46.85702],[13.9858,46.85751],[13.98549,46.85891],[13.98608,46.85979],[13.9858,46.86],[13.98667,46.86047],[13.98677,46.86075],[13.98653,46.86099],[13.98649,46.86179],[13.98607,46.8619]]}},{"type":"Feature","properties":{"kind":"piste","difficulty":"intermediate","name":null,"aerialway":null,"osm":"way/1462658921"},"geometry":{"type":"LineString","coordinates":[[13.98606,46.86023],[13.98667,46.86047],[13.98691,46.85935],[13.98666,46.8588],[13.9867,46.85808],[13.98626,46.85758],[13.98607,46.85702],[13.9858,46.85751],[13.98609,46.85807],[13.98616,46.85904],[13.98633,46.85952],[13.98606,46.86023]]}},{"type":"Feature","properties":{"kind":"piste","difficulty":"intermediate","name":null,"aerialway":null,"osm":"way/1462658922"},"geometry":{"type":"LineString","coordinates":[[13.98607,46.8619],[13.98575,46.86196],[13.98409,46.86141],[13.98303,46.86125],[13.98216,46.86068],[13.98186,46.86012],[13.98197,46.85959],[13.98163,46.85711],[13.9812,46.85597],[13.98113,46.85321],[13.98196,46.8539],[13.98247,46.85677],[13.98233,46.85838],[13.98292,46.85929],[13.9826,46.85993],[13.98324,46.86107],[13.98573,46.86184],[13.98598,46.86175],[13.98607,46.8619]]}},{"type":"Feature","properties":{"kind":"piste","difficulty":"easy","name":null,"aerialway":null,"osm":"way/1462658923"},"geometry":{"type":"LineString","coordinates":[[13.98649,46.86179],[13.98643,46.8619],[13.98751,46.86292],[13.98759,46.86307],[13.98746,46.86315],[13.98749,46.86347],[13.98773,46.86391],[13.98816,46.8645],[13.98876,46.86491],[13.98882,46.86509],[13.9885,46.86515],[13.98838,46.8648],[13.98741,46.86348],[13.98727,46.86277],[13.98633,46.86192],[13.98607,46.8619],[13.98649,46.86179]]}},{"type":"Feature","properties":{"kind":"piste","difficulty":"advanced","name":null,"aerialway":null,"osm":"way/1462658924"},"geometry":{"type":"LineString","coordinates":[[13.97835,46.84992],[13.97807,46.84962],[13.97773,46.84851],[13.97728,46.8477],[13.97738,46.84712],[13.9764,46.84607],[13.97564,46.84578],[13.97499,46.84577],[13.97234,46.84232],[13.97167,46.84059],[13.97129,46.84014],[13.97024,46.83933],[13.9696,46.83912],[13.97157,46.83918],[13.97254,46.8399],[13.97299,46.8412],[13.9731,46.8423],[13.97427,46.84351],[13.97524,46.84488],[13.97692,46.84571],[13.97715,46.84593],[13.97729,46.84661],[13.97784,46.84719],[13.9777,46.84769],[13.97818,46.84849],[13.97818,46.84902],[13.97866,46.84988],[13.97835,46.84992]]}},{"type":"Feature","properties":{"kind":"piste","difficulty":"advanced","name":null,"aerialway":null,"osm":"way/1462658925"},"geometry":{"type":"LineString","coordinates":[[13.97105,46.83999],[13.97129,46.84014],[13.97066,46.84044],[13.97325,46.8438],[13.97319,46.84454],[13.97389,46.84585],[13.97518,46.84764],[13.97651,46.84883],[13.97766,46.84943],[13.97812,46.85],[13.97761,46.84947],[13.97651,46.84922],[13.97571,46.84873],[13.97518,46.84835],[13.97415,46.84725],[13.97314,46.84551],[13.97249,46.84361],[13.972,46.84271],[13.97023,46.84048],[13.97105,46.83999]]}}]}