{"type":"FeatureCollection","features":[{"type":"Feature","properties":{"kind":"piste","difficulty":"intermediate","name":null,"aerialway":null,"osm":"way/14498543"},"geometry":{"type":"LineString","coordinates":[[12.67769,47.19108],[12.67803,47.19198],[12.67891,47.1936],[12.6798,47.19731],[12.68033,47.19882],[12.68093,47.20126]]}},{"type":"Feature","properties":{"kind":"piste","difficulty":"intermediate","name":null,"aerialway":null,"osm":"way/14498544"},"geometry":{"type":"LineString","coordinates":[[12.68476,47.19498],[12.68536,47.19704],[12.68652,47.19969],[12.6866,47.20002],[12.68633,47.20081]]}},{"type":"Feature","properties":{"kind":"piste","difficulty":"easy","name":null,"aerialway":null,"osm":"way/14498548"},"geometry":{"type":"LineString","coordinates":[[12.68041,47.20446],[12.68017,47.20433],[12.6802,47.20416],[12.68082,47.20369],[12.68113,47.20362],[12.68206,47.20435],[12.68322,47.20495],[12.68564,47.20529],[12.6884,47.20349],[12.68922,47.20323],[12.69007,47.20318],[12.69001,47.203]]}},{"type":"Feature","properties":{"kind":"piste","difficulty":"easy","name":null,"aerialway":null,"osm":"way/14498550"},"geometry":{"type":"LineString","coordinates":[[12.67821,47.20141],[12.67818,47.2009]]}},{"type":"Feature","properties":{"kind":"piste","difficulty":"easy","name":null,"aerialway":null,"osm":"way/14498558"},"geometry":{"type":"LineString","coordinates":[[12.68246,47.19899],[12.68269,47.19897],[12.68275,47.19919],[12.68216,47.19955],[12.68183,47.20056],[12.68147,47.2009],[12.68108,47.2017]]}},{"type":"Feature","properties":{"kind":"piste","difficulty":"easy","name":null,"aerialway":null,"osm":"way/14498560"},"geometry":{"type":"LineString","coordinates":[[12.68346,47.20579],[12.68564,47.20529]]}},{"type":"Feature","properties":{"kind":"piste","difficulty":"easy","name":"Langwiedpiste","aerialway":null,"osm":"way/14802974"},"geometry":{"type":"LineString","coordinates":[[12.68948,47.2091],[12.68729,47.21007],[12.68709,47.21038],[12.68954,47.21081],[12.69155,47.21077],[12.69288,47.21125],[12.69356,47.21183]]}},{"type":"Feature","properties":{"kind":"piste","difficulty":"easy","name":"Krefelderpiste","aerialway":null,"osm":"way/14803192"},"geometry":{"type":"LineString","coordinates":[[12.69356,47.21183],[12.69363,47.21251],[12.69351,47.21324],[12.69253,47.21414],[12.69201,47.21524],[12.69194,47.21546],[12.69228,47.21549],[12.69246,47.21528]]}},{"type":"Feature","properties":{"kind":"piste","difficulty":"intermediate","name":"Langwiedpiste","aerialway":null,"osm":"way/22761610"},"geometry":{"type":"LineString","coordinates":[[12.69356,47.21183],[12.69446,47.21239],[12.69571,47.21286],[12.69675,47.21304],[12.69876,47.21277],[12.7013,47.21324],[12.70196,47.21396],[12.70226,47.21468],[12.70212,47.21531],[12.70055,47.21731],[12.69957,47.21906]]}},{"type":"Feature","properties":{"kind":"piste","difficulty":"easy","name":null,"aerialway":null,"osm":"way/28670493"},"geometry":{"type":"LineString","coordinates":[[12.68311,47.19012],[12.68267,47.18957],[12.68223,47.18949],[12.68188,47.18997],[12.68012,47.19125],[12.67928,47.19223],[12.6792,47.19328],[12.67891,47.1936],[12.67796,47.19406],[12.67782,47.19512],[12.67757,47.1956],[12.67834,47.19843],[12.67902,47.19989],[12.67959,47.20052]]}},{"type":"Feature","properties":{"kind":"piste","difficulty":"intermediate","name":null,"aerialway":null,"osm":"way/28670495"},"geometry":{"type":"LineString","coordinates":[[12.67746,47.19119],[12.67692,47.19145],[12.67726,47.19348],[12.67782,47.19512],[12.67899,47.19957],[12.67959,47.20052],[12.68029,47.20103],[12.68093,47.20126]]}},{"type":"Feature","properties":{"kind":"piste","difficulty":"easy","name":"Easy Run","aerialway":null,"osm":"way/28670496"},"geometry":{"type":"LineString","coordinates":[[12.67722,47.20354],[12.67713,47.2037],[12.67726,47.20373],[12.6779,47.20321],[12.67766,47.20177],[12.67796,47.20174],[12.67825,47.20207],[12.67847,47.20268],[12.67951,47.20383],[12.6804,47.20549],[12.68087,47.2061],[12.68216,47.2067],[12.68562,47.2076],[12.68642,47.20817],[12.68812,47.2082],[12.68845,47.20848]]}},{"type":"Feature","properties":{"kind":"piste","difficulty":"intermediate","name":null,"aerialway":null,"osm":"way/28670881"},"geometry":{"type":"LineString","coordinates":[[12.6892,47.21267],[12.68915,47.21323],[12.69016,47.21439],[12.69072,47.21461],[12.69154,47.21541],[12.69194,47.21546]]}},{"type":"Feature","properties":{"kind":"piste","difficulty":"easy","name":null,"aerialway":null,"osm":"way/28671168"},"geometry":{"type":"LineString","coordinates":[[12.6792,47.19328],[12.67998,47.19344],[12.67985,47.19311]]}},{"type":"Feature","properties":{"kind":"piste","difficulty":"easy","name":null,"aerialway":null,"osm":"way/49438346"},"geometry":{"type":"LineString","coordinates":[[12.68799,47.20766],[12.69039,47.20796]]}},{"type":"Feature","properties":{"kind":"piste","difficulty":"intermediate","name":null,"aerialway":null,"osm":"way/49438347"},"geometry":{"type":"LineString","coordinates":[[12.67722,47.20354],[12.67684,47.20388],[12.67681,47.20406],[12.67715,47.20437],[12.67864,47.20502],[12.68052,47.2062],[12.68225,47.20698],[12.68441,47.20832],[12.68583,47.20903],[12.68651,47.20946],[12.68678,47.2102],[12.68709,47.21038]]}},{"type":"Feature","properties":{"kind":"piste","difficulty":"easy","name":null,"aerialway":null,"osm":"way/49438348"},"geometry":{"type":"LineString","coordinates":[[12.68958,47.20917],[12.68862,47.20855],[12.68845,47.20848],[12.68817,47.20858]]}},{"type":"Feature","properties":{"kind":"piste","difficulty":"advanced","name":null,"aerialway":null,"osm":"way/51818301"},"geometry":{"type":"LineString","coordinates":[[12.673,47.19613],[12.6729,47.19628],[12.67295,47.19652],[12.67469,47.1983],[12.6753,47.19872],[12.67585,47.19942],[12.67701,47.19976],[12.67803,47.20051],[12.67933,47.20069]]}},{"type":"Feature","properties":{"kind":"piste","difficulty":"advanced","name":null,"aerialway":null,"osm":"way/51818302"},"geometry":{"type":"LineString","coordinates":[[12.67309,47.19607],[12.67378,47.19624],[12.6765,47.19868],[12.6782,47.19958],[12.67857,47.19994],[12.67871,47.19985],[12.6797,47.20125],[12.67973,47.2015],[12.67942,47.20149]]}},{"type":"Feature","properties":{"kind":"piste","difficulty":"freeride","name":"Ice Age","aerialway":null,"osm":"way/53621564"},"geometry":{"type":"LineString","coordinates":[[12.68328,47.19109],[12.68377,47.19113],[12.68368,47.19153],[12.68395,47.19196],[12.68623,47.19279],[12.6876,47.19372],[12.68815,47.19379],[12.68842,47.19429],[12.68956,47.19447],[12.69124,47.1945],[12.69173,47.19576],[12.69277,47.19663],[12.69339,47.19783],[12.69376,47.19894],[12.69312,47.19951],[12.69201,47.20018]]}},{"type":"Feature","properties":{"kind":"piste","difficulty":"easy","name":null,"aerialway":null,"osm":"way/53621612"},"geometry":{"type":"LineString","coordinates":[[12.67864,47.20502],[12.679,47.20499],[12.67975,47.20446],[12.68011,47.20542],[12.68083,47.20626],[12.68125,47.20705],[12.68201,47.2088],[12.68203,47.21028]]}},{"type":"Feature","properties":{"kind":"piste","difficulty":"intermediate","name":"10a Rettenwandpiste 2","aerialway":null,"osm":"way/53621625"},"geometry":{"type":"LineString","coordinates":[[12.68203,47.21028],[12.68554,47.21201],[12.68631,47.21212],[12.68845,47.21335],[12.68938,47.21521],[12.6906,47.21521],[12.69169,47.21585],[12.69228,47.21549]]}},{"type":"Feature","properties":{"kind":"piste","difficulty":"freeride","name":"Westside Story","aerialway":null,"osm":"way/53621655"},"geometry":{"type":"LineString","coordinates":[[12.68203,47.21028],[12.68135,47.21097],[12.68146,47.21189],[12.68258,47.21332],[12.68309,47.21512],[12.68614,47.21641],[12.6867,47.21705],[12.6876,47.21734],[12.68794,47.21842],[12.68884,47.21883],[12.69193,47.21932],[12.69296,47.21956],[12.69425,47.22014],[12.69511,47.22017],[12.69545,47.22037],[12.69536,47.22069],[12.69605,47.22084],[12.697,47.22078],[12.69742,47.22031],[12.69858,47.21987]]}},{"type":"Feature","properties":{"kind":"piste","difficulty":"advanced","name":"Black Mamba","aerialway":null,"osm":"way/53621947"},"geometry":{"type":"LineString","coordinates":[[12.69253,47.21414],[12.69393,47.21539],[12.69442,47.21562],[12.69503,47.2163],[12.69582,47.21751],[12.69636,47.21866],[12.69704,47.21916],[12.6976,47.21928],[12.69858,47.21987]]}},{"type":"Feature","properties":{"kind":"piste","difficulty":"freeride","name":"Pipeline","aerialway":null,"osm":"way/53621950"},"geometry":{"type":"LineString","coordinates":[[12.68954,47.21081],[12.69019,47.21144],[12.69041,47.21213],[12.69114,47.2122],[12.69466,47.21375],[12.69485,47.21403],[12.69543,47.21424],[12.69541,47.2148],[12.69515,47.21493],[12.69545,47.21542],[12.69655,47.21587],[12.69663,47.21617],[12.6971,47.21658],[12.6976,47.21661],[12.6982,47.21738],[12.6982,47.21789],[12.69788,47.21801],[12.69805,47.21821],[12.69889,47.21849],[12.69929,47.21893],[12.69895,47.2201]]}},{"type":"Feature","properties":{"kind":"piste","difficulty":"easy","name":null,"aerialway":null,"osm":"way/55379666"},"geometry":{"type":"LineString","coordinates":[[12.68331,47.19503],[12.6798,47.19731]]}},{"type":"Feature","properties":{"kind":"piste","difficulty":"advanced","name":null,"aerialway":null,"osm":"way/55379668"},"geometry":{"type":"LineString","coordinates":[[12.67769,47.19108],[12.67935,47.19355],[12.68156,47.19371],[12.68293,47.19413],[12.68454,47.19387],[12.68747,47.19394],[12.68903,47.19462],[12.6902,47.19553],[12.69049,47.196],[12.69034,47.19643],[12.69045,47.19699],[12.69029,47.19797],[12.69063,47.19871],[12.69123,47.1995],[12.69181,47.19982],[12.69201,47.20018],[12.69096,47.20107],[12.69041,47.20172],[12.69035,47.20238],[12.69055,47.20275],[12.69051,47.20301],[12.69043,47.20315],[12.69007,47.20318]]}},{"type":"Feature","properties":{"kind":"piste","difficulty":"intermediate","name":null,"aerialway":null,"osm":"way/55379669"},"geometry":{"type":"LineString","coordinates":[[12.68246,47.19899],[12.68272,47.19875],[12.68314,47.19864],[12.6856,47.19973],[12.68604,47.20016],[12.68633,47.20081]]}},{"type":"Feature","properties":{"kind":"piste","difficulty":"easy","name":null,"aerialway":null,"osm":"way/55379670"},"geometry":{"type":"LineString","coordinates":[[12.68108,47.20222],[12.68215,47.20246],[12.6829,47.20242],[12.68488,47.20103],[12.68633,47.20081],[12.68679,47.20088]]}},{"type":"Feature","properties":{"kind":"piste","difficulty":"easy","name":null,"aerialway":null,"osm":"way/55379671"},"geometry":{"type":"LineString","coordinates":[[12.68203,47.21028],[12.6827,47.21045],[12.68429,47.21041],[12.68564,47.21053],[12.68709,47.21038]]}},{"type":"Feature","properties":{"kind":"piste","difficulty":"easy","name":"Alpincenterpiste","aerialway":null,"osm":"way/104518653"},"geometry":{"type":"LineString","coordinates":[[12.68093,47.20126],[12.68108,47.2017],[12.68113,47.20362],[12.68214,47.20535],[12.68291,47.20553],[12.68479,47.20643],[12.68738,47.20716],[12.68779,47.2074],[12.68823,47.20809]]}},{"type":"Feature","properties":{"kind":"piste","difficulty":"easy","name":null,"aerialway":null,"osm":"way/104907168"},"geometry":{"type":"LineString","coordinates":[[12.68041,47.20446],[12.67993,47.20458]]}},{"type":"Feature","properties":{"kind":"piste","difficulty":"intermediate","name":null,"aerialway":null,"osm":"way/104907169"},"geometry":{"type":"LineString","coordinates":[[12.69609,47.21181],[12.69586,47.21201],[12.69594,47.21228],[12.69664,47.2128],[12.69675,47.21304]]}},{"type":"Feature","properties":{"kind":"piste","difficulty":"intermediate","name":null,"aerialway":null,"osm":"way/104907171"},"geometry":{"type":"LineString","coordinates":[[12.69051,47.20301],[12.69061,47.20335]]}},{"type":"Feature","properties":{"kind":"piste","difficulty":"easy","name":null,"aerialway":null,"osm":"way/104907172"},"geometry":{"type":"LineString","coordinates":[[12.67818,47.2009],[12.67855,47.20066],[12.67848,47.20056],[12.68079,47.20055]]}},{"type":"Feature","properties":{"kind":"piste","difficulty":"easy","name":null,"aerialway":null,"osm":"way/104907173"},"geometry":{"type":"LineString","coordinates":[[12.69356,47.21183],[12.69511,47.21198],[12.69609,47.21181]]}},{"type":"Feature","properties":{"kind":"piste","difficulty":"intermediate","name":null,"aerialway":null,"osm":"way/104907174"},"geometry":{"type":"LineString","coordinates":[[12.68309,47.19513],[12.68327,47.19537],[12.68354,47.19542],[12.68476,47.19498]]}},{"type":"Feature","properties":{"kind":"piste","difficulty":"easy","name":null,"aerialway":null,"osm":"way/104907175"},"geometry":{"type":"LineString","coordinates":[[12.68994,47.2032],[12.69061,47.20335]]}},{"type":"Feature","properties":{"kind":"piste","difficulty":"intermediate","name":null,"aerialway":null,"osm":"way/104907177"},"geometry":{"type":"LineString","coordinates":[[12.68633,47.20081],[12.68627,47.20295],[12.68701,47.20402],[12.68735,47.20412]]}},{"type":"Feature","properties":{"kind":"piste","difficulty":"easy","name":null,"aerialway":null,"osm":"way/140997267"},"geometry":{"type":"LineString","coordinates":[[12.68848,47.20886],[12.68885,47.20896],[12.68901,47.2093]]}},{"type":"Feature","properties":{"kind":"piste","difficulty":"freeride","name":"West Wing","aerialway":null,"osm":"way/320267388"},"geometry":{"type":"LineString","coordinates":[[12.68981,47.20924],[12.69225,47.21025],[12.69326,47.21095],[12.69444,47.21136],[12.69502,47.21224],[12.69584,47.2127],[12.69655,47.21336],[12.69762,47.21352],[12.69792,47.21403],[12.69861,47.2145],[12.69859,47.21518],[12.69923,47.21571],[12.69906,47.21645],[12.69942,47.21705],[12.6991,47.21779],[12.69932,47.21932],[12.69895,47.2201]]}},{"type":"Feature","properties":{"kind":"piste","difficulty":"easy","name":null,"aerialway":null,"osm":"way/400051289"},"geometry":{"type":"LineString","coordinates":[[12.68311,47.19012],[12.68289,47.19112],[12.68267,47.19138]]}},{"type":"Feature","properties":{"kind":"piste","difficulty":"easy","name":"1a Magnetköpflpiste","aerialway":null,"osm":"way/447345386"},"geometry":{"type":"LineString","coordinates":[[12.68246,47.19046],[12.68229,47.19046],[12.6796,47.19309],[12.67985,47.19311]]}},{"type":"Feature","properties":{"kind":"piste","difficulty":"intermediate","name":"Gletscherpiste","aerialway":null,"osm":"way/447345641"},"geometry":{"type":"LineString","coordinates":[[12.68267,47.19138],[12.68148,47.19286],[12.68156,47.19371],[12.68069,47.19488],[12.68018,47.19593],[12.6798,47.19731],[12.68079,47.20055]]}},{"type":"Feature","properties":{"kind":"piste","difficulty":"novice","name":"Schneehasenpiste","aerialway":null,"osm":"way/483770250"},"geometry":{"type":"LineString","coordinates":[[12.67821,47.20141],[12.67829,47.20134],[12.68028,47.20252],[12.68056,47.20283],[12.68052,47.20299]]}},{"type":"Feature","properties":{"kind":"piste","difficulty":"easy","name":null,"aerialway":null,"osm":"way/551332988"},"geometry":{"type":"LineString","coordinates":[[12.68605,47.20766],[12.68625,47.20791],[12.68656,47.20801],[12.68823,47.20809],[12.68845,47.20848]]}},{"type":"Feature","properties":{"kind":"piste","difficulty":"easy","name":null,"aerialway":null,"osm":"way/551332989"},"geometry":{"type":"LineString","coordinates":[[12.68564,47.20671],[12.68597,47.20719],[12.68605,47.20766]]}},{"type":"Feature","properties":{"kind":"piste","difficulty":"intermediate","name":"Langwiedpiste","aerialway":null,"osm":"way/551332990"},"geometry":{"type":"LineString","coordinates":[[12.69891,47.2199],[12.6992,47.21988],[12.69912,47.21969],[12.70006,47.21882],[12.70048,47.21821],[12.70099,47.21709],[12.70234,47.21506],[12.70235,47.21446],[12.7021,47.21373],[12.7014,47.21323],[12.69982,47.2128],[12.69885,47.21269],[12.69709,47.21293],[12.69588,47.21284],[12.69439,47.21226],[12.694,47.21188],[12.69356,47.21183],[12.69399,47.21226],[12.69609,47.21313],[12.69881,47.21303],[12.69971,47.21315],[12.70069,47.21337],[12.70142,47.21376],[12.70175,47.2142],[12.7019,47.21463],[12.70169,47.2152],[12.70025,47.21736],[12.69968,47.21868],[12.69913,47.21925],[12.69891,47.2199]]}},{"type":"Feature","properties":{"kind":"piste","difficulty":"intermediate","name":"Glestscherpiste","aerialway":null,"osm":"way/551335088"},"geometry":{"type":"LineString","coordinates":[[12.67785,47.19099],[12.67762,47.19114],[12.6803,47.20054],[12.68079,47.20055],[12.68105,47.20007],[12.68123,47.19895],[12.68133,47.19697],[12.68018,47.19593],[12.68111,47.19497],[12.68127,47.19366],[12.68096,47.1935],[12.67956,47.19336],[12.67937,47.19317],[12.67928,47.19223],[12.67831,47.19091],[12.67785,47.19099]]}},{"type":"Feature","properties":{"kind":"piste","difficulty":"intermediate","name":"Gletscherpiste","aerialway":null,"osm":"way/551335089"},"geometry":{"type":"LineString","coordinates":[[12.67746,47.19119],[12.67734,47.19099],[12.67677,47.19139],[12.67705,47.19482],[12.67757,47.1956],[12.67771,47.19747],[12.67849,47.19953],[12.67921,47.20055],[12.68,47.20053],[12.67849,47.19539],[12.67746,47.19119]]}},{"type":"Feature","properties":{"kind":"piste","difficulty":"intermediate","name":null,"aerialway":null,"osm":"way/576085296"},"geometry":{"type":"LineString","coordinates":[[12.68108,47.20253],[12.68333,47.20308],[12.68611,47.20319],[12.6864,47.20328],[12.68719,47.20425]]}},{"type":"Feature","properties":{"kind":"piste","difficulty":"easy","name":null,"aerialway":null,"osm":"way/576085297"},"geometry":{"type":"LineString","coordinates":[[12.68214,47.20535],[12.68316,47.20608]]}},{"type":"Feature","properties":{"kind":"piste","difficulty":"intermediate","name":null,"aerialway":null,"osm":"way/576085300"},"geometry":{"type":"LineString","coordinates":[[12.68327,47.19537],[12.68272,47.1959],[12.68257,47.19623],[12.68281,47.19826],[12.68291,47.1985],[12.68314,47.19864]]}},{"type":"Feature","properties":{"kind":"piste","difficulty":"advanced","name":null,"aerialway":null,"osm":"way/576775780"},"geometry":{"type":"LineString","coordinates":[[12.67346,47.19569],[12.67309,47.19607],[12.67792,47.20014],[12.67871,47.19985],[12.67819,47.19881],[12.67752,47.19904],[12.67682,47.19874],[12.6762,47.19823],[12.67576,47.19764],[12.67346,47.19569]]}},{"type":"Feature","properties":{"kind":"piste","difficulty":"advanced","name":null,"aerialway":null,"osm":"way/576775784"},"geometry":{"type":"LineString","coordinates":[[12.67278,47.19637],[12.673,47.19613],[12.67482,47.19765],[12.67495,47.19831],[12.67606,47.19947],[12.67711,47.19965],[12.6782,47.20053],[12.67806,47.20058],[12.67707,47.19989],[12.67616,47.19973],[12.67578,47.19946],[12.67517,47.19875],[12.67468,47.19845],[12.6733,47.19711],[12.67278,47.19637]]}},{"type":"Feature","properties":{"kind":"piste","difficulty":"easy","name":null,"aerialway":null,"osm":"way/576775787"},"geometry":{"type":"LineString","coordinates":[[12.67766,47.20177],[12.67758,47.20104],[12.67797,47.20075],[12.67836,47.2007]]}},{"type":"Feature","properties":{"kind":"piste","difficulty":"intermediate","name":null,"aerialway":null,"osm":"way/784745919"},"geometry":{"type":"LineString","coordinates":[[12.68709,47.21038],[12.68725,47.2104],[12.68742,47.21075],[12.68877,47.21198],[12.68923,47.21253],[12.6892,47.21267]]}},{"type":"Feature","properties":{"kind":"piste","difficulty":"intermediate","name":"Langwiedpiste","aerialway":null,"osm":"way/784745925"},"geometry":{"type":"LineString","coordinates":[[12.69957,47.21906],[12.69909,47.21941],[12.69903,47.21989]]}},{"type":"Feature","properties":{"kind":"piste","difficulty":"advanced","name":"Abfahrt Gipfel","aerialway":null,"osm":"way/953542405"},"geometry":{"type":"LineString","coordinates":[[12.68489,47.18902],[12.68461,47.18904],[12.68417,47.18976],[12.68393,47.1899],[12.68332,47.19099],[12.68304,47.19055]]}},{"type":"Feature","properties":{"kind":"piste","difficulty":"expert","name":null,"aerialway":null,"osm":"way/1159051697"},"geometry":{"type":"LineString","coordinates":[[12.69194,47.21546],[12.69234,47.21555],[12.6928,47.21543],[12.69333,47.21492]]}},{"type":"Feature","properties":{"kind":"piste","difficulty":"intermediate","name":null,"aerialway":null,"osm":"way/1354992706"},"geometry":{"type":"LineString","coordinates":[[12.68432,47.1939],[12.68476,47.19498]]}},{"type":"Feature","properties":{"kind":"piste","difficulty":"advanced","name":null,"aerialway":null,"osm":"way/1354992707"},"geometry":{"type":"LineString","coordinates":[[12.69636,47.21866],[12.69609,47.21905]]}},{"type":"Feature","properties":{"kind":"piste","difficulty":"easy","name":null,"aerialway":null,"osm":"way/1354992708"},"geometry":{"type":"LineString","coordinates":[[12.67821,47.20141],[12.67801,47.20179]]}},{"type":"Feature","properties":{"kind":"piste","difficulty":"easy","name":null,"aerialway":null,"osm":"way/1354992709"},"geometry":{"type":"LineString","coordinates":[[12.67847,47.20268],[12.67972,47.20315],[12.68021,47.20318],[12.68057,47.20303]]}},{"type":"Feature","properties":{"kind":"piste","difficulty":"intermediate","name":null,"aerialway":null,"osm":"way/1354992710"},"geometry":{"type":"LineString","coordinates":[[12.6813,47.19638],[12.68168,47.19699],[12.68281,47.19826]]}},{"type":"Feature","properties":{"kind":"piste","difficulty":"freeride","name":"Jump Run","aerialway":null,"osm":"way/1433309020"},"geometry":{"type":"LineString","coordinates":[[12.69194,47.21546],[12.69169,47.21585],[12.6933,47.2166],[12.69425,47.21738],[12.69509,47.21786],[12.69609,47.21905],[12.69639,47.21968],[12.6968,47.21982],[12.69858,47.21987]]}},{"type":"Feature","properties":{"kind":"piste","difficulty":"intermediate","name":null,"aerialway":null,"osm":"way/1433309021"},"geometry":{"type":"LineString","coordinates":[[12.68796,47.21306],[12.68915,47.21323]]}},{"type":"Feature","properties":{"kind":"piste","difficulty":"easy","name":null,"aerialway":null,"osm":"way/1558318230"},"geometry":{"type":"LineString","coordinates":[[12.68076,47.18905],[12.68126,47.18927],[12.68136,47.1894],[12.68121,47.18939]]}},{"type":"Feature","properties":{"kind":"piste","difficulty":"easy","name":null,"aerialway":null,"osm":"way/1558318231"},"geometry":{"type":"LineString","coordinates":[[12.6823,47.18946],[12.68136,47.1894]]}},{"type":"Feature","properties":{"kind":"piste","difficulty":"easy","name":"Alpincenterpiste","aerialway":null,"osm":"relation/7885703"},"geometry":{"type":"MultiLineString","coordinates":[[[12.68079,47.20055],[12.68134,47.20179],[12.68129,47.20369],[12.68197,47.20488],[12.68457,47.2062],[12.68757,47.20713],[12.68826,47.2077],[12.68877,47.20846],[12.68921,47.2087],[12.68875,47.20901],[12.68836,47.20877],[12.68794,47.20825],[12.68759,47.20835],[12.68785,47.20868],[12.68611,47.20839],[12.68567,47.20805],[12.68569,47.20709],[12.68542,47.20686],[12.682,47.20544],[12.6802,47.20271],[12.67904,47.20223],[12.67949,47.20202],[12.67902,47.20161],[12.67956,47.20136],[12.67932,47.20133],[12.67792,47.20014],[12.67871,47.19985],[12.67921,47.20055],[12.68,47.20053],[12.68031,47.20188],[12.68074,47.20183],[12.68076,47.20141],[12.68039,47.20117],[12.6803,47.20054],[12.68079,47.20055]],[[12.68626,47.20704],[12.68616,47.20756],[12.68644,47.20776],[12.68677,47.20789],[12.68806,47.20796],[12.68725,47.20727],[12.68643,47.20699],[12.68626,47.20704]]]}},{"type":"Feature","properties":{"kind":"lift","difficulty":null,"name":"Panoramabahn","aerialway":"gondola","osm":"way/14498552"},"geometry":{"type":"LineString","coordinates":[[12.72702,47.22939],[12.69923,47.22055]]}},{"type":"Feature","properties":{"kind":"lift","difficulty":null,"name":"Kristallbahn","aerialway":"chair_lift","osm":"way/14498553"},"geometry":{"type":"LineString","coordinates":[[12.69246,47.21528],[12.67722,47.20354]]}},{"type":"Feature","properties":{"kind":"lift","difficulty":null,"name":"Sonnenkarbahn I","aerialway":"chair_lift","osm":"way/14498555"},"geometry":{"type":"LineString","coordinates":[[12.69001,47.203],[12.68246,47.19899]]}},{"type":"Feature","properties":{"kind":"lift","difficulty":null,"name":"Schmiedingerbahn","aerialway":"chair_lift","osm":"way/14498563"},"geometry":{"type":"LineString","coordinates":[[12.68679,47.20088],[12.68331,47.19503]]}},{"type":"Feature","properties":{"kind":"lift","difficulty":null,"name":"Gletscherjet II","aerialway":"gondola","osm":"way/14498567"},"geometry":{"type":"LineString","coordinates":[[12.69938,47.21985],[12.68958,47.20917]]}},{"type":"Feature","properties":{"kind":"lift","difficulty":null,"name":"Langwiedbahn","aerialway":"chair_lift","osm":"way/14805170"},"geometry":{"type":"LineString","coordinates":[[12.69876,47.21986],[12.6886,47.20902]]}},{"type":"Feature","properties":{"kind":"lift","difficulty":null,"name":"Gletscherjet I","aerialway":"gondola","osm":"way/15503046"},"geometry":{"type":"LineString","coordinates":[[12.72598,47.22898],[12.69974,47.22017]]}},{"type":"Feature","properties":{"kind":"lift","difficulty":null,"name":"Gipfelbahn","aerialway":"cable_car","osm":"way/23231644"},"geometry":{"type":"LineString","coordinates":[[12.69039,47.20796],[12.68517,47.18924]]}},{"type":"Feature","properties":{"kind":"lift","difficulty":null,"name":"Magnetköpflift","aerialway":"t-bar","osm":"way/49438345"},"geometry":{"type":"LineString","coordinates":[[12.67985,47.19311],[12.68287,47.19003]]}},{"type":"Feature","properties":{"kind":"lift","difficulty":null,"name":"Sonnenkarbahn II","aerialway":"chair_lift","osm":"way/104907176"},"geometry":{"type":"LineString","coordinates":[[12.69061,47.20335],[12.68041,47.20446]]}},{"type":"Feature","properties":{"kind":"lift","difficulty":null,"name":"Betriebsseilbahn Heidnische Kirche","aerialway":"cable_car","osm":"way/113292915"},"geometry":{"type":"LineString","coordinates":[[12.71493,47.16805],[12.71348,47.18183]]}},{"type":"Feature","properties":{"kind":"lift","difficulty":null,"name":"Gletscherjet 3","aerialway":"mixed_lift","osm":"way/382642033"},"geometry":{"type":"LineString","coordinates":[[12.68804,47.20864],[12.68101,47.20064]]}},{"type":"Feature","properties":{"kind":"lift","difficulty":null,"name":"Gletscherjet 4","aerialway":"gondola","osm":"way/382642034"},"geometry":{"type":"LineString","coordinates":[[12.68101,47.20064],[12.68324,47.19026]]}},{"type":"Feature","properties":{"kind":"lift","difficulty":null,"name":"Schneehasen-Lift","aerialway":"platter","osm":"way/431615939"},"geometry":{"type":"LineString","coordinates":[[12.68052,47.20299],[12.67802,47.20128]]}},{"type":"Feature","properties":{"kind":"lift","difficulty":null,"name":"Kitzlift II","aerialway":"t-bar","osm":"way/463028520"},"geometry":{"type":"LineString","coordinates":[[12.6804,47.20174],[12.67746,47.19119]]}},{"type":"Feature","properties":{"kind":"lift","difficulty":null,"name":"Kitzlift I","aerialway":"t-bar","osm":"way/463028521"},"geometry":{"type":"LineString","coordinates":[[12.68047,47.20173],[12.67755,47.19118]]}},{"type":"Feature","properties":{"kind":"lift","difficulty":null,"name":"Maurerlift","aerialway":"t-bar","osm":"way/463028522"},"geometry":{"type":"LineString","coordinates":[[12.67942,47.20149],[12.67251,47.19564]]}},{"type":"Feature","properties":{"kind":"lift","difficulty":null,"name":"3K K-onnection Kaprun Kitzsteinhorn","aerialway":"gondola","osm":"way/673539309"},"geometry":{"type":"LineString","coordinates":[[12.71584,47.25794],[12.69932,47.22101]]}},{"type":"Feature","properties":{"kind":"lift","difficulty":null,"name":"Klettersteig MOBO 107","aerialway":"zip_line","osm":"way/957604667"},"geometry":{"type":"LineString","coordinates":[[12.71894,47.16803],[12.71917,47.168]]}},{"type":"Feature","properties":{"kind":"lift","difficulty":null,"name":null,"aerialway":"magic_carpet","osm":"way/1558318229"},"geometry":{"type":"LineString","coordinates":[[12.68121,47.18939],[12.68076,47.18905]]}}]}