{"type":"FeatureCollection","features":[{"type":"Feature","properties":{"kind":"lift","difficulty":null,"name":"Hochkössen","aerialway":"gondola","osm":"way/23440529"},"geometry":{"type":"LineString","coordinates":[[12.42118,47.65339],[12.43051,47.63223]]}},{"type":"Feature","properties":{"kind":"lift","difficulty":null,"name":"Brandllift","aerialway":"chair_lift","osm":"way/23440530"},"geometry":{"type":"LineString","coordinates":[[12.42443,47.64021],[12.43007,47.6331]]}},{"type":"Feature","properties":{"kind":"lift","difficulty":null,"name":"Gipfellift","aerialway":"chair_lift","osm":"way/23440531"},"geometry":{"type":"LineString","coordinates":[[12.43051,47.63253],[12.43667,47.62474]]}},{"type":"Feature","properties":{"kind":"lift","difficulty":null,"name":"Almlift","aerialway":"chair_lift","osm":"way/23440532"},"geometry":{"type":"LineString","coordinates":[[12.43882,47.63516],[12.43725,47.62437]]}},{"type":"Feature","properties":{"kind":"piste","difficulty":"intermediate","name":null,"aerialway":null,"osm":"way/27858533"},"geometry":{"type":"LineString","coordinates":[[12.41834,47.64734],[12.41791,47.64704],[12.41719,47.6469],[12.41692,47.64644],[12.41642,47.64606],[12.41621,47.64553],[12.41639,47.64553],[12.41661,47.64587],[12.41731,47.64615],[12.41972,47.64644]]}},{"type":"Feature","properties":{"kind":"piste","difficulty":"easy","name":null,"aerialway":null,"osm":"way/38571292"},"geometry":{"type":"LineString","coordinates":[[12.42006,47.65168],[12.41994,47.6509],[12.42148,47.65044],[12.42224,47.64963],[12.42144,47.64918],[12.4226,47.64879],[12.42322,47.64824],[12.42293,47.64811],[12.42237,47.64818],[12.42141,47.64799],[12.42077,47.64766],[12.42066,47.64743],[12.42004,47.64728],[12.41972,47.64644]]}},{"type":"Feature","properties":{"kind":"lift","difficulty":null,"name":"Bärenlift","aerialway":"t-bar","osm":"way/40579493"},"geometry":{"type":"LineString","coordinates":[[12.43162,47.6337],[12.4327,47.63138]]}},{"type":"Feature","properties":{"kind":"lift","difficulty":null,"name":"Trainingslift","aerialway":"t-bar","osm":"way/40579494"},"geometry":{"type":"LineString","coordinates":[[12.42077,47.65146],[12.4218,47.6461]]}},{"type":"Feature","properties":{"kind":"lift","difficulty":null,"name":"Karlift","aerialway":"t-bar","osm":"way/40579495"},"geometry":{"type":"LineString","coordinates":[[12.43795,47.62835],[12.43745,47.62455]]}},{"type":"Feature","properties":{"kind":"piste","difficulty":"easy","name":null,"aerialway":null,"osm":"way/47450605"},"geometry":{"type":"LineString","coordinates":[[12.43103,47.63322],[12.43078,47.63361],[12.43098,47.63504],[12.43133,47.63521],[12.43208,47.63517],[12.43245,47.63453],[12.43481,47.63347],[12.43603,47.63319],[12.43676,47.63319],[12.43742,47.63351],[12.43768,47.63377],[12.43706,47.63397],[12.43625,47.63376],[12.43567,47.63384],[12.43499,47.63426],[12.43379,47.63571],[12.43295,47.6365],[12.431,47.63698],[12.43058,47.63722],[12.43044,47.6378],[12.42923,47.63866],[12.42778,47.63872],[12.42603,47.63914]]}},{"type":"Feature","properties":{"kind":"piste","difficulty":"intermediate","name":null,"aerialway":null,"osm":"way/47450606"},"geometry":{"type":"LineString","coordinates":[[12.42998,47.63321],[12.43038,47.6332],[12.43068,47.63338],[12.43078,47.63361],[12.43,47.63528],[12.42865,47.63757],[12.42701,47.63809],[12.42496,47.64024],[12.42456,47.64035],[12.4244,47.64031],[12.42443,47.64021]]}},{"type":"Feature","properties":{"kind":"piste","difficulty":"intermediate","name":null,"aerialway":null,"osm":"way/47450607"},"geometry":{"type":"LineString","coordinates":[[12.43709,47.62546],[12.4367,47.62677],[12.43683,47.62739],[12.43724,47.62817],[12.43748,47.62838],[12.43795,47.62835]]}},{"type":"Feature","properties":{"kind":"piste","difficulty":"advanced","name":null,"aerialway":null,"osm":"way/47450608"},"geometry":{"type":"LineString","coordinates":[[12.43748,47.62838],[12.43777,47.6311],[12.43761,47.63238],[12.4377,47.63412],[12.43837,47.63468],[12.43864,47.6352],[12.4388,47.63529],[12.43882,47.63516]]}},{"type":"Feature","properties":{"kind":"piste","difficulty":"advanced","name":null,"aerialway":null,"osm":"way/47450609"},"geometry":{"type":"LineString","coordinates":[[12.42253,47.6426],[12.42231,47.64281],[12.42133,47.64309],[12.42039,47.64355],[12.41997,47.64409],[12.41965,47.64488],[12.41971,47.64635],[12.42061,47.64704]]}},{"type":"Feature","properties":{"kind":"lift","difficulty":null,"name":"Tellerlift","aerialway":"platter","osm":"way/47450610"},"geometry":{"type":"LineString","coordinates":[[12.42329,47.65274],[12.42284,47.64986]]}},{"type":"Feature","properties":{"kind":"lift","difficulty":null,"name":"Kinderlift I","aerialway":"drag_lift","osm":"way/47450611"},"geometry":{"type":"LineString","coordinates":[[12.42116,47.65308],[12.42155,47.65223]]}},{"type":"Feature","properties":{"kind":"piste","difficulty":"novice","name":null,"aerialway":null,"osm":"way/47450612"},"geometry":{"type":"LineString","coordinates":[[12.4216,47.65224],[12.42131,47.65312]]}},{"type":"Feature","properties":{"kind":"piste","difficulty":"novice","name":null,"aerialway":null,"osm":"way/327325103"},"geometry":{"type":"LineString","coordinates":[[12.46962,47.66223],[12.46983,47.66255],[12.46925,47.66354],[12.46894,47.66367]]}},{"type":"Feature","properties":{"kind":"piste","difficulty":"intermediate","name":null,"aerialway":null,"osm":"way/327325104"},"geometry":{"type":"LineString","coordinates":[[12.46525,47.6617],[12.46661,47.66263],[12.46643,47.66348],[12.4655,47.66375]]}},{"type":"Feature","properties":{"kind":"piste","difficulty":"easy","name":null,"aerialway":null,"osm":"way/327325105"},"geometry":{"type":"LineString","coordinates":[[12.47109,47.6628],[12.47052,47.66274],[12.46943,47.66383],[12.46953,47.66411]]}},{"type":"Feature","properties":{"kind":"lift","difficulty":null,"name":"Benz-Eck-Kinderlift","aerialway":"j-bar","osm":"way/327325106"},"geometry":{"type":"LineString","coordinates":[[12.46894,47.66367],[12.46962,47.66223]]}},{"type":"Feature","properties":{"kind":"lift","difficulty":null,"name":"Benz-Eck-Skilift","aerialway":"platter","osm":"way/327325107"},"geometry":{"type":"LineString","coordinates":[[12.46953,47.66411],[12.47109,47.6628]]}},{"type":"Feature","properties":{"kind":"lift","difficulty":null,"name":"Benz-Eck-Skilift","aerialway":"t-bar","osm":"way/327325108"},"geometry":{"type":"LineString","coordinates":[[12.4655,47.66375],[12.46521,47.66136]]}},{"type":"Feature","properties":{"kind":"lift","difficulty":null,"name":"Benz-Eck-Snowtubinglift","aerialway":"rope_tow","osm":"way/327325110"},"geometry":{"type":"LineString","coordinates":[[12.4696,47.66413],[12.47114,47.66282]]}},{"type":"Feature","properties":{"kind":"piste","difficulty":"easy","name":null,"aerialway":null,"osm":"way/455176441"},"geometry":{"type":"LineString","coordinates":[[12.42495,47.64543],[12.42488,47.64501],[12.42497,47.64462],[12.42275,47.64407],[12.42129,47.6434],[12.41934,47.64286],[12.41888,47.64257],[12.41885,47.64192],[12.4192,47.64148],[12.41912,47.64179],[12.41921,47.64199],[12.42024,47.6425],[12.42118,47.64243],[12.42307,47.64256],[12.42557,47.64237],[12.42562,47.64229],[12.42509,47.64203],[12.42567,47.64188],[12.42627,47.64153],[12.42633,47.64145],[12.42623,47.6414],[12.42531,47.6416],[12.42473,47.64159],[12.42376,47.64143],[12.42285,47.64145],[12.42267,47.64127],[12.4228,47.641],[12.4243,47.63974],[12.4244,47.63978],[12.42423,47.64001],[12.42424,47.64027],[12.42445,47.64044],[12.42482,47.64046],[12.42569,47.64015],[12.42614,47.63918]]}},{"type":"Feature","properties":{"kind":"piste","difficulty":"easy","name":null,"aerialway":null,"osm":"way/1071907904"},"geometry":{"type":"LineString","coordinates":[[12.43667,47.62474],[12.43696,47.62487]]}},{"type":"Feature","properties":{"kind":"piste","difficulty":"easy","name":null,"aerialway":null,"osm":"way/1071907905"},"geometry":{"type":"LineString","coordinates":[[12.43725,47.62437],[12.43702,47.62455],[12.43696,47.62487]]}},{"type":"Feature","properties":{"kind":"piste","difficulty":"easy","name":null,"aerialway":null,"osm":"way/1071907906"},"geometry":{"type":"LineString","coordinates":[[12.43747,47.6247],[12.43701,47.6248],[12.43709,47.62546],[12.43552,47.62732],[12.43489,47.62831],[12.43326,47.63034],[12.43146,47.63227],[12.43067,47.63263]]}},{"type":"Feature","properties":{"kind":"piste","difficulty":"easy","name":null,"aerialway":null,"osm":"way/1071907907"},"geometry":{"type":"LineString","coordinates":[[12.4327,47.63138],[12.43146,47.63227],[12.43103,47.63322],[12.43115,47.63352],[12.43162,47.6337]]}},{"type":"Feature","properties":{"kind":"piste","difficulty":"easy","name":null,"aerialway":null,"osm":"way/1071907908"},"geometry":{"type":"LineString","coordinates":[[12.43067,47.63263],[12.43055,47.63268],[12.43051,47.63253]]}},{"type":"Feature","properties":{"kind":"piste","difficulty":"easy","name":null,"aerialway":null,"osm":"way/1071907909"},"geometry":{"type":"LineString","coordinates":[[12.43051,47.63223],[12.4307,47.63224],[12.43067,47.63263]]}},{"type":"Feature","properties":{"kind":"piste","difficulty":"easy","name":null,"aerialway":null,"osm":"way/1071907911"},"geometry":{"type":"LineString","coordinates":[[12.42496,47.64024],[12.42425,47.64071],[12.4229,47.64128],[12.42285,47.64145],[12.42509,47.64167],[12.42603,47.64143],[12.42612,47.6416],[12.42454,47.64255],[12.42374,47.6426]]}},{"type":"Feature","properties":{"kind":"piste","difficulty":"intermediate","name":null,"aerialway":null,"osm":"way/1071907912"},"geometry":{"type":"LineString","coordinates":[[12.42175,47.64637],[12.42198,47.6466],[12.42207,47.64736],[12.42194,47.64846],[12.42115,47.65127],[12.42093,47.65156],[12.42077,47.65159],[12.42069,47.65154],[12.42077,47.65146]]}},{"type":"Feature","properties":{"kind":"piste","difficulty":"intermediate","name":null,"aerialway":null,"osm":"way/1071907913"},"geometry":{"type":"LineString","coordinates":[[12.42175,47.64637],[12.42118,47.64655],[12.42068,47.64696],[12.42016,47.64761],[12.41987,47.64844],[12.42009,47.6492],[12.4198,47.65],[12.41992,47.65058],[12.42014,47.6513],[12.42032,47.65144],[12.42077,47.65146]]}},{"type":"Feature","properties":{"kind":"piste","difficulty":"advanced","name":null,"aerialway":null,"osm":"way/1071907914"},"geometry":{"type":"LineString","coordinates":[[12.42496,47.64024],[12.42451,47.64088],[12.42374,47.6426]]}},{"type":"Feature","properties":{"kind":"piste","difficulty":"easy","name":null,"aerialway":null,"osm":"way/1071907915"},"geometry":{"type":"LineString","coordinates":[[12.42374,47.6426],[12.42253,47.6426]]}},{"type":"Feature","properties":{"kind":"piste","difficulty":"intermediate","name":null,"aerialway":null,"osm":"way/1071907916"},"geometry":{"type":"LineString","coordinates":[[12.42061,47.64704],[12.42129,47.64763],[12.42271,47.64838],[12.42265,47.6486],[12.42207,47.64886],[12.42219,47.64919],[12.42251,47.64938],[12.42235,47.65038],[12.42253,47.65127],[12.42202,47.65233],[12.42118,47.65339]]}},{"type":"Feature","properties":{"kind":"piste","difficulty":"easy","name":null,"aerialway":null,"osm":"way/1071907917"},"geometry":{"type":"LineString","coordinates":[[12.42288,47.6501],[12.42253,47.65127],[12.42288,47.65229],[12.42329,47.65274]]}},{"type":"Feature","properties":{"kind":"piste","difficulty":"easy","name":null,"aerialway":null,"osm":"way/1354372607"},"geometry":{"type":"LineString","coordinates":[[12.41972,47.64644],[12.42106,47.64641],[12.42181,47.64622],[12.42223,47.6463],[12.42233,47.64609],[12.42269,47.64595],[12.42077,47.64527],[12.42071,47.6451],[12.42384,47.64499],[12.42405,47.64505],[12.42456,47.64559],[12.42483,47.64561],[12.42495,47.64543]]}},{"type":"Feature","properties":{"kind":"piste","difficulty":"easy","name":null,"aerialway":null,"osm":"way/1354372608"},"geometry":{"type":"LineString","coordinates":[[12.43489,47.62831],[12.43603,47.6287],[12.43752,47.62838]]}},{"type":"Feature","properties":{"kind":"piste","difficulty":"intermediate","name":null,"aerialway":null,"osm":"way/1354372609"},"geometry":{"type":"LineString","coordinates":[[12.43481,47.63347],[12.43499,47.63426]]}},{"type":"Feature","properties":{"kind":"piste","difficulty":"intermediate","name":null,"aerialway":null,"osm":"way/1354372610"},"geometry":{"type":"LineString","coordinates":[[12.41834,47.64734],[12.41988,47.64842]]}},{"type":"Feature","properties":{"kind":"piste","difficulty":"unknown","name":null,"aerialway":null,"osm":"way/1408221551"},"geometry":{"type":"LineString","coordinates":[[12.46525,47.6617],[12.46726,47.66312],[12.46794,47.66337],[12.46861,47.66386],[12.46953,47.66411]]}}]}