{"type":"FeatureCollection","features":[{"type":"Feature","properties":{"kind":"lift","difficulty":null,"name":"Papagenobahn","aerialway":"gondola","osm":"way/23370561"},"geometry":{"type":"LineString","coordinates":[[13.52117,47.43203],[13.51946,47.41811]]}},{"type":"Feature","properties":{"kind":"lift","difficulty":null,"name":"4SB Großberg","aerialway":"chair_lift","osm":"way/87668676"},"geometry":{"type":"LineString","coordinates":[[13.51531,47.43379],[13.5119,47.44191]]}},{"type":"Feature","properties":{"kind":"piste","difficulty":"easy","name":"Familienabfahrt Großberg a","aerialway":null,"osm":"way/93867626"},"geometry":{"type":"LineString","coordinates":[[13.5119,47.44191],[13.51184,47.44206],[13.51113,47.44202],[13.51033,47.44224],[13.51,47.44218],[13.50994,47.44174],[13.5106,47.44041]]}},{"type":"Feature","properties":{"kind":"lift","difficulty":null,"name":"Bögrainlift","aerialway":"platter","osm":"way/93869216"},"geometry":{"type":"LineString","coordinates":[[13.51691,47.43293],[13.51454,47.42963]]}},{"type":"Feature","properties":{"kind":"piste","difficulty":"intermediate","name":"Papageno","aerialway":null,"osm":"way/93869217"},"geometry":{"type":"LineString","coordinates":[[13.51946,47.41811],[13.51976,47.41791],[13.52003,47.41817],[13.52047,47.41833],[13.52344,47.41871],[13.5261,47.41976],[13.52674,47.42023],[13.52731,47.42094],[13.52787,47.42271],[13.5288,47.42343],[13.52898,47.42372],[13.52892,47.42411],[13.52868,47.42437],[13.52737,47.4254],[13.52659,47.42721],[13.52435,47.42893],[13.52231,47.42994],[13.52213,47.43016],[13.52165,47.43208],[13.5213,47.43218],[13.52117,47.43203]]}},{"type":"Feature","properties":{"kind":"piste","difficulty":"easy","name":"Papageno blau","aerialway":null,"osm":"way/93869219"},"geometry":{"type":"LineString","coordinates":[[13.52213,47.43016],[13.51972,47.43092],[13.51725,47.43137],[13.51615,47.43218]]}},{"type":"Feature","properties":{"kind":"lift","difficulty":null,"name":"sixpack Mooslehen","aerialway":"chair_lift","osm":"way/132548802"},"geometry":{"type":"LineString","coordinates":[[13.5003,47.43424],[13.49322,47.44335]]}},{"type":"Feature","properties":{"kind":"lift","difficulty":null,"name":"Schwaigalmlift","aerialway":"t-bar","osm":"way/132831188"},"geometry":{"type":"LineString","coordinates":[[13.47069,47.44182],[13.49232,47.44326]]}},{"type":"Feature","properties":{"kind":"piste","difficulty":"easy","name":"Piste Bögrain","aerialway":null,"osm":"way/190800136"},"geometry":{"type":"LineString","coordinates":[[13.51477,47.42994],[13.51457,47.43017],[13.51466,47.43039],[13.51546,47.43149],[13.51615,47.43218],[13.51659,47.43302],[13.51679,47.43307],[13.51691,47.43293]]}},{"type":"Feature","properties":{"kind":"lift","difficulty":null,"name":"Geierberglift","aerialway":"t-bar","osm":"way/190800137"},"geometry":{"type":"LineString","coordinates":[[13.46923,47.43697],[13.47784,47.43926]]}},{"type":"Feature","properties":{"kind":"lift","difficulty":null,"name":"Verbindungslift Halsegg","aerialway":"t-bar","osm":"way/190800138"},"geometry":{"type":"LineString","coordinates":[[13.5003,47.43757],[13.50701,47.43996]]}},{"type":"Feature","properties":{"kind":"piste","difficulty":"easy","name":"Verbindung Geierberg - Schwaigalm","aerialway":null,"osm":"way/190800140"},"geometry":{"type":"LineString","coordinates":[[13.47692,47.43902],[13.47648,47.43942],[13.47624,47.44007],[13.4767,47.44154],[13.47673,47.44205]]}},{"type":"Feature","properties":{"kind":"piste","difficulty":"intermediate","name":"Großberg Rote Abfahrt","aerialway":null,"osm":"way/190800141"},"geometry":{"type":"LineString","coordinates":[[13.51163,47.44204],[13.51221,47.44042],[13.51198,47.43923]]}},{"type":"Feature","properties":{"kind":"piste","difficulty":"easy","name":"Halsegg","aerialway":null,"osm":"way/190800142"},"geometry":{"type":"LineString","coordinates":[[13.50683,47.43958],[13.50413,47.43875],[13.50277,47.438],[13.50177,47.43766],[13.50192,47.43896],[13.50184,47.43912],[13.50162,47.43869],[13.50074,47.43781],[13.49937,47.43725]]}},{"type":"Feature","properties":{"kind":"piste","difficulty":"easy","name":"Mooslehen","aerialway":null,"osm":"way/190800143"},"geometry":{"type":"LineString","coordinates":[[13.49322,47.44335],[13.49289,47.4435],[13.49269,47.44333],[13.49269,47.44295],[13.49287,47.44269],[13.49453,47.44219],[13.49516,47.44166],[13.49529,47.43916],[13.49551,47.43876],[13.49677,47.43814],[13.49857,47.43797],[13.49937,47.43725],[13.49951,47.43676],[13.4996,47.43525],[13.50043,47.43434],[13.5003,47.43424]]}},{"type":"Feature","properties":{"kind":"piste","difficulty":"easy","name":"Schwaigalm","aerialway":null,"osm":"way/190800144"},"geometry":{"type":"LineString","coordinates":[[13.49232,47.44326],[13.49269,47.44295],[13.49255,47.44255],[13.49206,47.44231],[13.49046,47.44234],[13.48785,47.4427],[13.48564,47.44267],[13.48315,47.44163],[13.48141,47.44137],[13.48017,47.44145],[13.47776,47.44206],[13.47673,47.44205],[13.47596,47.44252],[13.47479,47.44283],[13.47468,47.44299],[13.47521,47.44398],[13.47496,47.44427],[13.47472,47.44428],[13.47306,47.44401],[13.472,47.44296],[13.47172,47.44231],[13.47148,47.44215],[13.47077,47.44205],[13.47069,47.44182]]}},{"type":"Feature","properties":{"kind":"piste","difficulty":"easy","name":"Schwaigalm","aerialway":null,"osm":"way/190800145"},"geometry":{"type":"LineString","coordinates":[[13.47673,47.44205],[13.47498,47.44151],[13.47444,47.4412],[13.47385,47.4406],[13.47289,47.43819],[13.47284,47.43785],[13.47302,47.4374],[13.47334,47.43716]]}},{"type":"Feature","properties":{"kind":"piste","difficulty":"intermediate","name":"Geierberg","aerialway":null,"osm":"way/190800146"},"geometry":{"type":"LineString","coordinates":[[13.47692,47.43902],[13.47639,47.43859],[13.47401,47.43757],[13.47334,47.43716],[13.47229,47.43715],[13.46967,47.43607],[13.46904,47.4362],[13.46917,47.43695],[13.46928,47.43701]]}},{"type":"Feature","properties":{"kind":"lift","difficulty":null,"name":"Übungslift Rettenegg","aerialway":"t-bar","osm":"way/205822713"},"geometry":{"type":"LineString","coordinates":[[13.5237,47.43778],[13.527,47.43857]]}},{"type":"Feature","properties":{"kind":"piste","difficulty":"easy","name":"Piste Bögrain","aerialway":null,"osm":"way/251550451"},"geometry":{"type":"LineString","coordinates":[[13.51574,47.43178],[13.51793,47.43187],[13.51915,47.43177],[13.51993,47.43202],[13.52065,47.43196],[13.52103,47.4322],[13.52117,47.43203]]}},{"type":"Feature","properties":{"kind":"piste","difficulty":"intermediate","name":"Großberg Rote Abfahrt","aerialway":null,"osm":"way/449726390"},"geometry":{"type":"LineString","coordinates":[[13.50899,47.43998],[13.50892,47.43866],[13.50944,47.437],[13.5098,47.43664],[13.51049,47.43626],[13.51186,47.43588],[13.51213,47.4357],[13.51261,47.43434]]}},{"type":"Feature","properties":{"kind":"piste","difficulty":"advanced","name":"Großberg Schwarze Abfahrt","aerialway":null,"osm":"way/449726391"},"geometry":{"type":"LineString","coordinates":[[13.51198,47.43923],[13.51196,47.43872],[13.51038,47.43766],[13.50942,47.43595]]}},{"type":"Feature","properties":{"kind":"piste","difficulty":"easy","name":"Familienabfahrt Großberg a","aerialway":null,"osm":"way/449726392"},"geometry":{"type":"LineString","coordinates":[[13.50637,47.43973],[13.50683,47.43958],[13.50679,47.43863],[13.50695,47.43805],[13.50724,47.43772],[13.50918,47.43661],[13.50953,47.43559],[13.50981,47.43533],[13.51486,47.43364],[13.51521,47.43362],[13.51531,47.43379]]}},{"type":"Feature","properties":{"kind":"piste","difficulty":"easy","name":"Familienabfahrt Großberg a","aerialway":null,"osm":"way/449726393"},"geometry":{"type":"LineString","coordinates":[[13.50899,47.43998],[13.50833,47.43988]]}},{"type":"Feature","properties":{"kind":"piste","difficulty":"easy","name":"Familienabfahrt Großberg a","aerialway":null,"osm":"way/449726394"},"geometry":{"type":"LineString","coordinates":[[13.5105,47.44],[13.50899,47.43998]]}},{"type":"Feature","properties":{"kind":"piste","difficulty":"easy","name":"Familienabfahrt Großberg a","aerialway":null,"osm":"way/449726395"},"geometry":{"type":"LineString","coordinates":[[13.5106,47.44041],[13.5105,47.43982],[13.51065,47.43964],[13.51198,47.43923]]}},{"type":"Feature","properties":{"kind":"piste","difficulty":"easy","name":"Halsegg","aerialway":null,"osm":"way/449726397"},"geometry":{"type":"LineString","coordinates":[[13.50833,47.43988],[13.50683,47.43958]]}},{"type":"Feature","properties":{"kind":"piste","difficulty":"intermediate","name":"Papageno","aerialway":null,"osm":"way/454276124"},"geometry":{"type":"LineString","coordinates":[[13.52771,47.42243],[13.52739,47.42287],[13.52728,47.42349],[13.52785,47.42495]]}},{"type":"Feature","properties":{"kind":"piste","difficulty":"intermediate","name":"Skiroute Halsegg","aerialway":null,"osm":"way/1011496111"},"geometry":{"type":"LineString","coordinates":[[13.50177,47.43766],[13.5003,47.43757]]}},{"type":"Feature","properties":{"kind":"piste","difficulty":"easy","name":null,"aerialway":null,"osm":"way/1073992770"},"geometry":{"type":"LineString","coordinates":[[13.52679,47.43852],[13.52612,47.43853],[13.52433,47.43806],[13.5237,47.43778]]}},{"type":"Feature","properties":{"kind":"piste","difficulty":"easy","name":null,"aerialway":null,"osm":"way/1073992771"},"geometry":{"type":"LineString","coordinates":[[13.52679,47.43852],[13.52647,47.43822],[13.5245,47.43777],[13.5237,47.43778]]}}]}