{"type":"FeatureCollection","features":[{"type":"Feature","properties":{"kind":"lift","difficulty":null,"name":"Neuleutasch Mahdlift","aerialway":"drag_lift","osm":"way/693757222"},"geometry":{"type":"LineString","coordinates":[[11.18132,47.35492],[11.17658,47.35441]]}},{"type":"Feature","properties":{"kind":"piste","difficulty":"easy","name":null,"aerialway":null,"osm":"way/941578227"},"geometry":{"type":"LineString","coordinates":[[11.17704,47.35449],[11.17706,47.35464],[11.17734,47.35475],[11.1785,47.35489],[11.18042,47.35546],[11.181,47.35528],[11.18132,47.35492]]}},{"type":"Feature","properties":{"kind":"lift","difficulty":null,"name":"Katzenkopflift","aerialway":"chair_lift","osm":"way/38323019"},"geometry":{"type":"LineString","coordinates":[[11.16565,47.36381],[11.16204,47.35843]]}},{"type":"Feature","properties":{"kind":"piste","difficulty":"intermediate","name":null,"aerialway":null,"osm":"way/259215757"},"geometry":{"type":"LineString","coordinates":[[11.16204,47.35843],[11.16149,47.35835],[11.16137,47.35848],[11.16144,47.35894],[11.16244,47.3593],[11.16418,47.3592],[11.1645,47.35939],[11.16501,47.36028],[11.16462,47.36115],[11.16462,47.36169],[11.16594,47.36372],[11.16565,47.36381]]}}]}