{"type":"FeatureCollection","features":[{"type":"Feature","properties":{"kind":"lift","difficulty":null,"name":"Gammeringlift","aerialway":"chair_lift","osm":"way/22945240"},"geometry":{"type":"LineString","coordinates":[[14.27997,47.64796],[14.28232,47.64027]]}},{"type":"Feature","properties":{"kind":"lift","difficulty":null,"name":"Junior Jet","aerialway":"t-bar","osm":"way/22945297"},"geometry":{"type":"LineString","coordinates":[[14.27918,47.64739],[14.27955,47.6438]]}},{"type":"Feature","properties":{"kind":"lift","difficulty":null,"name":"Frauenkarlift","aerialway":"chair_lift","osm":"way/22945379"},"geometry":{"type":"LineString","coordinates":[[14.27499,47.64688],[14.25373,47.64802]]}},{"type":"Feature","properties":{"kind":"piste","difficulty":"intermediate","name":"Frauenkarabfahrt","aerialway":null,"osm":"way/22945380"},"geometry":{"type":"LineString","coordinates":[[14.25373,47.64802],[14.25329,47.64727],[14.25302,47.64712],[14.25311,47.64701],[14.25627,47.6473],[14.25746,47.64712],[14.25854,47.64632],[14.25941,47.64539],[14.26107,47.64424],[14.26283,47.64364],[14.26417,47.64283],[14.26554,47.64253],[14.26736,47.64274],[14.26894,47.64247],[14.27092,47.64294],[14.27268,47.64481],[14.27314,47.64515],[14.27393,47.64557],[14.27539,47.646],[14.27547,47.64671]]}},{"type":"Feature","properties":{"kind":"piste","difficulty":"advanced","name":"Schwarzeck Rennstrecke","aerialway":null,"osm":"way/22945632"},"geometry":{"type":"LineString","coordinates":[[14.29359,47.64662],[14.29239,47.64695],[14.29085,47.64757]]}},{"type":"Feature","properties":{"kind":"piste","difficulty":"easy","name":"Schwarzeckabfahrt","aerialway":null,"osm":"way/22945633"},"geometry":{"type":"LineString","coordinates":[[14.29359,47.64662],[14.29177,47.64575],[14.29145,47.64499],[14.29115,47.64478],[14.29126,47.64476]]}},{"type":"Feature","properties":{"kind":"piste","difficulty":"easy","name":"Schwarzeckabfahrt","aerialway":null,"osm":"way/22945634"},"geometry":{"type":"LineString","coordinates":[[14.29681,47.64566],[14.2955,47.64593],[14.29443,47.64654],[14.29359,47.64662]]}},{"type":"Feature","properties":{"kind":"piste","difficulty":"advanced","name":"Schwarzeck Rennstrecke","aerialway":null,"osm":"way/22945635"},"geometry":{"type":"LineString","coordinates":[[14.29085,47.64757],[14.28908,47.64826]]}},{"type":"Feature","properties":{"kind":"lift","difficulty":null,"name":"Kinderland I","aerialway":"magic_carpet","osm":"way/22945636"},"geometry":{"type":"LineString","coordinates":[[14.29103,47.64505],[14.29072,47.64558]]}},{"type":"Feature","properties":{"kind":"piste","difficulty":"novice","name":null,"aerialway":null,"osm":"way/22945637"},"geometry":{"type":"LineString","coordinates":[[14.29072,47.64558],[14.29096,47.64546],[14.29103,47.64505]]}},{"type":"Feature","properties":{"kind":"piste","difficulty":"novice","name":null,"aerialway":null,"osm":"way/22945638"},"geometry":{"type":"LineString","coordinates":[[14.29072,47.64558],[14.29064,47.64552],[14.29079,47.64518],[14.29103,47.64505]]}},{"type":"Feature","properties":{"kind":"piste","difficulty":"intermediate","name":"Frauenkarabfahrt","aerialway":null,"osm":"way/29640297"},"geometry":{"type":"LineString","coordinates":[[14.26189,47.64521],[14.26344,47.64465],[14.26659,47.64432]]}},{"type":"Feature","properties":{"kind":"piste","difficulty":"easy","name":"Gammeringabfahrt","aerialway":null,"osm":"way/29640301"},"geometry":{"type":"LineString","coordinates":[[14.28232,47.64027],[14.28359,47.63977],[14.28375,47.6396],[14.28328,47.63914],[14.28308,47.63876],[14.28306,47.63795],[14.28291,47.63749],[14.28256,47.6371],[14.28136,47.63628],[14.28103,47.63565],[14.2811,47.63497],[14.2817,47.63369],[14.28238,47.63308],[14.28311,47.63266],[14.28457,47.63264],[14.28717,47.63223],[14.28887,47.63164],[14.28934,47.63123],[14.28945,47.63098],[14.28938,47.63046],[14.28828,47.62963],[14.28791,47.62907],[14.28788,47.62873],[14.28848,47.62817],[14.29035,47.6277],[14.29322,47.62623],[14.29408,47.62608],[14.29481,47.62616],[14.2961,47.62653],[14.29874,47.62662],[14.30097,47.62749],[14.30688,47.62865],[14.31029,47.62992]]}},{"type":"Feature","properties":{"kind":"piste","difficulty":"intermediate","name":"Hahnlgrabenabfahrt","aerialway":null,"osm":"way/29640307"},"geometry":{"type":"LineString","coordinates":[[14.28232,47.64027],[14.2828,47.64027],[14.28303,47.6404],[14.28271,47.6411],[14.28233,47.64162],[14.28093,47.64264],[14.27986,47.64374]]}},{"type":"Feature","properties":{"kind":"piste","difficulty":"easy","name":null,"aerialway":null,"osm":"way/29640308"},"geometry":{"type":"LineString","coordinates":[[14.27547,47.64671],[14.2759,47.64707],[14.27692,47.64755],[14.27802,47.64761],[14.27918,47.64739]]}},{"type":"Feature","properties":{"kind":"piste","difficulty":"easy","name":"Skiweg zum Hahnlgraben","aerialway":null,"osm":"way/29640310"},"geometry":{"type":"LineString","coordinates":[[14.28865,47.64583],[14.28742,47.6459],[14.28619,47.64627],[14.28362,47.64652],[14.28187,47.64697],[14.28052,47.64765],[14.27996,47.64814],[14.27997,47.64796]]}},{"type":"Feature","properties":{"kind":"piste","difficulty":"intermediate","name":"Wurzerabfahrt","aerialway":null,"osm":"way/29642053"},"geometry":{"type":"LineString","coordinates":[[14.28865,47.64583],[14.289,47.64568],[14.28978,47.64567],[14.29044,47.64533],[14.29098,47.64487],[14.29227,47.64313],[14.29227,47.64275],[14.29282,47.64147],[14.29345,47.64089],[14.29564,47.63944],[14.29822,47.63794],[14.29869,47.63737],[14.29946,47.63676],[14.3014,47.63617],[14.30406,47.63469],[14.30678,47.63214],[14.3088,47.63068],[14.3097,47.63012],[14.31029,47.62992]]}},{"type":"Feature","properties":{"kind":"piste","difficulty":"intermediate","name":"Schwarzeckabfahrt","aerialway":null,"osm":"way/30484290"},"geometry":{"type":"LineString","coordinates":[[14.29681,47.64566],[14.29676,47.64542],[14.29623,47.64479],[14.29541,47.64445],[14.29436,47.64439],[14.29314,47.64475],[14.29138,47.6446],[14.29114,47.64474]]}},{"type":"Feature","properties":{"kind":"piste","difficulty":"intermediate","name":"Hahnlgrabenabfahrt","aerialway":null,"osm":"way/30484292"},"geometry":{"type":"LineString","coordinates":[[14.28233,47.64162],[14.28092,47.64594],[14.28085,47.64665],[14.28052,47.64765]]}},{"type":"Feature","properties":{"kind":"piste","difficulty":"easy","name":null,"aerialway":null,"osm":"way/30625587"},"geometry":{"type":"LineString","coordinates":[[14.27918,47.64739],[14.27981,47.64811],[14.27996,47.64814]]}},{"type":"Feature","properties":{"kind":"piste","difficulty":"easy","name":null,"aerialway":null,"osm":"way/206640749"},"geometry":{"type":"LineString","coordinates":[[14.2762,47.64623],[14.27718,47.64636],[14.27891,47.64727]]}},{"type":"Feature","properties":{"kind":"piste","difficulty":"advanced","name":"Frauenkarabfahrt","aerialway":null,"osm":"way/258361958"},"geometry":{"type":"LineString","coordinates":[[14.25346,47.64757],[14.2536,47.64743],[14.25473,47.64723]]}},{"type":"Feature","properties":{"kind":"piste","difficulty":"intermediate","name":"Frauenkarabfahrt","aerialway":null,"osm":"way/258361959"},"geometry":{"type":"LineString","coordinates":[[14.26659,47.64432],[14.26796,47.64369],[14.26848,47.6427],[14.26894,47.64247]]}},{"type":"Feature","properties":{"kind":"piste","difficulty":"intermediate","name":"Frauenkarabfahrt","aerialway":null,"osm":"way/258363582"},"geometry":{"type":"LineString","coordinates":[[14.26226,47.64514],[14.26283,47.64416],[14.26373,47.64305]]}},{"type":"Feature","properties":{"kind":"piste","difficulty":"intermediate","name":"Wurzerabfahrt","aerialway":null,"osm":"way/258364560"},"geometry":{"type":"LineString","coordinates":[[14.31029,47.62992],[14.3107,47.62985],[14.31207,47.62918],[14.31341,47.62833],[14.31414,47.62734],[14.3144,47.62731],[14.31517,47.62764]]}},{"type":"Feature","properties":{"kind":"piste","difficulty":"easy","name":"Linzerhausabfahrt","aerialway":null,"osm":"way/258367431"},"geometry":{"type":"LineString","coordinates":[[14.29078,47.64577],[14.28994,47.64751],[14.28949,47.64799],[14.28836,47.64856],[14.288,47.64855],[14.28779,47.64841]]}},{"type":"Feature","properties":{"kind":"piste","difficulty":"easy","name":null,"aerialway":null,"osm":"way/337029687"},"geometry":{"type":"LineString","coordinates":[[14.27891,47.64727],[14.27918,47.64739]]}},{"type":"Feature","properties":{"kind":"piste","difficulty":"easy","name":"Juniorjetpiste","aerialway":null,"osm":"way/337029693"},"geometry":{"type":"LineString","coordinates":[[14.2795,47.64416],[14.27974,47.64446],[14.27963,47.64589],[14.27971,47.64708],[14.27935,47.64748],[14.27918,47.64739]]}},{"type":"Feature","properties":{"kind":"piste","difficulty":"intermediate","name":"Linzerhausabfahrt","aerialway":null,"osm":"way/337029695"},"geometry":{"type":"LineString","coordinates":[[14.28829,47.64592],[14.28847,47.64622],[14.288,47.64855]]}},{"type":"Feature","properties":{"kind":"piste","difficulty":"easy","name":"Linzerhausabfahrt","aerialway":null,"osm":"way/337029696"},"geometry":{"type":"LineString","coordinates":[[14.2895,47.6457],[14.28976,47.64579],[14.28917,47.6476],[14.28889,47.64798],[14.288,47.64855]]}},{"type":"Feature","properties":{"kind":"piste","difficulty":"easy","name":"Skiweg zur Bergstation","aerialway":null,"osm":"way/1182200888"},"geometry":{"type":"LineString","coordinates":[[14.28161,47.64382],[14.28231,47.64422],[14.283,47.64438],[14.28376,47.64487],[14.28486,47.64496],[14.28551,47.64526],[14.28622,47.64534],[14.28693,47.64559],[14.28831,47.64557],[14.28873,47.64575]]}},{"type":"Feature","properties":{"kind":"piste","difficulty":"easy","name":"Skiweg zum Linzerhaus","aerialway":null,"osm":"way/1182205458"},"geometry":{"type":"LineString","coordinates":[[14.27974,47.64446],[14.28039,47.64481],[14.28201,47.6451],[14.28412,47.6466],[14.2856,47.64681],[14.28604,47.64745],[14.2865,47.64762],[14.28759,47.64845],[14.2879,47.64849]]}},{"type":"Feature","properties":{"kind":"piste","difficulty":"intermediate","name":"Frauenkarabfahrt","aerialway":null,"osm":"way/1182205459"},"geometry":{"type":"LineString","coordinates":[[14.25373,47.64802],[14.25382,47.64793],[14.25428,47.64834],[14.25451,47.64833],[14.25627,47.6473]]}},{"type":"Feature","properties":{"kind":"piste","difficulty":"intermediate","name":"Frauenkarabfahrt","aerialway":null,"osm":"way/1182207969"},"geometry":{"type":"LineString","coordinates":[[14.27539,47.646],[14.2762,47.64623]]}},{"type":"Feature","properties":{"kind":"piste","difficulty":"intermediate","name":null,"aerialway":null,"osm":"way/1182207970"},"geometry":{"type":"LineString","coordinates":[[14.27866,47.64453],[14.2762,47.64623],[14.27547,47.64657]]}},{"type":"Feature","properties":{"kind":"piste","difficulty":"easy","name":"Slalom/RTL","aerialway":null,"osm":"way/1182207971"},"geometry":{"type":"LineString","coordinates":[[14.2795,47.64416],[14.27932,47.64416],[14.27907,47.64697],[14.27918,47.64739]]}},{"type":"Feature","properties":{"kind":"piste","difficulty":"intermediate","name":null,"aerialway":null,"osm":"way/1182207972"},"geometry":{"type":"LineString","coordinates":[[14.27932,47.64416],[14.27866,47.64453]]}},{"type":"Feature","properties":{"kind":"piste","difficulty":"intermediate","name":"Hahnlgrabenabfahrt","aerialway":null,"osm":"way/1182207973"},"geometry":{"type":"LineString","coordinates":[[14.27986,47.64374],[14.27974,47.64446]]}},{"type":"Feature","properties":{"kind":"piste","difficulty":"intermediate","name":null,"aerialway":null,"osm":"way/1182207974"},"geometry":{"type":"LineString","coordinates":[[14.27986,47.64374],[14.27946,47.64375],[14.27866,47.64453]]}},{"type":"Feature","properties":{"kind":"piste","difficulty":"intermediate","name":"Linzerhausabfahrt","aerialway":null,"osm":"way/1182207975"},"geometry":{"type":"LineString","coordinates":[[14.28844,47.64648],[14.28947,47.64675]]}},{"type":"Feature","properties":{"kind":"lift","difficulty":null,"name":"Linzerhauslift","aerialway":"t-bar","osm":"way/1182207976"},"geometry":{"type":"LineString","coordinates":[[14.28779,47.64841],[14.2884,47.64539]]}},{"type":"Feature","properties":{"kind":"piste","difficulty":"easy","name":"Gammeringabfahrt","aerialway":null,"osm":"way/1182207977"},"geometry":{"type":"LineString","coordinates":[[14.30916,47.62956],[14.3105,47.62967],[14.31159,47.62879],[14.31283,47.6287]]}},{"type":"Feature","properties":{"kind":"piste","difficulty":"intermediate","name":"Frauenkarabfahrt","aerialway":null,"osm":"way/1215419995"},"geometry":{"type":"LineString","coordinates":[[14.25366,47.64799],[14.25322,47.64726],[14.25298,47.64717],[14.25304,47.64699],[14.2561,47.64721],[14.25728,47.64708],[14.25843,47.64628],[14.26003,47.64471],[14.26005,47.64507],[14.25949,47.64545],[14.25841,47.64654],[14.25747,47.64718],[14.25635,47.64738],[14.2531,47.64706],[14.25341,47.64733],[14.25376,47.64798],[14.25366,47.64799]]}},{"type":"Feature","properties":{"kind":"piste","difficulty":"advanced","name":"Frauenkarabfahrt","aerialway":null,"osm":"way/1215419996"},"geometry":{"type":"LineString","coordinates":[[14.25354,47.64762],[14.25501,47.6473],[14.25402,47.64723],[14.25341,47.64733],[14.25354,47.64762]]}},{"type":"Feature","properties":{"kind":"piste","difficulty":"intermediate","name":"Frauenkarabfahrt","aerialway":null,"osm":"way/1215419997"},"geometry":{"type":"LineString","coordinates":[[14.26003,47.64471],[14.261,47.64402],[14.26274,47.64349],[14.26399,47.64269],[14.26465,47.64244],[14.26603,47.6424],[14.26719,47.64259],[14.26859,47.64223],[14.26904,47.64224],[14.27124,47.64288],[14.27244,47.64417],[14.27277,47.6447],[14.274,47.64544],[14.27518,47.64572],[14.27646,47.6462],[14.27638,47.64637],[14.27531,47.64687],[14.27513,47.64607],[14.27485,47.6459],[14.27392,47.64572],[14.27289,47.64522],[14.27081,47.64308],[14.2692,47.64262],[14.26818,47.64273],[14.2675,47.64299],[14.26641,47.64275],[14.26502,47.64278],[14.26383,47.6432],[14.26329,47.64377],[14.26158,47.64419],[14.26005,47.64507],[14.26003,47.64471]]}},{"type":"Feature","properties":{"kind":"piste","difficulty":"intermediate","name":"Frauenkarabfahrt","aerialway":null,"osm":"way/1215419998"},"geometry":{"type":"LineString","coordinates":[[14.26065,47.64473],[14.26186,47.64555],[14.26231,47.64531],[14.26388,47.64486],[14.2652,47.64461],[14.26669,47.64455],[14.26791,47.64387],[14.26854,47.64277],[14.26871,47.64267],[14.26838,47.64271],[14.26802,47.64351],[14.26757,47.64383],[14.26607,47.64411],[14.26341,47.64437],[14.26287,47.64452],[14.26176,47.64512],[14.2608,47.64464],[14.26065,47.64473]]}},{"type":"Feature","properties":{"kind":"piste","difficulty":"intermediate","name":"Frauenkarabfahrt","aerialway":null,"osm":"way/1215419999"},"geometry":{"type":"LineString","coordinates":[[14.26218,47.64498],[14.26287,47.64384],[14.26329,47.64377],[14.26278,47.64446],[14.26287,47.64452],[14.26218,47.64498]]}},{"type":"Feature","properties":{"kind":"piste","difficulty":"advanced","name":"Panoramaabfahrt","aerialway":null,"osm":"way/1215420000"},"geometry":{"type":"LineString","coordinates":[[14.26705,47.64456],[14.27255,47.64648],[14.27247,47.64619],[14.27174,47.6457],[14.26994,47.64482],[14.26761,47.64404],[14.26669,47.64455],[14.26705,47.64456]]}},{"type":"Feature","properties":{"kind":"piste","difficulty":"intermediate","name":null,"aerialway":null,"osm":"way/1215420001"},"geometry":{"type":"LineString","coordinates":[[14.27314,47.64515],[14.27309,47.64529],[14.27182,47.64558],[14.27261,47.64633]]}},{"type":"Feature","properties":{"kind":"piste","difficulty":"intermediate","name":null,"aerialway":null,"osm":"way/1215420002"},"geometry":{"type":"LineString","coordinates":[[14.27179,47.64569],[14.27179,47.64551],[14.27216,47.64541],[14.27299,47.64527],[14.27317,47.64536],[14.27194,47.64557],[14.27191,47.64568],[14.27259,47.64614],[14.27247,47.64619],[14.27179,47.64569]]}},{"type":"Feature","properties":{"kind":"piste","difficulty":"intermediate","name":"Panoramaabfahrt","aerialway":null,"osm":"way/1215420003"},"geometry":{"type":"LineString","coordinates":[[14.27255,47.64648],[14.27528,47.64676],[14.27526,47.6466],[14.27373,47.64646],[14.27259,47.64614],[14.27247,47.64619],[14.27255,47.64648]]}},{"type":"Feature","properties":{"kind":"piste","difficulty":"intermediate","name":"Frauenkarabfahrt","aerialway":null,"osm":"way/1215420004"},"geometry":{"type":"LineString","coordinates":[[14.27547,47.64671],[14.27499,47.64688]]}},{"type":"Feature","properties":{"kind":"piste","difficulty":"advanced","name":"Panoramaabfahrt","aerialway":null,"osm":"way/1215420005"},"geometry":{"type":"LineString","coordinates":[[14.26659,47.64432],[14.26748,47.6444],[14.26945,47.64499],[14.27261,47.64633]]}},{"type":"Feature","properties":{"kind":"piste","difficulty":"intermediate","name":"Frauenkarabfahrt","aerialway":null,"osm":"way/1215421986"},"geometry":{"type":"LineString","coordinates":[[14.25374,47.64795],[14.25388,47.64798],[14.25422,47.64845],[14.25454,47.64842],[14.25635,47.64738],[14.25586,47.64736],[14.2543,47.64826],[14.25393,47.64796],[14.25374,47.64795]]}},{"type":"Feature","properties":{"kind":"piste","difficulty":"easy","name":null,"aerialway":null,"osm":"way/1215425182"},"geometry":{"type":"LineString","coordinates":[[14.2756,47.64671],[14.27581,47.64694],[14.27698,47.6475],[14.27865,47.64744],[14.27877,47.64766],[14.27689,47.64761],[14.27532,47.64695],[14.2756,47.64671]]}},{"type":"Feature","properties":{"kind":"piste","difficulty":"intermediate","name":"Hahnlgrabenabfahrt","aerialway":null,"osm":"way/1215425183"},"geometry":{"type":"LineString","coordinates":[[14.28236,47.64029],[14.28274,47.64036],[14.28269,47.64064],[14.28196,47.64173],[14.28058,47.64607],[14.28022,47.64631],[14.28037,47.64686],[14.28011,47.64802],[14.27995,47.64805],[14.27997,47.6482],[14.28082,47.64786],[14.28118,47.64593],[14.28158,47.6447],[14.28199,47.64389],[14.28258,47.64169],[14.28294,47.64138],[14.28315,47.64096],[14.28328,47.64048],[14.28303,47.64026],[14.28271,47.64016],[14.28232,47.64021],[14.28236,47.64029]]}},{"type":"Feature","properties":{"kind":"piste","difficulty":"intermediate","name":"Hahlgrabenabfahrt","aerialway":null,"osm":"way/1215425184"},"geometry":{"type":"LineString","coordinates":[[14.28192,47.64184],[14.28021,47.64295],[14.27985,47.64352],[14.27954,47.64376],[14.27912,47.64386],[14.27843,47.64455],[14.27934,47.6442],[14.27955,47.6438],[14.27978,47.64429],[14.28098,47.64302],[14.28116,47.64263],[14.28176,47.64237],[14.28192,47.64184]]}},{"type":"Feature","properties":{"kind":"piste","difficulty":"easy","name":"Juniorjetpiste","aerialway":null,"osm":"way/1215425185"},"geometry":{"type":"LineString","coordinates":[[14.27954,47.64412],[14.27993,47.64441],[14.27989,47.6449],[14.28004,47.64548],[14.27985,47.64578],[14.27992,47.64613],[14.28022,47.64631],[14.28037,47.64686],[14.2799,47.64799],[14.27997,47.6482],[14.27919,47.64799],[14.27922,47.64773],[14.27904,47.64771],[14.27915,47.64747],[14.27932,47.64745],[14.27954,47.64412]]}},{"type":"Feature","properties":{"kind":"piste","difficulty":"easy","name":"Skiweg zum Linzerhaus","aerialway":null,"osm":"way/1215425187"},"geometry":{"type":"LineString","coordinates":[[14.2799,47.64476],[14.2809,47.6451],[14.28105,47.64465],[14.28051,47.64479],[14.27992,47.64456],[14.2799,47.64476]]}},{"type":"Feature","properties":{"kind":"piste","difficulty":"intermediate","name":null,"aerialway":null,"osm":"way/1215425190"},"geometry":{"type":"LineString","coordinates":[[14.2785,47.64476],[14.27646,47.6462],[14.27616,47.64611],[14.27843,47.64455],[14.27921,47.64425],[14.2785,47.64476]]}},{"type":"Feature","properties":{"kind":"piste","difficulty":"easy","name":null,"aerialway":null,"osm":"way/1215425191"},"geometry":{"type":"LineString","coordinates":[[14.27646,47.6462],[14.27719,47.64628],[14.2786,47.64703],[14.27854,47.64715],[14.27715,47.64643],[14.27638,47.64637],[14.27646,47.6462]]}},{"type":"Feature","properties":{"kind":"piste","difficulty":"easy","name":"Skiweg zur Bergstation","aerialway":null,"osm":"way/1215425192"},"geometry":{"type":"LineString","coordinates":[[14.28199,47.64389],[14.28213,47.64408],[14.28322,47.64445],[14.28377,47.64485],[14.28486,47.64494],[14.28552,47.64524],[14.28633,47.64534],[14.28695,47.64558],[14.28836,47.64556],[14.28874,47.64572],[14.28812,47.64557],[14.28693,47.64561],[14.28632,47.64538],[14.28551,47.64528],[14.28483,47.64498],[14.28375,47.64489],[14.28286,47.64436],[14.28205,47.64415],[14.28191,47.64405],[14.28199,47.64389]]}},{"type":"Feature","properties":{"kind":"piste","difficulty":"intermediate","name":"Panoramaabfahrt","aerialway":null,"osm":"way/1221523507"},"geometry":{"type":"LineString","coordinates":[[14.27261,47.64633],[14.27372,47.64656],[14.27547,47.64671]]}},{"type":"Feature","properties":{"kind":"piste","difficulty":"intermediate","name":"Gammeringabfahrt","aerialway":null,"osm":"way/1221529631"},"geometry":{"type":"LineString","coordinates":[[14.28256,47.64009],[14.28321,47.63902]]}},{"type":"Feature","properties":{"kind":"piste","difficulty":"intermediate","name":"Gammeringabfahrt","aerialway":null,"osm":"way/1221529635"},"geometry":{"type":"LineString","coordinates":[[14.28244,47.64],[14.28303,47.63905],[14.2833,47.6393],[14.28288,47.63992],[14.28244,47.64]]}},{"type":"Feature","properties":{"kind":"piste","difficulty":"intermediate","name":"Gammeringabfahrt","aerialway":null,"osm":"way/1221529638"},"geometry":{"type":"LineString","coordinates":[[14.28875,47.62857],[14.28949,47.62798]]}},{"type":"Feature","properties":{"kind":"piste","difficulty":"intermediate","name":"Gammeringabfahrt","aerialway":null,"osm":"way/1221530357"},"geometry":{"type":"LineString","coordinates":[[14.28881,47.6286],[14.2895,47.62814],[14.28907,47.62814],[14.28865,47.62846],[14.28881,47.6286]]}},{"type":"Feature","properties":{"kind":"piste","difficulty":"easy","name":null,"aerialway":null,"osm":"way/1221536239"},"geometry":{"type":"LineString","coordinates":[[14.2811,47.64735],[14.27922,47.64749]]}},{"type":"Feature","properties":{"kind":"piste","difficulty":"easy","name":"Linzerhausabfahrt","aerialway":null,"osm":"way/1221537183"},"geometry":{"type":"LineString","coordinates":[[14.28947,47.64675],[14.2901,47.64722]]}},{"type":"Feature","properties":{"kind":"piste","difficulty":"novice","name":null,"aerialway":null,"osm":"way/1221537184"},"geometry":{"type":"LineString","coordinates":[[14.28814,47.64616],[14.28797,47.64628],[14.28785,47.64668],[14.28792,47.64682]]}},{"type":"Feature","properties":{"kind":"piste","difficulty":"intermediate","name":"Wurzerabfahrt","aerialway":null,"osm":"way/1221557362"},"geometry":{"type":"LineString","coordinates":[[14.31482,47.62758],[14.31425,47.62744],[14.31387,47.62818],[14.31219,47.62938],[14.31163,47.62947],[14.31098,47.62985],[14.31006,47.63011],[14.30864,47.63098],[14.30772,47.63184],[14.30704,47.63224],[14.30642,47.63303],[14.3043,47.63478],[14.30114,47.63658],[14.29994,47.63674],[14.29923,47.63707],[14.29831,47.63815],[14.29373,47.6409],[14.29319,47.64134],[14.29282,47.64197],[14.29243,47.64304],[14.29122,47.64468],[14.29051,47.64535],[14.28967,47.64576],[14.28882,47.64575],[14.28892,47.64588],[14.28848,47.6458],[14.28899,47.64565],[14.28976,47.64563],[14.29094,47.64483],[14.29222,47.64305],[14.29201,47.64297],[14.29206,47.64266],[14.29249,47.64149],[14.29353,47.64057],[14.29494,47.63975],[14.29575,47.63904],[14.29813,47.63772],[14.29855,47.63721],[14.2993,47.63666],[14.30106,47.63609],[14.30394,47.63452],[14.3065,47.63201],[14.30967,47.62998],[14.31089,47.62965],[14.31297,47.62842],[14.3133,47.62818],[14.31399,47.62723],[14.31437,47.62719],[14.31517,47.62758],[14.31528,47.6275],[14.31535,47.62767],[14.3152,47.62772],[14.31482,47.62758]]}},{"type":"Feature","properties":{"kind":"piste","difficulty":"easy","name":"Gammeringabfahrt","aerialway":null,"osm":"way/1221557363"},"geometry":{"type":"LineString","coordinates":[[14.30964,47.62962],[14.31052,47.62964],[14.31158,47.62878],[14.31248,47.62872],[14.3116,47.62881],[14.31054,47.62968],[14.30964,47.62962]]}},{"type":"Feature","properties":{"kind":"lift","difficulty":null,"name":"Schwarzecklift","aerialway":"t-bar","osm":"way/1221557364"},"geometry":{"type":"LineString","coordinates":[[14.29126,47.64476],[14.29739,47.64576]]}},{"type":"Feature","properties":{"kind":"piste","difficulty":"easy","name":"Schwarzeckabfahrt","aerialway":null,"osm":"way/1224552721"},"geometry":{"type":"LineString","coordinates":[[14.29674,47.64565],[14.29533,47.64578],[14.29418,47.64643],[14.29348,47.64643],[14.29184,47.64567],[14.2915,47.64493],[14.29123,47.64477],[14.2911,47.64482],[14.29132,47.64491],[14.29183,47.64591],[14.29347,47.64676],[14.29443,47.6467],[14.29547,47.64614],[14.29664,47.64588],[14.29684,47.64567],[14.29674,47.64565]]}},{"type":"Feature","properties":{"kind":"piste","difficulty":"advanced","name":"Schwarzeck Rennstrecke","aerialway":null,"osm":"way/1224552722"},"geometry":{"type":"LineString","coordinates":[[14.29405,47.64679],[14.29247,47.64708],[14.28944,47.64833],[14.29014,47.64765],[14.29267,47.64668],[14.29305,47.64657],[14.29347,47.64676],[14.29405,47.64679]]}},{"type":"Feature","properties":{"kind":"piste","difficulty":"easy","name":null,"aerialway":null,"osm":"way/1224552723"},"geometry":{"type":"LineString","coordinates":[[14.29173,47.64581],[14.29073,47.64575],[14.29161,47.64566],[14.29173,47.64581]]}},{"type":"Feature","properties":{"kind":"piste","difficulty":"easy","name":null,"aerialway":null,"osm":"way/1224552724"},"geometry":{"type":"LineString","coordinates":[[14.28974,47.64575],[14.29078,47.64577]]}},{"type":"Feature","properties":{"kind":"piste","difficulty":"easy","name":null,"aerialway":null,"osm":"way/1224552725"},"geometry":{"type":"LineString","coordinates":[[14.28994,47.64578],[14.29078,47.64573],[14.28994,47.64578]]}},{"type":"Feature","properties":{"kind":"piste","difficulty":"easy","name":"Schwarzeckabfahrt","aerialway":null,"osm":"way/1224793529"},"geometry":{"type":"LineString","coordinates":[[14.29177,47.64575],[14.29078,47.64577]]}},{"type":"Feature","properties":{"kind":"piste","difficulty":"easy","name":"Linzerhausabfahrt","aerialway":null,"osm":"way/1224793532"},"geometry":{"type":"LineString","coordinates":[[14.28847,47.64622],[14.28899,47.64652],[14.28944,47.64624],[14.28962,47.64633]]}},{"type":"Feature","properties":{"kind":"piste","difficulty":"easy","name":"Linzerhausabfahrt","aerialway":null,"osm":"way/1224793533"},"geometry":{"type":"LineString","coordinates":[[14.29073,47.64575],[14.29056,47.64617],[14.28948,47.64771],[14.28822,47.64849],[14.28783,47.64846],[14.28814,47.64862],[14.28898,47.64849],[14.28944,47.64833],[14.28989,47.64794],[14.29032,47.64724],[14.29073,47.64575]]}},{"type":"Feature","properties":{"kind":"piste","difficulty":"intermediate","name":"Linzerhausabfahrt","aerialway":null,"osm":"way/1224793534"},"geometry":{"type":"LineString","coordinates":[[14.28794,47.64845],[14.28831,47.64614],[14.28867,47.64639],[14.28826,47.64833],[14.28794,47.64845]]}},{"type":"Feature","properties":{"kind":"piste","difficulty":"intermediate","name":"Linzerhausabfahrt","aerialway":null,"osm":"way/1224793535"},"geometry":{"type":"LineString","coordinates":[[14.28856,47.64674],[14.28919,47.64682],[14.28933,47.64662],[14.28867,47.64639],[14.28856,47.64674]]}},{"type":"Feature","properties":{"kind":"piste","difficulty":"easy","name":"Linzerhausabfahrt","aerialway":null,"osm":"way/1224793536"},"geometry":{"type":"LineString","coordinates":[[14.28892,47.64588],[14.28862,47.64617],[14.28891,47.64648],[14.28916,47.64645],[14.28944,47.64621],[14.28955,47.64629],[14.28904,47.64654],[14.28867,47.64639],[14.28831,47.64614],[14.28844,47.64587],[14.28892,47.64588]]}},{"type":"Feature","properties":{"kind":"piste","difficulty":"easy","name":"Linzerhausabfahrt","aerialway":null,"osm":"way/1224793537"},"geometry":{"type":"LineString","coordinates":[[14.28967,47.64576],[14.28955,47.64629],[14.28919,47.64682],[14.28884,47.64781],[14.28806,47.64847],[14.28822,47.64849],[14.28904,47.64803],[14.28934,47.64765],[14.28968,47.64672],[14.28977,47.64594],[14.28994,47.64578],[14.28967,47.64576]]}},{"type":"Feature","properties":{"kind":"piste","difficulty":"easy","name":"Linzerhausabfahrt","aerialway":null,"osm":"way/1224793538"},"geometry":{"type":"LineString","coordinates":[[14.28968,47.64672],[14.29003,47.6469],[14.28986,47.64716],[14.28956,47.64693],[14.28968,47.64672]]}},{"type":"Feature","properties":{"kind":"piste","difficulty":"easy","name":null,"aerialway":null,"osm":"way/1224793539"},"geometry":{"type":"LineString","coordinates":[[14.28903,47.64587],[14.28865,47.64583]]}},{"type":"Feature","properties":{"kind":"piste","difficulty":"easy","name":"Skiweg zum Hahnlgraben","aerialway":null,"osm":"way/1225003751"},"geometry":{"type":"LineString","coordinates":[[14.28844,47.64587],[14.28755,47.6459],[14.2862,47.64629],[14.28515,47.64632],[14.28341,47.6466],[14.28194,47.64698],[14.28089,47.64751],[14.28092,47.64732],[14.28193,47.64692],[14.2836,47.6465],[14.28513,47.64628],[14.28614,47.64627],[14.28759,47.64585],[14.28827,47.64578],[14.28848,47.6458],[14.28844,47.64587]]}},{"type":"Feature","properties":{"kind":"piste","difficulty":"easy","name":"Skiweg zum Linzerhaus","aerialway":null,"osm":"way/1225003752"},"geometry":{"type":"LineString","coordinates":[[14.28399,47.6465],[14.28415,47.64664],[14.28554,47.6468],[14.28602,47.64747],[14.28647,47.64763],[14.28756,47.64848],[14.28791,47.64853],[14.28762,47.64844],[14.28652,47.6476],[14.28607,47.64744],[14.28556,47.64677],[14.28399,47.6465]]}},{"type":"Feature","properties":{"kind":"piste","difficulty":"easy","name":"Skiweg zum Linzerhaus","aerialway":null,"osm":"way/1225003753"},"geometry":{"type":"LineString","coordinates":[[14.28397,47.64646],[14.2821,47.64516],[14.28149,47.645],[14.28154,47.64483],[14.28397,47.64646]]}},{"type":"Feature","properties":{"kind":"piste","difficulty":"novice","name":null,"aerialway":null,"osm":"way/1225004474"},"geometry":{"type":"LineString","coordinates":[[14.28811,47.64586],[14.28802,47.64621]]}},{"type":"Feature","properties":{"kind":"piste","difficulty":"novice","name":null,"aerialway":null,"osm":"way/1225004475"},"geometry":{"type":"LineString","coordinates":[[14.28787,47.6468],[14.28775,47.64669],[14.2878,47.64647],[14.28808,47.64588],[14.28819,47.64586],[14.28787,47.6468]]}},{"type":"Feature","properties":{"kind":"piste","difficulty":"easy","name":"Gammeringabfahrt","aerialway":null,"osm":"way/1230349751"},"geometry":{"type":"LineString","coordinates":[[14.28914,47.63021],[14.28854,47.63003],[14.28808,47.62968],[14.28753,47.62964],[14.28748,47.62954],[14.28798,47.62939],[14.288,47.62927]]}},{"type":"Feature","properties":{"kind":"piste","difficulty":"easy","name":"Gammeringabfahrt","aerialway":null,"osm":"way/1230349752"},"geometry":{"type":"LineString","coordinates":[[14.28808,47.62971],[14.28746,47.6296],[14.28795,47.62938],[14.28754,47.62952],[14.28754,47.62962],[14.28801,47.62964],[14.28886,47.63013],[14.28846,47.63001],[14.28808,47.62971]]}},{"type":"Feature","properties":{"kind":"piste","difficulty":"easy","name":"Gammeringabfahrt","aerialway":null,"osm":"way/1230349753"},"geometry":{"type":"LineString","coordinates":[[14.28813,47.62944],[14.28843,47.62884],[14.28875,47.62853],[14.28813,47.62858],[14.28808,47.62849]]}},{"type":"Feature","properties":{"kind":"piste","difficulty":"easy","name":"Gammeringabfahrt","aerialway":null,"osm":"way/1230349754"},"geometry":{"type":"LineString","coordinates":[[14.28798,47.62939],[14.28818,47.62926]]}},{"type":"Feature","properties":{"kind":"piste","difficulty":"easy","name":"Gammeringabfahrt","aerialway":null,"osm":"way/1230349755"},"geometry":{"type":"LineString","coordinates":[[14.28821,47.62937],[14.28881,47.6286],[14.28872,47.62848],[14.28809,47.6286],[14.28862,47.62854],[14.28823,47.62895],[14.28813,47.62917],[14.28821,47.62937]]}},{"type":"Feature","properties":{"kind":"piste","difficulty":"easy","name":"Gammeringabfahrt","aerialway":null,"osm":"way/1230372699"},"geometry":{"type":"LineString","coordinates":[[14.29079,47.62751],[14.29104,47.62717],[14.29113,47.62666],[14.29167,47.62626],[14.29227,47.62608],[14.29347,47.62614]]}},{"type":"Feature","properties":{"kind":"piste","difficulty":"easy","name":"Gammeringabfahrt","aerialway":null,"osm":"way/1230372700"},"geometry":{"type":"LineString","coordinates":[[14.29086,47.62726],[14.29098,47.62664],[14.29136,47.62629],[14.29227,47.62598],[14.29328,47.62605],[14.29289,47.62619],[14.29223,47.62618],[14.29152,47.62647],[14.29122,47.62676],[14.2912,47.6271],[14.29086,47.62726]]}},{"type":"Feature","properties":{"kind":"piste","difficulty":"intermediate","name":"Schwarzeckabfahrt","aerialway":null,"osm":"way/1259752024"},"geometry":{"type":"LineString","coordinates":[[14.29684,47.64567],[14.29701,47.64553],[14.2969,47.64531],[14.29629,47.64459],[14.29522,47.64427],[14.29435,47.64427],[14.2931,47.64466],[14.29137,47.64449],[14.29122,47.64468],[14.29329,47.64483],[14.29454,47.6445],[14.29532,47.64458],[14.296,47.64482],[14.29612,47.64506],[14.29684,47.64567]]}},{"type":"Feature","properties":{"kind":"piste","difficulty":"intermediate","name":"Schwarzeckabfahrt","aerialway":null,"osm":"way/1259752025"},"geometry":{"type":"LineString","coordinates":[[14.29138,47.6446],[14.2913,47.64449]]}},{"type":"Feature","properties":{"kind":"piste","difficulty":"advanced","name":"Schwarzeck Rennstrecke","aerialway":null,"osm":"way/1259752026"},"geometry":{"type":"LineString","coordinates":[[14.29285,47.64681],[14.29139,47.6466],[14.29029,47.64677]]}},{"type":"Feature","properties":{"kind":"piste","difficulty":"advanced","name":"Schwarzeck Rennstrecke","aerialway":null,"osm":"way/1259752027"},"geometry":{"type":"LineString","coordinates":[[14.29233,47.64682],[14.29123,47.64672],[14.29041,47.64688],[14.29053,47.64651],[14.29087,47.64649],[14.29229,47.64659],[14.29267,47.64668],[14.29233,47.64682]]}},{"type":"Feature","properties":{"kind":"piste","difficulty":"intermediate","name":"Frauenkarabfahrt","aerialway":null,"osm":"way/1259752028"},"geometry":{"type":"LineString","coordinates":[[14.26062,47.64452],[14.26344,47.64465]]}},{"type":"Feature","properties":{"kind":"piste","difficulty":"intermediate","name":"Frauenkarabfahrt","aerialway":null,"osm":"way/1259752029"},"geometry":{"type":"LineString","coordinates":[[14.26241,47.6445],[14.26122,47.64441],[14.26093,47.64458],[14.26233,47.64468],[14.26241,47.6445]]}},{"type":"Feature","properties":{"kind":"lift","difficulty":null,"name":"Rückbringerförderband","aerialway":"magic_carpet","osm":"way/1338648870"},"geometry":{"type":"LineString","coordinates":[[14.28972,47.64577],[14.28882,47.64576]]}},{"type":"Feature","properties":{"kind":"piste","difficulty":"easy","name":"Linzerhausabfahrt","aerialway":null,"osm":"way/1338648871"},"geometry":{"type":"LineString","coordinates":[[14.28872,47.64584],[14.28847,47.64622]]}},{"type":"Feature","properties":{"kind":"piste","difficulty":"easy","name":null,"aerialway":null,"osm":"way/1356945723"},"geometry":{"type":"LineString","coordinates":[[14.28937,47.64627],[14.2899,47.64576]]}},{"type":"Feature","properties":{"kind":"piste","difficulty":"easy","name":null,"aerialway":null,"osm":"way/1356945922"},"geometry":{"type":"LineString","coordinates":[[14.28938,47.64623],[14.28969,47.64591],[14.28938,47.64623]]}},{"type":"Feature","properties":{"kind":"piste","difficulty":"intermediate","name":"Frauenkarabfahrt","aerialway":null,"osm":"way/1358537041"},"geometry":{"type":"LineString","coordinates":[[14.26004,47.64489],[14.26037,47.64467],[14.26064,47.64466],[14.2615,47.64514]]}},{"type":"Feature","properties":{"kind":"piste","difficulty":"intermediate","name":null,"aerialway":null,"osm":"way/1358537043"},"geometry":{"type":"LineString","coordinates":[[14.2615,47.64514],[14.26175,47.64542],[14.26189,47.64521]]}},{"type":"Feature","properties":{"kind":"piste","difficulty":"intermediate","name":"Frauenkarabfahrt","aerialway":null,"osm":"way/1358537044"},"geometry":{"type":"LineString","coordinates":[[14.2615,47.64514],[14.26189,47.64521]]}},{"type":"Feature","properties":{"kind":"piste","difficulty":"easy","name":"Wellenbahn","aerialway":null,"osm":"way/1358537046"},"geometry":{"type":"LineString","coordinates":[[14.27844,47.64467],[14.27804,47.64566],[14.27817,47.64603],[14.2786,47.64639],[14.27891,47.64727]]}},{"type":"Feature","properties":{"kind":"piste","difficulty":"intermediate","name":"Linzerhausabfahrt","aerialway":null,"osm":"way/1358537047"},"geometry":{"type":"LineString","coordinates":[[14.28868,47.64659],[14.28874,47.64777],[14.2883,47.64838]]}},{"type":"Feature","properties":{"kind":"piste","difficulty":"intermediate","name":"Linzerhausabfahrt","aerialway":null,"osm":"way/1358537048"},"geometry":{"type":"LineString","coordinates":[[14.28864,47.64674],[14.28869,47.64764],[14.28845,47.648],[14.28832,47.64801],[14.28826,47.64833],[14.28884,47.64781],[14.28877,47.64675],[14.28864,47.64674]]}},{"type":"Feature","properties":{"kind":"lift","difficulty":null,"name":"Kinderland II","aerialway":"magic_carpet","osm":"way/1359323219"},"geometry":{"type":"LineString","coordinates":[[14.29136,47.64565],[14.29163,47.64565]]}},{"type":"Feature","properties":{"kind":"piste","difficulty":"novice","name":null,"aerialway":null,"osm":"way/1359327401"},"geometry":{"type":"LineString","coordinates":[[14.29163,47.64565],[14.29136,47.64565]]}},{"type":"Feature","properties":{"kind":"piste","difficulty":"easy","name":"Gammeringabfahrt","aerialway":null,"osm":"relation/16707779"},"geometry":{"type":"MultiLineString","coordinates":[[[14.28851,47.62894],[14.28821,47.62937],[14.28801,47.62871],[14.2886,47.62819],[14.2895,47.62814],[14.29059,47.62783],[14.29358,47.62624],[14.29417,47.6262],[14.29604,47.62663],[14.29856,47.62666],[14.3006,47.62747],[14.30688,47.62872],[14.30982,47.62992],[14.31028,47.62978],[14.30929,47.62953],[14.30716,47.62864],[14.30642,47.62845],[14.30131,47.62751],[14.2986,47.62652],[14.2965,47.62645],[14.29389,47.62595],[14.29281,47.62622],[14.29086,47.62726],[14.28837,47.62813],[14.28774,47.6287],[14.28774,47.62908]],[[14.28774,47.62908],[14.2882,47.62967],[14.28917,47.63041],[14.28917,47.631],[14.28883,47.6314],[14.28843,47.63166],[14.28699,47.6321],[14.28436,47.63257],[14.28299,47.63265],[14.28183,47.6334],[14.28101,47.63461],[14.28076,47.63538],[14.28082,47.63581],[14.28109,47.63635],[14.2816,47.6368],[14.28237,47.63715],[14.28273,47.6376],[14.2829,47.63819],[14.28292,47.63887],[14.28314,47.63921],[14.28361,47.63956],[14.28361,47.63968],[14.28326,47.63984],[14.28244,47.64],[14.28232,47.64021],[14.28271,47.64016],[14.28364,47.63981],[14.28386,47.63946],[14.28336,47.63901],[14.28322,47.63781],[14.28292,47.63714],[14.28178,47.63643],[14.28133,47.6359],[14.28127,47.63525],[14.28177,47.63369],[14.28283,47.63286],[14.2832,47.63271],[14.2843,47.63279],[14.28703,47.63243],[14.28859,47.63199],[14.28923,47.63166],[14.28959,47.6313],[14.28972,47.63077],[14.28954,47.63035],[14.28823,47.62944],[14.28851,47.62894]]]}}]}