{"type":"FeatureCollection","features":[{"type":"Feature","properties":{"kind":"lift","difficulty":null,"name":"Übungslift Gries","aerialway":"platter","osm":"way/528565501"},"geometry":{"type":"LineString","coordinates":[[12.99701,46.67447],[12.9939,46.67549]]}},{"type":"Feature","properties":{"kind":"piste","difficulty":"intermediate","name":"Vorhegg","aerialway":null,"osm":"way/528565504"},"geometry":{"type":"LineString","coordinates":[[12.97147,46.68601],[12.97132,46.68588],[12.97194,46.68427],[12.97246,46.68379],[12.97301,46.68354],[12.97339,46.68301],[12.97305,46.68248],[12.97336,46.68205],[12.97595,46.68025],[12.97692,46.68001],[12.97818,46.68042],[12.97898,46.68046],[12.98562,46.68036],[12.98912,46.67913],[12.98958,46.67835],[12.99372,46.67631],[12.99671,46.67559],[12.99691,46.67571],[12.99669,46.67579]]}},{"type":"Feature","properties":{"kind":"piste","difficulty":"intermediate","name":"Laas","aerialway":null,"osm":"way/528565506"},"geometry":{"type":"LineString","coordinates":[[12.97147,46.68601],[12.97149,46.68615],[12.97416,46.6873],[12.97599,46.68745],[12.97775,46.68822],[12.98061,46.68985],[12.98143,46.69085],[12.98635,46.69319],[12.98637,46.69332],[12.98615,46.6933]]}},{"type":"Feature","properties":{"kind":"lift","difficulty":null,"name":"Schlepplift Laas","aerialway":"t-bar","osm":"way/528565508"},"geometry":{"type":"LineString","coordinates":[[12.98615,46.6933],[12.97071,46.68607]]}},{"type":"Feature","properties":{"kind":"lift","difficulty":null,"name":"Vorheggbahn","aerialway":"chair_lift","osm":"way/529972971"},"geometry":{"type":"LineString","coordinates":[[12.99669,46.67579],[12.97147,46.68601]]}},{"type":"Feature","properties":{"kind":"piste","difficulty":"intermediate","name":"Laas","aerialway":null,"osm":"way/1054820310"},"geometry":{"type":"LineString","coordinates":[[12.97132,46.68636],[12.97196,46.68637]]}},{"type":"Feature","properties":{"kind":"piste","difficulty":"intermediate","name":"Vorhegg","aerialway":null,"osm":"way/1054820311"},"geometry":{"type":"LineString","coordinates":[[12.97132,46.68636],[12.97133,46.68598]]}},{"type":"Feature","properties":{"kind":"piste","difficulty":"easy","name":"Gries","aerialway":null,"osm":"way/1054820312"},"geometry":{"type":"LineString","coordinates":[[12.99426,46.67538],[12.99535,46.67522],[12.99641,46.6749],[12.99701,46.67447]]}},{"type":"Feature","properties":{"kind":"piste","difficulty":"intermediate","name":"Gries","aerialway":null,"osm":"way/1054820313"},"geometry":{"type":"LineString","coordinates":[[12.99372,46.67631],[12.99422,46.67565],[12.99467,46.67537]]}},{"type":"Feature","properties":{"kind":"piste","difficulty":"intermediate","name":"Gries","aerialway":null,"osm":"way/1054820314"},"geometry":{"type":"LineString","coordinates":[[12.99467,46.67537],[12.9957,46.67531],[12.99671,46.67559]]}}]}