{"type":"FeatureCollection","features":[{"type":"Feature","properties":{"kind":"lift","difficulty":null,"name":"Galsterbergalmbahn","aerialway":"gondola","osm":"way/31660796"},"geometry":{"type":"LineString","coordinates":[[13.86382,47.4051],[13.86549,47.38459]]}},{"type":"Feature","properties":{"kind":"lift","difficulty":null,"name":"Gipfelbahn Vorderkahr","aerialway":"chair_lift","osm":"way/31660798"},"geometry":{"type":"LineString","coordinates":[[13.87116,47.38617],[13.86566,47.37615]]}},{"type":"Feature","properties":{"kind":"piste","difficulty":"intermediate","name":null,"aerialway":null,"osm":"way/93194535"},"geometry":{"type":"LineString","coordinates":[[13.86677,47.38418],[13.86893,47.38423],[13.86949,47.38461],[13.87071,47.38607],[13.87092,47.38622],[13.8712,47.38625],[13.87116,47.38617]]}},{"type":"Feature","properties":{"kind":"piste","difficulty":"intermediate","name":"Vorderkar","aerialway":null,"osm":"way/93194537"},"geometry":{"type":"LineString","coordinates":[[13.86286,47.37802],[13.86318,47.37808],[13.86363,47.37881],[13.86476,47.3793],[13.86767,47.37919]]}},{"type":"Feature","properties":{"kind":"piste","difficulty":"intermediate","name":"Vorderkar","aerialway":null,"osm":"way/93194539"},"geometry":{"type":"LineString","coordinates":[[13.86566,47.37615],[13.86549,47.37617],[13.86494,47.37729],[13.86524,47.37758],[13.86582,47.37768],[13.86623,47.3779],[13.86651,47.37819],[13.86694,47.37925],[13.86851,47.38184],[13.86859,47.38246],[13.86809,47.38313],[13.86818,47.38353],[13.86893,47.38423]]}},{"type":"Feature","properties":{"kind":"lift","difficulty":null,"name":"Galsterbergalmlift","aerialway":"platter","osm":"way/126243492"},"geometry":{"type":"LineString","coordinates":[[13.86641,47.38425],[13.86345,47.38077]]}},{"type":"Feature","properties":{"kind":"lift","difficulty":null,"name":"Tellerlift Galsterberg","aerialway":"platter","osm":"way/207793908"},"geometry":{"type":"LineString","coordinates":[[13.86916,47.38596],[13.86681,47.38439]]}},{"type":"Feature","properties":{"kind":"lift","difficulty":null,"name":null,"aerialway":"magic_carpet","osm":"way/351535227"},"geometry":{"type":"LineString","coordinates":[[13.86619,47.38416],[13.86554,47.3836]]}},{"type":"Feature","properties":{"kind":"piste","difficulty":"easy","name":null,"aerialway":null,"osm":"way/400303454"},"geometry":{"type":"LineString","coordinates":[[13.86635,47.38439],[13.86641,47.38425]]}},{"type":"Feature","properties":{"kind":"piste","difficulty":"easy","name":"Talabfahrt","aerialway":null,"osm":"way/400303456"},"geometry":{"type":"LineString","coordinates":[[13.86617,47.38692],[13.86645,47.38783],[13.86635,47.38819],[13.86569,47.38904],[13.86469,47.38976],[13.8641,47.39037],[13.86353,47.39148],[13.86355,47.39179],[13.86449,47.39227],[13.86789,47.39357],[13.86885,47.39404],[13.86921,47.39439],[13.86902,47.39467],[13.86611,47.39544],[13.86589,47.39564],[13.86585,47.39635],[13.86544,47.39743],[13.86489,47.39811]]}},{"type":"Feature","properties":{"kind":"piste","difficulty":"easy","name":null,"aerialway":null,"osm":"way/400303459"},"geometry":{"type":"LineString","coordinates":[[13.86549,47.38459],[13.86677,47.38418]]}},{"type":"Feature","properties":{"kind":"piste","difficulty":"intermediate","name":"Trainingspiste","aerialway":null,"osm":"way/400303463"},"geometry":{"type":"LineString","coordinates":[[13.86699,47.37805],[13.86902,47.38141],[13.87033,47.38433],[13.87097,47.38524],[13.87197,47.38578],[13.87188,47.38597],[13.8712,47.38625]]}},{"type":"Feature","properties":{"kind":"piste","difficulty":"advanced","name":"FIS-Vorderkar-Abfahrt","aerialway":null,"osm":"way/400303473"},"geometry":{"type":"LineString","coordinates":[[13.86566,47.37615],[13.86602,47.37628],[13.86699,47.37805]]}},{"type":"Feature","properties":{"kind":"piste","difficulty":"intermediate","name":null,"aerialway":null,"osm":"way/400303476"},"geometry":{"type":"LineString","coordinates":[[13.86809,47.38313],[13.86677,47.38418]]}},{"type":"Feature","properties":{"kind":"piste","difficulty":"intermediate","name":"Maresihang","aerialway":null,"osm":"way/400303479"},"geometry":{"type":"LineString","coordinates":[[13.86303,47.38449],[13.86473,47.3843],[13.86558,47.38438],[13.86581,47.38456]]}},{"type":"Feature","properties":{"kind":"piste","difficulty":"intermediate","name":"Häuslrücken","aerialway":null,"osm":"way/400303480"},"geometry":{"type":"LineString","coordinates":[[13.86119,47.37932],[13.86081,47.37945],[13.86056,47.37978],[13.86038,47.38044],[13.86071,47.38121],[13.86087,47.38226],[13.86274,47.38431],[13.86303,47.38449]]}},{"type":"Feature","properties":{"kind":"piste","difficulty":"easy","name":"Tellerlift","aerialway":null,"osm":"way/400303481"},"geometry":{"type":"LineString","coordinates":[[13.86719,47.38465],[13.86735,47.38456],[13.86837,47.38514],[13.86917,47.38575],[13.86929,47.3859],[13.86916,47.38596]]}},{"type":"Feature","properties":{"kind":"piste","difficulty":"easy","name":null,"aerialway":null,"osm":"way/402239145"},"geometry":{"type":"LineString","coordinates":[[13.86677,47.38418],[13.86735,47.38456]]}},{"type":"Feature","properties":{"kind":"piste","difficulty":"easy","name":null,"aerialway":null,"osm":"way/402239149"},"geometry":{"type":"LineString","coordinates":[[13.86735,47.38456],[13.86802,47.38424]]}},{"type":"Feature","properties":{"kind":"piste","difficulty":"intermediate","name":"Talabfahrt nach Pruggern","aerialway":null,"osm":"way/402239181"},"geometry":{"type":"LineString","coordinates":[[13.86326,47.40491],[13.86326,47.40527],[13.86368,47.4055],[13.8642,47.4061],[13.865,47.4077],[13.86496,47.40842],[13.86432,47.4095],[13.86433,47.40987],[13.86507,47.41215],[13.8677,47.41297],[13.86806,47.4132],[13.86888,47.41429],[13.86835,47.41646],[13.86836,47.41705],[13.86885,47.41815],[13.86891,47.41857],[13.86857,47.41932],[13.86856,47.41992],[13.86867,47.42018],[13.86959,47.42102]]}},{"type":"Feature","properties":{"kind":"piste","difficulty":"intermediate","name":null,"aerialway":null,"osm":"way/407300037"},"geometry":{"type":"LineString","coordinates":[[13.86375,47.38113],[13.86266,47.38108],[13.86236,47.38127]]}},{"type":"Feature","properties":{"kind":"piste","difficulty":"intermediate","name":"Permanente Rennstrecke","aerialway":null,"osm":"way/407300038"},"geometry":{"type":"LineString","coordinates":[[13.86542,47.37603],[13.86385,47.37613],[13.86367,47.37624],[13.86262,47.37794],[13.86286,47.37802]]}},{"type":"Feature","properties":{"kind":"piste","difficulty":"intermediate","name":"Talabfahrt (Mauthang)","aerialway":null,"osm":"way/407300039"},"geometry":{"type":"LineString","coordinates":[[13.86489,47.39811],[13.86407,47.39898],[13.86276,47.39923],[13.8625,47.39947],[13.86215,47.40049]]}},{"type":"Feature","properties":{"kind":"piste","difficulty":"easy","name":"Talabfahrt","aerialway":null,"osm":"way/407300040"},"geometry":{"type":"LineString","coordinates":[[13.86215,47.40049],[13.86196,47.40089],[13.86203,47.40213],[13.86182,47.40295],[13.86183,47.40355],[13.8625,47.40451],[13.86359,47.40503],[13.86366,47.40519],[13.86382,47.4051]]}},{"type":"Feature","properties":{"kind":"piste","difficulty":"easy","name":null,"aerialway":null,"osm":"way/449596819"},"geometry":{"type":"LineString","coordinates":[[13.86038,47.38044],[13.86208,47.38101],[13.86236,47.38127]]}},{"type":"Feature","properties":{"kind":"piste","difficulty":"easy","name":null,"aerialway":null,"osm":"way/449596820"},"geometry":{"type":"LineString","coordinates":[[13.86038,47.38044],[13.86122,47.38099],[13.86236,47.38127]]}},{"type":"Feature","properties":{"kind":"piste","difficulty":"unknown","name":null,"aerialway":null,"osm":"way/1159728772"},"geometry":{"type":"LineString","coordinates":[[13.86238,47.38134],[13.86278,47.38161]]}},{"type":"Feature","properties":{"kind":"piste","difficulty":"intermediate","name":"Talabfahrt","aerialway":null,"osm":"relation/6009478"},"geometry":{"type":"MultiLineString","coordinates":[[[13.86566,47.37615],[13.86542,47.37603],[13.86419,47.37641],[13.86381,47.37667],[13.86286,47.37802],[13.86119,47.37932],[13.86157,47.38012],[13.86202,47.38063],[13.86236,47.38127],[13.86233,47.38164],[13.86323,47.38211]],[[13.86238,47.38134],[13.86262,47.38149]],[[13.86262,47.38149],[13.86278,47.38161]],[[13.86278,47.38161],[13.8629,47.38191],[13.86343,47.38235],[13.8636,47.38282],[13.86331,47.38395],[13.86295,47.38436],[13.86303,47.38449]],[[13.86303,47.38449],[13.86318,47.38513]]]}},{"type":"Feature","properties":{"kind":"piste","difficulty":"easy","name":"Talabfahrt","aerialway":null,"osm":"relation/6009479"},"geometry":{"type":"MultiLineString","coordinates":[[[13.86303,47.38449],[13.86318,47.38513]],[[13.86318,47.38513],[13.86399,47.38566],[13.86531,47.38615],[13.86617,47.38692]],[[13.86489,47.39811],[13.86668,47.39731],[13.86853,47.39681],[13.8687,47.39691]],[[13.8687,47.39691],[13.86765,47.3977],[13.86665,47.39911],[13.86659,47.3997],[13.86614,47.40018],[13.86512,47.40049],[13.8639,47.40047]],[[13.8639,47.40047],[13.86307,47.40031]],[[13.86307,47.40031],[13.86244,47.40025],[13.86215,47.40049]],[[13.86581,47.38456],[13.86839,47.38736],[13.86879,47.38794],[13.86881,47.38815],[13.86865,47.38858],[13.8679,47.38938],[13.86526,47.39075],[13.86475,47.39154]],[[13.86475,47.39154],[13.86449,47.39227]]]}}]}