{"type":"FeatureCollection","features":[{"type":"Feature","properties":{"kind":"lift","difficulty":null,"name":"Gondelbahn Neunerköpfle","aerialway":"gondola","osm":"way/26296946"},"geometry":{"type":"LineString","coordinates":[[10.52414,47.49829],[10.54226,47.48365]]}},{"type":"Feature","properties":{"kind":"lift","difficulty":null,"name":"Ressebichl","aerialway":"t-bar","osm":"way/28188118"},"geometry":{"type":"LineString","coordinates":[[10.52435,47.49837],[10.52878,47.49581]]}},{"type":"Feature","properties":{"kind":"lift","difficulty":null,"name":"Grenzwiesbahn","aerialway":"chair_lift","osm":"way/29389696"},"geometry":{"type":"LineString","coordinates":[[10.42617,47.51952],[10.43196,47.51293]]}},{"type":"Feature","properties":{"kind":"piste","difficulty":"intermediate","name":"Kühgund Ost","aerialway":null,"osm":"way/29390059"},"geometry":{"type":"LineString","coordinates":[[10.43245,47.51327],[10.43097,47.51514],[10.42854,47.51744],[10.42766,47.5187],[10.42733,47.51962],[10.4267,47.51986],[10.42579,47.51975]]}},{"type":"Feature","properties":{"kind":"lift","difficulty":null,"name":"Wannenjochbahn","aerialway":"chair_lift","osm":"way/29705420"},"geometry":{"type":"LineString","coordinates":[[10.45801,47.51255],[10.44347,47.50714]]}},{"type":"Feature","properties":{"kind":"lift","difficulty":null,"name":"Stuibenlift","aerialway":"t-bar","osm":"way/29705421"},"geometry":{"type":"LineString","coordinates":[[10.45111,47.50128],[10.45161,47.49864]]}},{"type":"Feature","properties":{"kind":"piste","difficulty":"intermediate","name":null,"aerialway":null,"osm":"way/29705422"},"geometry":{"type":"LineString","coordinates":[[10.44347,47.50714],[10.44322,47.50613],[10.44333,47.50588],[10.44388,47.50577],[10.44452,47.50617],[10.44577,47.50742],[10.44614,47.50756],[10.4466,47.50753],[10.44719,47.50703],[10.44856,47.50716],[10.44931,47.50766],[10.45132,47.50978],[10.45145,47.51004],[10.45119,47.5117],[10.45152,47.51201],[10.45203,47.51221],[10.45695,47.51259],[10.45801,47.51255]]}},{"type":"Feature","properties":{"kind":"piste","difficulty":"easy","name":null,"aerialway":null,"osm":"way/29705424"},"geometry":{"type":"LineString","coordinates":[[10.44719,47.50703],[10.44803,47.50684],[10.44808,47.50605],[10.44787,47.50485],[10.4494,47.50257],[10.44903,47.50184],[10.45052,47.50106],[10.45086,47.50106],[10.45111,47.50128]]}},{"type":"Feature","properties":{"kind":"piste","difficulty":"easy","name":null,"aerialway":null,"osm":"way/29705426"},"geometry":{"type":"LineString","coordinates":[[10.45161,47.49864],[10.45135,47.49873],[10.45097,47.49831],[10.45017,47.49926],[10.45042,47.50026],[10.45111,47.50128]]}},{"type":"Feature","properties":{"kind":"piste","difficulty":"easy","name":null,"aerialway":null,"osm":"way/29705428"},"geometry":{"type":"LineString","coordinates":[[10.45135,47.49873],[10.45288,47.50139],[10.45353,47.50193],[10.45384,47.50283],[10.45657,47.50475],[10.45951,47.50527],[10.46065,47.50599],[10.46046,47.50725],[10.46088,47.50827],[10.45937,47.51027],[10.45835,47.5114],[10.45823,47.51176],[10.45828,47.51211],[10.45801,47.51255]]}},{"type":"Feature","properties":{"kind":"piste","difficulty":"easy","name":null,"aerialway":null,"osm":"way/29705429"},"geometry":{"type":"LineString","coordinates":[[10.45951,47.50527],[10.46038,47.50551],[10.4615,47.50542]]}},{"type":"Feature","properties":{"kind":"piste","difficulty":"easy","name":null,"aerialway":null,"osm":"way/29705430"},"geometry":{"type":"LineString","coordinates":[[10.4615,47.50542],[10.46065,47.50599]]}},{"type":"Feature","properties":{"kind":"piste","difficulty":"easy","name":"23-Pontentalabfahrt","aerialway":null,"osm":"way/29705431"},"geometry":{"type":"LineString","coordinates":[[10.4615,47.50542],[10.46222,47.50538],[10.46388,47.5071],[10.46465,47.50702],[10.4661,47.50751],[10.46984,47.50651],[10.47253,47.50692],[10.47277,47.50686],[10.4726,47.50679]]}},{"type":"Feature","properties":{"kind":"piste","difficulty":"easy","name":"23-Pontentalabfahrt","aerialway":null,"osm":"way/29705432"},"geometry":{"type":"LineString","coordinates":[[10.46425,47.49756],[10.46363,47.49723],[10.46222,47.49712],[10.46173,47.49751],[10.46061,47.49799],[10.46039,47.49823],[10.46051,47.49906],[10.4618,47.50048],[10.46231,47.50172],[10.4618,47.50231],[10.46237,47.50214],[10.46063,47.50358]]}},{"type":"Feature","properties":{"kind":"lift","difficulty":null,"name":"Mühlhanglift","aerialway":"platter","osm":"way/29705433"},"geometry":{"type":"LineString","coordinates":[[10.4726,47.50679],[10.46937,47.50485]]}},{"type":"Feature","properties":{"kind":"piste","difficulty":"easy","name":null,"aerialway":null,"osm":"way/29705434"},"geometry":{"type":"LineString","coordinates":[[10.46937,47.50485],[10.47025,47.50577],[10.4718,47.50673]]}},{"type":"Feature","properties":{"kind":"lift","difficulty":null,"name":"Rohnenspitzbahn","aerialway":"chair_lift","osm":"way/29705435"},"geometry":{"type":"LineString","coordinates":[[10.47335,47.50509],[10.46627,47.49757]]}},{"type":"Feature","properties":{"kind":"piste","difficulty":"intermediate","name":null,"aerialway":null,"osm":"way/29705436"},"geometry":{"type":"LineString","coordinates":[[10.46627,47.49757],[10.46667,47.49773],[10.46666,47.49784],[10.46585,47.49795],[10.46524,47.49759],[10.46425,47.49756],[10.46407,47.49816],[10.46443,47.49864],[10.46499,47.49995],[10.46686,47.50148],[10.46778,47.50165],[10.47009,47.50265],[10.47139,47.50435],[10.47249,47.50519],[10.4733,47.5052],[10.47342,47.50516],[10.47335,47.50509]]}},{"type":"Feature","properties":{"kind":"piste","difficulty":"easy","name":null,"aerialway":null,"osm":"way/29705437"},"geometry":{"type":"LineString","coordinates":[[10.46937,47.50485],[10.47057,47.50509],[10.47091,47.50507],[10.47138,47.5047],[10.47194,47.50484]]}},{"type":"Feature","properties":{"kind":"piste","difficulty":"intermediate","name":null,"aerialway":null,"osm":"way/29705439"},"geometry":{"type":"LineString","coordinates":[[10.44639,47.5076],[10.44672,47.50803],[10.44748,47.50829],[10.4481,47.50789],[10.44805,47.50735],[10.44856,47.50716]]}},{"type":"Feature","properties":{"kind":"piste","difficulty":"intermediate","name":"Grenzwiesen","aerialway":null,"osm":"way/200613072"},"geometry":{"type":"LineString","coordinates":[[10.43394,47.51715],[10.43269,47.5173],[10.43177,47.5176],[10.43152,47.51798],[10.43075,47.51848],[10.43027,47.51954],[10.42945,47.52004],[10.42891,47.52066],[10.42834,47.52067]]}},{"type":"Feature","properties":{"kind":"piste","difficulty":"intermediate","name":"Grenzwiesen","aerialway":null,"osm":"way/200613073"},"geometry":{"type":"LineString","coordinates":[[10.43245,47.51327],[10.43344,47.51358],[10.43384,47.51406],[10.43486,47.51486],[10.4353,47.51549],[10.43394,47.51715],[10.43403,47.51871],[10.43399,47.5192],[10.43383,47.51949],[10.43281,47.52034],[10.43035,47.52123],[10.42849,47.52073],[10.4276,47.52024],[10.42648,47.51984]]}},{"type":"Feature","properties":{"kind":"piste","difficulty":"intermediate","name":"Kühgund Ost","aerialway":null,"osm":"way/200613075"},"geometry":{"type":"LineString","coordinates":[[10.43051,47.51562],[10.43031,47.51644],[10.42946,47.5182],[10.4286,47.51884],[10.42836,47.51929],[10.42791,47.51952],[10.42733,47.51962]]}},{"type":"Feature","properties":{"kind":"piste","difficulty":"intermediate","name":"Kühgund West","aerialway":null,"osm":"way/200613076"},"geometry":{"type":"LineString","coordinates":[[10.43169,47.5132],[10.43007,47.51465],[10.42892,47.51531],[10.42713,47.51714],[10.4256,47.51846],[10.42506,47.51927]]}},{"type":"Feature","properties":{"kind":"piste","difficulty":"intermediate","name":"Osthang","aerialway":null,"osm":"way/200613079"},"geometry":{"type":"LineString","coordinates":[[10.42454,47.50759],[10.42444,47.50834],[10.42461,47.5086],[10.42473,47.50948],[10.42489,47.50978],[10.42551,47.51037],[10.42655,47.51061],[10.4269,47.51129],[10.42739,47.51181],[10.42745,47.51288],[10.42722,47.51358],[10.4245,47.51473],[10.42322,47.5159],[10.41885,47.51591]]}},{"type":"Feature","properties":{"kind":"piste","difficulty":"intermediate","name":null,"aerialway":null,"osm":"way/200613083"},"geometry":{"type":"LineString","coordinates":[[10.42994,47.51473],[10.42962,47.51556],[10.42895,47.51633],[10.42536,47.51956]]}},{"type":"Feature","properties":{"kind":"piste","difficulty":"intermediate","name":null,"aerialway":null,"osm":"way/200613084"},"geometry":{"type":"LineString","coordinates":[[10.43169,47.5132],[10.43194,47.51301],[10.43218,47.51301],[10.43247,47.51308],[10.43245,47.51327]]}},{"type":"Feature","properties":{"kind":"piste","difficulty":"intermediate","name":null,"aerialway":null,"osm":"way/205285394"},"geometry":{"type":"LineString","coordinates":[[10.53735,47.49054],[10.53615,47.49006],[10.53471,47.49026],[10.53368,47.49081],[10.53239,47.49183],[10.53143,47.49202],[10.52989,47.49152],[10.52961,47.49153],[10.52942,47.49179],[10.52962,47.49251],[10.52855,47.49315],[10.52763,47.495],[10.52574,47.49685]]}},{"type":"Feature","properties":{"kind":"piste","difficulty":"intermediate","name":null,"aerialway":null,"osm":"way/205285398"},"geometry":{"type":"LineString","coordinates":[[10.52574,47.49685],[10.52536,47.49766],[10.52437,47.4983],[10.52414,47.49829]]}},{"type":"Feature","properties":{"kind":"piste","difficulty":"intermediate","name":"23-Pontentalabfahrt","aerialway":null,"osm":"way/575118849"},"geometry":{"type":"LineString","coordinates":[[10.46063,47.50358],[10.46122,47.50509],[10.4615,47.50542]]}},{"type":"Feature","properties":{"kind":"piste","difficulty":"intermediate","name":null,"aerialway":null,"osm":"way/1073535033"},"geometry":{"type":"LineString","coordinates":[[10.52437,47.4983],[10.52435,47.49837]]}},{"type":"Feature","properties":{"kind":"piste","difficulty":"intermediate","name":null,"aerialway":null,"osm":"way/1073535034"},"geometry":{"type":"LineString","coordinates":[[10.5284,47.49604],[10.52755,47.49628],[10.52536,47.49766]]}},{"type":"Feature","properties":{"kind":"piste","difficulty":"freeride","name":null,"aerialway":null,"osm":"way/1226344033"},"geometry":{"type":"LineString","coordinates":[[10.4718,47.50105],[10.47279,47.50286],[10.4728,47.5036],[10.47369,47.50495]]}},{"type":"Feature","properties":{"kind":"piste","difficulty":"freeride","name":null,"aerialway":null,"osm":"way/1226344034"},"geometry":{"type":"LineString","coordinates":[[10.4729,47.49987],[10.47394,47.50011],[10.47476,47.50079],[10.4751,47.50237],[10.4754,47.50269],[10.47573,47.50279],[10.47667,47.5027],[10.4772,47.50298],[10.47724,47.50336],[10.47658,47.5038],[10.47501,47.50453],[10.47369,47.50495],[10.47342,47.50516]]}},{"type":"Feature","properties":{"kind":"piste","difficulty":"freeride","name":null,"aerialway":null,"osm":"way/1226344035"},"geometry":{"type":"LineString","coordinates":[[10.46667,47.49773],[10.46741,47.49747],[10.46828,47.49742],[10.47019,47.49833],[10.47032,47.49892],[10.47234,47.49881],[10.47262,47.49911],[10.4729,47.49987],[10.47218,47.50079],[10.46965,47.50245]]}},{"type":"Feature","properties":{"kind":"piste","difficulty":"easy","name":null,"aerialway":null,"osm":"way/1226344038"},"geometry":{"type":"LineString","coordinates":[[10.5284,47.49604],[10.52854,47.49618],[10.52814,47.49667],[10.52469,47.49835],[10.52435,47.49837]]}},{"type":"Feature","properties":{"kind":"piste","difficulty":"novice","name":null,"aerialway":null,"osm":"way/1226344039"},"geometry":{"type":"LineString","coordinates":[[10.52134,47.49767],[10.52184,47.49731],[10.52238,47.49731],[10.52293,47.49748]]}},{"type":"Feature","properties":{"kind":"lift","difficulty":null,"name":null,"aerialway":"drag_lift","osm":"way/1226344040"},"geometry":{"type":"LineString","coordinates":[[10.52293,47.49748],[10.52134,47.49767]]}},{"type":"Feature","properties":{"kind":"piste","difficulty":"freeride","name":null,"aerialway":null,"osm":"way/1226344042"},"geometry":{"type":"LineString","coordinates":[[10.53305,47.49284],[10.53044,47.49402],[10.52978,47.49461],[10.5296,47.49492],[10.5299,47.49629]]}},{"type":"Feature","properties":{"kind":"piste","difficulty":"advanced","name":null,"aerialway":null,"osm":"way/1226344043"},"geometry":{"type":"LineString","coordinates":[[10.53278,47.49153],[10.53323,47.49395],[10.53178,47.49494],[10.53168,47.49559],[10.53139,47.496],[10.52814,47.49667]]}}]}