{"type":"FeatureCollection","features":[{"type":"Feature","properties":{"kind":"lift","difficulty":null,"name":null,"aerialway":"rope_tow","osm":"way/31103534"},"geometry":{"type":"LineString","coordinates":[[9.68969,47.27569],[9.68926,47.27512]]}},{"type":"Feature","properties":{"kind":"lift","difficulty":null,"name":null,"aerialway":"magic_carpet","osm":"way/386939806"},"geometry":{"type":"LineString","coordinates":[[9.68968,47.27496],[9.69048,47.27494]]}},{"type":"Feature","properties":{"kind":"piste","difficulty":"advanced","name":null,"aerialway":null,"osm":"way/1123090962"},"geometry":{"type":"LineString","coordinates":[[9.76174,47.28114],[9.76186,47.28124],[9.76174,47.2814],[9.76081,47.2811],[9.75948,47.28173],[9.75869,47.28183],[9.75838,47.282],[9.75777,47.282],[9.75234,47.28014],[9.74983,47.27987],[9.7481,47.27938],[9.74659,47.27862],[9.74546,47.27841],[9.74397,47.27834],[9.74213,47.27793],[9.74057,47.27726],[9.73913,47.27627],[9.73863,47.27613],[9.73748,47.27637],[9.73655,47.27715],[9.73617,47.27732],[9.73297,47.27822],[9.73104,47.2778],[9.72922,47.27692],[9.72827,47.27661],[9.72655,47.27618],[9.72571,47.27615],[9.72301,47.27506],[9.72089,47.27463],[9.72005,47.2742],[9.71867,47.27399],[9.7173,47.27399],[9.71599,47.2743],[9.71529,47.27427],[9.7149,47.27437],[9.71359,47.27511],[9.71174,47.2753],[9.71085,47.27523],[9.70893,47.27548],[9.70688,47.27612],[9.70539,47.27544],[9.705,47.27512],[9.7045,47.27503],[9.70414,47.27505],[9.7027,47.27563],[9.69933,47.27498],[9.69807,47.27524],[9.69651,47.27625],[9.69605,47.27636],[9.69386,47.27646],[9.69291,47.27638],[9.69258,47.27616],[9.69267,47.27567]]}},{"type":"Feature","properties":{"kind":"piste","difficulty":"novice","name":null,"aerialway":null,"osm":"way/1442885468"},"geometry":{"type":"LineString","coordinates":[[9.68926,47.27512],[9.68966,47.27528],[9.68979,47.27549],[9.68969,47.27569]]}},{"type":"Feature","properties":{"kind":"piste","difficulty":"novice","name":null,"aerialway":null,"osm":"way/1442885469"},"geometry":{"type":"LineString","coordinates":[[9.68981,47.27509],[9.69105,47.27571],[9.69237,47.27549]]}},{"type":"Feature","properties":{"kind":"piste","difficulty":"easy","name":null,"aerialway":null,"osm":"way/1442885470"},"geometry":{"type":"LineString","coordinates":[[9.69049,47.27488],[9.6911,47.27521],[9.6919,47.27529],[9.69224,47.27547]]}},{"type":"Feature","properties":{"kind":"piste","difficulty":"novice","name":null,"aerialway":null,"osm":"way/1442885472"},"geometry":{"type":"LineString","coordinates":[[9.69048,47.27494],[9.69047,47.27477],[9.69005,47.27466],[9.68965,47.27474],[9.68964,47.27493]]}},{"type":"Feature","properties":{"kind":"piste","difficulty":"novice","name":null,"aerialway":null,"osm":"way/1468011249"},"geometry":{"type":"LineString","coordinates":[[9.68953,47.27497],[9.68981,47.27509]]}},{"type":"Feature","properties":{"kind":"piste","difficulty":"easy","name":null,"aerialway":null,"osm":"way/1468011252"},"geometry":{"type":"LineString","coordinates":[[9.69049,47.27488],[9.68964,47.27493]]}},{"type":"Feature","properties":{"kind":"piste","difficulty":"novice","name":null,"aerialway":null,"osm":"way/1502553232"},"geometry":{"type":"LineString","coordinates":[[9.68927,47.2751],[9.68964,47.27493]]}},{"type":"Feature","properties":{"kind":"piste","difficulty":"novice","name":null,"aerialway":null,"osm":"way/1502553233"},"geometry":{"type":"LineString","coordinates":[[9.68964,47.27493],[9.68968,47.27496]]}}]}