{"type":"FeatureCollection","features":[{"type":"Feature","properties":{"kind":"piste","difficulty":"easy","name":"Sonnenbergabfahrt","aerialway":null,"osm":"way/304107137"},"geometry":{"type":"LineString","coordinates":[[11.27749,47.0974],[11.2786,47.09755],[11.27963,47.09808],[11.28029,47.0986]]}},{"type":"Feature","properties":{"kind":"piste","difficulty":"easy","name":"Sonnenbergabfahrt","aerialway":null,"osm":"way/324338373"},"geometry":{"type":"LineString","coordinates":[[11.27749,47.0974],[11.27824,47.09732],[11.27906,47.09749],[11.27961,47.09774],[11.28042,47.09843],[11.28029,47.0986],[11.27749,47.0974]]}},{"type":"Feature","properties":{"kind":"lift","difficulty":null,"name":"Sonnenberglift Milders","aerialway":"drag_lift","osm":"way/651126083"},"geometry":{"type":"LineString","coordinates":[[11.28029,47.0986],[11.2771,47.09724]]}}]}