{"type":"FeatureCollection","features":[{"type":"Feature","properties":{"kind":"lift","difficulty":null,"name":"Hochangerbahn","aerialway":"chair_lift","osm":"way/146140696"},"geometry":{"type":"LineString","coordinates":[[11.20033,47.33155],[11.21542,47.32752]]}},{"type":"Feature","properties":{"kind":"lift","difficulty":null,"name":"Härmelekopfbahn","aerialway":"cable_car","osm":"way/146140698"},"geometry":{"type":"LineString","coordinates":[[11.22774,47.34129],[11.22743,47.32899]]}},{"type":"Feature","properties":{"kind":"lift","difficulty":null,"name":"Rosshütten-Express","aerialway":"chair_lift","osm":"way/146140700"},"geometry":{"type":"LineString","coordinates":[[11.20938,47.3357],[11.21776,47.33828],[11.23249,47.34023]]}},{"type":"Feature","properties":{"kind":"lift","difficulty":null,"name":"Kaltwasserlift","aerialway":"t-bar","osm":"way/146140703"},"geometry":{"type":"LineString","coordinates":[[11.21803,47.34085],[11.22556,47.34203],[11.22881,47.34177]]}},{"type":"Feature","properties":{"kind":"lift","difficulty":null,"name":"Seefelder Jochbahn","aerialway":"cable_car","osm":"way/146140704"},"geometry":{"type":"LineString","coordinates":[[11.22807,47.34166],[11.23949,47.34077]]}},{"type":"Feature","properties":{"kind":"lift","difficulty":null,"name":"Reitheralmbahn","aerialway":"chair_lift","osm":"way/146140708"},"geometry":{"type":"LineString","coordinates":[[11.21163,47.32413],[11.22486,47.33037]]}},{"type":"Feature","properties":{"kind":"piste","difficulty":"easy","name":"Brandlabfahrt","aerialway":null,"osm":"way/151272839"},"geometry":{"type":"LineString","coordinates":[[11.219,47.34058],[11.21842,47.34067],[11.21433,47.33977],[11.21289,47.33967],[11.21101,47.33997],[11.21095,47.34015],[11.21051,47.33991],[11.21001,47.34015],[11.20941,47.34021],[11.20864,47.33961],[11.20775,47.33966],[11.20732,47.33918],[11.20545,47.33846],[11.20465,47.3377],[11.20304,47.33731],[11.20189,47.33733],[11.20172,47.33708],[11.20328,47.33594],[11.20633,47.33553],[11.20016,47.33192],[11.20006,47.33168],[11.20056,47.33155],[11.20119,47.33222],[11.202,47.3327],[11.20719,47.33538],[11.20629,47.3357],[11.20557,47.33571],[11.20493,47.33601],[11.20372,47.33617],[11.20229,47.33707],[11.20482,47.33738],[11.20607,47.3383],[11.20809,47.33924],[11.20897,47.33929],[11.20992,47.33987],[11.21062,47.33969],[11.21326,47.33954],[11.21499,47.33973],[11.21643,47.34012],[11.219,47.34058]]}},{"type":"Feature","properties":{"kind":"lift","difficulty":null,"name":"Brandllift","aerialway":"t-bar","osm":"way/151276412"},"geometry":{"type":"LineString","coordinates":[[11.20008,47.33191],[11.20672,47.3358]]}},{"type":"Feature","properties":{"kind":"piste","difficulty":"easy","name":null,"aerialway":null,"osm":"way/151379819"},"geometry":{"type":"LineString","coordinates":[[11.20847,47.33531],[11.20689,47.33449],[11.20349,47.33339],[11.2071,47.33471],[11.2084,47.33552],[11.20719,47.33538],[11.20718,47.33549],[11.2087,47.3357],[11.20932,47.3354],[11.20847,47.33531]]}},{"type":"Feature","properties":{"kind":"piste","difficulty":"easy","name":"Untere Härmeleabfahrt","aerialway":null,"osm":"way/151379821"},"geometry":{"type":"LineString","coordinates":[[11.21547,47.32756],[11.2156,47.3275],[11.21572,47.32781],[11.21564,47.328],[11.21534,47.32817],[11.21532,47.32833],[11.21558,47.3287],[11.21562,47.32918],[11.21654,47.33027],[11.21778,47.33274],[11.21762,47.33294],[11.21751,47.33374],[11.21682,47.33388],[11.21668,47.33406],[11.2151,47.33382],[11.21271,47.33374],[11.21092,47.33327],[11.20906,47.33344],[11.20694,47.3331],[11.20566,47.33268],[11.20433,47.3328],[11.2032,47.33251],[11.20195,47.33266],[11.20161,47.33242],[11.20264,47.33218],[11.20556,47.3322],[11.20601,47.33245],[11.2079,47.33269],[11.21102,47.33273],[11.21284,47.33325],[11.21675,47.33329],[11.21651,47.33281],[11.21725,47.33268],[11.21716,47.33211],[11.2163,47.33046],[11.21632,47.33029],[11.21527,47.32909],[11.21533,47.32868],[11.21512,47.32826],[11.21547,47.32756]]}},{"type":"Feature","properties":{"kind":"piste","difficulty":"intermediate","name":"Obere Härmeleabfahrt","aerialway":null,"osm":"way/240484525"},"geometry":{"type":"LineString","coordinates":[[11.21624,47.32739],[11.21572,47.32781],[11.21586,47.32781],[11.21606,47.32816],[11.2161,47.32876],[11.21558,47.3287],[11.21566,47.32911],[11.21639,47.32921],[11.21636,47.32867],[11.21657,47.32781],[11.21696,47.32745],[11.21788,47.32734],[11.21998,47.32818],[11.21998,47.32916],[11.2201,47.32942],[11.22034,47.32956],[11.22293,47.3296],[11.22498,47.33057],[11.22525,47.33042],[11.22498,47.32997],[11.22502,47.32877],[11.22556,47.32863],[11.22603,47.32903],[11.22647,47.32919],[11.22732,47.32915],[11.22732,47.3289],[11.22753,47.32904],[11.22772,47.32893],[11.22703,47.32875],[11.2268,47.32831],[11.22567,47.32822],[11.2253,47.32804],[11.22468,47.32843],[11.22483,47.32927],[11.22438,47.32951],[11.2236,47.32937],[11.22314,47.32892],[11.22308,47.32905],[11.22267,47.32897],[11.22178,47.32832],[11.22061,47.32783],[11.21991,47.32704],[11.21846,47.32678],[11.21817,47.32688],[11.21781,47.3267],[11.21728,47.32686],[11.21646,47.32745],[11.21624,47.32739]]}},{"type":"Feature","properties":{"kind":"piste","difficulty":"intermediate","name":"Sportabfahrt","aerialway":null,"osm":"way/324079751"},"geometry":{"type":"LineString","coordinates":[[11.20939,47.33554],[11.21215,47.33567],[11.21274,47.33586],[11.21306,47.33676],[11.21294,47.33723],[11.21302,47.33739],[11.21434,47.33747],[11.21479,47.33775],[11.21507,47.33835],[11.21638,47.33861],[11.21742,47.33861],[11.21811,47.33905],[11.21801,47.33935],[11.2176,47.33898],[11.21501,47.33852],[11.21463,47.33831],[11.2142,47.3378],[11.21378,47.3376],[11.21341,47.33749],[11.21241,47.33749],[11.2121,47.33734],[11.21248,47.3369],[11.21246,47.33664],[11.21129,47.33605],[11.20964,47.33572],[11.20939,47.33554]]}},{"type":"Feature","properties":{"kind":"piste","difficulty":"easy","name":"Halbjochabfahrt","aerialway":null,"osm":"way/324081529"},"geometry":{"type":"LineString","coordinates":[[11.2174,47.33836],[11.21796,47.33845],[11.21807,47.33874],[11.22212,47.33947],[11.22517,47.33936],[11.232,47.34025],[11.23238,47.34041],[11.23178,47.34064],[11.22903,47.341],[11.22861,47.34078],[11.22621,47.34079],[11.22245,47.34016],[11.2209,47.34017],[11.21985,47.33991],[11.21891,47.34008],[11.21799,47.33978],[11.21811,47.33905],[11.21742,47.33861],[11.2174,47.33836]]}},{"type":"Feature","properties":{"kind":"piste","difficulty":"intermediate","name":"Jochliftabfahrt","aerialway":null,"osm":"way/324083666"},"geometry":{"type":"LineString","coordinates":[[11.22903,47.3411],[11.22903,47.341],[11.23272,47.34043],[11.2329,47.34022],[11.23441,47.3402],[11.23519,47.34043],[11.2364,47.34014],[11.23784,47.34064],[11.23747,47.3408],[11.23843,47.34111],[11.23564,47.34068],[11.2351,47.34092],[11.23178,47.34082],[11.23067,47.34119],[11.23051,47.34097],[11.22916,47.34123],[11.22903,47.3411]]}},{"type":"Feature","properties":{"kind":"piste","difficulty":"advanced","name":"Jochabfahrt","aerialway":null,"osm":"way/324084624"},"geometry":{"type":"LineString","coordinates":[[11.23784,47.34064],[11.23808,47.3407],[11.23849,47.34053],[11.23932,47.34073],[11.23859,47.34081],[11.23818,47.34103],[11.23747,47.3408],[11.23784,47.34064]]}},{"type":"Feature","properties":{"kind":"piste","difficulty":"advanced","name":"Verbindungsabfahrt schwer","aerialway":null,"osm":"way/469363355"},"geometry":{"type":"LineString","coordinates":[[11.21637,47.33357],[11.21632,47.33403],[11.21686,47.33451],[11.21701,47.33495],[11.21668,47.33553]]}},{"type":"Feature","properties":{"kind":"piste","difficulty":"easy","name":"Verbindungsabfahrt leicht","aerialway":null,"osm":"way/469363356"},"geometry":{"type":"LineString","coordinates":[[11.215,47.33352],[11.21473,47.33371],[11.21542,47.33467],[11.21643,47.33506],[11.21667,47.33524],[11.21668,47.33553],[11.21638,47.33584],[11.21552,47.33602],[11.21454,47.33594],[11.21355,47.33551]]}},{"type":"Feature","properties":{"kind":"lift","difficulty":null,"name":"Sportis Megastar","aerialway":"rope_tow","osm":"way/536061253"},"geometry":{"type":"LineString","coordinates":[[11.20127,47.33053],[11.20275,47.3302]]}},{"type":"Feature","properties":{"kind":"lift","difficulty":null,"name":null,"aerialway":"magic_carpet","osm":"way/536061255"},"geometry":{"type":"LineString","coordinates":[[11.20259,47.33048],[11.2029,47.33078]]}},{"type":"Feature","properties":{"kind":"lift","difficulty":null,"name":"Zauberteppich XL","aerialway":"magic_carpet","osm":"way/536061257"},"geometry":{"type":"LineString","coordinates":[[11.2015,47.33078],[11.20212,47.33066]]}},{"type":"Feature","properties":{"kind":"lift","difficulty":null,"name":null,"aerialway":"magic_carpet","osm":"way/536061258"},"geometry":{"type":"LineString","coordinates":[[11.20149,47.33093],[11.20174,47.33096]]}},{"type":"Feature","properties":{"kind":"lift","difficulty":null,"name":"Hochegglift","aerialway":"rope_tow","osm":"way/657184110"},"geometry":{"type":"LineString","coordinates":[[11.21328,47.33953],[11.21487,47.33972]]}},{"type":"Feature","properties":{"kind":"piste","difficulty":"intermediate","name":"Reitheralmabfahrt","aerialway":null,"osm":"way/657184112"},"geometry":{"type":"LineString","coordinates":[[11.21572,47.32781],[11.21624,47.32739],[11.21591,47.32689],[11.21531,47.32647],[11.21504,47.32552],[11.2142,47.32462],[11.21337,47.32403],[11.21356,47.32374],[11.21331,47.32345],[11.21355,47.32331],[11.21441,47.32327],[11.21386,47.32299],[11.2131,47.32291],[11.21304,47.32319],[11.21219,47.32342],[11.21141,47.3233],[11.2111,47.32368],[11.21159,47.32368],[11.21139,47.32413],[11.21155,47.32429],[11.2133,47.32491],[11.21413,47.32546],[11.21453,47.32584],[11.21471,47.32624],[11.21464,47.32664],[11.21488,47.32673],[11.21536,47.32725],[11.21547,47.32756],[11.2156,47.3275],[11.21572,47.32781]]}},{"type":"Feature","properties":{"kind":"piste","difficulty":"intermediate","name":"Kaltwasserabfahrt","aerialway":null,"osm":"way/657184115"},"geometry":{"type":"LineString","coordinates":[[11.219,47.34058],[11.22635,47.34161],[11.2272,47.34158],[11.22816,47.34175],[11.22504,47.34186],[11.22136,47.34132],[11.21906,47.34076],[11.21813,47.34082],[11.218,47.34071],[11.21819,47.34065],[11.219,47.34058]]}},{"type":"Feature","properties":{"kind":"piste","difficulty":"intermediate","name":"Obere Härmeleabfahrt","aerialway":null,"osm":"way/1038991512"},"geometry":{"type":"LineString","coordinates":[[11.22743,47.32899],[11.2268,47.32902],[11.22592,47.32847],[11.2252,47.32842],[11.22493,47.32858],[11.22495,47.32924],[11.22481,47.32951],[11.22414,47.32964],[11.22338,47.32946],[11.2206,47.32801],[11.21973,47.32721],[11.21809,47.32703],[11.21708,47.32722],[11.21646,47.32759],[11.21613,47.32762],[11.21585,47.32747]]}},{"type":"Feature","properties":{"kind":"piste","difficulty":"intermediate","name":"Obere Härmeleabfahrt","aerialway":null,"osm":"way/1038991513"},"geometry":{"type":"LineString","coordinates":[[11.22486,47.33037],[11.22468,47.33007],[11.22369,47.32957],[11.22214,47.32935],[11.22041,47.32942],[11.22018,47.32904],[11.22023,47.32806],[11.21996,47.32781],[11.2187,47.32731],[11.21722,47.32718]]}},{"type":"Feature","properties":{"kind":"piste","difficulty":"intermediate","name":"Reitheralmabfahrt","aerialway":null,"osm":"way/1038991514"},"geometry":{"type":"LineString","coordinates":[[11.21585,47.32747],[11.21555,47.32695],[11.21503,47.3265],[11.21465,47.32547],[11.21409,47.32501],[11.21327,47.32453],[11.2129,47.32416],[11.21228,47.32389],[11.21187,47.3239],[11.21163,47.32413]]}},{"type":"Feature","properties":{"kind":"piste","difficulty":"intermediate","name":"Obere Härmeleabfahrt","aerialway":null,"osm":"way/1038991516"},"geometry":{"type":"LineString","coordinates":[[11.21646,47.32759],[11.21623,47.32832],[11.21624,47.32878],[11.21601,47.32894],[11.21556,47.32898]]}},{"type":"Feature","properties":{"kind":"piste","difficulty":"easy","name":"Untere Härmeleabfahrt","aerialway":null,"osm":"way/1038991517"},"geometry":{"type":"LineString","coordinates":[[11.21585,47.32747],[11.2155,47.32781],[11.21527,47.32829],[11.21557,47.3292],[11.21641,47.33028],[11.21729,47.33224],[11.21741,47.33305],[11.21733,47.3333],[11.21703,47.3335],[11.21311,47.3335],[11.21134,47.3331],[11.20772,47.33297],[11.20525,47.3325],[11.20284,47.33242],[11.20198,47.33257]]}},{"type":"Feature","properties":{"kind":"piste","difficulty":"easy","name":"Brandlabfahrt","aerialway":null,"osm":"way/1038991518"},"geometry":{"type":"LineString","coordinates":[[11.20626,47.33552],[11.20668,47.33549],[11.2067,47.33538],[11.20481,47.33444],[11.20067,47.33208],[11.20008,47.33191]]}},{"type":"Feature","properties":{"kind":"piste","difficulty":"intermediate","name":"Kaltwasserabfahrt","aerialway":null,"osm":"way/1060300559"},"geometry":{"type":"LineString","coordinates":[[11.21842,47.34068],[11.21803,47.34085]]}},{"type":"Feature","properties":{"kind":"piste","difficulty":"intermediate","name":"Kaltwasserabfahrt","aerialway":null,"osm":"way/1073530517"},"geometry":{"type":"LineString","coordinates":[[11.22811,47.34182],[11.22378,47.34145],[11.21905,47.34066],[11.21842,47.34068]]}},{"type":"Feature","properties":{"kind":"piste","difficulty":"advanced","name":"Jochabfahrt","aerialway":null,"osm":"way/1073530518"},"geometry":{"type":"LineString","coordinates":[[11.23949,47.34077],[11.23861,47.34068],[11.23732,47.34087]]}},{"type":"Feature","properties":{"kind":"piste","difficulty":"intermediate","name":"Jochliftabfahrt","aerialway":null,"osm":"way/1073530519"},"geometry":{"type":"LineString","coordinates":[[11.23732,47.34087],[11.23596,47.34053],[11.23376,47.34078],[11.23242,47.34064]]}},{"type":"Feature","properties":{"kind":"piste","difficulty":"easy","name":"Halbjochabfahrt","aerialway":null,"osm":"way/1073530523"},"geometry":{"type":"LineString","coordinates":[[11.23249,47.34023],[11.23269,47.34029],[11.23271,47.34049],[11.23242,47.34064],[11.23203,47.34064],[11.22956,47.34025],[11.22679,47.34001],[11.22369,47.33998],[11.21984,47.33958],[11.21857,47.33923],[11.21789,47.33875],[11.2177,47.33846],[11.21776,47.33828]]}},{"type":"Feature","properties":{"kind":"piste","difficulty":"intermediate","name":"Sportabfahrt","aerialway":null,"osm":"way/1073530524"},"geometry":{"type":"LineString","coordinates":[[11.21857,47.33923],[11.21723,47.33876],[11.21506,47.33838],[11.21438,47.33771],[11.21348,47.33741],[11.21277,47.33738],[11.21265,47.33716],[11.2126,47.33633],[11.21218,47.33606],[11.20974,47.3356],[11.20928,47.33556],[11.2092,47.33564],[11.20938,47.3357]]}},{"type":"Feature","properties":{"kind":"piste","difficulty":"easy","name":null,"aerialway":null,"osm":"way/1073530525"},"geometry":{"type":"LineString","coordinates":[[11.20928,47.33556],[11.20837,47.3354],[11.20689,47.33456],[11.20292,47.33332]]}},{"type":"Feature","properties":{"kind":"piste","difficulty":"easy","name":null,"aerialway":null,"osm":"way/1073530526"},"geometry":{"type":"LineString","coordinates":[[11.2067,47.33538],[11.2092,47.33564]]}},{"type":"Feature","properties":{"kind":"piste","difficulty":"easy","name":null,"aerialway":null,"osm":"way/1073530527"},"geometry":{"type":"LineString","coordinates":[[11.20927,47.33552],[11.20908,47.33552]]}},{"type":"Feature","properties":{"kind":"piste","difficulty":"easy","name":"Brandlabfahrt","aerialway":null,"osm":"way/1073530528"},"geometry":{"type":"LineString","coordinates":[[11.21881,47.34065],[11.21394,47.3397],[11.21232,47.33967],[11.20942,47.33998],[11.20888,47.3396],[11.20742,47.33902],[11.20451,47.33752],[11.20396,47.33732],[11.20214,47.3371],[11.20216,47.33693],[11.20327,47.3362],[11.20518,47.33576],[11.20622,47.33568],[11.20673,47.33543]]}},{"type":"Feature","properties":{"kind":"piste","difficulty":"easy","name":"Brandlabfahrt","aerialway":null,"osm":"way/1073530529"},"geometry":{"type":"LineString","coordinates":[[11.21394,47.3397],[11.21328,47.33953]]}},{"type":"Feature","properties":{"kind":"piste","difficulty":"easy","name":"Brandlabfahrt","aerialway":null,"osm":"way/1073530530"},"geometry":{"type":"LineString","coordinates":[[11.21487,47.33972],[11.21456,47.33979]]}},{"type":"Feature","properties":{"kind":"piste","difficulty":"easy","name":"Untere Härmeleabfahrt","aerialway":null,"osm":"way/1101526275"},"geometry":{"type":"LineString","coordinates":[[11.20177,47.33259],[11.20091,47.33217],[11.20036,47.33172],[11.20033,47.33155]]}},{"type":"Feature","properties":{"kind":"piste","difficulty":"easy","name":"Untere Härmeleabfahrt","aerialway":null,"osm":"way/1101526276"},"geometry":{"type":"LineString","coordinates":[[11.20198,47.33257],[11.20177,47.33259]]}},{"type":"Feature","properties":{"kind":"piste","difficulty":"easy","name":"Verbindungsabfahrt leicht","aerialway":null,"osm":"way/1101526277"},"geometry":{"type":"LineString","coordinates":[[11.2133,47.3355],[11.21254,47.33529],[11.21036,47.33564],[11.20927,47.33552]]}},{"type":"Feature","properties":{"kind":"piste","difficulty":"easy","name":"Verbindungsabfahrt leicht","aerialway":null,"osm":"way/1101526278"},"geometry":{"type":"LineString","coordinates":[[11.21355,47.33551],[11.2133,47.3355]]}},{"type":"Feature","properties":{"kind":"piste","difficulty":"easy","name":null,"aerialway":null,"osm":"way/1350697566"},"geometry":{"type":"LineString","coordinates":[[11.21911,47.33943],[11.21862,47.33962],[11.21838,47.33994],[11.21828,47.34037],[11.21774,47.34044]]}}]}