{"type":"FeatureCollection","features":[{"type":"Feature","properties":{"kind":"lift","difficulty":null,"name":"Hörndllift","aerialway":"t-bar","osm":"way/230438457"},"geometry":{"type":"LineString","coordinates":[[13.00306,47.28955],[13.00941,47.28028]]}},{"type":"Feature","properties":{"kind":"lift","difficulty":null,"name":"Babylift Embach","aerialway":"rope_tow","osm":"way/463728274"},"geometry":{"type":"LineString","coordinates":[[12.99647,47.28917],[12.99703,47.28806]]}},{"type":"Feature","properties":{"kind":"piste","difficulty":"easy","name":null,"aerialway":null,"osm":"way/773073092"},"geometry":{"type":"LineString","coordinates":[[13.00891,47.28071],[13.00906,47.28049],[13.00938,47.28061]]}},{"type":"Feature","properties":{"kind":"piste","difficulty":"intermediate","name":null,"aerialway":null,"osm":"way/773073093"},"geometry":{"type":"LineString","coordinates":[[13.0091,47.28073],[13.00891,47.28071]]}},{"type":"Feature","properties":{"kind":"piste","difficulty":"easy","name":null,"aerialway":null,"osm":"way/773073132"},"geometry":{"type":"LineString","coordinates":[[13.00938,47.28061],[13.01058,47.28124],[13.01195,47.28169],[13.01345,47.28394],[13.01388,47.28498],[13.01387,47.28586],[13.01356,47.2861],[13.01291,47.28624],[13.0113,47.28638],[13.00402,47.2859]]}},{"type":"Feature","properties":{"kind":"piste","difficulty":"intermediate","name":null,"aerialway":null,"osm":"way/773073133"},"geometry":{"type":"LineString","coordinates":[[13.00891,47.28071],[13.00823,47.28086],[13.00693,47.28167],[13.00585,47.28245],[13.00515,47.28316],[13.00493,47.28394],[13.00448,47.28474],[13.00273,47.28885],[13.00265,47.28942],[13.00308,47.28952]]}},{"type":"Feature","properties":{"kind":"piste","difficulty":"novice","name":null,"aerialway":null,"osm":"way/777548416"},"geometry":{"type":"LineString","coordinates":[[12.99703,47.28806],[12.99727,47.28817]]}},{"type":"Feature","properties":{"kind":"piste","difficulty":"intermediate","name":null,"aerialway":null,"osm":"way/777548417"},"geometry":{"type":"LineString","coordinates":[[12.999,47.28612],[12.99801,47.28764],[12.99727,47.28817]]}},{"type":"Feature","properties":{"kind":"piste","difficulty":"novice","name":null,"aerialway":null,"osm":"way/777548418"},"geometry":{"type":"LineString","coordinates":[[12.99727,47.28817],[12.99723,47.28863],[12.99686,47.28922],[12.99647,47.28917]]}}]}