{"type":"FeatureCollection","features":[{"type":"Feature","properties":{"kind":"lift","difficulty":null,"name":"Füssener Jöchle","aerialway":"gondola","osm":"way/24740887"},"geometry":{"type":"LineString","coordinates":[[10.56427,47.50499],[10.59602,47.51339]]}},{"type":"Feature","properties":{"kind":"lift","difficulty":null,"name":"Schachenlift II","aerialway":"t-bar","osm":"way/47013590"},"geometry":{"type":"LineString","coordinates":[[10.55887,47.50297],[10.57088,47.50031]]}},{"type":"Feature","properties":{"kind":"lift","difficulty":null,"name":"Schachenlift I","aerialway":"t-bar","osm":"way/47013592"},"geometry":{"type":"LineString","coordinates":[[10.55885,47.50293],[10.57155,47.50011]]}},{"type":"Feature","properties":{"kind":"lift","difficulty":null,"name":"Jochalpe","aerialway":"chair_lift","osm":"way/47013597"},"geometry":{"type":"LineString","coordinates":[[10.60011,47.51599],[10.59181,47.51503]]}},{"type":"Feature","properties":{"kind":"piste","difficulty":"intermediate","name":"Jochalpe","aerialway":null,"osm":"way/47013600"},"geometry":{"type":"LineString","coordinates":[[10.59181,47.51503],[10.59205,47.51561],[10.59284,47.51606],[10.59357,47.51594],[10.59479,47.51612],[10.5963,47.51612],[10.59673,47.51589],[10.59674,47.51555],[10.59727,47.51531],[10.5983,47.51552],[10.59916,47.51598],[10.60022,47.51613],[10.60035,47.51604],[10.60011,47.51599]]}},{"type":"Feature","properties":{"kind":"piste","difficulty":"intermediate","name":"Jochalpe","aerialway":null,"osm":"way/47013601"},"geometry":{"type":"LineString","coordinates":[[10.5919,47.51532],[10.59245,47.51527],[10.59493,47.51441],[10.59677,47.51484],[10.59791,47.5154]]}},{"type":"Feature","properties":{"kind":"piste","difficulty":"intermediate","name":"Füssener Jöchle","aerialway":null,"osm":"way/92342009"},"geometry":{"type":"LineString","coordinates":[[10.5965,47.51211],[10.59633,47.51184],[10.59572,47.5115],[10.59541,47.51109],[10.59509,47.511],[10.59447,47.51139],[10.59335,47.51165],[10.59174,47.51234],[10.59126,47.51225],[10.5907,47.51174]]}},{"type":"Feature","properties":{"kind":"piste","difficulty":"advanced","name":"Füssener Jöchle","aerialway":null,"osm":"way/198930487"},"geometry":{"type":"LineString","coordinates":[[10.58879,47.51117],[10.58797,47.5109],[10.58683,47.51006],[10.58644,47.50944],[10.58617,47.50855]]}},{"type":"Feature","properties":{"kind":"piste","difficulty":"intermediate","name":"Füssener Jöchle","aerialway":null,"osm":"way/245364390"},"geometry":{"type":"LineString","coordinates":[[10.59377,47.51481],[10.59441,47.51428],[10.59617,47.51349],[10.5967,47.51288],[10.5965,47.51211],[10.59568,47.51197],[10.59126,47.51191],[10.58879,47.51117],[10.58857,47.51012],[10.58812,47.50969],[10.58514,47.50786],[10.58271,47.50719],[10.58123,47.50651],[10.57898,47.5057],[10.57782,47.50505],[10.5773,47.50462]]}},{"type":"Feature","properties":{"kind":"piste","difficulty":"intermediate","name":"Jochalpe","aerialway":null,"osm":"way/245364391"},"geometry":{"type":"LineString","coordinates":[[10.59637,47.51328],[10.59844,47.5149],[10.6013,47.51537],[10.60131,47.51546],[10.60073,47.51569],[10.60031,47.51602]]}},{"type":"Feature","properties":{"kind":"lift","difficulty":null,"name":"Übungslift Märchenwiese","aerialway":"rope_tow","osm":"way/604630167"},"geometry":{"type":"LineString","coordinates":[[10.5573,47.50323],[10.55944,47.50449]]}},{"type":"Feature","properties":{"kind":"piste","difficulty":"intermediate","name":"Füssener Jöchle","aerialway":null,"osm":"way/1073535035"},"geometry":{"type":"LineString","coordinates":[[10.56453,47.50484],[10.56342,47.50465],[10.56274,47.50475],[10.56145,47.50467],[10.5593,47.50383],[10.55895,47.50326],[10.55851,47.50309],[10.55885,47.50293]]}},{"type":"Feature","properties":{"kind":"piste","difficulty":"novice","name":null,"aerialway":null,"osm":"way/1226344053"},"geometry":{"type":"LineString","coordinates":[[10.55944,47.50449],[10.55882,47.50437],[10.55798,47.50391],[10.55734,47.50348],[10.5573,47.50323]]}},{"type":"Feature","properties":{"kind":"piste","difficulty":"easy","name":null,"aerialway":null,"osm":"way/1226344054"},"geometry":{"type":"LineString","coordinates":[[10.56679,47.50289],[10.56658,47.50366],[10.56508,47.50431],[10.56389,47.50456]]}},{"type":"Feature","properties":{"kind":"piste","difficulty":"easy","name":null,"aerialway":null,"osm":"way/1226344055"},"geometry":{"type":"LineString","coordinates":[[10.56931,47.50118],[10.56863,47.50195],[10.56598,47.50324],[10.5636,47.50468]]}},{"type":"Feature","properties":{"kind":"piste","difficulty":"easy","name":null,"aerialway":null,"osm":"way/1226344056"},"geometry":{"type":"LineString","coordinates":[[10.57124,47.50018],[10.57117,47.5005],[10.5705,47.50094],[10.57004,47.501]]}},{"type":"Feature","properties":{"kind":"piste","difficulty":"easy","name":null,"aerialway":null,"osm":"way/1226344057"},"geometry":{"type":"LineString","coordinates":[[10.57052,47.50039],[10.57052,47.50061],[10.57004,47.501],[10.56863,47.50134],[10.56365,47.50208],[10.56164,47.50294],[10.56047,47.50306],[10.55916,47.50351]]}},{"type":"Feature","properties":{"kind":"piste","difficulty":"intermediate","name":"Jochalpe","aerialway":null,"osm":"way/1344625567"},"geometry":{"type":"LineString","coordinates":[[10.59528,47.5139],[10.59844,47.5149],[10.59943,47.51567],[10.60054,47.51588]]}},{"type":"Feature","properties":{"kind":"piste","difficulty":"intermediate","name":"Füssener Jöchle","aerialway":null,"osm":"way/1346646392"},"geometry":{"type":"LineString","coordinates":[[10.55864,47.503],[10.55887,47.50297]]}},{"type":"Feature","properties":{"kind":"piste","difficulty":"intermediate","name":"Füssener Jöchle","aerialway":null,"osm":"way/1410336197"},"geometry":{"type":"LineString","coordinates":[[10.57722,47.50455],[10.57607,47.50432],[10.57498,47.50378],[10.57351,47.50335],[10.57057,47.50304],[10.56996,47.50325],[10.56871,47.50331],[10.56683,47.50446],[10.56453,47.50484]]}},{"type":"Feature","properties":{"kind":"piste","difficulty":"intermediate","name":"Füssener Jöchle","aerialway":null,"osm":"way/1410336198"},"geometry":{"type":"LineString","coordinates":[[10.5773,47.50462],[10.57722,47.50455]]}}]}