{"type":"FeatureCollection","features":[{"type":"Feature","properties":{"kind":"piste","difficulty":"easy","name":null,"aerialway":null,"osm":"way/424512610"},"geometry":{"type":"LineString","coordinates":[[12.06259,47.57961],[12.06423,47.57988],[12.06581,47.58034],[12.0659,47.58048],[12.06367,47.58093],[12.06225,47.58083]]}},{"type":"Feature","properties":{"kind":"lift","difficulty":null,"name":"Haltjochlift","aerialway":"t-bar","osm":"way/452368842"},"geometry":{"type":"LineString","coordinates":[[12.06633,47.58339],[12.06562,47.57739]]}},{"type":"Feature","properties":{"kind":"lift","difficulty":null,"name":"Übungslift","aerialway":"rope_tow","osm":"way/452369440"},"geometry":{"type":"LineString","coordinates":[[12.06669,47.58328],[12.06724,47.58204]]}},{"type":"Feature","properties":{"kind":"piste","difficulty":"advanced","name":null,"aerialway":null,"osm":"way/1073279314"},"geometry":{"type":"LineString","coordinates":[[12.06567,47.57782],[12.06631,47.5785],[12.06663,47.57919],[12.06668,47.5798],[12.06643,47.58095],[12.06661,47.58159],[12.06666,47.58244],[12.06633,47.58339]]}},{"type":"Feature","properties":{"kind":"piste","difficulty":"intermediate","name":null,"aerialway":null,"osm":"way/1073279315"},"geometry":{"type":"LineString","coordinates":[[12.06567,47.57782],[12.06509,47.57805],[12.06325,47.57831],[12.06152,47.579],[12.06154,47.57919],[12.06314,47.57994],[12.06351,47.58069],[12.06421,47.58154],[12.06633,47.58339]]}},{"type":"Feature","properties":{"kind":"piste","difficulty":"easy","name":null,"aerialway":null,"osm":"way/1073279317"},"geometry":{"type":"LineString","coordinates":[[12.06225,47.58083],[12.06227,47.58107],[12.0626,47.58125],[12.06406,47.58165],[12.06458,47.58207]]}},{"type":"Feature","properties":{"kind":"piste","difficulty":"easy","name":null,"aerialway":null,"osm":"way/1073279320"},"geometry":{"type":"LineString","coordinates":[[12.06458,47.58207],[12.06499,47.58215]]}},{"type":"Feature","properties":{"kind":"piste","difficulty":"easy","name":null,"aerialway":null,"osm":"way/1073279321"},"geometry":{"type":"LineString","coordinates":[[12.06666,47.57952],[12.06715,47.57972],[12.06832,47.57977],[12.06893,47.58009],[12.06928,47.58047],[12.06939,47.58107],[12.06975,47.5817],[12.0691,47.58219],[12.06749,47.58241],[12.06686,47.58256],[12.06656,47.58276]]}},{"type":"Feature","properties":{"kind":"piste","difficulty":"easy","name":null,"aerialway":null,"osm":"way/1073279322"},"geometry":{"type":"LineString","coordinates":[[12.06724,47.58204],[12.06693,47.58223],[12.06656,47.58276],[12.06669,47.58328]]}}]}