{"type":"FeatureCollection","features":[{"type":"Feature","properties":{"kind":"piste","difficulty":"intermediate","name":"Route Lüchlemulde","aerialway":null,"osm":"way/33241023"},"geometry":{"type":"LineString","coordinates":[[10.1178,47.3254],[10.11719,47.32535],[10.11519,47.32468],[10.11408,47.32463],[10.11359,47.32414],[10.11353,47.32376],[10.1168,47.32337],[10.11843,47.32305],[10.11962,47.32253],[10.12059,47.32231],[10.12162,47.32119],[10.12205,47.32115],[10.12214,47.32126],[10.12194,47.32138]]}},{"type":"Feature","properties":{"kind":"piste","difficulty":"unknown","name":"Hahneköpfle-Abfahrt obere Sektion","aerialway":null,"osm":"relation/2438203"},"geometry":{"type":"MultiLineString","coordinates":[[[10.10546,47.35649],[10.10569,47.35672],[10.10646,47.35652]],[[10.10646,47.35652],[10.10745,47.35606],[10.10782,47.3556]],[[10.10782,47.3556],[10.10825,47.35531],[10.10955,47.355],[10.11205,47.35386],[10.11694,47.35189],[10.11785,47.35156],[10.11974,47.35116],[10.12152,47.35043],[10.1231,47.35002],[10.12352,47.34984],[10.1237,47.34936],[10.12434,47.3489],[10.12687,47.34876]],[[10.1231,47.35002],[10.12569,47.35051],[10.12882,47.35043],[10.12913,47.35031]]]}},{"type":"Feature","properties":{"kind":"piste","difficulty":"unknown","name":"Ifen-Abfahrt","aerialway":null,"osm":"relation/2438205"},"geometry":{"type":"MultiLineString","coordinates":[[[10.10546,47.35649],[10.10569,47.35672],[10.10646,47.35652]],[[10.10646,47.35652],[10.10745,47.35606],[10.10782,47.3556]],[[10.10782,47.3556],[10.10818,47.35508],[10.10891,47.35453],[10.10967,47.35427],[10.11057,47.35415],[10.1109,47.3537],[10.11025,47.35367],[10.11038,47.35349],[10.11456,47.352],[10.11987,47.34973],[10.12153,47.34944],[10.12179,47.34929],[10.1219,47.3484],[10.12255,47.34832],[10.12429,47.34848],[10.12458,47.34843],[10.12518,47.34804],[10.12556,47.34798],[10.12653,47.34813]],[[10.12653,47.34813],[10.1271,47.34819]]]}},{"type":"Feature","properties":{"kind":"piste","difficulty":"unknown","name":"Kellerloch-Abfahrt","aerialway":null,"osm":"relation/2438207"},"geometry":{"type":"MultiLineString","coordinates":[[[10.10773,47.35633],[10.10918,47.35609],[10.11318,47.35507],[10.11522,47.35508],[10.11735,47.35462],[10.12005,47.35438],[10.12179,47.35364],[10.12321,47.35201],[10.12403,47.35134],[10.12505,47.35068],[10.12569,47.35051]],[[10.10942,47.35503],[10.10972,47.35594]]]}},{"type":"Feature","properties":{"kind":"piste","difficulty":"unknown","name":"Schäfalp-Abfahrt","aerialway":null,"osm":"relation/2438209"},"geometry":{"type":"MultiLineString","coordinates":[[[10.10546,47.35649],[10.10459,47.35677]],[[10.10459,47.35677],[10.10504,47.35709],[10.10595,47.35728],[10.10654,47.35723],[10.10693,47.35706],[10.10765,47.35704],[10.10924,47.35739],[10.11092,47.35739],[10.11124,47.35748],[10.11238,47.35837],[10.11466,47.35872],[10.11627,47.35823],[10.11761,47.35763],[10.12331,47.3561],[10.12402,47.35571]],[[10.12402,47.35571],[10.12474,47.35531],[10.12508,47.35491],[10.12874,47.35293],[10.13052,47.35268],[10.13053,47.35252]],[[10.10646,47.35652],[10.10773,47.35633],[10.10798,47.35675],[10.10869,47.35725]],[[10.10546,47.35649],[10.10569,47.35672],[10.10646,47.35652]]]}},{"type":"Feature","properties":{"kind":"piste","difficulty":"unknown","name":"Ski-Gleitweg Gottesacker","aerialway":null,"osm":"relation/2438210"},"geometry":{"type":"MultiLineString","coordinates":[[[10.10546,47.35649],[10.10459,47.35677]],[[10.10459,47.35677],[10.1064,47.35879],[10.10946,47.3612],[10.10998,47.36142],[10.11176,47.36153],[10.11293,47.36101],[10.11458,47.36084],[10.11586,47.36046],[10.11676,47.36003],[10.1196,47.35977],[10.1214,47.35943],[10.12456,47.35814],[10.12796,47.35637],[10.12906,47.35506],[10.13064,47.35474],[10.13276,47.35459],[10.13352,47.35425],[10.13332,47.3539],[10.13268,47.35367],[10.13168,47.35279],[10.13075,47.35262],[10.13046,47.35237],[10.12849,47.35149],[10.12847,47.35127],[10.12913,47.35031]],[[10.12402,47.35571],[10.12603,47.35601],[10.12772,47.35532],[10.12906,47.35506]]]}},{"type":"Feature","properties":{"kind":"lift","difficulty":null,"name":"Ifen II","aerialway":"gondola","osm":"way/536664323"},"geometry":{"type":"LineString","coordinates":[[10.12782,47.34884],[10.10576,47.35645]]}},{"type":"Feature","properties":{"kind":"piste","difficulty":"easy","name":null,"aerialway":null,"osm":"way/33238486"},"geometry":{"type":"LineString","coordinates":[[10.15633,47.34246],[10.15693,47.34403],[10.15757,47.34466],[10.1585,47.34505],[10.16084,47.34673],[10.16157,47.34695],[10.16259,47.34769]]}},{"type":"Feature","properties":{"kind":"piste","difficulty":"easy","name":null,"aerialway":null,"osm":"way/33238649"},"geometry":{"type":"LineString","coordinates":[[10.15634,47.34236],[10.15632,47.34284],[10.15621,47.34297],[10.1559,47.34296],[10.15582,47.34275]]}},{"type":"Feature","properties":{"kind":"piste","difficulty":"easy","name":"Skiweg Zaferna Heuberg","aerialway":null,"osm":"way/33240199"},"geometry":{"type":"LineString","coordinates":[[10.15093,47.32911],[10.15138,47.32916],[10.15198,47.32981],[10.15326,47.33173],[10.15351,47.33232],[10.15435,47.33309]]}},{"type":"Feature","properties":{"kind":"piste","difficulty":"intermediate","name":"Walmendingerhorn Abfahrt","aerialway":null,"osm":"way/33240827"},"geometry":{"type":"LineString","coordinates":[[10.12859,47.3257],[10.12856,47.32558],[10.13012,47.32469],[10.1302,47.32459],[10.13012,47.32438],[10.12773,47.32457],[10.12581,47.32507],[10.12447,47.32486],[10.12395,47.32456],[10.12243,47.32271],[10.12233,47.32244],[10.12268,47.32198]]}},{"type":"Feature","properties":{"kind":"piste","difficulty":"advanced","name":"Route Steilhang","aerialway":null,"osm":"way/33241135"},"geometry":{"type":"LineString","coordinates":[[10.11693,47.32525],[10.11753,47.32438],[10.11747,47.32322]]}},{"type":"Feature","properties":{"kind":"piste","difficulty":"intermediate","name":null,"aerialway":null,"osm":"way/33241189"},"geometry":{"type":"LineString","coordinates":[[10.11611,47.32341],[10.11664,47.32297],[10.11779,47.32232],[10.11837,47.32177],[10.11964,47.32146],[10.12162,47.32119]]}},{"type":"Feature","properties":{"kind":"piste","difficulty":"intermediate","name":"Muttelberg Abfahrt","aerialway":null,"osm":"way/33241519"},"geometry":{"type":"LineString","coordinates":[[10.1178,47.3254],[10.11877,47.32626],[10.12217,47.32716],[10.12308,47.32674],[10.1234,47.32614]]}},{"type":"Feature","properties":{"kind":"piste","difficulty":"advanced","name":"Route Muttelberg","aerialway":null,"osm":"way/33241589"},"geometry":{"type":"LineString","coordinates":[[10.11842,47.32598],[10.11906,47.32563],[10.12037,47.32532],[10.12102,47.32522],[10.12236,47.32528],[10.12281,47.32514],[10.1231,47.32493],[10.12352,47.32404]]}},{"type":"Feature","properties":{"kind":"piste","difficulty":"intermediate","name":null,"aerialway":null,"osm":"way/33241656"},"geometry":{"type":"LineString","coordinates":[[10.12662,47.3249],[10.12571,47.32551],[10.12404,47.32608],[10.1234,47.32614]]}},{"type":"Feature","properties":{"kind":"piste","difficulty":"intermediate","name":"Doppelsessellift Abfahrt","aerialway":null,"osm":"way/33241746"},"geometry":{"type":"LineString","coordinates":[[10.1251,47.32503],[10.12496,47.32485],[10.12501,47.32458],[10.12582,47.32258],[10.1254,47.32158],[10.12605,47.32138],[10.12694,47.32137],[10.12703,47.32126],[10.1268,47.32016],[10.12656,47.31997],[10.12592,47.31986],[10.12592,47.3197],[10.12603,47.31972]]}},{"type":"Feature","properties":{"kind":"piste","difficulty":"intermediate","name":null,"aerialway":null,"osm":"way/33241860"},"geometry":{"type":"LineString","coordinates":[[10.12204,47.32149],[10.12233,47.32186],[10.12251,47.32193],[10.12285,47.32181]]}},{"type":"Feature","properties":{"kind":"piste","difficulty":"intermediate","name":"Talabfahrt Walmendingerhorn","aerialway":null,"osm":"way/33242096"},"geometry":{"type":"LineString","coordinates":[[10.12466,47.31998],[10.12488,47.31967],[10.12537,47.31945],[10.12933,47.31877],[10.12944,47.31856],[10.12919,47.31816],[10.12936,47.31814],[10.13066,47.31817],[10.13172,47.31862],[10.13339,47.31891],[10.13503,47.31888],[10.13657,47.31867],[10.1384,47.31866],[10.13928,47.31885],[10.13963,47.31916]]}},{"type":"Feature","properties":{"kind":"piste","difficulty":"novice","name":null,"aerialway":null,"osm":"way/33242228"},"geometry":{"type":"LineString","coordinates":[[10.1491,47.32319],[10.14993,47.32318],[10.15059,47.32301],[10.15102,47.32279],[10.15116,47.32249]]}},{"type":"Feature","properties":{"kind":"piste","difficulty":"easy","name":null,"aerialway":null,"osm":"way/33243033"},"geometry":{"type":"LineString","coordinates":[[10.1629,47.34856],[10.16281,47.34845],[10.16221,47.34836]]}},{"type":"Feature","properties":{"kind":"piste","difficulty":"easy","name":null,"aerialway":null,"osm":"way/33243086"},"geometry":{"type":"LineString","coordinates":[[10.15632,47.34284],[10.1558,47.34349],[10.15574,47.34372],[10.15592,47.34397]]}},{"type":"Feature","properties":{"kind":"piste","difficulty":"easy","name":null,"aerialway":null,"osm":"way/33243110"},"geometry":{"type":"LineString","coordinates":[[10.15344,47.34311],[10.15392,47.34284],[10.15449,47.34209],[10.1559,47.34296]]}},{"type":"Feature","properties":{"kind":"piste","difficulty":"easy","name":null,"aerialway":null,"osm":"way/33243174"},"geometry":{"type":"LineString","coordinates":[[10.15435,47.34216],[10.15464,47.34269],[10.15567,47.3439]]}},{"type":"Feature","properties":{"kind":"piste","difficulty":"intermediate","name":"Schöntal Piste","aerialway":null,"osm":"way/33243195"},"geometry":{"type":"LineString","coordinates":[[10.15359,47.34303],[10.15446,47.34327],[10.15567,47.3439]]}},{"type":"Feature","properties":{"kind":"piste","difficulty":"easy","name":null,"aerialway":null,"osm":"way/33243229"},"geometry":{"type":"LineString","coordinates":[[10.15633,47.34246],[10.15607,47.34239],[10.15582,47.34211],[10.15606,47.34138],[10.1559,47.34083],[10.15618,47.34025],[10.15555,47.33898]]}},{"type":"Feature","properties":{"kind":"piste","difficulty":"easy","name":null,"aerialway":null,"osm":"way/33394231"},"geometry":{"type":"LineString","coordinates":[[10.13704,47.3416],[10.13705,47.34184],[10.13738,47.34206],[10.13968,47.34211],[10.13977,47.34208],[10.13969,47.34198]]}},{"type":"Feature","properties":{"kind":"piste","difficulty":"intermediate","name":"Heubergmulde Piste","aerialway":null,"osm":"way/103053620"},"geometry":{"type":"LineString","coordinates":[[10.15191,47.34023],[10.15251,47.34],[10.15314,47.34018],[10.15383,47.34113],[10.15615,47.34273],[10.15621,47.34297]]}},{"type":"Feature","properties":{"kind":"piste","difficulty":"easy","name":"Heuberg-Parsenn Piste","aerialway":null,"osm":"way/103058155"},"geometry":{"type":"LineString","coordinates":[[10.16471,47.34799],[10.16578,47.35006],[10.16628,47.35037]]}},{"type":"Feature","properties":{"kind":"piste","difficulty":"easy","name":"Skiweg Parsenn Heuberg","aerialway":null,"osm":"way/103058160"},"geometry":{"type":"LineString","coordinates":[[10.16172,47.34858],[10.16181,47.34841],[10.16221,47.34836]]}},{"type":"Feature","properties":{"kind":"piste","difficulty":"easy","name":"Skiweg Zaferna Heuberg","aerialway":null,"osm":"way/103059738"},"geometry":{"type":"LineString","coordinates":[[10.15435,47.33309],[10.15546,47.33334],[10.15567,47.33383],[10.15639,47.33417],[10.1569,47.33494],[10.15733,47.33527],[10.15775,47.336],[10.15769,47.33659],[10.15857,47.33741],[10.16034,47.34046],[10.16215,47.34263]]}},{"type":"Feature","properties":{"kind":"piste","difficulty":"intermediate","name":"Walmendingerhorn Abfahrt","aerialway":null,"osm":"way/118924827"},"geometry":{"type":"LineString","coordinates":[[10.12429,47.32028],[10.12522,47.31971],[10.12601,47.31966]]}},{"type":"Feature","properties":{"kind":"piste","difficulty":"intermediate","name":"Walmendingerhorn Abfahrt","aerialway":null,"osm":"way/118924828"},"geometry":{"type":"LineString","coordinates":[[10.12268,47.32198],[10.12377,47.32095],[10.12429,47.32028]]}},{"type":"Feature","properties":{"kind":"piste","difficulty":"intermediate","name":"Muttelberg Abfahrt","aerialway":null,"osm":"way/128595458"},"geometry":{"type":"LineString","coordinates":[[10.1234,47.32614],[10.12351,47.32531],[10.12344,47.32486],[10.12213,47.32265],[10.12198,47.32192],[10.12204,47.32149],[10.12194,47.32138]]}},{"type":"Feature","properties":{"kind":"piste","difficulty":"easy","name":"Skiweg Heuberg Zaferna","aerialway":null,"osm":"way/151883486"},"geometry":{"type":"LineString","coordinates":[[10.15191,47.34023],[10.15092,47.34059],[10.15188,47.34117],[10.15216,47.34112],[10.1526,47.34062],[10.15325,47.34032],[10.15423,47.34043],[10.15496,47.34028],[10.15554,47.33963],[10.15564,47.3383],[10.15545,47.3381],[10.15551,47.33791],[10.15495,47.33685],[10.15515,47.3359],[10.155,47.33475],[10.15447,47.33387],[10.15439,47.3331],[10.15463,47.33272],[10.15486,47.33125],[10.15543,47.33076],[10.15567,47.32938],[10.15499,47.32732],[10.15318,47.32579],[10.15261,47.32513],[10.15261,47.32448],[10.15157,47.323],[10.15163,47.32276],[10.15237,47.32281],[10.15246,47.32302],[10.15221,47.32302]]}},{"type":"Feature","properties":{"kind":"piste","difficulty":"advanced","name":"Luggi-Leitner-Piste","aerialway":null,"osm":"way/151883487"},"geometry":{"type":"LineString","coordinates":[[10.15138,47.32916],[10.15321,47.32824],[10.15387,47.32777],[10.15428,47.32689],[10.15479,47.32644],[10.15572,47.32602]]}},{"type":"Feature","properties":{"kind":"piste","difficulty":"advanced","name":"Luggi-Leitner-Piste","aerialway":null,"osm":"way/151883488"},"geometry":{"type":"LineString","coordinates":[[10.15093,47.32911],[10.15083,47.32911],[10.1508,47.32893],[10.15144,47.32838],[10.15413,47.32707]]}},{"type":"Feature","properties":{"kind":"piste","difficulty":"easy","name":"Skiweg Mittelberg Zaferna","aerialway":null,"osm":"way/151883490"},"geometry":{"type":"LineString","coordinates":[[10.14951,47.32322],[10.15118,47.32381],[10.15214,47.32388],[10.15272,47.32377],[10.15328,47.32406]]}},{"type":"Feature","properties":{"kind":"piste","difficulty":"easy","name":"Skiweg Mittelberg Zaferna","aerialway":null,"osm":"way/151883491"},"geometry":{"type":"LineString","coordinates":[[10.15269,47.32499],[10.15307,47.32508],[10.15378,47.32552],[10.15596,47.32602],[10.15587,47.32611]]}},{"type":"Feature","properties":{"kind":"piste","difficulty":"easy","name":null,"aerialway":null,"osm":"way/183161257"},"geometry":{"type":"LineString","coordinates":[[10.13704,47.3416],[10.13734,47.34143],[10.13788,47.34144],[10.13972,47.34176],[10.13992,47.34187],[10.13969,47.34198]]}},{"type":"Feature","properties":{"kind":"piste","difficulty":"easy","name":null,"aerialway":null,"osm":"way/183161260"},"geometry":{"type":"LineString","coordinates":[[10.13738,47.34206],[10.13692,47.34256]]}},{"type":"Feature","properties":{"kind":"piste","difficulty":"intermediate","name":"Heuberg-Abfahrt","aerialway":null,"osm":"way/193757574"},"geometry":{"type":"LineString","coordinates":[[10.15757,47.34466],[10.15948,47.34324],[10.16031,47.34295],[10.16093,47.34238],[10.16162,47.34261],[10.16215,47.34263]]}},{"type":"Feature","properties":{"kind":"piste","difficulty":"easy","name":null,"aerialway":null,"osm":"way/193757575"},"geometry":{"type":"LineString","coordinates":[[10.16344,47.34015],[10.16312,47.34104],[10.16361,47.34215]]}},{"type":"Feature","properties":{"kind":"piste","difficulty":"easy","name":null,"aerialway":null,"osm":"way/193757576"},"geometry":{"type":"LineString","coordinates":[[10.15344,47.34311],[10.15346,47.34329],[10.1539,47.34359],[10.15659,47.34483],[10.15708,47.34488]]}},{"type":"Feature","properties":{"kind":"piste","difficulty":"intermediate","name":null,"aerialway":null,"osm":"way/193757577"},"geometry":{"type":"LineString","coordinates":[[10.16262,47.33892],[10.1624,47.33903],[10.16243,47.33917],[10.16318,47.33981],[10.16371,47.34065],[10.164,47.34086],[10.16446,47.34102],[10.1656,47.34097]]}},{"type":"Feature","properties":{"kind":"piste","difficulty":"easy","name":null,"aerialway":null,"osm":"way/193757578"},"geometry":{"type":"LineString","coordinates":[[10.15728,47.34473],[10.15757,47.34466]]}},{"type":"Feature","properties":{"kind":"piste","difficulty":"intermediate","name":null,"aerialway":null,"osm":"way/193757579"},"geometry":{"type":"LineString","coordinates":[[10.16262,47.33892],[10.16293,47.33891],[10.16346,47.33914],[10.16407,47.33979],[10.1656,47.34097],[10.16571,47.34081],[10.166,47.34076],[10.16596,47.34141],[10.16656,47.34206],[10.16637,47.34206]]}},{"type":"Feature","properties":{"kind":"piste","difficulty":"easy","name":null,"aerialway":null,"osm":"way/193757582"},"geometry":{"type":"LineString","coordinates":[[10.15634,47.34236],[10.15607,47.34239]]}},{"type":"Feature","properties":{"kind":"piste","difficulty":"easy","name":null,"aerialway":null,"osm":"way/193757583"},"geometry":{"type":"LineString","coordinates":[[10.16642,47.34245],[10.16646,47.34213]]}},{"type":"Feature","properties":{"kind":"piste","difficulty":"advanced","name":null,"aerialway":null,"osm":"way/193757585"},"geometry":{"type":"LineString","coordinates":[[10.15662,47.34304],[10.15828,47.3434],[10.15888,47.34369]]}},{"type":"Feature","properties":{"kind":"piste","difficulty":"expert","name":"Route Bühlalpe - Heudohle","aerialway":null,"osm":"way/194111191"},"geometry":{"type":"LineString","coordinates":[[10.13928,47.31885],[10.14044,47.31908],[10.14069,47.31955],[10.14077,47.32013],[10.14103,47.32031],[10.14198,47.3205],[10.14357,47.32044],[10.14452,47.32062],[10.14668,47.3214],[10.14852,47.32223],[10.15008,47.32277],[10.15095,47.32285]]}},{"type":"Feature","properties":{"kind":"piste","difficulty":"easy","name":null,"aerialway":null,"osm":"way/194111193"},"geometry":{"type":"LineString","coordinates":[[10.1624,47.34759],[10.16239,47.34783],[10.16182,47.34822]]}},{"type":"Feature","properties":{"kind":"piste","difficulty":"easy","name":null,"aerialway":null,"osm":"way/194111195"},"geometry":{"type":"LineString","coordinates":[[10.1629,47.34856],[10.1629,47.34903]]}},{"type":"Feature","properties":{"kind":"piste","difficulty":"intermediate","name":null,"aerialway":null,"osm":"way/194111196"},"geometry":{"type":"LineString","coordinates":[[10.16259,47.34769],[10.16307,47.34801]]}},{"type":"Feature","properties":{"kind":"piste","difficulty":"easy","name":null,"aerialway":null,"osm":"way/194111197"},"geometry":{"type":"LineString","coordinates":[[10.16221,47.34836],[10.16182,47.34822]]}},{"type":"Feature","properties":{"kind":"piste","difficulty":"easy","name":null,"aerialway":null,"osm":"way/206168291"},"geometry":{"type":"LineString","coordinates":[[10.13968,47.34211],[10.14243,47.343],[10.14405,47.34315],[10.14697,47.34375]]}},{"type":"Feature","properties":{"kind":"piste","difficulty":"easy","name":null,"aerialway":null,"osm":"way/206168292"},"geometry":{"type":"LineString","coordinates":[[10.13727,47.3433],[10.13799,47.3434],[10.13927,47.34317],[10.14096,47.34315],[10.1448,47.34353]]}},{"type":"Feature","properties":{"kind":"piste","difficulty":"intermediate","name":null,"aerialway":null,"osm":"way/206168296"},"geometry":{"type":"LineString","coordinates":[[10.12687,47.34876],[10.1272,47.34911],[10.1275,47.34917]]}},{"type":"Feature","properties":{"kind":"piste","difficulty":"intermediate","name":"Walmendingerhorn Abfahrt","aerialway":null,"osm":"way/305154519"},"geometry":{"type":"LineString","coordinates":[[10.12838,47.32513],[10.12846,47.32523],[10.12863,47.32515]]}},{"type":"Feature","properties":{"kind":"piste","difficulty":"intermediate","name":"Walmendingerhorn Abfahrt","aerialway":null,"osm":"way/305154520"},"geometry":{"type":"LineString","coordinates":[[10.12863,47.32515],[10.13001,47.32478]]}},{"type":"Feature","properties":{"kind":"piste","difficulty":"intermediate","name":"Talabfahrt Walmendingerhorn","aerialway":null,"osm":"way/324538599"},"geometry":{"type":"LineString","coordinates":[[10.13963,47.31916],[10.13999,47.31969],[10.14021,47.32098],[10.14044,47.32116],[10.14174,47.32182],[10.14287,47.32214],[10.14382,47.32262],[10.14493,47.32345],[10.14551,47.32347],[10.14711,47.32395],[10.1489,47.32472],[10.15092,47.325],[10.15059,47.32426],[10.15014,47.32377],[10.15015,47.32352],[10.15069,47.32313],[10.15163,47.32276]]}},{"type":"Feature","properties":{"kind":"piste","difficulty":"intermediate","name":"Ifen-Abfahrt","aerialway":null,"osm":"way/464118373"},"geometry":{"type":"LineString","coordinates":[[10.12176,47.34765],[10.12247,47.34786],[10.12287,47.34838]]}},{"type":"Feature","properties":{"kind":"piste","difficulty":"easy","name":null,"aerialway":null,"osm":"way/676045882"},"geometry":{"type":"LineString","coordinates":[[10.13626,47.34249],[10.13678,47.34217],[10.13738,47.34206]]}},{"type":"Feature","properties":{"kind":"piste","difficulty":"easy","name":null,"aerialway":null,"osm":"way/676045883"},"geometry":{"type":"LineString","coordinates":[[10.13639,47.34344],[10.13611,47.34277],[10.13626,47.34249],[10.13672,47.34248],[10.13692,47.34256],[10.13671,47.34276]]}},{"type":"Feature","properties":{"kind":"piste","difficulty":"easy","name":null,"aerialway":null,"osm":"way/1061453134"},"geometry":{"type":"LineString","coordinates":[[10.14877,47.31922],[10.14899,47.31924],[10.15028,47.31819],[10.15052,47.31813],[10.15036,47.31802]]}},{"type":"Feature","properties":{"kind":"piste","difficulty":"easy","name":"Heuberg-Abfahrt","aerialway":null,"osm":"way/1336951850"},"geometry":{"type":"LineString","coordinates":[[10.16597,47.34271],[10.16631,47.3427],[10.16632,47.34288],[10.16618,47.34292]]}},{"type":"Feature","properties":{"kind":"piste","difficulty":"easy","name":null,"aerialway":null,"osm":"way/1346180193"},"geometry":{"type":"LineString","coordinates":[[10.16642,47.34245],[10.16676,47.34262]]}},{"type":"Feature","properties":{"kind":"piste","difficulty":"easy","name":"Heuberg-Abfahrt","aerialway":null,"osm":"way/1346180194"},"geometry":{"type":"LineString","coordinates":[[10.16265,47.34243],[10.16287,47.34204],[10.16314,47.34201],[10.1641,47.34234],[10.1646,47.34298],[10.16537,47.34299],[10.16597,47.34271]]}},{"type":"Feature","properties":{"kind":"piste","difficulty":"easy","name":"Skiweg Zaferna Heuberg","aerialway":null,"osm":"way/1346180195"},"geometry":{"type":"LineString","coordinates":[[10.16215,47.34263],[10.16265,47.34243]]}},{"type":"Feature","properties":{"kind":"piste","difficulty":"intermediate","name":"Hubertus-Piste","aerialway":null,"osm":"way/1346180708"},"geometry":{"type":"LineString","coordinates":[[10.16221,47.34836],[10.16378,47.34757],[10.16407,47.34755],[10.16471,47.34799],[10.16522,47.34779],[10.16614,47.34777],[10.1665,47.34787],[10.1674,47.34855],[10.16969,47.34852],[10.16987,47.34864],[10.1696,47.34872]]}},{"type":"Feature","properties":{"kind":"piste","difficulty":"easy","name":null,"aerialway":null,"osm":"way/1346180709"},"geometry":{"type":"LineString","coordinates":[[10.16182,47.34822],[10.16076,47.34868],[10.16009,47.34868]]}},{"type":"Feature","properties":{"kind":"piste","difficulty":"easy","name":"Skiweg Parsenn Heuberg","aerialway":null,"osm":"way/1346180710"},"geometry":{"type":"LineString","coordinates":[[10.16221,47.34836],[10.16259,47.34769],[10.16254,47.34703],[10.16268,47.34599],[10.16243,47.34368],[10.16265,47.34243]]}},{"type":"Feature","properties":{"kind":"piste","difficulty":"easy","name":null,"aerialway":null,"osm":"way/1346224281"},"geometry":{"type":"LineString","coordinates":[[10.15567,47.3439],[10.15713,47.3446],[10.15728,47.34478],[10.15708,47.34488]]}},{"type":"Feature","properties":{"kind":"piste","difficulty":"intermediate","name":null,"aerialway":null,"osm":"way/1346360963"},"geometry":{"type":"LineString","coordinates":[[10.16318,47.33981],[10.16407,47.33979]]}},{"type":"Feature","properties":{"kind":"piste","difficulty":"novice","name":null,"aerialway":null,"osm":"way/1349494979"},"geometry":{"type":"LineString","coordinates":[[10.1491,47.32319],[10.14971,47.32243],[10.1498,47.32204],[10.14965,47.32169],[10.14901,47.32146],[10.14847,47.32108],[10.14827,47.32048],[10.14837,47.31996],[10.1488,47.31973],[10.14899,47.31924]]}},{"type":"Feature","properties":{"kind":"piste","difficulty":"novice","name":null,"aerialway":null,"osm":"way/1349494980"},"geometry":{"type":"LineString","coordinates":[[10.1498,47.32211],[10.1511,47.32262]]}},{"type":"Feature","properties":{"kind":"piste","difficulty":"easy","name":"Skiweg Heuberg Zaferna","aerialway":null,"osm":"way/1481398949"},"geometry":{"type":"LineString","coordinates":[[10.15267,47.3248],[10.15315,47.32398]]}},{"type":"Feature","properties":{"kind":"piste","difficulty":"easy","name":null,"aerialway":null,"osm":"way/1481398950"},"geometry":{"type":"LineString","coordinates":[[10.15193,47.32343],[10.15272,47.32377]]}},{"type":"Feature","properties":{"kind":"piste","difficulty":"easy","name":null,"aerialway":null,"osm":"way/1481398951"},"geometry":{"type":"LineString","coordinates":[[10.14357,47.32044],[10.14464,47.3203],[10.14484,47.31981],[10.14477,47.31932],[10.14487,47.31925],[10.14578,47.31945],[10.14787,47.31956],[10.14855,47.31985]]}},{"type":"Feature","properties":{"kind":"piste","difficulty":"easy","name":null,"aerialway":null,"osm":"way/1481398952"},"geometry":{"type":"LineString","coordinates":[[10.14875,47.31821],[10.14936,47.31804],[10.14951,47.31792],[10.1494,47.3179]]}},{"type":"Feature","properties":{"kind":"piste","difficulty":"easy","name":null,"aerialway":null,"osm":"way/1481398953"},"geometry":{"type":"LineString","coordinates":[[10.14888,47.31821],[10.14977,47.31821],[10.14975,47.31804],[10.1495,47.31789]]}},{"type":"Feature","properties":{"kind":"piste","difficulty":"easy","name":null,"aerialway":null,"osm":"way/1481398954"},"geometry":{"type":"LineString","coordinates":[[10.14877,47.31922],[10.1487,47.31908],[10.14881,47.31893],[10.14927,47.31858],[10.14982,47.31817],[10.15036,47.31802]]}},{"type":"Feature","properties":{"kind":"piste","difficulty":"intermediate","name":null,"aerialway":null,"osm":"way/1481398955"},"geometry":{"type":"LineString","coordinates":[[10.11842,47.32305],[10.11926,47.32309],[10.11976,47.32325],[10.12059,47.32231],[10.12233,47.32212],[10.12251,47.32193]]}},{"type":"Feature","properties":{"kind":"piste","difficulty":"intermediate","name":null,"aerialway":null,"osm":"way/1482555614"},"geometry":{"type":"LineString","coordinates":[[10.15895,47.34367],[10.15905,47.34286],[10.15956,47.34134],[10.15988,47.34142],[10.16046,47.34209],[10.16093,47.34238]]}},{"type":"Feature","properties":{"kind":"piste","difficulty":"intermediate","name":null,"aerialway":null,"osm":"way/1482555615"},"geometry":{"type":"LineString","coordinates":[[10.1593,47.34227],[10.16067,47.34225]]}},{"type":"Feature","properties":{"kind":"piste","difficulty":"intermediate","name":null,"aerialway":null,"osm":"way/1482555616"},"geometry":{"type":"LineString","coordinates":[[10.16478,47.3481],[10.16648,47.34856],[10.1674,47.34855],[10.16813,47.34828],[10.16943,47.3483],[10.16973,47.34854]]}},{"type":"Feature","properties":{"kind":"piste","difficulty":"intermediate","name":null,"aerialway":null,"osm":"way/1482555617"},"geometry":{"type":"LineString","coordinates":[[10.16501,47.3485],[10.16648,47.34856]]}},{"type":"Feature","properties":{"kind":"piste","difficulty":"easy","name":null,"aerialway":null,"osm":"way/1482555618"},"geometry":{"type":"LineString","coordinates":[[10.1629,47.34903],[10.1665,47.34989],[10.16696,47.3501],[10.16766,47.35067]]}},{"type":"Feature","properties":{"kind":"piste","difficulty":"unknown","name":"Hahneköpfle-Abfahrt untere Sektion","aerialway":null,"osm":"relation/2438204"},"geometry":{"type":"MultiLineString","coordinates":[[[10.12636,47.34878],[10.12653,47.34813]],[[10.12653,47.34813],[10.1271,47.34819]],[[10.1271,47.34819],[10.1278,47.34825]],[[10.1278,47.34825],[10.12903,47.34828],[10.12944,47.3482],[10.12989,47.3478],[10.13075,47.34756],[10.13484,47.34696]],[[10.1271,47.34902],[10.1278,47.34825]],[[10.12989,47.3478],[10.13026,47.34728],[10.13087,47.34695],[10.13194,47.34689],[10.13258,47.34728]]]}},{"type":"Feature","properties":{"kind":"piste","difficulty":"unknown","name":"Ifoly-Abfahrt","aerialway":null,"osm":"relation/2438206"},"geometry":{"type":"LineString","coordinates":[[10.11694,47.35189],[10.11767,47.35133],[10.11885,47.3507],[10.12101,47.34997],[10.12186,47.34952],[10.1219,47.3484],[10.12174,47.34772],[10.12221,47.34724],[10.12232,47.3467],[10.1225,47.34649],[10.12344,47.34623],[10.12444,47.34625],[10.12464,47.34573],[10.1258,47.34553],[10.12584,47.34532]]}},{"type":"Feature","properties":{"kind":"piste","difficulty":"unknown","name":"Olympiahang","aerialway":null,"osm":"relation/2438208"},"geometry":{"type":"MultiLineString","coordinates":[[[10.12676,47.34811],[10.12678,47.34648],[10.12657,47.34598],[10.12566,47.34502],[10.12586,47.34479],[10.12696,47.34465],[10.12733,47.34412],[10.12749,47.34408],[10.12821,47.34426],[10.13163,47.34388],[10.13524,47.343],[10.13626,47.34249]],[[10.13524,47.343],[10.13609,47.34318],[10.13639,47.34344]],[[10.12798,47.34426],[10.12855,47.34478],[10.12913,47.34491],[10.12984,47.3445],[10.1302,47.34402]]]}},{"type":"Feature","properties":{"kind":"piste","difficulty":"unknown","name":"Ski-Gleitweg Küren","aerialway":null,"osm":"relation/2438211"},"geometry":{"type":"MultiLineString","coordinates":[[[10.12782,47.34884],[10.12751,47.34901],[10.1275,47.34917]],[[10.1275,47.34917],[10.1284,47.34951]],[[10.1284,47.34951],[10.12913,47.35031],[10.12923,47.35096],[10.13014,47.35138],[10.13038,47.35161],[10.13407,47.35067],[10.13667,47.35055],[10.13729,47.35068],[10.13788,47.35052],[10.13852,47.35053],[10.13949,47.35011],[10.14011,47.35007],[10.1408,47.35027],[10.14044,47.34976],[10.13974,47.34948],[10.13707,47.34878],[10.1358,47.34764],[10.1351,47.34751],[10.13461,47.34711],[10.13484,47.34696],[10.1355,47.3469],[10.1358,47.34641],[10.13562,47.34601],[10.13474,47.3457],[10.13469,47.34547],[10.1355,47.34525],[10.13601,47.34464],[10.13608,47.34375],[10.13639,47.34344],[10.13727,47.3433],[10.13727,47.34291],[10.13714,47.34276],[10.13698,47.34292]]]}},{"type":"Feature","properties":{"kind":"lift","difficulty":null,"name":"Zafernabahn","aerialway":"chair_lift","osm":"way/8051134"},"geometry":{"type":"LineString","coordinates":[[10.15587,47.32611],[10.15093,47.32911]]}},{"type":"Feature","properties":{"kind":"lift","difficulty":null,"name":"Doppelsessellift Walmendingerhorn","aerialway":"chair_lift","osm":"way/23364499"},"geometry":{"type":"LineString","coordinates":[[10.12603,47.31972],[10.12847,47.32536]]}},{"type":"Feature","properties":{"kind":"lift","difficulty":null,"name":"Muttelberg","aerialway":"chair_lift","osm":"way/23364500"},"geometry":{"type":"LineString","coordinates":[[10.12194,47.32138],[10.1178,47.3254]]}},{"type":"Feature","properties":{"kind":"lift","difficulty":null,"name":"Walmendingerhornbahn","aerialway":"cable_car","osm":"way/23364501"},"geometry":{"type":"LineString","coordinates":[[10.15221,47.32302],[10.12859,47.3257]]}},{"type":"Feature","properties":{"kind":"lift","difficulty":null,"name":"Heubergbahn","aerialway":"chair_lift","osm":"way/33072205"},"geometry":{"type":"LineString","coordinates":[[10.16618,47.34292],[10.15634,47.34236]]}},{"type":"Feature","properties":{"kind":"lift","difficulty":null,"name":"Heubergmuldenlift","aerialway":"t-bar","osm":"way/33072211"},"geometry":{"type":"LineString","coordinates":[[10.15591,47.3428],[10.1514,47.3399]]}},{"type":"Feature","properties":{"kind":"lift","difficulty":null,"name":"Schöntallift","aerialway":"t-bar","osm":"way/33072259"},"geometry":{"type":"LineString","coordinates":[[10.15694,47.34473],[10.15295,47.34289]]}},{"type":"Feature","properties":{"kind":"lift","difficulty":null,"name":"Mooslift","aerialway":"j-bar","osm":"way/33242212"},"geometry":{"type":"LineString","coordinates":[[10.15116,47.32249],[10.1491,47.32319]]}},{"type":"Feature","properties":{"kind":"lift","difficulty":null,"name":"Hubertuslift","aerialway":"drag_lift","osm":"way/33243012"},"geometry":{"type":"LineString","coordinates":[[10.1696,47.34872],[10.16233,47.34854]]}},{"type":"Feature","properties":{"kind":"lift","difficulty":null,"name":"Gaisbühllift","aerialway":"platter","osm":"way/33394212"},"geometry":{"type":"LineString","coordinates":[[10.13969,47.34198],[10.13668,47.34155]]}},{"type":"Feature","properties":{"kind":"lift","difficulty":null,"name":"Jedermannlift","aerialway":"platter","osm":"way/53890204"},"geometry":{"type":"LineString","coordinates":[[10.15039,47.31799],[10.14851,47.31942]]}},{"type":"Feature","properties":{"kind":"lift","difficulty":null,"name":"Förderband Schützabühl","aerialway":"magic_carpet","osm":"way/151883489"},"geometry":{"type":"LineString","coordinates":[[10.15328,47.32406],[10.15269,47.32499]]}},{"type":"Feature","properties":{"kind":"lift","difficulty":null,"name":"Schlösslellift","aerialway":"drag_lift","osm":"way/173577649"},"geometry":{"type":"LineString","coordinates":[[10.16637,47.34206],[10.16224,47.33861]]}},{"type":"Feature","properties":{"kind":"lift","difficulty":null,"name":"Olympiabahn","aerialway":"chair_lift","osm":"way/391109043"},"geometry":{"type":"LineString","coordinates":[[10.13671,47.34276],[10.11702,47.352]]}},{"type":"Feature","properties":{"kind":"lift","difficulty":null,"name":"Ifen I","aerialway":"gondola","osm":"way/536664322"},"geometry":{"type":"LineString","coordinates":[[10.13698,47.34292],[10.12782,47.34884]]}},{"type":"Feature","properties":{"kind":"lift","difficulty":null,"name":null,"aerialway":"rope_tow","osm":"way/1061453133"},"geometry":{"type":"LineString","coordinates":[[10.1494,47.3179],[10.14875,47.31821]]}}]}