{"type":"FeatureCollection","features":[{"type":"Feature","properties":{"kind":"piste","difficulty":"intermediate","name":null,"aerialway":null,"osm":"way/24559397"},"geometry":{"type":"LineString","coordinates":[[11.39726,47.28714],[11.39758,47.28683]]}},{"type":"Feature","properties":{"kind":"lift","difficulty":null,"name":"Seegrubenbahn","aerialway":"cable_car","osm":"way/25170582"},"geometry":{"type":"LineString","coordinates":[[11.39901,47.28617],[11.37974,47.30639]]}},{"type":"Feature","properties":{"kind":"lift","difficulty":null,"name":"Hafelekarbahn","aerialway":"cable_car","osm":"way/25282282"},"geometry":{"type":"LineString","coordinates":[[11.37979,47.30655],[11.38357,47.31198]]}},{"type":"Feature","properties":{"kind":"lift","difficulty":null,"name":"Seegrube","aerialway":"chair_lift","osm":"way/25750412"},"geometry":{"type":"LineString","coordinates":[[11.38359,47.3027],[11.38016,47.30658]]}},{"type":"Feature","properties":{"kind":"piste","difficulty":"intermediate","name":null,"aerialway":null,"osm":"way/37704717"},"geometry":{"type":"LineString","coordinates":[[11.39575,47.28948],[11.39588,47.28874],[11.39559,47.28778],[11.39576,47.28765]]}},{"type":"Feature","properties":{"kind":"piste","difficulty":"intermediate","name":"Bodenstein-Weg","aerialway":null,"osm":"way/48901223"},"geometry":{"type":"LineString","coordinates":[[11.38443,47.30141],[11.38383,47.301],[11.3827,47.3005]]}},{"type":"Feature","properties":{"kind":"piste","difficulty":"intermediate","name":null,"aerialway":null,"osm":"way/48901320"},"geometry":{"type":"LineString","coordinates":[[11.38027,47.3048],[11.3803,47.30402],[11.38306,47.30264],[11.38363,47.3026],[11.38359,47.3027]]}},{"type":"Feature","properties":{"kind":"piste","difficulty":"intermediate","name":null,"aerialway":null,"osm":"way/48901321"},"geometry":{"type":"LineString","coordinates":[[11.38219,47.30543],[11.38202,47.30502],[11.3807,47.30509],[11.38027,47.3048]]}},{"type":"Feature","properties":{"kind":"piste","difficulty":"advanced","name":null,"aerialway":null,"osm":"way/48901417"},"geometry":{"type":"LineString","coordinates":[[11.37834,47.30603],[11.37949,47.30471],[11.3803,47.30402]]}},{"type":"Feature","properties":{"kind":"piste","difficulty":"freeride","name":null,"aerialway":null,"osm":"way/48901470"},"geometry":{"type":"LineString","coordinates":[[11.38386,47.312],[11.3839,47.31175],[11.38309,47.31175],[11.38226,47.31044],[11.38205,47.30918],[11.3823,47.30806],[11.38345,47.30721]]}},{"type":"Feature","properties":{"kind":"piste","difficulty":"freeride","name":null,"aerialway":null,"osm":"way/48901576"},"geometry":{"type":"LineString","coordinates":[[11.38025,47.31212],[11.37862,47.31054],[11.37825,47.30844],[11.37761,47.30736],[11.37784,47.3068]]}},{"type":"Feature","properties":{"kind":"piste","difficulty":"intermediate","name":null,"aerialway":null,"osm":"way/48901698"},"geometry":{"type":"LineString","coordinates":[[11.38345,47.30721],[11.38359,47.30719],[11.38458,47.3055],[11.3833,47.30426],[11.38329,47.30402],[11.38298,47.30369],[11.38218,47.30308]]}},{"type":"Feature","properties":{"kind":"piste","difficulty":"intermediate","name":null,"aerialway":null,"osm":"way/104626229"},"geometry":{"type":"LineString","coordinates":[[11.37904,47.3065],[11.38038,47.30704],[11.38172,47.30664]]}},{"type":"Feature","properties":{"kind":"piste","difficulty":"intermediate","name":null,"aerialway":null,"osm":"way/104626230"},"geometry":{"type":"LineString","coordinates":[[11.38099,47.3058],[11.38171,47.30569],[11.38219,47.30543]]}},{"type":"Feature","properties":{"kind":"piste","difficulty":"easy","name":null,"aerialway":null,"osm":"way/116380636"},"geometry":{"type":"LineString","coordinates":[[11.3758,47.30585],[11.37565,47.30587],[11.37553,47.30608],[11.37572,47.30658],[11.37626,47.30706],[11.37675,47.3073],[11.37724,47.3073],[11.37784,47.3068],[11.37857,47.30651],[11.3786,47.30627],[11.37834,47.30603],[11.37803,47.30598]]}},{"type":"Feature","properties":{"kind":"piste","difficulty":"intermediate","name":null,"aerialway":null,"osm":"way/117017646"},"geometry":{"type":"LineString","coordinates":[[11.38172,47.30664],[11.38151,47.30641],[11.38051,47.30591],[11.38099,47.3058]]}},{"type":"Feature","properties":{"kind":"piste","difficulty":"intermediate","name":null,"aerialway":null,"osm":"way/148049129"},"geometry":{"type":"LineString","coordinates":[[11.3827,47.3005],[11.38407,47.2997],[11.38519,47.29926],[11.38734,47.29768],[11.388,47.29752],[11.3893,47.29675],[11.38981,47.29673],[11.39072,47.29638],[11.39009,47.29602],[11.39007,47.295],[11.3902,47.29486],[11.3926,47.29458],[11.39358,47.2946],[11.3948,47.29482],[11.39229,47.29324],[11.39539,47.28998]]}},{"type":"Feature","properties":{"kind":"piste","difficulty":"intermediate","name":null,"aerialway":null,"osm":"way/227198921"},"geometry":{"type":"LineString","coordinates":[[11.38306,47.30264],[11.38353,47.30246]]}},{"type":"Feature","properties":{"kind":"piste","difficulty":"intermediate","name":null,"aerialway":null,"osm":"way/227198922"},"geometry":{"type":"LineString","coordinates":[[11.37834,47.30603],[11.37799,47.3055],[11.37794,47.30464],[11.37853,47.30338],[11.38148,47.30343]]}},{"type":"Feature","properties":{"kind":"lift","difficulty":null,"name":"Frau-Hitt Warte","aerialway":"chair_lift","osm":"way/227203761"},"geometry":{"type":"LineString","coordinates":[[11.37803,47.30598],[11.3758,47.30585]]}},{"type":"Feature","properties":{"kind":"lift","difficulty":null,"name":null,"aerialway":"magic_carpet","osm":"way/706193014"},"geometry":{"type":"LineString","coordinates":[[11.37906,47.30664],[11.3782,47.30684]]}},{"type":"Feature","properties":{"kind":"piste","difficulty":"intermediate","name":null,"aerialway":null,"osm":"way/706636480"},"geometry":{"type":"LineString","coordinates":[[11.38353,47.30246],[11.3838,47.30254],[11.3845,47.3032]]}},{"type":"Feature","properties":{"kind":"piste","difficulty":"intermediate","name":null,"aerialway":null,"osm":"way/768968946"},"geometry":{"type":"LineString","coordinates":[[11.3845,47.3032],[11.38483,47.30311],[11.38519,47.30268],[11.38527,47.30204]]}},{"type":"Feature","properties":{"kind":"piste","difficulty":"intermediate","name":null,"aerialway":null,"osm":"way/769027330"},"geometry":{"type":"LineString","coordinates":[[11.38172,47.30664],[11.38227,47.30697],[11.38345,47.30721]]}},{"type":"Feature","properties":{"kind":"piste","difficulty":"intermediate","name":null,"aerialway":null,"osm":"way/769092618"},"geometry":{"type":"LineString","coordinates":[[11.39539,47.28998],[11.39575,47.28948]]}},{"type":"Feature","properties":{"kind":"piste","difficulty":"intermediate","name":"Bodenstein-Weg","aerialway":null,"osm":"way/769092620"},"geometry":{"type":"LineString","coordinates":[[11.38457,47.30149],[11.38443,47.30141]]}},{"type":"Feature","properties":{"kind":"piste","difficulty":"intermediate","name":"Bodenstein-Weg","aerialway":null,"osm":"way/769092621"},"geometry":{"type":"LineString","coordinates":[[11.38527,47.30204],[11.38457,47.30149]]}},{"type":"Feature","properties":{"kind":"piste","difficulty":"intermediate","name":null,"aerialway":null,"osm":"way/832990319"},"geometry":{"type":"LineString","coordinates":[[11.39758,47.28683],[11.39804,47.28669]]}},{"type":"Feature","properties":{"kind":"piste","difficulty":"intermediate","name":null,"aerialway":null,"osm":"way/1115691994"},"geometry":{"type":"LineString","coordinates":[[11.39576,47.28765],[11.39696,47.28743],[11.39726,47.28714]]}},{"type":"Feature","properties":{"kind":"piste","difficulty":"freeride","name":null,"aerialway":null,"osm":"way/1268853933"},"geometry":{"type":"LineString","coordinates":[[11.38205,47.30918],[11.38026,47.30701]]}}]}