{"type":"FeatureCollection","features":[{"type":"Feature","properties":{"kind":"lift","difficulty":null,"name":"Schlepplift Silvrettasee","aerialway":"t-bar","osm":"way/209898276"},"geometry":{"type":"LineString","coordinates":[[10.10478,46.91755],[10.09522,46.91954]]}},{"type":"Feature","properties":{"kind":"piste","difficulty":"easy","name":null,"aerialway":null,"osm":"way/479801629"},"geometry":{"type":"LineString","coordinates":[[10.09597,46.91938],[10.09428,46.91875],[10.09566,46.91869],[10.09638,46.91852]]}},{"type":"Feature","properties":{"kind":"piste","difficulty":"easy","name":null,"aerialway":null,"osm":"way/479801630"},"geometry":{"type":"LineString","coordinates":[[10.09711,46.91834],[10.09855,46.91763],[10.1013,46.91689],[10.10279,46.91692],[10.10394,46.91736],[10.10462,46.91741]]}},{"type":"Feature","properties":{"kind":"piste","difficulty":"easy","name":null,"aerialway":null,"osm":"way/479801631"},"geometry":{"type":"LineString","coordinates":[[10.09597,46.91938],[10.09593,46.91906],[10.09609,46.91882],[10.09638,46.91852],[10.09674,46.9184],[10.09828,46.91828],[10.10072,46.91849],[10.10462,46.91741]]}},{"type":"Feature","properties":{"kind":"piste","difficulty":"easy","name":null,"aerialway":null,"osm":"way/1233590519"},"geometry":{"type":"LineString","coordinates":[[10.10133,46.91838],[10.10436,46.91849],[10.10756,46.91825],[10.10837,46.91861]]}},{"type":"Feature","properties":{"kind":"piste","difficulty":"easy","name":null,"aerialway":null,"osm":"way/1456109122"},"geometry":{"type":"LineString","coordinates":[[10.09435,46.91885],[10.0931,46.91843],[10.09256,46.918]]}}]}