{"type":"FeatureCollection","features":[{"type":"Feature","properties":{"kind":"lift","difficulty":null,"name":"Lift 1","aerialway":"t-bar","osm":"way/198773525"},"geometry":{"type":"LineString","coordinates":[[14.61885,47.09438],[14.60962,47.09102]]}},{"type":"Feature","properties":{"kind":"lift","difficulty":null,"name":"Lift 2","aerialway":"t-bar","osm":"way/198773526"},"geometry":{"type":"LineString","coordinates":[[14.61289,47.09422],[14.60448,47.08831]]}},{"type":"Feature","properties":{"kind":"lift","difficulty":null,"name":"Lift 4","aerialway":"t-bar","osm":"way/198773527"},"geometry":{"type":"LineString","coordinates":[[14.60979,47.09428],[14.5989,47.09163]]}},{"type":"Feature","properties":{"kind":"piste","difficulty":"easy","name":null,"aerialway":null,"osm":"way/198773528"},"geometry":{"type":"LineString","coordinates":[[14.60975,47.09138],[14.61002,47.09193],[14.61055,47.09236],[14.61315,47.094],[14.6131,47.09416],[14.61289,47.09422]]}},{"type":"Feature","properties":{"kind":"piste","difficulty":"intermediate","name":"Zirbenpiste","aerialway":null,"osm":"way/198773530"},"geometry":{"type":"LineString","coordinates":[[14.59954,47.09179],[14.59961,47.09205],[14.60003,47.09239],[14.60058,47.09261],[14.60291,47.09285],[14.60325,47.09307],[14.60402,47.09431],[14.60439,47.09468],[14.60661,47.09497],[14.60957,47.09451],[14.60981,47.09441],[14.60979,47.09428]]}},{"type":"Feature","properties":{"kind":"piste","difficulty":"easy","name":"St. Wolfgang Blick","aerialway":null,"osm":"way/198773531"},"geometry":{"type":"LineString","coordinates":[[14.60996,47.09114],[14.61013,47.0914],[14.61203,47.09205],[14.61745,47.09462],[14.61862,47.09452],[14.61885,47.09438]]}},{"type":"Feature","properties":{"kind":"piste","difficulty":"intermediate","name":null,"aerialway":null,"osm":"way/198773532"},"geometry":{"type":"LineString","coordinates":[[14.59956,47.09173],[14.60256,47.09222],[14.6028,47.09214],[14.6027,47.091],[14.60282,47.09086],[14.60444,47.09052],[14.6059,47.08979],[14.60706,47.09013],[14.60966,47.09208]]}},{"type":"Feature","properties":{"kind":"piste","difficulty":"easy","name":null,"aerialway":null,"osm":"way/198773533"},"geometry":{"type":"LineString","coordinates":[[14.60999,47.09186],[14.60966,47.09208],[14.60904,47.09309]]}},{"type":"Feature","properties":{"kind":"piste","difficulty":"easy","name":null,"aerialway":null,"osm":"way/198773534"},"geometry":{"type":"LineString","coordinates":[[14.60966,47.09208],[14.61118,47.0933],[14.61181,47.09423],[14.61289,47.09422]]}},{"type":"Feature","properties":{"kind":"piste","difficulty":"intermediate","name":null,"aerialway":null,"osm":"way/198773535"},"geometry":{"type":"LineString","coordinates":[[14.60493,47.08863],[14.60487,47.08884],[14.6052,47.08911],[14.60687,47.09006]]}},{"type":"Feature","properties":{"kind":"piste","difficulty":"easy","name":"Muldenabfahrt","aerialway":null,"osm":"way/198773536"},"geometry":{"type":"LineString","coordinates":[[14.60992,47.09427],[14.61045,47.09451],[14.61181,47.09423],[14.61209,47.09441],[14.61399,47.09463],[14.61745,47.09462]]}},{"type":"Feature","properties":{"kind":"piste","difficulty":"intermediate","name":"Schleichwegerl","aerialway":null,"osm":"way/404955335"},"geometry":{"type":"LineString","coordinates":[[14.60606,47.08983],[14.60654,47.09021],[14.60689,47.09077],[14.6075,47.0913],[14.60767,47.09167],[14.60896,47.09296],[14.60959,47.09392],[14.60992,47.09419],[14.60986,47.09432],[14.60981,47.09423]]}},{"type":"Feature","properties":{"kind":"piste","difficulty":"intermediate","name":"Funpark-Piste","aerialway":null,"osm":"way/404955336"},"geometry":{"type":"LineString","coordinates":[[14.59977,47.09218],[14.59887,47.09357],[14.59901,47.09429],[14.59979,47.09469],[14.60201,47.09493],[14.60317,47.09522],[14.60478,47.09522],[14.60661,47.09497]]}},{"type":"Feature","properties":{"kind":"lift","difficulty":null,"name":"Kirchenlift","aerialway":"t-bar","osm":"way/793474137"},"geometry":{"type":"LineString","coordinates":[[14.63919,47.09981],[14.63467,47.09742]]}},{"type":"Feature","properties":{"kind":"piste","difficulty":"easy","name":null,"aerialway":null,"osm":"way/1071705084"},"geometry":{"type":"LineString","coordinates":[[14.60493,47.08863],[14.60594,47.08875],[14.60693,47.08915],[14.60841,47.09016],[14.60975,47.09138],[14.61013,47.0914]]}},{"type":"Feature","properties":{"kind":"lift","difficulty":null,"name":"Lift 5","aerialway":"platter","osm":"way/1200820077"},"geometry":{"type":"LineString","coordinates":[[14.61108,47.09446],[14.60967,47.09221]]}},{"type":"Feature","properties":{"kind":"lift","difficulty":null,"name":"Lift 3","aerialway":"t-bar","osm":"way/1200820080"},"geometry":{"type":"LineString","coordinates":[[14.60981,47.09423],[14.59896,47.09159]]}},{"type":"Feature","properties":{"kind":"piste","difficulty":"easy","name":null,"aerialway":null,"osm":"way/1200820082"},"geometry":{"type":"LineString","coordinates":[[14.60967,47.09221],[14.61001,47.09233],[14.61119,47.0943],[14.61108,47.09446]]}},{"type":"Feature","properties":{"kind":"piste","difficulty":"advanced","name":"Sterngasse","aerialway":null,"osm":"way/1237740343"},"geometry":{"type":"LineString","coordinates":[[14.60337,47.09327],[14.60522,47.09344],[14.60653,47.0937],[14.60876,47.09419],[14.60957,47.09451]]}},{"type":"Feature","properties":{"kind":"piste","difficulty":"advanced","name":"Trainingspiste","aerialway":null,"osm":"way/1237740344"},"geometry":{"type":"LineString","coordinates":[[14.60407,47.09333],[14.60617,47.09453],[14.60735,47.09488]]}},{"type":"Feature","properties":{"kind":"piste","difficulty":"intermediate","name":"Buckelpiste 2","aerialway":null,"osm":"way/1237740345"},"geometry":{"type":"LineString","coordinates":[[14.60495,47.08862],[14.60539,47.08878],[14.60984,47.09194]]}},{"type":"Feature","properties":{"kind":"piste","difficulty":"advanced","name":"Kanonenrohr","aerialway":null,"osm":"way/1237740346"},"geometry":{"type":"LineString","coordinates":[[14.60256,47.09222],[14.60487,47.0929],[14.60576,47.09299],[14.60691,47.09276],[14.60778,47.0924],[14.60843,47.09243]]}}]}