{"type":"FeatureCollection","features":[{"type":"Feature","properties":{"kind":"piste","difficulty":"easy","name":"Rennstrecke","aerialway":null,"osm":"way/1195236812"},"geometry":{"type":"LineString","coordinates":[[9.74321,47.34467],[9.74447,47.34502],[9.74462,47.34477],[9.74447,47.34442]]}},{"type":"Feature","properties":{"kind":"lift","difficulty":null,"name":null,"aerialway":"magic_carpet","osm":"way/1195236813"},"geometry":{"type":"LineString","coordinates":[[9.74321,47.34467],[9.74447,47.34442]]}},{"type":"Feature","properties":{"kind":"piste","difficulty":"easy","name":"Rennstrecke","aerialway":null,"osm":"way/1195236814"},"geometry":{"type":"LineString","coordinates":[[9.7362,47.34506],[9.73598,47.34557],[9.73578,47.34573],[9.73523,47.34568],[9.73453,47.34522]]}},{"type":"Feature","properties":{"kind":"piste","difficulty":"easy","name":"Familienabfahrt","aerialway":null,"osm":"way/1195236815"},"geometry":{"type":"LineString","coordinates":[[9.74066,47.34407],[9.74157,47.34369],[9.74327,47.34345],[9.74396,47.34351],[9.74463,47.34405]]}},{"type":"Feature","properties":{"kind":"piste","difficulty":"easy","name":"Familienabfahrt","aerialway":null,"osm":"way/1195236816"},"geometry":{"type":"LineString","coordinates":[[9.73348,47.34509],[9.73456,47.3448],[9.7348,47.3443],[9.73514,47.34405],[9.73561,47.34412],[9.73649,47.34453],[9.73795,47.34445],[9.74066,47.34407],[9.74449,47.34401],[9.74466,47.34415]]}},{"type":"Feature","properties":{"kind":"piste","difficulty":"easy","name":"Rennstrecke","aerialway":null,"osm":"way/1195236817"},"geometry":{"type":"LineString","coordinates":[[9.73348,47.34509],[9.73493,47.34527],[9.73788,47.34486],[9.7427,47.3446],[9.74466,47.34415]]}},{"type":"Feature","properties":{"kind":"lift","difficulty":null,"name":"Heumöserlift","aerialway":"t-bar","osm":"way/1195236818"},"geometry":{"type":"LineString","coordinates":[[9.73348,47.34509],[9.74466,47.34415]]}},{"type":"Feature","properties":{"kind":"piste","difficulty":"easy","name":null,"aerialway":null,"osm":"way/1435087221"},"geometry":{"type":"LineString","coordinates":[[9.74456,47.34424],[9.74452,47.34451]]}},{"type":"Feature","properties":{"kind":"piste","difficulty":"unknown","name":null,"aerialway":null,"osm":"way/1435087222"},"geometry":{"type":"LineString","coordinates":[[9.74321,47.34467],[9.7427,47.3446]]}}]}