{"type":"FeatureCollection","features":[{"type":"Feature","properties":{"kind":"piste","difficulty":"easy","name":"Eggl","aerialway":null,"osm":"way/30853380"},"geometry":{"type":"LineString","coordinates":[[12.43479,47.45739],[12.43618,47.45715],[12.43647,47.4572],[12.43656,47.45743],[12.43625,47.45788],[12.43387,47.45864],[12.43185,47.45988],[12.43006,47.46123],[12.42981,47.46122]]}},{"type":"Feature","properties":{"kind":"piste","difficulty":"intermediate","name":"Hornköpfl-Süd","aerialway":null,"osm":"way/30853382"},"geometry":{"type":"LineString","coordinates":[[12.43289,47.46694],[12.43329,47.46686],[12.43385,47.46649],[12.434,47.46621],[12.43378,47.46545],[12.434,47.46491],[12.43428,47.46472],[12.43563,47.46435],[12.43607,47.46389],[12.43626,47.46223],[12.43599,47.46139],[12.43584,47.46032],[12.43566,47.46011],[12.43303,47.45933],[12.43251,47.45945]]}},{"type":"Feature","properties":{"kind":"piste","difficulty":"novice","name":"Trattalm","aerialway":null,"osm":"way/325289730"},"geometry":{"type":"LineString","coordinates":[[12.42884,47.45998],[12.4286,47.46032],[12.42886,47.46061],[12.42893,47.46091],[12.42922,47.46094]]}},{"type":"Feature","properties":{"kind":"piste","difficulty":"novice","name":"Trattalm","aerialway":null,"osm":"way/325289732"},"geometry":{"type":"LineString","coordinates":[[12.42884,47.45998],[12.42934,47.46023],[12.42929,47.46055],[12.42947,47.46082],[12.42922,47.46094]]}},{"type":"Feature","properties":{"kind":"piste","difficulty":"intermediate","name":"Rote Teufel Trainingsstrecke","aerialway":null,"osm":"way/325289734"},"geometry":{"type":"LineString","coordinates":[[12.43385,47.46649],[12.43336,47.46542],[12.43326,47.46415],[12.43268,47.46269],[12.43211,47.46222],[12.43053,47.46148],[12.42991,47.46142],[12.42967,47.4616]]}},{"type":"Feature","properties":{"kind":"piste","difficulty":"intermediate","name":"Brunellenfeld","aerialway":null,"osm":"way/325289741"},"geometry":{"type":"LineString","coordinates":[[12.42966,47.47535],[12.42999,47.47512],[12.43006,47.47473],[12.42933,47.47284],[12.4289,47.47227],[12.42847,47.4709],[12.42874,47.46955],[12.43005,47.46771],[12.4303,47.46692],[12.43006,47.46643],[12.42909,47.46591],[12.42657,47.46542]]}},{"type":"Feature","properties":{"kind":"piste","difficulty":"easy","name":"Hagstein","aerialway":null,"osm":"way/325289750"},"geometry":{"type":"LineString","coordinates":[[12.42879,47.46497],[12.42766,47.46391],[12.42732,47.46342],[12.4271,47.46239],[12.42635,47.46206],[12.42602,47.46211],[12.42545,47.46256],[12.42472,47.46287],[12.4236,47.46302],[12.42196,47.46216],[12.42037,47.4618],[12.41755,47.46158],[12.41636,47.46182],[12.41561,47.46145],[12.41407,47.46117],[12.41403,47.46097],[12.4143,47.46037],[12.41424,47.45989],[12.41448,47.45951],[12.41454,47.45875],[12.41509,47.45805],[12.41743,47.45659],[12.41737,47.45607],[12.41677,47.45539],[12.41644,47.45526],[12.41407,47.45642],[12.41273,47.45692],[12.41257,47.45687],[12.41334,47.45613],[12.41395,47.4552],[12.41415,47.45435],[12.41453,47.45379],[12.41517,47.45329],[12.41671,47.45282],[12.4183,47.452],[12.41881,47.4515],[12.42025,47.45171],[12.42045,47.45164],[12.42058,47.45125],[12.42049,47.45079],[12.41942,47.449],[12.41899,47.44873],[12.4183,47.44856],[12.41729,47.44853],[12.41651,47.44815],[12.41411,47.44836],[12.41196,47.44888],[12.40852,47.45014],[12.40652,47.45045],[12.40365,47.45057],[12.40226,47.45078],[12.3999,47.45079],[12.39964,47.4506],[12.39923,47.45058],[12.39756,47.45098],[12.39634,47.45024],[12.39517,47.44994],[12.39485,47.45018]]}},{"type":"Feature","properties":{"kind":"piste","difficulty":"easy","name":"Pletzerwald","aerialway":null,"osm":"way/325289753"},"geometry":{"type":"LineString","coordinates":[[12.41411,47.4608],[12.41365,47.46061],[12.41314,47.46066],[12.41231,47.4611],[12.41106,47.46228],[12.41144,47.46273],[12.41064,47.46254],[12.41048,47.46279],[12.41029,47.46285],[12.40961,47.46276],[12.40944,47.46285],[12.41076,47.46386],[12.40901,47.46352],[12.40817,47.46346],[12.40776,47.4636]]}},{"type":"Feature","properties":{"kind":"piste","difficulty":"easy","name":"Hagstein","aerialway":null,"osm":"way/325289757"},"geometry":{"type":"LineString","coordinates":[[12.42922,47.46094],[12.42891,47.4615],[12.42635,47.46206]]}},{"type":"Feature","properties":{"kind":"piste","difficulty":"intermediate","name":null,"aerialway":null,"osm":"way/364341004"},"geometry":{"type":"LineString","coordinates":[[12.42967,47.4616],[12.42957,47.46163]]}},{"type":"Feature","properties":{"kind":"piste","difficulty":"easy","name":null,"aerialway":null,"osm":"way/364341005"},"geometry":{"type":"LineString","coordinates":[[12.42957,47.46163],[12.42981,47.46122]]}},{"type":"Feature","properties":{"kind":"piste","difficulty":"advanced","name":"Horn-Standard","aerialway":null,"osm":"way/364621241"},"geometry":{"type":"LineString","coordinates":[[12.40817,47.46346],[12.40819,47.46322],[12.40772,47.4629],[12.405,47.46268],[12.40239,47.46209],[12.40238,47.46171],[12.40295,47.46114],[12.40188,47.46014],[12.39963,47.4595],[12.39827,47.45855],[12.39714,47.45741],[12.39756,47.45655],[12.39728,47.45637],[12.39464,47.45612],[12.39427,47.45593],[12.39407,47.4536],[12.39473,47.45282],[12.39492,47.45199],[12.39435,47.4511],[12.39433,47.4502],[12.39485,47.45018]]}},{"type":"Feature","properties":{"kind":"piste","difficulty":"novice","name":"SunKid","aerialway":null,"osm":"way/372064747"},"geometry":{"type":"LineString","coordinates":[[12.42844,47.46207],[12.42872,47.46193],[12.42875,47.46179]]}},{"type":"Feature","properties":{"kind":"piste","difficulty":"easy","name":null,"aerialway":null,"osm":"way/372064748"},"geometry":{"type":"LineString","coordinates":[[12.42957,47.46163],[12.42922,47.46094]]}},{"type":"Feature","properties":{"kind":"piste","difficulty":"intermediate","name":"Unterberg","aerialway":null,"osm":"way/475593125"},"geometry":{"type":"LineString","coordinates":[[12.40817,47.46346],[12.40799,47.46323],[12.40766,47.46324],[12.40598,47.46378],[12.40549,47.46499],[12.40563,47.46538],[12.40617,47.46551],[12.40618,47.46588],[12.40533,47.46613],[12.40405,47.46626],[12.40466,47.46667],[12.40466,47.4668],[12.40273,47.46699],[12.40035,47.46657],[12.39912,47.46647],[12.39779,47.46654],[12.39551,47.46621],[12.39509,47.46578],[12.39482,47.46526],[12.39295,47.46365],[12.39286,47.46247],[12.39248,47.46075],[12.39253,47.46037],[12.39346,47.45932],[12.39433,47.45874],[12.39429,47.45792],[12.39453,47.45645],[12.39427,47.45593]]}},{"type":"Feature","properties":{"kind":"piste","difficulty":"advanced","name":"Larchenhang","aerialway":null,"osm":"way/510780101"},"geometry":{"type":"LineString","coordinates":[[12.42281,47.46256],[12.41856,47.46356],[12.41636,47.46359],[12.41361,47.46313],[12.41221,47.46336],[12.41076,47.46386]]}},{"type":"Feature","properties":{"kind":"piste","difficulty":"easy","name":"Eggl","aerialway":null,"osm":"way/521264152"},"geometry":{"type":"LineString","coordinates":[[12.43225,47.45962],[12.43063,47.45982],[12.43034,47.46002],[12.42964,47.46102],[12.42963,47.46119],[12.42981,47.46122]]}},{"type":"Feature","properties":{"kind":"piste","difficulty":"easy","name":"Eggl","aerialway":null,"osm":"way/521264153"},"geometry":{"type":"LineString","coordinates":[[12.43505,47.45739],[12.4348,47.45779],[12.43387,47.45864]]}},{"type":"Feature","properties":{"kind":"piste","difficulty":"intermediate","name":"Brunellenfeld","aerialway":null,"osm":"way/521264154"},"geometry":{"type":"LineString","coordinates":[[12.42931,47.46878],[12.42915,47.46827],[12.42763,47.46685],[12.42723,47.4659],[12.42684,47.46545]]}},{"type":"Feature","properties":{"kind":"piste","difficulty":"easy","name":"Alpenhaus","aerialway":null,"osm":"way/579029875"},"geometry":{"type":"LineString","coordinates":[[12.4296,47.46688],[12.42993,47.46688],[12.42996,47.46669],[12.42927,47.46593],[12.42879,47.46497],[12.42917,47.46377],[12.4289,47.46283],[12.42891,47.46239],[12.42913,47.46179],[12.42933,47.46161],[12.42957,47.46163]]}},{"type":"Feature","properties":{"kind":"piste","difficulty":"advanced","name":"Hornköpfl direkt","aerialway":null,"osm":"way/622407117"},"geometry":{"type":"LineString","coordinates":[[12.43306,47.46692],[12.4331,47.46658],[12.431,47.46272],[12.43052,47.46196],[12.42985,47.46143]]}},{"type":"Feature","properties":{"kind":"piste","difficulty":"advanced","name":"Hornköpfl direkt","aerialway":null,"osm":"way/720155231"},"geometry":{"type":"LineString","coordinates":[[12.43296,47.46636],[12.43167,47.4658],[12.43025,47.46401],[12.42899,47.46305]]}},{"type":"Feature","properties":{"kind":"piste","difficulty":"easy","name":null,"aerialway":null,"osm":"way/1435911219"},"geometry":{"type":"LineString","coordinates":[[12.42974,47.46087],[12.42932,47.46093]]}},{"type":"Feature","properties":{"kind":"piste","difficulty":"easy","name":null,"aerialway":null,"osm":"way/1435911220"},"geometry":{"type":"LineString","coordinates":[[12.42905,47.46201],[12.42841,47.46161]]}},{"type":"Feature","properties":{"kind":"lift","difficulty":null,"name":"Hornbahn I","aerialway":"gondola","osm":"way/30852720"},"geometry":{"type":"LineString","coordinates":[[12.39485,47.45018],[12.40776,47.4636]]}},{"type":"Feature","properties":{"kind":"lift","difficulty":null,"name":"Brunelle","aerialway":"chair_lift","osm":"way/30852722"},"geometry":{"type":"LineString","coordinates":[[12.42657,47.46542],[12.42966,47.47535]]}},{"type":"Feature","properties":{"kind":"lift","difficulty":null,"name":"Eggl","aerialway":"t-bar","osm":"way/30852808"},"geometry":{"type":"LineString","coordinates":[[12.42981,47.46122],[12.43536,47.45696]]}},{"type":"Feature","properties":{"kind":"lift","difficulty":null,"name":"Alpenhaus","aerialway":"chair_lift","osm":"way/30852809"},"geometry":{"type":"LineString","coordinates":[[12.42957,47.46163],[12.4296,47.46688]]}},{"type":"Feature","properties":{"kind":"lift","difficulty":null,"name":"Hornköpfl","aerialway":"chair_lift","osm":"way/30852880"},"geometry":{"type":"LineString","coordinates":[[12.42967,47.4616],[12.43289,47.46694]]}},{"type":"Feature","properties":{"kind":"lift","difficulty":null,"name":"Horngipfelbahn","aerialway":"cable_car","osm":"way/52029319"},"geometry":{"type":"LineString","coordinates":[[12.40801,47.4638],[12.42925,47.47515]]}},{"type":"Feature","properties":{"kind":"lift","difficulty":null,"name":"Trattalmulde","aerialway":"magic_carpet","osm":"way/325289727"},"geometry":{"type":"LineString","coordinates":[[12.42922,47.46094],[12.42884,47.45998]]}},{"type":"Feature","properties":{"kind":"lift","difficulty":null,"name":"Sun Kid Horn","aerialway":"magic_carpet","osm":"way/325289729"},"geometry":{"type":"LineString","coordinates":[[12.42875,47.46179],[12.42844,47.46207]]}},{"type":"Feature","properties":{"kind":"lift","difficulty":null,"name":"Hornbahn II","aerialway":"gondola","osm":"way/347370801"},"geometry":{"type":"LineString","coordinates":[[12.40776,47.4636],[12.42925,47.46677]]}}]}