{"type":"FeatureCollection","features":[{"type":"Feature","properties":{"kind":"lift","difficulty":null,"name":"Mataulift","aerialway":"platter","osm":"way/83646819"},"geometry":{"type":"LineString","coordinates":[[10.96509,47.12637],[10.96824,47.12613]]}},{"type":"Feature","properties":{"kind":"lift","difficulty":null,"name":"Wolfsegglift","aerialway":"platter","osm":"way/154962816"},"geometry":{"type":"LineString","coordinates":[[10.96044,47.124],[10.95648,47.12195]]}},{"type":"Feature","properties":{"kind":"piste","difficulty":"novice","name":null,"aerialway":null,"osm":"way/254653732"},"geometry":{"type":"LineString","coordinates":[[10.96045,47.12402],[10.96214,47.12349],[10.96296,47.12341],[10.964,47.12373],[10.9647,47.12423],[10.96519,47.12441],[10.96679,47.12467],[10.96703,47.12499],[10.96703,47.12545],[10.96653,47.1259],[10.96592,47.1262]]}},{"type":"Feature","properties":{"kind":"piste","difficulty":"intermediate","name":null,"aerialway":null,"osm":"way/1079696881"},"geometry":{"type":"LineString","coordinates":[[10.9569,47.12217],[10.95707,47.12261],[10.95747,47.12287],[10.96033,47.12405],[10.96044,47.124]]}},{"type":"Feature","properties":{"kind":"piste","difficulty":"easy","name":null,"aerialway":null,"osm":"way/1079696882"},"geometry":{"type":"LineString","coordinates":[[10.96771,47.12617],[10.96777,47.1261],[10.96758,47.12607],[10.96506,47.12628],[10.96499,47.12634],[10.96509,47.12637]]}},{"type":"Feature","properties":{"kind":"piste","difficulty":"easy","name":null,"aerialway":null,"osm":"way/1079696883"},"geometry":{"type":"LineString","coordinates":[[10.96771,47.12617],[10.96743,47.12636],[10.96683,47.12643],[10.96592,47.1262]]}}]}