{"type":"FeatureCollection","features":[{"type":"Feature","properties":{"kind":"lift","difficulty":null,"name":"Stoamandllift","aerialway":"t-bar","osm":"way/338675300"},"geometry":{"type":"LineString","coordinates":[[10.56007,47.37969],[10.55847,47.3736]]}},{"type":"Feature","properties":{"kind":"piste","difficulty":"easy","name":null,"aerialway":null,"osm":"way/691679625"},"geometry":{"type":"LineString","coordinates":[[10.5586,47.37407],[10.55851,47.37433],[10.55861,47.37662],[10.55946,47.37819],[10.55995,47.37975],[10.56007,47.37969]]}},{"type":"Feature","properties":{"kind":"lift","difficulty":null,"name":"Oberfeldlift II","aerialway":"rope_tow","osm":"way/691679627"},"geometry":{"type":"LineString","coordinates":[[10.56564,47.37795],[10.56754,47.3753]]}},{"type":"Feature","properties":{"kind":"lift","difficulty":null,"name":"Oberfeldlift I","aerialway":"rope_tow","osm":"way/691679628"},"geometry":{"type":"LineString","coordinates":[[10.56488,47.379],[10.56553,47.37783]]}},{"type":"Feature","properties":{"kind":"piste","difficulty":"freeride","name":null,"aerialway":null,"osm":"way/691679631"},"geometry":{"type":"LineString","coordinates":[[10.55856,47.3747],[10.55878,47.37488],[10.56114,47.37567],[10.56184,47.37638],[10.56279,47.37656],[10.5651,47.37745],[10.56562,47.37775],[10.56562,47.37799]]}},{"type":"Feature","properties":{"kind":"piste","difficulty":"easy","name":null,"aerialway":null,"osm":"way/1426292171"},"geometry":{"type":"LineString","coordinates":[[10.55966,47.37866],[10.56015,47.37932],[10.56023,47.37995],[10.56004,47.37994],[10.56005,47.37974]]}},{"type":"Feature","properties":{"kind":"piste","difficulty":"easy","name":null,"aerialway":null,"osm":"relation/19550458"},"geometry":{"type":"MultiLineString","coordinates":[[[10.55985,47.37882],[10.56025,47.37939],[10.56027,47.38003],[10.55999,47.38006],[10.55971,47.37958],[10.55929,47.37826],[10.5582,47.37683],[10.55814,47.37649],[10.55849,47.37406],[10.5586,47.37407],[10.55899,47.3764],[10.5594,47.37726],[10.55985,47.37882]],[[10.5602,47.37987],[10.55991,47.37908],[10.56006,47.37978],[10.5602,47.37987]]]}}]}