{"type":"FeatureCollection","features":[{"type":"Feature","properties":{"kind":"lift","difficulty":null,"name":"Brunntallift","aerialway":"t-bar","osm":"way/169883525"},"geometry":{"type":"LineString","coordinates":[[14.48473,47.52662],[14.49604,47.52503]]}},{"type":"Feature","properties":{"kind":"lift","difficulty":null,"name":"Schlosslift","aerialway":"t-bar","osm":"way/169883529"},"geometry":{"type":"LineString","coordinates":[[14.48531,47.52915],[14.49017,47.52765]]}},{"type":"Feature","properties":{"kind":"lift","difficulty":null,"name":"Sportalmlift","aerialway":"platter","osm":"way/169883531"},"geometry":{"type":"LineString","coordinates":[[14.48535,47.52922],[14.4878,47.52845]]}},{"type":"Feature","properties":{"kind":"lift","difficulty":null,"name":"Babylift","aerialway":"magic_carpet","osm":"way/262897782"},"geometry":{"type":"LineString","coordinates":[[14.48619,47.52965],[14.48634,47.52958]]}},{"type":"Feature","properties":{"kind":"piste","difficulty":"novice","name":"Babyliftabfahrt","aerialway":null,"osm":"way/396519927"},"geometry":{"type":"LineString","coordinates":[[14.48634,47.52958],[14.48615,47.5296],[14.48634,47.52973]]}},{"type":"Feature","properties":{"kind":"piste","difficulty":"intermediate","name":"Brunntalabfahrt","aerialway":null,"osm":"way/396519928"},"geometry":{"type":"LineString","coordinates":[[14.4954,47.52524],[14.49517,47.52527],[14.49488,47.52556],[14.49426,47.52547],[14.49357,47.52577],[14.49306,47.52563],[14.49233,47.52601],[14.49117,47.52585],[14.49052,47.52632],[14.49014,47.52643],[14.4893,47.5263],[14.48887,47.52646],[14.48868,47.52668],[14.48763,47.52669],[14.48674,47.52653],[14.48606,47.52686],[14.48535,47.527],[14.48473,47.52662]]}},{"type":"Feature","properties":{"kind":"piste","difficulty":"easy","name":"Schlossliftabfahrt","aerialway":null,"osm":"way/396519929"},"geometry":{"type":"LineString","coordinates":[[14.48951,47.52785],[14.48964,47.52771],[14.4896,47.52757],[14.48875,47.52746],[14.48829,47.52785],[14.4875,47.52791],[14.48707,47.52836],[14.48678,47.52848],[14.48602,47.52844],[14.48534,47.52872],[14.48522,47.52884],[14.48531,47.52915]]}},{"type":"Feature","properties":{"kind":"piste","difficulty":"easy","name":"Sportalmabfahrt","aerialway":null,"osm":"way/396519930"},"geometry":{"type":"LineString","coordinates":[[14.48708,47.52868],[14.48728,47.52888],[14.48648,47.52906],[14.48636,47.52923],[14.48561,47.52936],[14.48535,47.52922]]}},{"type":"Feature","properties":{"kind":"piste","difficulty":"easy","name":null,"aerialway":null,"osm":"way/396520075"},"geometry":{"type":"LineString","coordinates":[[14.48875,47.52746],[14.48535,47.527]]}},{"type":"Feature","properties":{"kind":"piste","difficulty":"easy","name":null,"aerialway":null,"osm":"way/396520076"},"geometry":{"type":"LineString","coordinates":[[14.48868,47.52668],[14.48786,47.52766],[14.48785,47.52787]]}},{"type":"Feature","properties":{"kind":"piste","difficulty":"novice","name":"Babyliftabfahrt","aerialway":null,"osm":"way/1031367855"},"geometry":{"type":"LineString","coordinates":[[14.48657,47.52955],[14.48626,47.52969]]}},{"type":"Feature","properties":{"kind":"piste","difficulty":"novice","name":"Babyliftabfahrt","aerialway":null,"osm":"way/1031367856"},"geometry":{"type":"LineString","coordinates":[[14.48667,47.52959],[14.48629,47.52955]]}},{"type":"Feature","properties":{"kind":"lift","difficulty":null,"name":null,"aerialway":"magic_carpet","osm":"way/1031367857"},"geometry":{"type":"LineString","coordinates":[[14.48634,47.52973],[14.48667,47.52959]]}},{"type":"Feature","properties":{"kind":"piste","difficulty":"easy","name":"Brunntal-Familienabfahrt","aerialway":null,"osm":"relation/6067985"},"geometry":{"type":"MultiLineString","coordinates":[[[14.49545,47.52512],[14.4954,47.52524]],[[14.4954,47.52524],[14.495,47.52568],[14.49451,47.52596],[14.49378,47.52695],[14.49373,47.52656],[14.49331,47.52607],[14.49313,47.5249],[14.49278,47.52437]],[[14.49278,47.52437],[14.49137,47.52374],[14.48975,47.52335],[14.48877,47.52348],[14.48815,47.52394],[14.48788,47.52444],[14.4879,47.52542],[14.48778,47.52574],[14.48631,47.52666]]]}}]}