{"type":"FeatureCollection","features":[{"type":"Feature","properties":{"kind":"piste","difficulty":"easy","name":null,"aerialway":null,"osm":"way/28995781"},"geometry":{"type":"LineString","coordinates":[[10.85014,47.38539],[10.85013,47.38521],[10.85075,47.3852]]}},{"type":"Feature","properties":{"kind":"piste","difficulty":"easy","name":null,"aerialway":null,"osm":"way/28995783"},"geometry":{"type":"LineString","coordinates":[[10.86086,47.38336],[10.86157,47.38406],[10.86204,47.38478],[10.86189,47.3854],[10.86258,47.38589],[10.86323,47.38598],[10.86571,47.3857],[10.86612,47.38592],[10.86673,47.38681],[10.86794,47.38711],[10.86902,47.38714],[10.87186,47.3869],[10.87299,47.3859],[10.87403,47.3858],[10.87478,47.38545],[10.87618,47.38519],[10.8768,47.38477],[10.87695,47.38479],[10.87617,47.38544],[10.87489,47.38608],[10.87476,47.38632],[10.87606,47.38623],[10.8766,47.38603],[10.87749,47.38539],[10.87783,47.38543],[10.8767,47.38666],[10.87489,47.38745],[10.87444,47.38818],[10.87363,47.38889],[10.87039,47.39029],[10.86911,47.39102],[10.86901,47.39118],[10.86914,47.39146],[10.86927,47.39158],[10.8697,47.39161]]}},{"type":"Feature","properties":{"kind":"piste","difficulty":"easy","name":null,"aerialway":null,"osm":"way/31305848"},"geometry":{"type":"LineString","coordinates":[[10.84698,47.38227],[10.84654,47.38235],[10.84644,47.38288],[10.84669,47.38342],[10.84663,47.384],[10.84706,47.38442],[10.84704,47.38486],[10.84738,47.38433],[10.84727,47.38368],[10.84743,47.3834],[10.84899,47.38254],[10.84946,47.38259],[10.84935,47.38293],[10.8497,47.3836],[10.84965,47.38394],[10.84943,47.3841],[10.84937,47.38437],[10.84947,47.3846],[10.84999,47.38499],[10.85075,47.3852],[10.85298,47.38478],[10.85342,47.38433],[10.85514,47.38431],[10.85666,47.38411],[10.85763,47.38327],[10.85986,47.38314],[10.86167,47.38348],[10.86217,47.38372]]}},{"type":"Feature","properties":{"kind":"lift","difficulty":null,"name":"GamsJet","aerialway":"chair_lift","osm":"way/33759209"},"geometry":{"type":"LineString","coordinates":[[10.86195,47.38371],[10.84698,47.38227]]}},{"type":"Feature","properties":{"kind":"piste","difficulty":"advanced","name":null,"aerialway":null,"osm":"way/33759211"},"geometry":{"type":"LineString","coordinates":[[10.84644,47.38288],[10.84813,47.38301]]}},{"type":"Feature","properties":{"kind":"piste","difficulty":"intermediate","name":null,"aerialway":null,"osm":"way/33759212"},"geometry":{"type":"LineString","coordinates":[[10.84674,47.38224],[10.84692,47.38199],[10.84753,47.38179],[10.84903,47.38179],[10.85042,47.38208],[10.85467,47.38104],[10.85543,47.38127],[10.85581,47.38197],[10.85707,47.38196],[10.85764,47.38214],[10.85881,47.38281],[10.85986,47.38314]]}},{"type":"Feature","properties":{"kind":"piste","difficulty":"intermediate","name":null,"aerialway":null,"osm":"way/33759213"},"geometry":{"type":"LineString","coordinates":[[10.8533,47.38145],[10.85427,47.38161],[10.85479,47.38217],[10.85501,47.38283],[10.85563,47.38329],[10.85763,47.38327]]}},{"type":"Feature","properties":{"kind":"piste","difficulty":"advanced","name":null,"aerialway":null,"osm":"way/33759216"},"geometry":{"type":"LineString","coordinates":[[10.84722,47.3856],[10.84783,47.38573],[10.8484,47.38491],[10.84876,47.38472],[10.84947,47.3846]]}},{"type":"Feature","properties":{"kind":"piste","difficulty":"easy","name":null,"aerialway":null,"osm":"way/33759666"},"geometry":{"type":"LineString","coordinates":[[10.85388,47.38714],[10.85638,47.38671],[10.8574,47.3868],[10.85847,47.38771],[10.85929,47.38791],[10.85966,47.38769],[10.86045,47.3864]]}},{"type":"Feature","properties":{"kind":"piste","difficulty":"intermediate","name":null,"aerialway":null,"osm":"way/33759667"},"geometry":{"type":"LineString","coordinates":[[10.85014,47.38539],[10.84998,47.38554],[10.85013,47.38566],[10.85097,47.38578],[10.85121,47.3864],[10.85186,47.38639],[10.85358,47.38576],[10.85666,47.38411],[10.85949,47.38428],[10.86039,47.38563],[10.86045,47.3864]]}},{"type":"Feature","properties":{"kind":"piste","difficulty":"easy","name":"Waldabfahrt","aerialway":null,"osm":"way/33759668"},"geometry":{"type":"LineString","coordinates":[[10.85966,47.38769],[10.85953,47.38824],[10.85803,47.38904],[10.85651,47.38946],[10.85568,47.38946]]}},{"type":"Feature","properties":{"kind":"piste","difficulty":"easy","name":"Familientalabfahrt","aerialway":null,"osm":"way/33760126"},"geometry":{"type":"LineString","coordinates":[[10.8697,47.39161],[10.87123,47.39164],[10.87244,47.3922],[10.87302,47.39284],[10.87312,47.39345],[10.87276,47.39359],[10.87204,47.39419],[10.87204,47.39487],[10.87309,47.3958],[10.87519,47.39611],[10.87734,47.39568],[10.87888,47.39557],[10.88211,47.3958],[10.88283,47.39618],[10.88314,47.3969],[10.88302,47.39792],[10.87888,47.40062],[10.8788,47.40077],[10.87917,47.4012],[10.87892,47.40144]]}},{"type":"Feature","properties":{"kind":"lift","difficulty":null,"name":"Grubigsteinbahn","aerialway":"gondola","osm":"way/33760129"},"geometry":{"type":"LineString","coordinates":[[10.87892,47.40144],[10.8695,47.3921]]}},{"type":"Feature","properties":{"kind":"lift","difficulty":null,"name":"Family Jet","aerialway":"gondola","osm":"way/33760131"},"geometry":{"type":"LineString","coordinates":[[10.88353,47.39962],[10.882,47.39639]]}},{"type":"Feature","properties":{"kind":"piste","difficulty":"easy","name":null,"aerialway":null,"osm":"way/33760204"},"geometry":{"type":"LineString","coordinates":[[10.88218,47.39627],[10.88236,47.39649],[10.88244,47.39707],[10.88302,47.39792],[10.88391,47.39876],[10.88388,47.39957],[10.88363,47.39971],[10.88353,47.39962]]}},{"type":"Feature","properties":{"kind":"piste","difficulty":"easy","name":null,"aerialway":null,"osm":"way/100652859"},"geometry":{"type":"LineString","coordinates":[[10.84704,47.38486],[10.8471,47.38543],[10.84687,47.38557]]}},{"type":"Feature","properties":{"kind":"piste","difficulty":"easy","name":null,"aerialway":null,"osm":"way/100652860"},"geometry":{"type":"LineString","coordinates":[[10.87186,47.3869],[10.87476,47.38632]]}},{"type":"Feature","properties":{"kind":"piste","difficulty":"easy","name":null,"aerialway":null,"osm":"way/100652863"},"geometry":{"type":"LineString","coordinates":[[10.86189,47.3854],[10.86045,47.3864],[10.86018,47.38639]]}},{"type":"Feature","properties":{"kind":"lift","difficulty":null,"name":"Hochmoos-Express","aerialway":"chair_lift","osm":"way/150432536"},"geometry":{"type":"LineString","coordinates":[[10.88657,47.39585],[10.87006,47.39187]]}},{"type":"Feature","properties":{"kind":"lift","difficulty":null,"name":"Grubigalmbahn","aerialway":"chair_lift","osm":"way/150432537"},"geometry":{"type":"LineString","coordinates":[[10.86885,47.39179],[10.86267,47.38435]]}},{"type":"Feature","properties":{"kind":"lift","difficulty":null,"name":"Schihüttenbahn","aerialway":"chair_lift","osm":"way/150432538"},"geometry":{"type":"LineString","coordinates":[[10.86018,47.38639],[10.85014,47.38539]]}},{"type":"Feature","properties":{"kind":"lift","difficulty":null,"name":"Plattensteiglift","aerialway":"t-bar","osm":"way/151591241"},"geometry":{"type":"LineString","coordinates":[[10.87524,47.39108],[10.86871,47.39148]]}},{"type":"Feature","properties":{"kind":"piste","difficulty":"intermediate","name":null,"aerialway":null,"osm":"way/151591242"},"geometry":{"type":"LineString","coordinates":[[10.85454,47.38191],[10.85581,47.38197]]}},{"type":"Feature","properties":{"kind":"piste","difficulty":"intermediate","name":null,"aerialway":null,"osm":"way/151643463"},"geometry":{"type":"LineString","coordinates":[[10.85949,47.38428],[10.8617,47.38423],[10.86214,47.3841],[10.86217,47.38372]]}},{"type":"Feature","properties":{"kind":"piste","difficulty":"advanced","name":"Untere Sportabfahrt - Buckelpiste","aerialway":null,"osm":"way/151643474"},"geometry":{"type":"LineString","coordinates":[[10.856,47.38981],[10.8576,47.39049],[10.85758,47.39063],[10.8566,47.39142],[10.85661,47.39161],[10.85675,47.39178],[10.858,47.39216],[10.8583,47.39236],[10.85866,47.3933],[10.85888,47.39342]]}},{"type":"Feature","properties":{"kind":"piste","difficulty":"intermediate","name":null,"aerialway":null,"osm":"way/151643478"},"geometry":{"type":"LineString","coordinates":[[10.85026,47.38854],[10.84961,47.38868],[10.84874,47.38922],[10.8486,47.38942],[10.8486,47.39039],[10.84903,47.391],[10.85095,47.39105]]}},{"type":"Feature","properties":{"kind":"piste","difficulty":"intermediate","name":null,"aerialway":null,"osm":"way/151643486"},"geometry":{"type":"LineString","coordinates":[[10.8493,47.38255],[10.85042,47.38208]]}},{"type":"Feature","properties":{"kind":"piste","difficulty":"easy","name":"Hochmoostalabfahrt","aerialway":null,"osm":"way/151643525"},"geometry":{"type":"LineString","coordinates":[[10.88244,47.39707],[10.8831,47.39723],[10.88401,47.39717],[10.88561,47.39665]]}},{"type":"Feature","properties":{"kind":"piste","difficulty":"intermediate","name":null,"aerialway":null,"osm":"way/151643568"},"geometry":{"type":"LineString","coordinates":[[10.86943,47.39144],[10.86971,47.39129],[10.87504,47.39094],[10.87533,47.39107],[10.87509,47.39109]]}},{"type":"Feature","properties":{"kind":"piste","difficulty":"intermediate","name":"Standardabfahrt","aerialway":null,"osm":"way/204049917"},"geometry":{"type":"LineString","coordinates":[[10.84777,47.3832],[10.84802,47.3838],[10.84832,47.38384],[10.84902,47.38364],[10.84931,47.38382],[10.84943,47.3841]]}},{"type":"Feature","properties":{"kind":"piste","difficulty":"intermediate","name":"Standardtalabfahrt","aerialway":null,"osm":"way/204049918"},"geometry":{"type":"LineString","coordinates":[[10.87312,47.39345],[10.874,47.39492],[10.8744,47.39517],[10.87525,47.39548],[10.87734,47.39568],[10.87887,47.39645],[10.88006,47.39752],[10.88074,47.39822],[10.8807,47.39877],[10.87978,47.40012]]}},{"type":"Feature","properties":{"kind":"piste","difficulty":"easy","name":null,"aerialway":null,"osm":"way/204049919"},"geometry":{"type":"LineString","coordinates":[[10.87006,47.39187],[10.86956,47.39185],[10.86912,47.392],[10.86885,47.39179]]}},{"type":"Feature","properties":{"kind":"piste","difficulty":"easy","name":null,"aerialway":null,"osm":"way/204049920"},"geometry":{"type":"LineString","coordinates":[[10.87312,47.39345],[10.87435,47.39381],[10.87765,47.39414],[10.88151,47.39529],[10.88211,47.3958],[10.88283,47.39618],[10.88561,47.39665],[10.88602,47.3962],[10.88657,47.39585]]}},{"type":"Feature","properties":{"kind":"piste","difficulty":"easy","name":null,"aerialway":null,"osm":"way/204049921"},"geometry":{"type":"LineString","coordinates":[[10.8695,47.3921],[10.86931,47.39193],[10.86897,47.39217]]}},{"type":"Feature","properties":{"kind":"piste","difficulty":"easy","name":null,"aerialway":null,"osm":"way/204049922"},"geometry":{"type":"LineString","coordinates":[[10.86943,47.39144],[10.8697,47.39161]]}},{"type":"Feature","properties":{"kind":"piste","difficulty":"easy","name":null,"aerialway":null,"osm":"way/204049923"},"geometry":{"type":"LineString","coordinates":[[10.87606,47.38623],[10.8771,47.38619]]}},{"type":"Feature","properties":{"kind":"piste","difficulty":"intermediate","name":null,"aerialway":null,"osm":"way/204049924"},"geometry":{"type":"LineString","coordinates":[[10.87123,47.39164],[10.87403,47.39136],[10.87534,47.3911]]}},{"type":"Feature","properties":{"kind":"piste","difficulty":"easy","name":null,"aerialway":null,"osm":"way/204049925"},"geometry":{"type":"LineString","coordinates":[[10.86978,47.39183],[10.86965,47.39177],[10.8697,47.39161]]}},{"type":"Feature","properties":{"kind":"piste","difficulty":"easy","name":null,"aerialway":null,"osm":"way/204049926"},"geometry":{"type":"LineString","coordinates":[[10.86262,47.38424],[10.86246,47.38425],[10.86204,47.38478]]}},{"type":"Feature","properties":{"kind":"piste","difficulty":"intermediate","name":null,"aerialway":null,"osm":"way/204049927"},"geometry":{"type":"LineString","coordinates":[[10.85075,47.3852],[10.85121,47.3864],[10.85191,47.38685],[10.85388,47.38714],[10.85419,47.38871],[10.85446,47.38906],[10.85568,47.38946],[10.856,47.38981],[10.85564,47.39076],[10.85467,47.39131],[10.85402,47.39143],[10.85243,47.39144],[10.85301,47.39209],[10.85384,47.39264],[10.85402,47.3929],[10.85453,47.39302],[10.8569,47.39306],[10.85813,47.39339],[10.85956,47.39339],[10.85996,47.39335],[10.86136,47.39279],[10.86655,47.3917],[10.86728,47.39159],[10.86898,47.39197],[10.8697,47.39161]]}},{"type":"Feature","properties":{"kind":"piste","difficulty":"intermediate","name":null,"aerialway":null,"osm":"way/204049928"},"geometry":{"type":"LineString","coordinates":[[10.88151,47.39529],[10.88203,47.39515],[10.883,47.39516],[10.88602,47.3962]]}},{"type":"Feature","properties":{"kind":"piste","difficulty":"easy","name":null,"aerialway":null,"osm":"way/204049929"},"geometry":{"type":"LineString","coordinates":[[10.86267,47.38435],[10.86226,47.38376],[10.86195,47.38371]]}},{"type":"Feature","properties":{"kind":"piste","difficulty":"advanced","name":null,"aerialway":null,"osm":"way/260668894"},"geometry":{"type":"LineString","coordinates":[[10.85781,47.43705],[10.85196,47.43254],[10.84847,47.43059],[10.84788,47.42965],[10.84556,47.42252],[10.84554,47.42136],[10.84659,47.41895],[10.84645,47.4181],[10.84725,47.41756],[10.8489,47.41751],[10.84952,47.41772],[10.85215,47.41697],[10.8558,47.41413],[10.85767,47.41326],[10.85991,47.41265],[10.86256,47.41155],[10.86559,47.4101],[10.86867,47.40905],[10.87005,47.40877],[10.87298,47.40889],[10.8743,47.40964],[10.87613,47.41115]]}},{"type":"Feature","properties":{"kind":"lift","difficulty":null,"name":"Grubig II","aerialway":"gondola","osm":"way/276555999"},"geometry":{"type":"LineString","coordinates":[[10.86897,47.39217],[10.84687,47.38557]]}},{"type":"Feature","properties":{"kind":"lift","difficulty":null,"name":null,"aerialway":"magic_carpet","osm":"way/348075063"},"geometry":{"type":"LineString","coordinates":[[10.88367,47.3995],[10.8835,47.3992]]}},{"type":"Feature","properties":{"kind":"piste","difficulty":"freeride","name":null,"aerialway":null,"osm":"way/405875838"},"geometry":{"type":"LineString","coordinates":[[10.85015,47.3892],[10.85077,47.3902],[10.85095,47.39105]]}},{"type":"Feature","properties":{"kind":"piste","difficulty":"freeride","name":null,"aerialway":null,"osm":"way/406218016"},"geometry":{"type":"LineString","coordinates":[[10.84722,47.3856],[10.84778,47.38605],[10.84835,47.38625],[10.85065,47.38652],[10.85191,47.38685]]}},{"type":"Feature","properties":{"kind":"piste","difficulty":"freeride","name":null,"aerialway":null,"osm":"way/406218017"},"geometry":{"type":"LineString","coordinates":[[10.85065,47.38652],[10.85153,47.3873],[10.85172,47.38769],[10.85246,47.38813],[10.85261,47.38838],[10.85297,47.38845]]}},{"type":"Feature","properties":{"kind":"lift","difficulty":null,"name":null,"aerialway":"magic_carpet","osm":"way/1000788477"},"geometry":{"type":"LineString","coordinates":[[10.88265,47.39953],[10.8826,47.39923]]}},{"type":"Feature","properties":{"kind":"piste","difficulty":"advanced","name":null,"aerialway":null,"osm":"way/1018770523"},"geometry":{"type":"LineString","coordinates":[[10.8471,47.38543],[10.84722,47.3856]]}},{"type":"Feature","properties":{"kind":"piste","difficulty":"easy","name":null,"aerialway":null,"osm":"way/1066906462"},"geometry":{"type":"LineString","coordinates":[[10.86045,47.3864],[10.8609,47.38677],[10.8611,47.38736],[10.86113,47.38807],[10.86139,47.38871],[10.86165,47.38884],[10.86209,47.3888],[10.86333,47.38824],[10.86381,47.38857],[10.86582,47.38872],[10.86655,47.38836],[10.86877,47.38815],[10.8704,47.38743],[10.87127,47.38729],[10.87186,47.3869]]}},{"type":"Feature","properties":{"kind":"piste","difficulty":"intermediate","name":null,"aerialway":null,"osm":"way/1235869469"},"geometry":{"type":"LineString","coordinates":[[10.85298,47.38701],[10.85325,47.38735],[10.85327,47.38795],[10.8529,47.38864],[10.85231,47.38915],[10.85191,47.38916],[10.85026,47.38854]]}},{"type":"Feature","properties":{"kind":"piste","difficulty":"freeride","name":null,"aerialway":null,"osm":"way/1235869470"},"geometry":{"type":"LineString","coordinates":[[10.84961,47.38868],[10.84999,47.38891],[10.85015,47.3892]]}},{"type":"Feature","properties":{"kind":"piste","difficulty":"freeride","name":null,"aerialway":null,"osm":"way/1235869471"},"geometry":{"type":"LineString","coordinates":[[10.85095,47.39105],[10.85188,47.3911],[10.85243,47.39144]]}},{"type":"Feature","properties":{"kind":"piste","difficulty":"easy","name":null,"aerialway":null,"osm":"way/1235869473"},"geometry":{"type":"LineString","coordinates":[[10.882,47.39639],[10.88204,47.39628],[10.88283,47.39618]]}},{"type":"Feature","properties":{"kind":"piste","difficulty":"advanced","name":null,"aerialway":null,"osm":"way/1235869484"},"geometry":{"type":"LineString","coordinates":[[10.8471,47.38543],[10.8484,47.38491]]}}]}