{"type":"FeatureCollection","features":[{"type":"Feature","properties":{"kind":"lift","difficulty":null,"name":"Mauritz","aerialway":"chair_lift","osm":"way/48303670"},"geometry":{"type":"LineString","coordinates":[[11.76506,47.43491],[11.76431,47.44285]]}},{"type":"Feature","properties":{"kind":"lift","difficulty":null,"name":"Rofan","aerialway":"chair_lift","osm":"way/48303671"},"geometry":{"type":"LineString","coordinates":[[11.75984,47.44265],[11.7632,47.44454]]}},{"type":"Feature","properties":{"kind":"lift","difficulty":null,"name":"Rofanseilbahn","aerialway":"cable_car","osm":"way/127811659"},"geometry":{"type":"LineString","coordinates":[[11.75132,47.42449],[11.76345,47.4413]]}},{"type":"Feature","properties":{"kind":"piste","difficulty":"intermediate","name":"Skiweg Talabfahrt","aerialway":null,"osm":"way/417397846"},"geometry":{"type":"LineString","coordinates":[[11.76541,47.43487],[11.76486,47.43286],[11.76362,47.4323],[11.76339,47.432],[11.76278,47.43188],[11.76171,47.43084],[11.76148,47.42977],[11.76134,47.42983],[11.76103,47.4306],[11.76102,47.43146],[11.76081,47.43138],[11.76054,47.43044],[11.76056,47.42963],[11.76028,47.42932],[11.76026,47.42907],[11.76015,47.42912],[11.76014,47.42983],[11.75959,47.43014],[11.75954,47.4306],[11.75942,47.43063],[11.75928,47.43002],[11.75946,47.42968],[11.7587,47.42838],[11.75881,47.42709],[11.75896,47.42671],[11.75877,47.42635],[11.75879,47.42558],[11.75865,47.4256],[11.75792,47.42668],[11.75764,47.42679],[11.75742,47.42719],[11.7574,47.42752],[11.75695,47.42777],[11.75686,47.42821],[11.75633,47.4282],[11.7535,47.42685],[11.75262,47.42585],[11.75208,47.42545],[11.75155,47.42474],[11.75145,47.42441],[11.75132,47.42449]]}},{"type":"Feature","properties":{"kind":"piste","difficulty":"advanced","name":"Rofanabfahrt","aerialway":null,"osm":"way/417397860"},"geometry":{"type":"LineString","coordinates":[[11.7643,47.44292],[11.76436,47.44311],[11.76483,47.44297],[11.76536,47.44256],[11.76766,47.44175],[11.76835,47.44121],[11.76857,47.44095],[11.76854,47.44049],[11.7683,47.4401],[11.76838,47.43952],[11.76875,47.43916],[11.76872,47.43894],[11.76802,47.43792],[11.76729,47.43711],[11.76686,47.43621],[11.76695,47.43549],[11.76541,47.43487],[11.76506,47.43491]]}},{"type":"Feature","properties":{"kind":"piste","difficulty":"intermediate","name":"Rotspitz","aerialway":null,"osm":"way/417397866"},"geometry":{"type":"LineString","coordinates":[[11.76431,47.44285],[11.76427,47.44294],[11.76371,47.44279],[11.762,47.44282],[11.76085,47.44237],[11.75983,47.44246],[11.75783,47.44191],[11.75784,47.44118],[11.75838,47.44035],[11.75748,47.43924],[11.75744,47.4386],[11.75787,47.4382],[11.75939,47.43771],[11.75987,47.43674],[11.76023,47.43648],[11.76146,47.43657],[11.76226,47.4357],[11.76257,47.43556],[11.76426,47.43568],[11.76515,47.43553],[11.76554,47.43525],[11.76541,47.43487]]}},{"type":"Feature","properties":{"kind":"piste","difficulty":"intermediate","name":"Waldabfahrt","aerialway":null,"osm":"way/417397873"},"geometry":{"type":"LineString","coordinates":[[11.75838,47.44035],[11.75985,47.4395],[11.75994,47.43934],[11.75978,47.43871],[11.76116,47.43784],[11.76166,47.43644]]}},{"type":"Feature","properties":{"kind":"piste","difficulty":"intermediate","name":null,"aerialway":null,"osm":"way/417397878"},"geometry":{"type":"LineString","coordinates":[[11.7585,47.43799],[11.76057,47.43824],[11.76053,47.43769],[11.76038,47.4374],[11.75982,47.43694]]}},{"type":"Feature","properties":{"kind":"piste","difficulty":"easy","name":"Heimgrubenabfahrt","aerialway":null,"osm":"way/417397882"},"geometry":{"type":"LineString","coordinates":[[11.7632,47.44454],[11.76351,47.44418],[11.7636,47.44304],[11.76118,47.44291],[11.76079,47.44263],[11.75983,47.44246],[11.75971,47.44254],[11.75984,47.44265]]}}]}