{"type":"FeatureCollection","features":[{"type":"Feature","properties":{"kind":"piste","difficulty":"intermediate","name":null,"aerialway":null,"osm":"way/29430144"},"geometry":{"type":"LineString","coordinates":[[14.04272,47.06449],[14.04213,47.06469],[14.03634,47.07138]]}},{"type":"Feature","properties":{"kind":"piste","difficulty":"advanced","name":null,"aerialway":null,"osm":"way/29430466"},"geometry":{"type":"LineString","coordinates":[[14.06925,47.08548],[14.06954,47.08584],[14.07012,47.08612],[14.07277,47.08596],[14.07328,47.08574],[14.07367,47.08574],[14.07405,47.08591],[14.07483,47.08647],[14.07449,47.08795]]}},{"type":"Feature","properties":{"kind":"piste","difficulty":"intermediate","name":null,"aerialway":null,"osm":"way/29430712"},"geometry":{"type":"LineString","coordinates":[[14.04867,47.05591],[14.04999,47.0562],[14.05084,47.05657],[14.05375,47.0574],[14.05806,47.05823],[14.05878,47.05853],[14.05989,47.05977],[14.06047,47.06086],[14.06088,47.06207],[14.06072,47.06274],[14.05931,47.06581],[14.05835,47.06727]]}},{"type":"Feature","properties":{"kind":"piste","difficulty":"intermediate","name":null,"aerialway":null,"osm":"way/29460510"},"geometry":{"type":"LineString","coordinates":[[14.04643,47.06332],[14.04685,47.06355],[14.04771,47.06369],[14.04809,47.06355],[14.04833,47.06288],[14.04879,47.06262],[14.04974,47.06287],[14.05014,47.06351],[14.05101,47.0639],[14.05197,47.06398],[14.05267,47.06475],[14.05396,47.06585],[14.05803,47.06767]]}},{"type":"Feature","properties":{"kind":"piste","difficulty":"easy","name":null,"aerialway":null,"osm":"way/29461207"},"geometry":{"type":"LineString","coordinates":[[14.04478,47.0676],[14.04593,47.0688],[14.04694,47.07115],[14.05158,47.07541],[14.052,47.07538]]}},{"type":"Feature","properties":{"kind":"piste","difficulty":"easy","name":null,"aerialway":null,"osm":"way/29461212"},"geometry":{"type":"LineString","coordinates":[[14.05283,47.07515],[14.05331,47.07571],[14.05627,47.07759],[14.06144,47.08028],[14.06314,47.08137],[14.06515,47.08311],[14.06805,47.08471],[14.06925,47.08496],[14.06935,47.08516],[14.06925,47.08548],[14.06891,47.08547],[14.0686,47.08563],[14.06859,47.08584]]}},{"type":"Feature","properties":{"kind":"piste","difficulty":"advanced","name":null,"aerialway":null,"osm":"way/30098796"},"geometry":{"type":"LineString","coordinates":[[14.05252,47.05752],[14.05343,47.05916],[14.05334,47.05962],[14.05342,47.06],[14.05591,47.06154],[14.05681,47.06294],[14.05657,47.065],[14.05673,47.0652]]}},{"type":"Feature","properties":{"kind":"piste","difficulty":"advanced","name":null,"aerialway":null,"osm":"way/30099042"},"geometry":{"type":"LineString","coordinates":[[14.04751,47.05778],[14.04771,47.05882],[14.04685,47.06],[14.04622,47.06056],[14.04619,47.06129],[14.04726,47.06251],[14.0484,47.06248],[14.04879,47.06262]]}},{"type":"Feature","properties":{"kind":"piste","difficulty":"easy","name":null,"aerialway":null,"osm":"way/30099044"},"geometry":{"type":"LineString","coordinates":[[14.05803,47.06767],[14.05797,47.0678],[14.0583,47.06829]]}},{"type":"Feature","properties":{"kind":"piste","difficulty":"advanced","name":null,"aerialway":null,"osm":"way/30099151"},"geometry":{"type":"LineString","coordinates":[[14.07881,47.09385],[14.08025,47.09427],[14.08198,47.09607],[14.0848,47.09814],[14.08495,47.09844],[14.08488,47.09862]]}},{"type":"Feature","properties":{"kind":"piste","difficulty":"easy","name":null,"aerialway":null,"osm":"way/33450182"},"geometry":{"type":"LineString","coordinates":[[14.04867,47.05591],[14.0484,47.05568],[14.04821,47.05573],[14.04852,47.05664],[14.04769,47.0574],[14.04686,47.059],[14.04531,47.06034],[14.04373,47.06148]]}},{"type":"Feature","properties":{"kind":"piste","difficulty":"intermediate","name":"Geisterbahn","aerialway":null,"osm":"way/61732907"},"geometry":{"type":"LineString","coordinates":[[14.04451,47.06352],[14.04413,47.06397],[14.04456,47.06429],[14.04528,47.06419],[14.04558,47.06437],[14.04566,47.0647],[14.0451,47.06538],[14.04536,47.06592]]}},{"type":"Feature","properties":{"kind":"piste","difficulty":"easy","name":null,"aerialway":null,"osm":"way/61732908"},"geometry":{"type":"LineString","coordinates":[[14.06035,47.06352],[14.05978,47.06413],[14.05934,47.06435],[14.05785,47.06479],[14.05742,47.06478],[14.05815,47.06517],[14.05944,47.06551],[14.05863,47.0657],[14.05713,47.06554],[14.05706,47.06562],[14.05835,47.06727]]}},{"type":"Feature","properties":{"kind":"piste","difficulty":"intermediate","name":null,"aerialway":null,"osm":"way/61732909"},"geometry":{"type":"LineString","coordinates":[[14.04867,47.05591],[14.04923,47.05613],[14.04999,47.05669],[14.05378,47.0579],[14.05579,47.0592],[14.0563,47.05966],[14.05672,47.06039],[14.05732,47.06082],[14.05731,47.06124],[14.0577,47.06165],[14.05906,47.06241],[14.059,47.06337],[14.05934,47.06435],[14.05944,47.06551]]}},{"type":"Feature","properties":{"kind":"piste","difficulty":"intermediate","name":null,"aerialway":null,"osm":"way/61732910"},"geometry":{"type":"LineString","coordinates":[[14.05651,47.07508],[14.05876,47.07506],[14.06004,47.07464]]}},{"type":"Feature","properties":{"kind":"piste","difficulty":"advanced","name":null,"aerialway":null,"osm":"way/92729995"},"geometry":{"type":"LineString","coordinates":[[14.03634,47.07138],[14.03489,47.07236],[14.03262,47.07257],[14.02537,47.07257]]}},{"type":"Feature","properties":{"kind":"piste","difficulty":"intermediate","name":null,"aerialway":null,"osm":"way/92730007"},"geometry":{"type":"LineString","coordinates":[[14.03634,47.07138],[14.03633,47.07162],[14.03676,47.07247],[14.03619,47.07388],[14.03554,47.0744],[14.03487,47.0746],[14.03423,47.0745],[14.03345,47.07418],[14.03262,47.07365],[14.0309,47.07337],[14.02716,47.07319],[14.02595,47.07286],[14.02537,47.07257],[14.02446,47.07243],[14.02424,47.07253],[14.02447,47.07274]]}},{"type":"Feature","properties":{"kind":"piste","difficulty":"intermediate","name":null,"aerialway":null,"osm":"way/215644718"},"geometry":{"type":"LineString","coordinates":[[14.03648,47.07186],[14.03714,47.07209],[14.03816,47.07281],[14.03878,47.07307],[14.03729,47.07315],[14.0369,47.07296],[14.03702,47.07337],[14.03683,47.07424],[14.03594,47.07518],[14.03594,47.07588],[14.03611,47.07615],[14.03611,47.07651],[14.03636,47.07679],[14.037,47.07713],[14.03785,47.07712],[14.03862,47.07739],[14.03853,47.07749],[14.03806,47.07735],[14.03672,47.07746],[14.03564,47.07717],[14.03436,47.07664],[14.03242,47.07549],[14.03145,47.07468],[14.03097,47.07411],[14.02966,47.07356],[14.02951,47.07335]]}},{"type":"Feature","properties":{"kind":"piste","difficulty":"easy","name":null,"aerialway":null,"osm":"way/215644721"},"geometry":{"type":"LineString","coordinates":[[14.0583,47.06829],[14.05924,47.06896],[14.06096,47.06964],[14.06171,47.07022],[14.06176,47.07041],[14.06137,47.07149],[14.06095,47.07229],[14.06106,47.07522],[14.06123,47.07579],[14.06094,47.07702],[14.06264,47.07934],[14.06279,47.08001],[14.06326,47.08097],[14.06314,47.08137]]}},{"type":"Feature","properties":{"kind":"piste","difficulty":"easy","name":"Dino Park","aerialway":null,"osm":"way/293643430"},"geometry":{"type":"LineString","coordinates":[[14.04639,47.07203],[14.04565,47.07251],[14.04564,47.07292],[14.0458,47.07299],[14.04579,47.07327]]}},{"type":"Feature","properties":{"kind":"piste","difficulty":"easy","name":null,"aerialway":null,"osm":"way/404696403"},"geometry":{"type":"LineString","coordinates":[[14.05263,47.0753],[14.05283,47.07515],[14.05568,47.07523],[14.05651,47.07508],[14.05748,47.07426],[14.0581,47.0739],[14.05884,47.07399]]}},{"type":"Feature","properties":{"kind":"piste","difficulty":"advanced","name":null,"aerialway":null,"osm":"way/404696404"},"geometry":{"type":"LineString","coordinates":[[14.08025,47.09427],[14.08092,47.09445],[14.08533,47.09791],[14.0857,47.09838]]}},{"type":"Feature","properties":{"kind":"piste","difficulty":"advanced","name":null,"aerialway":null,"osm":"way/404696405"},"geometry":{"type":"LineString","coordinates":[[14.07881,47.09385],[14.08073,47.09627],[14.08268,47.09911],[14.08305,47.09917],[14.08488,47.09862]]}},{"type":"Feature","properties":{"kind":"piste","difficulty":"advanced","name":null,"aerialway":null,"osm":"way/404696406"},"geometry":{"type":"LineString","coordinates":[[14.08488,47.09862],[14.08538,47.09898]]}},{"type":"Feature","properties":{"kind":"piste","difficulty":"advanced","name":null,"aerialway":null,"osm":"way/404696407"},"geometry":{"type":"LineString","coordinates":[[14.07449,47.08795],[14.07545,47.0912],[14.07638,47.09184],[14.07746,47.09213],[14.07881,47.09385]]}},{"type":"Feature","properties":{"kind":"piste","difficulty":"advanced","name":null,"aerialway":null,"osm":"way/404696408"},"geometry":{"type":"LineString","coordinates":[[14.06925,47.08496],[14.07204,47.08523],[14.07328,47.08574]]}},{"type":"Feature","properties":{"kind":"piste","difficulty":"easy","name":null,"aerialway":null,"osm":"way/404696409"},"geometry":{"type":"LineString","coordinates":[[14.05273,47.07541],[14.05263,47.0753],[14.05235,47.0755],[14.05265,47.07569],[14.0531,47.07571],[14.05371,47.07607],[14.05732,47.07868],[14.06016,47.08008],[14.06692,47.08453],[14.06805,47.08471]]}},{"type":"Feature","properties":{"kind":"piste","difficulty":"intermediate","name":null,"aerialway":null,"osm":"way/404696410"},"geometry":{"type":"LineString","coordinates":[[14.06805,47.08471],[14.06859,47.08584]]}},{"type":"Feature","properties":{"kind":"piste","difficulty":"easy","name":null,"aerialway":null,"osm":"way/404709495"},"geometry":{"type":"LineString","coordinates":[[14.04318,47.06423],[14.04418,47.06358],[14.0458,47.06314],[14.04643,47.06332],[14.04652,47.0641],[14.04735,47.06497],[14.04829,47.06573],[14.04955,47.06637],[14.05072,47.0664],[14.05106,47.06618],[14.05143,47.06567],[14.05228,47.06546],[14.05286,47.06542],[14.05371,47.06567]]}},{"type":"Feature","properties":{"kind":"piste","difficulty":"intermediate","name":null,"aerialway":null,"osm":"way/404709508"},"geometry":{"type":"LineString","coordinates":[[14.04867,47.05591],[14.04932,47.05644],[14.04999,47.05669]]}},{"type":"Feature","properties":{"kind":"piste","difficulty":"easy","name":null,"aerialway":null,"osm":"way/404709530"},"geometry":{"type":"LineString","coordinates":[[14.04652,47.0641],[14.04634,47.06467],[14.04536,47.06592],[14.04478,47.0676],[14.04428,47.06828]]}},{"type":"Feature","properties":{"kind":"piste","difficulty":"intermediate","name":null,"aerialway":null,"osm":"way/404709531"},"geometry":{"type":"LineString","coordinates":[[14.04702,47.06232],[14.04712,47.06253],[14.04703,47.06278],[14.04643,47.06332]]}},{"type":"Feature","properties":{"kind":"piste","difficulty":"easy","name":null,"aerialway":null,"osm":"way/404709534"},"geometry":{"type":"LineString","coordinates":[[14.04406,47.06199],[14.04353,47.06275]]}},{"type":"Feature","properties":{"kind":"piste","difficulty":"intermediate","name":null,"aerialway":null,"osm":"way/404709535"},"geometry":{"type":"LineString","coordinates":[[14.04353,47.06275],[14.04492,47.06277],[14.04567,47.06295],[14.04643,47.06332],[14.04652,47.0641],[14.04735,47.06497],[14.04872,47.0661],[14.04903,47.06658],[14.04905,47.06728],[14.04936,47.06799],[14.04981,47.06858],[14.05206,47.07001],[14.0531,47.07053],[14.05457,47.07092],[14.05724,47.07261],[14.05884,47.07399],[14.06004,47.07464],[14.06075,47.0752],[14.06123,47.07579],[14.06088,47.07603],[14.06092,47.07586]]}},{"type":"Feature","properties":{"kind":"piste","difficulty":"easy","name":null,"aerialway":null,"osm":"way/404709536"},"geometry":{"type":"LineString","coordinates":[[14.04373,47.06148],[14.04357,47.06182],[14.04353,47.06275],[14.04318,47.06372],[14.04272,47.06449]]}},{"type":"Feature","properties":{"kind":"piste","difficulty":"intermediate","name":null,"aerialway":null,"osm":"way/404770770"},"geometry":{"type":"LineString","coordinates":[[14.04456,47.06429],[14.0451,47.06538]]}},{"type":"Feature","properties":{"kind":"piste","difficulty":"intermediate","name":null,"aerialway":null,"osm":"way/404770772"},"geometry":{"type":"LineString","coordinates":[[14.0514,47.05672],[14.05252,47.05752]]}},{"type":"Feature","properties":{"kind":"piste","difficulty":"easy","name":null,"aerialway":null,"osm":"way/404770774"},"geometry":{"type":"LineString","coordinates":[[14.04897,47.05608],[14.04895,47.05625],[14.04852,47.05664]]}},{"type":"Feature","properties":{"kind":"piste","difficulty":"intermediate","name":null,"aerialway":null,"osm":"way/404770777"},"geometry":{"type":"LineString","coordinates":[[14.05301,47.05762],[14.05626,47.05807],[14.05745,47.05811]]}},{"type":"Feature","properties":{"kind":"piste","difficulty":"advanced","name":null,"aerialway":null,"osm":"way/404770779"},"geometry":{"type":"LineString","coordinates":[[14.05644,47.05989],[14.05643,47.06023],[14.05591,47.06154]]}},{"type":"Feature","properties":{"kind":"piste","difficulty":"intermediate","name":null,"aerialway":null,"osm":"way/404770781"},"geometry":{"type":"LineString","coordinates":[[14.05681,47.06294],[14.05754,47.0643],[14.05789,47.06458],[14.05785,47.06479]]}},{"type":"Feature","properties":{"kind":"piste","difficulty":"intermediate","name":null,"aerialway":null,"osm":"way/404770785"},"geometry":{"type":"LineString","coordinates":[[14.05742,47.06478],[14.0568,47.06486],[14.0567,47.06508],[14.05706,47.06562]]}},{"type":"Feature","properties":{"kind":"piste","difficulty":"easy","name":null,"aerialway":null,"osm":"way/404770787"},"geometry":{"type":"LineString","coordinates":[[14.05271,47.06563],[14.0527,47.06598],[14.0536,47.06691],[14.05515,47.06887],[14.05504,47.0695],[14.05402,47.07025],[14.05374,47.07106],[14.05431,47.072],[14.05426,47.07277],[14.05393,47.07339],[14.05407,47.07369],[14.05389,47.07441],[14.05392,47.07517]]}},{"type":"Feature","properties":{"kind":"piste","difficulty":"easy","name":"Safari","aerialway":null,"osm":"way/404770792"},"geometry":{"type":"LineString","coordinates":[[14.04955,47.06637],[14.04967,47.06663],[14.05049,47.06726],[14.0509,47.06777],[14.0515,47.06791],[14.05262,47.06773]]}},{"type":"Feature","properties":{"kind":"piste","difficulty":"advanced","name":null,"aerialway":null,"osm":"way/404770795"},"geometry":{"type":"LineString","coordinates":[[14.04771,47.06369],[14.04832,47.06373],[14.05014,47.06351]]}},{"type":"Feature","properties":{"kind":"piste","difficulty":"intermediate","name":null,"aerialway":null,"osm":"way/404789822"},"geometry":{"type":"LineString","coordinates":[[14.04051,47.0665],[14.03976,47.06635],[14.03904,47.06574],[14.0385,47.06554],[14.0387,47.06582],[14.03851,47.06633],[14.03861,47.06704],[14.03856,47.0688]]}},{"type":"Feature","properties":{"kind":"piste","difficulty":"intermediate","name":null,"aerialway":null,"osm":"way/404789823"},"geometry":{"type":"LineString","coordinates":[[14.04274,47.06453],[14.04338,47.06527],[14.04375,47.06609],[14.04478,47.0676]]}},{"type":"Feature","properties":{"kind":"piste","difficulty":"intermediate","name":null,"aerialway":null,"osm":"way/404789824"},"geometry":{"type":"LineString","coordinates":[[14.04274,47.06453],[14.04223,47.06474],[14.04188,47.06517],[14.04187,47.06545],[14.04288,47.0663],[14.04377,47.0674],[14.04428,47.06828]]}},{"type":"Feature","properties":{"kind":"piste","difficulty":"easy","name":null,"aerialway":null,"osm":"way/404789825"},"geometry":{"type":"LineString","coordinates":[[14.04428,47.06828],[14.04461,47.06874],[14.0456,47.06948],[14.04694,47.07115]]}},{"type":"Feature","properties":{"kind":"piste","difficulty":"advanced","name":null,"aerialway":null,"osm":"way/481271665"},"geometry":{"type":"LineString","coordinates":[[14.04816,47.05691],[14.04798,47.05744],[14.04882,47.05837],[14.049,47.0587],[14.0489,47.05948],[14.04984,47.06084],[14.04994,47.06163],[14.04971,47.06254],[14.04974,47.06287]]}},{"type":"Feature","properties":{"kind":"piste","difficulty":"easy","name":null,"aerialway":null,"osm":"way/576798596"},"geometry":{"type":"LineString","coordinates":[[14.05158,47.07541],[14.05198,47.07568],[14.05263,47.0753]]}},{"type":"Feature","properties":{"kind":"piste","difficulty":"easy","name":null,"aerialway":null,"osm":"way/576798597"},"geometry":{"type":"LineString","coordinates":[[14.05198,47.07568],[14.05237,47.07579],[14.0531,47.07571]]}},{"type":"Feature","properties":{"kind":"piste","difficulty":"intermediate","name":"Geisterbahn","aerialway":null,"osm":"way/764591703"},"geometry":{"type":"LineString","coordinates":[[14.04334,47.06417],[14.0437,47.06394],[14.04413,47.06397]]}},{"type":"Feature","properties":{"kind":"piste","difficulty":"easy","name":"Safari","aerialway":null,"osm":"way/764593682"},"geometry":{"type":"LineString","coordinates":[[14.04652,47.06352],[14.04673,47.06407],[14.04695,47.06422],[14.04777,47.06453],[14.04828,47.06435],[14.04832,47.06505],[14.04907,47.06525],[14.04955,47.06637]]}},{"type":"Feature","properties":{"kind":"piste","difficulty":"easy","name":"4c","aerialway":null,"osm":"way/764595412"},"geometry":{"type":"LineString","coordinates":[[14.04574,47.07108],[14.04551,47.07125],[14.05084,47.07597],[14.05106,47.07594]]}},{"type":"Feature","properties":{"kind":"piste","difficulty":"easy","name":"4b","aerialway":null,"osm":"way/764595413"},"geometry":{"type":"LineString","coordinates":[[14.04574,47.07108],[14.04592,47.07106],[14.05114,47.07581],[14.05106,47.07594]]}},{"type":"Feature","properties":{"kind":"piste","difficulty":"easy","name":null,"aerialway":null,"osm":"way/808517397"},"geometry":{"type":"LineString","coordinates":[[14.04302,47.06428],[14.04318,47.06423]]}},{"type":"Feature","properties":{"kind":"piste","difficulty":"easy","name":null,"aerialway":null,"osm":"way/808517398"},"geometry":{"type":"LineString","coordinates":[[14.04272,47.06449],[14.04302,47.06428]]}},{"type":"Feature","properties":{"kind":"piste","difficulty":"intermediate","name":null,"aerialway":null,"osm":"way/1152003666"},"geometry":{"type":"LineString","coordinates":[[14.05469,47.05849],[14.05742,47.0593],[14.05834,47.05997],[14.05913,47.06211],[14.05906,47.06241]]}},{"type":"Feature","properties":{"kind":"piste","difficulty":"advanced","name":null,"aerialway":null,"osm":"way/1236410859"},"geometry":{"type":"LineString","coordinates":[[14.06896,47.08626],[14.06959,47.08601],[14.07012,47.08612]]}},{"type":"Feature","properties":{"kind":"piste","difficulty":"intermediate","name":null,"aerialway":null,"osm":"way/1236410860"},"geometry":{"type":"LineString","coordinates":[[14.06834,47.08526],[14.06816,47.08575],[14.06838,47.08608],[14.06896,47.08626]]}},{"type":"Feature","properties":{"kind":"piste","difficulty":"easy","name":null,"aerialway":null,"osm":"way/1239397119"},"geometry":{"type":"LineString","coordinates":[[14.05568,47.07523],[14.05617,47.07542],[14.05753,47.07696],[14.05838,47.07831],[14.05848,47.07875]]}},{"type":"Feature","properties":{"kind":"piste","difficulty":"easy","name":"Safari","aerialway":null,"osm":"way/1239426013"},"geometry":{"type":"LineString","coordinates":[[14.05262,47.06773],[14.05277,47.068],[14.05259,47.06898],[14.05332,47.0692],[14.05343,47.06973],[14.05408,47.06985],[14.05414,47.07004],[14.05402,47.07025]]}},{"type":"Feature","properties":{"kind":"piste","difficulty":"easy","name":null,"aerialway":null,"osm":"way/1245374250"},"geometry":{"type":"LineString","coordinates":[[14.05262,47.06773],[14.05283,47.06736],[14.05254,47.06662],[14.05253,47.06583],[14.05286,47.06542]]}},{"type":"Feature","properties":{"kind":"piste","difficulty":"easy","name":"Dino Park","aerialway":null,"osm":"way/1333557922"},"geometry":{"type":"LineString","coordinates":[[14.04579,47.07327],[14.04742,47.07416],[14.04892,47.07426]]}},{"type":"Feature","properties":{"kind":"piste","difficulty":"intermediate","name":null,"aerialway":null,"osm":"way/1473905641"},"geometry":{"type":"LineString","coordinates":[[14.03661,47.07293],[14.03688,47.073]]}},{"type":"Feature","properties":{"kind":"lift","difficulty":null,"name":"Sixpack","aerialway":"chair_lift","osm":"way/29426249"},"geometry":{"type":"LineString","coordinates":[[14.02447,47.07274],[14.04213,47.06436]]}},{"type":"Feature","properties":{"kind":"lift","difficulty":null,"name":"Sunshine II","aerialway":"t-bar","osm":"way/29426324"},"geometry":{"type":"LineString","coordinates":[[14.05206,47.07535],[14.04287,47.06391]]}},{"type":"Feature","properties":{"kind":"lift","difficulty":null,"name":"Sunshine I","aerialway":"t-bar","osm":"way/29426326"},"geometry":{"type":"LineString","coordinates":[[14.052,47.07538],[14.04281,47.06393]]}},{"type":"Feature","properties":{"kind":"lift","difficulty":null,"name":"Rosenkranzlift","aerialway":"t-bar","osm":"way/29426349"},"geometry":{"type":"LineString","coordinates":[[14.05807,47.06745],[14.04837,47.05583]]}},{"type":"Feature","properties":{"kind":"lift","difficulty":null,"name":"Rosenkranzbahn","aerialway":"chair_lift","osm":"way/29426351"},"geometry":{"type":"LineString","coordinates":[[14.05808,47.06733],[14.04864,47.05601]]}},{"type":"Feature","properties":{"kind":"lift","difficulty":null,"name":"Vierersesselbahn Schopfart","aerialway":"chair_lift","osm":"way/211788971"},"geometry":{"type":"LineString","coordinates":[[14.08535,47.09875],[14.07975,47.09438]]}},{"type":"Feature","properties":{"kind":"lift","difficulty":null,"name":"Kreischberg 10er I","aerialway":"gondola","osm":"way/232424022"},"geometry":{"type":"LineString","coordinates":[[14.08538,47.09898],[14.06859,47.08584]]}},{"type":"Feature","properties":{"kind":"lift","difficulty":null,"name":"Riegleralm 10er","aerialway":"gondola","osm":"way/263118569"},"geometry":{"type":"LineString","coordinates":[[14.06092,47.07586],[14.04406,47.06199]]}},{"type":"Feature","properties":{"kind":"lift","difficulty":null,"name":"Tubinglift","aerialway":"rope_tow","osm":"way/404696395"},"geometry":{"type":"LineString","coordinates":[[14.05484,47.07763],[14.05288,47.0764]]}},{"type":"Feature","properties":{"kind":"lift","difficulty":null,"name":"Schlepplift \"Kreischi\"","aerialway":"t-bar","osm":"way/404789826"},"geometry":{"type":"LineString","coordinates":[[14.05106,47.07594],[14.04551,47.07088]]}},{"type":"Feature","properties":{"kind":"lift","difficulty":null,"name":"Übungslift","aerialway":"rope_tow","osm":"way/404789831"},"geometry":{"type":"LineString","coordinates":[[14.05147,47.07575],[14.05018,47.07477]]}},{"type":"Feature","properties":{"kind":"lift","difficulty":null,"name":"Kreischberg 10er II","aerialway":"gondola","osm":"way/1526157269"},"geometry":{"type":"LineString","coordinates":[[14.06859,47.08584],[14.05273,47.07541]]}}]}