{"type":"FeatureCollection","features":[{"type":"Feature","properties":{"kind":"piste","difficulty":"easy","name":"Schaufelberg Abfahrt","aerialway":null,"osm":"way/14804753"},"geometry":{"type":"LineString","coordinates":[[12.73146,47.26777],[12.73221,47.26813],[12.73431,47.26873],[12.73941,47.27056],[12.74318,47.27213],[12.74598,47.2726],[12.74689,47.27294],[12.74737,47.27286],[12.74916,47.27329],[12.75173,47.27317],[12.75361,47.27337],[12.75508,47.27367],[12.75551,47.27388],[12.75665,47.27393],[12.75696,47.27382],[12.75667,47.27374]]}},{"type":"Feature","properties":{"kind":"piste","difficulty":"easy","name":null,"aerialway":null,"osm":"way/1354969541"},"geometry":{"type":"LineString","coordinates":[[12.73398,47.26901],[12.73883,47.27062],[12.73978,47.27079],[12.74271,47.27201],[12.7434,47.27241],[12.74617,47.27275],[12.7467,47.27297],[12.74716,47.27294],[12.74712,47.27285],[12.74681,47.27287],[12.74635,47.27256],[12.74539,47.27238],[12.74475,47.27211],[12.74324,47.27208],[12.74303,47.27176],[12.74033,47.27078],[12.74031,47.27037],[12.73971,47.27047],[12.73956,47.27026],[12.73993,47.27011],[12.74001,47.26994],[12.73984,47.26979],[12.73716,47.2689],[12.73662,47.269],[12.73442,47.26835],[12.73398,47.26901]]}},{"type":"Feature","properties":{"kind":"lift","difficulty":null,"name":"MK Maiskogelbahn","aerialway":"gondola","osm":"way/673539308"},"geometry":{"type":"LineString","coordinates":[[12.75667,47.27374],[12.74773,47.27382],[12.73105,47.26787],[12.71518,47.25793]]}},{"type":"Feature","properties":{"kind":"piste","difficulty":"easy","name":null,"aerialway":null,"osm":"way/1077895650"},"geometry":{"type":"LineString","coordinates":[[12.76472,47.26677],[12.76447,47.26666],[12.75732,47.26906],[12.75732,47.26928]]}},{"type":"Feature","properties":{"kind":"piste","difficulty":"easy","name":null,"aerialway":null,"osm":"way/1077895651"},"geometry":{"type":"LineString","coordinates":[[12.76471,47.26681],[12.76473,47.26702],[12.75766,47.26945],[12.75734,47.26931]]}},{"type":"Feature","properties":{"kind":"piste","difficulty":"easy","name":null,"aerialway":null,"osm":"way/1354969542"},"geometry":{"type":"LineString","coordinates":[[12.73993,47.27011],[12.73998,47.27046],[12.74031,47.27037],[12.74001,47.26994],[12.73993,47.27011]]}},{"type":"Feature","properties":{"kind":"piste","difficulty":"easy","name":null,"aerialway":null,"osm":"way/1354969543"},"geometry":{"type":"LineString","coordinates":[[12.74712,47.27285],[12.74727,47.27264],[12.74787,47.27263],[12.74949,47.27326],[12.75019,47.27302],[12.75139,47.27285],[12.75523,47.27348],[12.75552,47.2736],[12.75561,47.27377],[12.75695,47.27386],[12.75662,47.27406],[12.75512,47.27396],[12.75444,47.27373],[12.75207,47.2735],[12.74947,47.27351],[12.74739,47.27303],[12.74712,47.27285]]}},{"type":"Feature","properties":{"kind":"piste","difficulty":"easy","name":null,"aerialway":null,"osm":"way/1355737876"},"geometry":{"type":"LineString","coordinates":[[12.76474,47.26674],[12.76439,47.26648],[12.76107,47.2675],[12.76033,47.2675],[12.75933,47.26792],[12.75837,47.26798],[12.75865,47.26837],[12.75711,47.26907],[12.75729,47.26927],[12.76474,47.26674]]}},{"type":"Feature","properties":{"kind":"piste","difficulty":"easy","name":null,"aerialway":null,"osm":"way/1355737877"},"geometry":{"type":"LineString","coordinates":[[12.75732,47.26933],[12.7648,47.2668],[12.76498,47.26717],[12.76501,47.26738],[12.76475,47.26753],[12.76348,47.26744],[12.76325,47.2677],[12.76206,47.2682],[12.75766,47.26975],[12.75726,47.26946],[12.75737,47.26942],[12.75732,47.26933]]}},{"type":"Feature","properties":{"kind":"piste","difficulty":"novice","name":null,"aerialway":null,"osm":"way/1355737878"},"geometry":{"type":"LineString","coordinates":[[12.75784,47.26869],[12.7586,47.26834],[12.75832,47.26801],[12.75767,47.26838],[12.75784,47.26869]]}},{"type":"Feature","properties":{"kind":"lift","difficulty":null,"name":"Lechnerberg 2","aerialway":"t-bar","osm":"way/226625461"},"geometry":{"type":"LineString","coordinates":[[12.76035,47.26745],[12.76073,47.26265]]}},{"type":"Feature","properties":{"kind":"lift","difficulty":null,"name":"Lechnerberg 1a","aerialway":"platter","osm":"way/462979776"},"geometry":{"type":"LineString","coordinates":[[12.75734,47.26931],[12.76536,47.26659]]}},{"type":"Feature","properties":{"kind":"lift","difficulty":null,"name":"Lechnerberg 1b","aerialway":"platter","osm":"way/462979777"},"geometry":{"type":"LineString","coordinates":[[12.75732,47.26928],[12.76534,47.26656]]}},{"type":"Feature","properties":{"kind":"lift","difficulty":null,"name":null,"aerialway":"magic_carpet","osm":"way/1355737879"},"geometry":{"type":"LineString","coordinates":[[12.75796,47.26855],[12.75838,47.26836]]}},{"type":"Feature","properties":{"kind":"lift","difficulty":null,"name":null,"aerialway":"magic_carpet","osm":"way/1355737880"},"geometry":{"type":"LineString","coordinates":[[12.75789,47.26838],[12.75812,47.26828]]}}]}