{"type":"FeatureCollection","features":[{"type":"Feature","properties":{"kind":"lift","difficulty":null,"name":"Lammertallift","aerialway":"t-bar","osm":"way/129339910"},"geometry":{"type":"LineString","coordinates":[[13.37589,47.4996],[13.3724,47.50521]]}},{"type":"Feature","properties":{"kind":"piste","difficulty":"intermediate","name":"Rennstrecke","aerialway":null,"osm":"way/1204308050"},"geometry":{"type":"LineString","coordinates":[[13.3724,47.50521],[13.37152,47.50414],[13.37365,47.50044],[13.3745,47.4999],[13.37589,47.4996]]}},{"type":"Feature","properties":{"kind":"piste","difficulty":"easy","name":null,"aerialway":null,"osm":"way/1204308051"},"geometry":{"type":"LineString","coordinates":[[13.3724,47.50521],[13.37243,47.50414],[13.37432,47.50079],[13.37526,47.49996],[13.37589,47.4996]]}}]}