{"type":"FeatureCollection","features":[{"type":"Feature","properties":{"kind":"lift","difficulty":null,"name":"Hagenberglift","aerialway":"t-bar","osm":"way/663120407"},"geometry":{"type":"LineString","coordinates":[[9.88351,47.53627],[9.88708,47.53396],[9.89639,47.53037]]}},{"type":"Feature","properties":{"kind":"piste","difficulty":"easy","name":null,"aerialway":null,"osm":"way/666513406"},"geometry":{"type":"LineString","coordinates":[[9.89723,47.5306],[9.89706,47.5309],[9.89707,47.53121]]}},{"type":"Feature","properties":{"kind":"piste","difficulty":"easy","name":null,"aerialway":null,"osm":"way/666513407"},"geometry":{"type":"LineString","coordinates":[[9.8993,47.5302],[9.89831,47.53021],[9.89723,47.5306]]}},{"type":"Feature","properties":{"kind":"lift","difficulty":null,"name":null,"aerialway":"rope_tow","osm":"way/666513408"},"geometry":{"type":"LineString","coordinates":[[9.89707,47.53121],[9.8993,47.5302]]}},{"type":"Feature","properties":{"kind":"piste","difficulty":"intermediate","name":null,"aerialway":null,"osm":"way/666513409"},"geometry":{"type":"LineString","coordinates":[[9.88976,47.53139],[9.888,47.53093],[9.88657,47.53091],[9.88459,47.53129],[9.88318,47.53212],[9.88284,47.53256],[9.88325,47.53565],[9.88351,47.53627]]}},{"type":"Feature","properties":{"kind":"piste","difficulty":"easy","name":null,"aerialway":null,"osm":"way/666513411"},"geometry":{"type":"LineString","coordinates":[[9.89281,47.53121],[9.89188,47.53133],[9.89044,47.5318],[9.89007,47.53238],[9.88964,47.53244],[9.8892,47.53271],[9.89005,47.53165],[9.89167,47.53111],[9.89276,47.5309],[9.89375,47.53094],[9.89352,47.53114],[9.89281,47.53121]]}},{"type":"Feature","properties":{"kind":"piste","difficulty":"easy","name":null,"aerialway":null,"osm":"way/666513412"},"geometry":{"type":"LineString","coordinates":[[9.89639,47.53037],[9.88508,47.53478],[9.88372,47.53546],[9.88351,47.53627],[9.88319,47.53586],[9.88317,47.53541],[9.88344,47.53509],[9.88479,47.53438],[9.88631,47.53382],[9.88727,47.53367],[9.88809,47.53337],[9.88896,47.53295],[9.88964,47.53244],[9.89007,47.53238],[9.88991,47.53257],[9.89039,47.53241],[9.89202,47.53173],[9.89281,47.53121],[9.89352,47.53114],[9.89499,47.5304],[9.89598,47.53012],[9.89639,47.53037]]}},{"type":"Feature","properties":{"kind":"piste","difficulty":"easy","name":null,"aerialway":null,"osm":"way/666513413"},"geometry":{"type":"LineString","coordinates":[[9.89382,47.53116],[9.8927,47.53108],[9.89028,47.53162],[9.8892,47.53298]]}},{"type":"Feature","properties":{"kind":"piste","difficulty":"easy","name":null,"aerialway":null,"osm":"way/666513414"},"geometry":{"type":"LineString","coordinates":[[9.89639,47.53037],[9.89581,47.53037],[9.88407,47.53514],[9.88335,47.53557],[9.88351,47.53627]]}},{"type":"Feature","properties":{"kind":"piste","difficulty":"easy","name":null,"aerialway":null,"osm":"way/1442989880"},"geometry":{"type":"LineString","coordinates":[[9.89525,47.53059],[9.89462,47.53064],[9.89337,47.53047],[9.89023,47.53105],[9.88921,47.53205],[9.88912,47.53284],[9.88898,47.53307]]}},{"type":"Feature","properties":{"kind":"piste","difficulty":"easy","name":null,"aerialway":null,"osm":"way/1442989881"},"geometry":{"type":"LineString","coordinates":[[9.89305,47.5305],[9.89253,47.53065],[9.89157,47.53133]]}},{"type":"Feature","properties":{"kind":"piste","difficulty":"easy","name":null,"aerialway":null,"osm":"way/1442989882"},"geometry":{"type":"LineString","coordinates":[[9.89096,47.5309],[9.89046,47.53125],[9.89028,47.53162]]}},{"type":"Feature","properties":{"kind":"piste","difficulty":"easy","name":null,"aerialway":null,"osm":"way/1442989883"},"geometry":{"type":"LineString","coordinates":[[9.89706,47.5309],[9.89684,47.531],[9.89562,47.53056],[9.89525,47.53059]]}}]}