{"type":"FeatureCollection","features":[{"type":"Feature","properties":{"kind":"piste","difficulty":"easy","name":null,"aerialway":null,"osm":"way/46422930"},"geometry":{"type":"LineString","coordinates":[[11.49857,47.24434],[11.49813,47.24462],[11.49785,47.24504],[11.49688,47.24702],[11.49656,47.24741],[11.497,47.24749]]}},{"type":"Feature","properties":{"kind":"piste","difficulty":"intermediate","name":"FIS Standardabfahrt","aerialway":null,"osm":"way/54302050"},"geometry":{"type":"LineString","coordinates":[[11.53169,47.22175],[11.5302,47.22317],[11.52961,47.22428],[11.52948,47.22514],[11.52957,47.22572],[11.52987,47.22604],[11.52983,47.22637],[11.52999,47.22639],[11.53093,47.22736],[11.53364,47.23062],[11.53458,47.23145],[11.53574,47.23281],[11.53737,47.2341],[11.538,47.23513],[11.53913,47.23592],[11.53943,47.23678],[11.54022,47.23814],[11.54151,47.23961],[11.54242,47.24023],[11.54354,47.2413],[11.54389,47.24182]]}},{"type":"Feature","properties":{"kind":"lift","difficulty":null,"name":"Schartenkogel","aerialway":"chair_lift","osm":"way/54302055"},"geometry":{"type":"LineString","coordinates":[[11.52213,47.22497],[11.53548,47.2177]]}},{"type":"Feature","properties":{"kind":"piste","difficulty":"intermediate","name":"Schäferhüttenabfahrt","aerialway":null,"osm":"way/54302057"},"geometry":{"type":"LineString","coordinates":[[11.53548,47.2177],[11.53567,47.2177],[11.53533,47.21726],[11.53539,47.21683],[11.53521,47.21636],[11.53465,47.21628],[11.5337,47.2171],[11.53372,47.21797],[11.53289,47.21885],[11.53058,47.22002],[11.53057,47.22021],[11.53146,47.22057],[11.53183,47.22108],[11.53187,47.22157],[11.53169,47.22175]]}},{"type":"Feature","properties":{"kind":"lift","difficulty":null,"name":"Halsmarterlift","aerialway":"t-bar","osm":"way/124777426"},"geometry":{"type":"LineString","coordinates":[[11.54822,47.24936],[11.54323,47.24289]]}},{"type":"Feature","properties":{"kind":"lift","difficulty":null,"name":"Glungezerbahn I","aerialway":"gondola","osm":"way/146759719"},"geometry":{"type":"LineString","coordinates":[[11.53527,47.25638],[11.54368,47.24196]]}},{"type":"Feature","properties":{"kind":"piste","difficulty":"intermediate","name":"Skiweg Schartenkogel","aerialway":null,"osm":"way/203173991"},"geometry":{"type":"LineString","coordinates":[[11.53567,47.2177],[11.53496,47.21876],[11.53475,47.21882],[11.53468,47.22099],[11.53433,47.22136],[11.53305,47.22232],[11.53298,47.2225],[11.53284,47.22248],[11.53322,47.22112],[11.53266,47.22075],[11.53183,47.22108]]}},{"type":"Feature","properties":{"kind":"piste","difficulty":"intermediate","name":"Trainingsstrecke","aerialway":null,"osm":"way/203173992"},"geometry":{"type":"LineString","coordinates":[[11.52957,47.22055],[11.52759,47.22125],[11.52608,47.22195],[11.52588,47.22222],[11.52591,47.22272],[11.52543,47.22338]]}},{"type":"Feature","properties":{"kind":"lift","difficulty":null,"name":"Halsmarter-Express","aerialway":"drag_lift","osm":"way/203173994"},"geometry":{"type":"LineString","coordinates":[[11.54404,47.24353],[11.5444,47.24211]]}},{"type":"Feature","properties":{"kind":"piste","difficulty":"easy","name":"Halsmarterabfahrt","aerialway":null,"osm":"way/409285945"},"geometry":{"type":"LineString","coordinates":[[11.54344,47.24316],[11.54383,47.24326],[11.54617,47.24636],[11.54858,47.24915],[11.54822,47.24936]]}},{"type":"Feature","properties":{"kind":"piste","difficulty":"easy","name":"Familienabfahrt","aerialway":null,"osm":"way/409285946"},"geometry":{"type":"LineString","coordinates":[[11.55201,47.25229],[11.55239,47.25313],[11.55208,47.25371],[11.5525,47.25474],[11.55296,47.25531],[11.55342,47.25879],[11.55256,47.25956],[11.55268,47.26173],[11.55313,47.26268],[11.55299,47.26284],[11.54976,47.26134],[11.54601,47.26068],[11.5456,47.26082],[11.54337,47.25987],[11.54185,47.25889],[11.54138,47.25876],[11.54029,47.25764],[11.53982,47.25759],[11.53853,47.25807],[11.53836,47.25798],[11.53833,47.25755],[11.53818,47.2573],[11.53756,47.25695],[11.53527,47.25638]]}},{"type":"Feature","properties":{"kind":"piste","difficulty":"intermediate","name":"Trichterabfahrt","aerialway":null,"osm":"way/409285947"},"geometry":{"type":"LineString","coordinates":[[11.55201,47.25229],[11.55227,47.25295],[11.55217,47.25351],[11.55055,47.25475],[11.54881,47.25817],[11.54659,47.26072],[11.5456,47.26074],[11.54343,47.25983],[11.5422,47.25906],[11.54123,47.25871],[11.54029,47.25763],[11.53981,47.25758],[11.53916,47.25783]]}},{"type":"Feature","properties":{"kind":"lift","difficulty":null,"name":"Archenstadllift","aerialway":"platter","osm":"way/564410235"},"geometry":{"type":"LineString","coordinates":[[11.497,47.24749],[11.49857,47.24434]]}},{"type":"Feature","properties":{"kind":"piste","difficulty":"intermediate","name":"FIS Standardabfahrt","aerialway":null,"osm":"way/656919699"},"geometry":{"type":"LineString","coordinates":[[11.53193,47.22851],[11.53385,47.22946],[11.53437,47.23008],[11.53431,47.23121]]}},{"type":"Feature","properties":{"kind":"piste","difficulty":"advanced","name":"Kanonenrohr","aerialway":null,"osm":"way/656919701"},"geometry":{"type":"LineString","coordinates":[[11.53272,47.21896],[11.53276,47.21983],[11.5321,47.22078],[11.53174,47.22096]]}},{"type":"Feature","properties":{"kind":"piste","difficulty":"intermediate","name":"Zum Tulfeinalmlift","aerialway":null,"osm":"way/656919702"},"geometry":{"type":"LineString","coordinates":[[11.52983,47.22637],[11.52922,47.22591],[11.52858,47.22511],[11.52543,47.22338],[11.52444,47.22393],[11.52349,47.22404],[11.52267,47.22429],[11.52181,47.22483],[11.5219,47.22498],[11.52213,47.22497]]}},{"type":"Feature","properties":{"kind":"piste","difficulty":"intermediate","name":"Tulfeinalm Abfahrt","aerialway":null,"osm":"way/656919703"},"geometry":{"type":"LineString","coordinates":[[11.53058,47.22002],[11.52954,47.22038],[11.52964,47.22102],[11.52908,47.22145],[11.52897,47.22192],[11.52739,47.22233],[11.52543,47.22338]]}},{"type":"Feature","properties":{"kind":"piste","difficulty":"intermediate","name":"Skiweg Schartenkogel","aerialway":null,"osm":"way/656919705"},"geometry":{"type":"LineString","coordinates":[[11.53475,47.21882],[11.5345,47.2188],[11.5339,47.21823],[11.53351,47.21824]]}},{"type":"Feature","properties":{"kind":"lift","difficulty":null,"name":"Tulfein Express (Glungezerbahn II)","aerialway":"mixed_lift","osm":"way/842247153"},"geometry":{"type":"LineString","coordinates":[[11.5434,47.24151],[11.52983,47.22637]]}},{"type":"Feature","properties":{"kind":"piste","difficulty":"intermediate","name":"FIS Standardabfahrt","aerialway":null,"osm":"way/1060271270"},"geometry":{"type":"LineString","coordinates":[[11.54368,47.24196],[11.54388,47.24192]]}},{"type":"Feature","properties":{"kind":"piste","difficulty":"intermediate","name":"FIS Standardabfahrt","aerialway":null,"osm":"way/1060271271"},"geometry":{"type":"LineString","coordinates":[[11.54374,47.24188],[11.5434,47.24151]]}},{"type":"Feature","properties":{"kind":"piste","difficulty":"intermediate","name":"FIS Standardabfahrt","aerialway":null,"osm":"way/1216472076"},"geometry":{"type":"LineString","coordinates":[[11.54389,47.24182],[11.54377,47.24275]]}},{"type":"Feature","properties":{"kind":"piste","difficulty":"easy","name":"Halsmarterabfahrt","aerialway":null,"osm":"way/1229747508"},"geometry":{"type":"LineString","coordinates":[[11.54858,47.24915],[11.55078,47.25058],[11.55152,47.25142],[11.55201,47.25229]]}},{"type":"Feature","properties":{"kind":"piste","difficulty":"easy","name":"Halsmarterabfahrt","aerialway":null,"osm":"way/1229747509"},"geometry":{"type":"LineString","coordinates":[[11.54377,47.24275],[11.54404,47.24353]]}},{"type":"Feature","properties":{"kind":"lift","difficulty":null,"name":"Übungslift","aerialway":"magic_carpet","osm":"way/1376442089"},"geometry":{"type":"LineString","coordinates":[[11.545,47.24441],[11.54447,47.24357]]}},{"type":"Feature","properties":{"kind":"piste","difficulty":"unknown","name":null,"aerialway":null,"osm":"way/1466961156"},"geometry":{"type":"LineString","coordinates":[[11.52729,47.20959],[11.52249,47.2088],[11.51893,47.20971],[11.51435,47.20922],[11.50859,47.20715],[11.50593,47.20565],[11.50014,47.20554],[11.49931,47.2054],[11.49767,47.20639],[11.4964,47.20614]]}}]}