{"type":"FeatureCollection","features":[{"type":"Feature","properties":{"kind":"piste","difficulty":"easy","name":"Großsee Piste","aerialway":null,"osm":"way/24613897"},"geometry":{"type":"LineString","coordinates":[[13.99691,47.59638],[13.99655,47.5963],[13.99277,47.59647],[13.99124,47.59671]]}},{"type":"Feature","properties":{"kind":"piste","difficulty":"easy","name":null,"aerialway":null,"osm":"way/24613898"},"geometry":{"type":"LineString","coordinates":[[13.98842,47.59678],[13.986,47.59624]]}},{"type":"Feature","properties":{"kind":"piste","difficulty":"easy","name":null,"aerialway":null,"osm":"way/24613899"},"geometry":{"type":"LineString","coordinates":[[13.98594,47.59434],[13.98657,47.59483]]}},{"type":"Feature","properties":{"kind":"piste","difficulty":"advanced","name":"Schneiderkogel Piste","aerialway":null,"osm":"way/24613900"},"geometry":{"type":"LineString","coordinates":[[13.98823,47.60054],[13.98801,47.59973],[13.98812,47.59717],[13.98762,47.59657]]}},{"type":"Feature","properties":{"kind":"piste","difficulty":"easy","name":null,"aerialway":null,"osm":"way/24613902"},"geometry":{"type":"LineString","coordinates":[[13.9687,47.5986],[13.9686,47.59851],[13.96873,47.59826]]}},{"type":"Feature","properties":{"kind":"piste","difficulty":"easy","name":null,"aerialway":null,"osm":"way/24613904"},"geometry":{"type":"LineString","coordinates":[[13.98426,47.59504],[13.98559,47.59588],[13.98563,47.59606],[13.98545,47.59613],[13.98554,47.59654]]}},{"type":"Feature","properties":{"kind":"piste","difficulty":"easy","name":"Scharten Piste","aerialway":null,"osm":"way/24613906"},"geometry":{"type":"LineString","coordinates":[[13.98346,47.59922],[13.98325,47.59918],[13.98287,47.59942],[13.98245,47.59932],[13.98212,47.59894],[13.98212,47.59852],[13.98243,47.59793],[13.98437,47.59619],[13.98476,47.59599],[13.98518,47.59598],[13.98545,47.59613]]}},{"type":"Feature","properties":{"kind":"piste","difficulty":"easy","name":null,"aerialway":null,"osm":"way/24613907"},"geometry":{"type":"LineString","coordinates":[[13.98392,47.59937],[13.98332,47.59933],[13.98325,47.59918]]}},{"type":"Feature","properties":{"kind":"piste","difficulty":"intermediate","name":"Lärchkogel Piste","aerialway":null,"osm":"way/24613908"},"geometry":{"type":"LineString","coordinates":[[13.99119,47.59571],[13.99143,47.59579],[13.99157,47.59609],[13.99328,47.59711]]}},{"type":"Feature","properties":{"kind":"piste","difficulty":"easy","name":null,"aerialway":null,"osm":"way/24613912"},"geometry":{"type":"LineString","coordinates":[[13.99691,47.59638],[13.99698,47.59639]]}},{"type":"Feature","properties":{"kind":"piste","difficulty":"easy","name":null,"aerialway":null,"osm":"way/24613913"},"geometry":{"type":"LineString","coordinates":[[13.99698,47.59639],[13.9983,47.59668]]}},{"type":"Feature","properties":{"kind":"piste","difficulty":"easy","name":null,"aerialway":null,"osm":"way/24613914"},"geometry":{"type":"LineString","coordinates":[[13.9983,47.59668],[13.99875,47.59677]]}},{"type":"Feature","properties":{"kind":"piste","difficulty":"easy","name":null,"aerialway":null,"osm":"way/24613916"},"geometry":{"type":"LineString","coordinates":[[14.00219,47.5965],[14.00244,47.5964]]}},{"type":"Feature","properties":{"kind":"piste","difficulty":"easy","name":"Tauplitzsee Piste","aerialway":null,"osm":"way/24613917"},"geometry":{"type":"LineString","coordinates":[[14.00219,47.5965],[14.00214,47.59663],[14.00245,47.59675],[14.00417,47.59721],[14.00453,47.59715],[14.0047,47.59697],[14.0046,47.59686]]}},{"type":"Feature","properties":{"kind":"piste","difficulty":"easy","name":null,"aerialway":null,"osm":"way/24613918"},"geometry":{"type":"LineString","coordinates":[[14.00214,47.59663],[14.00173,47.59688],[14.00099,47.5969]]}},{"type":"Feature","properties":{"kind":"piste","difficulty":"easy","name":null,"aerialway":null,"osm":"way/24613920"},"geometry":{"type":"LineString","coordinates":[[13.99822,47.59588],[13.99834,47.59608]]}},{"type":"Feature","properties":{"kind":"piste","difficulty":"easy","name":null,"aerialway":null,"osm":"way/24613921"},"geometry":{"type":"LineString","coordinates":[[13.99655,47.5963],[13.99822,47.59588]]}},{"type":"Feature","properties":{"kind":"piste","difficulty":"easy","name":"Schneiderkogel Piste","aerialway":null,"osm":"way/24614499"},"geometry":{"type":"LineString","coordinates":[[13.98907,47.60041],[13.98835,47.60054],[13.98556,47.60043],[13.98388,47.59992],[13.98392,47.59937],[13.98418,47.59884],[13.9854,47.59814],[13.98543,47.59781],[13.9864,47.59749],[13.98703,47.59706],[13.98842,47.59678]]}},{"type":"Feature","properties":{"kind":"piste","difficulty":"intermediate","name":"Schneiderkogel-Großsee","aerialway":null,"osm":"way/24614501"},"geometry":{"type":"LineString","coordinates":[[13.98907,47.60041],[13.98958,47.60074],[13.98966,47.59991],[13.99018,47.59957],[13.9891,47.5993],[13.99111,47.59828],[13.99169,47.59778],[13.99328,47.59711],[13.99458,47.59732],[13.99541,47.59771],[13.99505,47.59832],[13.99501,47.59882],[13.99544,47.59872]]}},{"type":"Feature","properties":{"kind":"piste","difficulty":"easy","name":"Tauplitzalm Plateauweg","aerialway":null,"osm":"way/24614507"},"geometry":{"type":"LineString","coordinates":[[13.98905,47.59522],[13.9889,47.59527]]}},{"type":"Feature","properties":{"kind":"piste","difficulty":"easy","name":null,"aerialway":null,"osm":"way/24614508"},"geometry":{"type":"LineString","coordinates":[[13.97835,47.59552],[13.97849,47.59533]]}},{"type":"Feature","properties":{"kind":"piste","difficulty":"easy","name":null,"aerialway":null,"osm":"way/24614509"},"geometry":{"type":"LineString","coordinates":[[13.98586,47.59419],[13.98546,47.59401],[13.98468,47.5941]]}},{"type":"Feature","properties":{"kind":"piste","difficulty":"easy","name":null,"aerialway":null,"osm":"way/24614512"},"geometry":{"type":"LineString","coordinates":[[13.96894,47.59858],[13.96781,47.59872],[13.96691,47.599],[13.96679,47.59922]]}},{"type":"Feature","properties":{"kind":"piste","difficulty":"easy","name":null,"aerialway":null,"osm":"way/24614514"},"geometry":{"type":"LineString","coordinates":[[13.96359,47.59819],[13.9604,47.59951]]}},{"type":"Feature","properties":{"kind":"piste","difficulty":"easy","name":"Lawienenstein-Gipfellift II","aerialway":null,"osm":"way/24614516"},"geometry":{"type":"LineString","coordinates":[[13.95468,47.59775],[13.95473,47.59756],[13.95746,47.59833],[13.96061,47.59942]]}},{"type":"Feature","properties":{"kind":"piste","difficulty":"easy","name":null,"aerialway":null,"osm":"way/24614520"},"geometry":{"type":"LineString","coordinates":[[13.96835,47.59847],[13.96873,47.59826]]}},{"type":"Feature","properties":{"kind":"piste","difficulty":"easy","name":null,"aerialway":null,"osm":"way/24614522"},"geometry":{"type":"LineString","coordinates":[[13.96697,47.59886],[13.96691,47.599]]}},{"type":"Feature","properties":{"kind":"piste","difficulty":"intermediate","name":"Talabfahrt Tauplitz","aerialway":null,"osm":"way/24614523"},"geometry":{"type":"LineString","coordinates":[[13.98611,47.59148],[13.9859,47.591],[13.98606,47.59025],[13.98668,47.58867],[13.98706,47.58813],[13.98829,47.58697],[13.98944,47.58485],[13.98952,47.58402],[13.99044,47.58287],[13.98928,47.58275],[13.98839,47.58236],[13.9886,47.58179],[13.98957,47.58115],[13.99068,47.58105]]}},{"type":"Feature","properties":{"kind":"piste","difficulty":"advanced","name":"Talabfahrt Tauplitz","aerialway":null,"osm":"way/24614524"},"geometry":{"type":"LineString","coordinates":[[13.99044,47.58287],[13.99173,47.58291],[13.99454,47.58123]]}},{"type":"Feature","properties":{"kind":"piste","difficulty":"intermediate","name":null,"aerialway":null,"osm":"way/24614525"},"geometry":{"type":"LineString","coordinates":[[13.99454,47.58123],[13.99769,47.58132],[14.00017,47.58058],[14.00062,47.58025],[14.00062,47.5799],[14.00042,47.57954],[14.00059,47.5792],[14.00104,47.57877],[14.00099,47.57848]]}},{"type":"Feature","properties":{"kind":"piste","difficulty":"intermediate","name":"Lärchkoel Piste","aerialway":null,"osm":"way/24615321"},"geometry":{"type":"LineString","coordinates":[[13.98905,47.59522],[13.98881,47.59508],[13.98834,47.59355],[13.98811,47.59334],[13.987,47.59292],[13.98688,47.59273],[13.98646,47.59258]]}},{"type":"Feature","properties":{"kind":"piste","difficulty":"easy","name":null,"aerialway":null,"osm":"way/24615322"},"geometry":{"type":"LineString","coordinates":[[13.98905,47.59522],[13.98865,47.5959],[13.98854,47.59645],[13.98866,47.59667]]}},{"type":"Feature","properties":{"kind":"piste","difficulty":"easy","name":"Tauplitzalm Plateauweg","aerialway":null,"osm":"way/24615323"},"geometry":{"type":"LineString","coordinates":[[14.00244,47.5964],[14.00274,47.59641]]}},{"type":"Feature","properties":{"kind":"piste","difficulty":"intermediate","name":null,"aerialway":null,"osm":"way/24615324"},"geometry":{"type":"LineString","coordinates":[[13.98666,47.59293],[13.98646,47.59258]]}},{"type":"Feature","properties":{"kind":"piste","difficulty":"novice","name":null,"aerialway":null,"osm":"way/24615325"},"geometry":{"type":"LineString","coordinates":[[13.98611,47.59148],[13.986,47.59152],[13.98633,47.59253],[13.98646,47.59258]]}},{"type":"Feature","properties":{"kind":"piste","difficulty":"easy","name":null,"aerialway":null,"osm":"way/30483607"},"geometry":{"type":"LineString","coordinates":[[13.96052,47.59936],[13.96038,47.59889],[13.96046,47.59857],[13.96032,47.59825]]}},{"type":"Feature","properties":{"kind":"piste","difficulty":"easy","name":"Mitterstein Piste","aerialway":null,"osm":"way/30483608"},"geometry":{"type":"LineString","coordinates":[[13.96359,47.59819],[13.96293,47.5979],[13.96126,47.59804],[13.96059,47.59833],[13.96032,47.59825]]}},{"type":"Feature","properties":{"kind":"piste","difficulty":"easy","name":"Mitterstein Piste","aerialway":null,"osm":"way/30483609"},"geometry":{"type":"LineString","coordinates":[[13.96032,47.59825],[13.96075,47.59727],[13.96147,47.59641],[13.96341,47.59599]]}},{"type":"Feature","properties":{"kind":"piste","difficulty":"easy","name":null,"aerialway":null,"osm":"way/30483610"},"geometry":{"type":"LineString","coordinates":[[13.96369,47.59823],[13.96373,47.59767]]}},{"type":"Feature","properties":{"kind":"piste","difficulty":"easy","name":"Thomannweg Pichlarn","aerialway":null,"osm":"way/30578873"},"geometry":{"type":"LineString","coordinates":[[13.95991,47.56182],[13.95954,47.56165]]}},{"type":"Feature","properties":{"kind":"piste","difficulty":"intermediate","name":null,"aerialway":null,"osm":"way/32452615"},"geometry":{"type":"LineString","coordinates":[[14.00588,47.56596],[14.00585,47.56583],[14.00625,47.56564],[14.00887,47.56506],[14.00983,47.56502],[14.01023,47.56538]]}},{"type":"Feature","properties":{"kind":"piste","difficulty":"intermediate","name":null,"aerialway":null,"osm":"way/32452616"},"geometry":{"type":"LineString","coordinates":[[14.01054,47.56541],[14.0105,47.56518],[14.01033,47.56506],[14.01007,47.56518]]}},{"type":"Feature","properties":{"kind":"piste","difficulty":"intermediate","name":null,"aerialway":null,"osm":"way/32452832"},"geometry":{"type":"LineString","coordinates":[[13.9891,47.5993],[13.98803,47.59919]]}},{"type":"Feature","properties":{"kind":"piste","difficulty":"easy","name":null,"aerialway":null,"osm":"way/32453160"},"geometry":{"type":"LineString","coordinates":[[13.98078,47.59719],[13.98377,47.59649],[13.98481,47.59581],[13.98529,47.59508]]}},{"type":"Feature","properties":{"kind":"piste","difficulty":"intermediate","name":null,"aerialway":null,"osm":"way/48601826"},"geometry":{"type":"LineString","coordinates":[[13.99448,47.5964],[13.99424,47.59676],[13.99429,47.597],[13.99458,47.59732]]}},{"type":"Feature","properties":{"kind":"piste","difficulty":"intermediate","name":null,"aerialway":null,"osm":"way/48657550"},"geometry":{"type":"LineString","coordinates":[[13.98675,47.59718],[13.98611,47.59671],[13.98614,47.59648],[13.986,47.59624],[13.98563,47.59606]]}},{"type":"Feature","properties":{"kind":"piste","difficulty":"easy","name":null,"aerialway":null,"osm":"way/48657551"},"geometry":{"type":"LineString","coordinates":[[13.98426,47.59504],[13.98451,47.59504]]}},{"type":"Feature","properties":{"kind":"piste","difficulty":"intermediate","name":null,"aerialway":null,"osm":"way/48657554"},"geometry":{"type":"LineString","coordinates":[[13.9857,47.59768],[13.98611,47.59671]]}},{"type":"Feature","properties":{"kind":"piste","difficulty":"intermediate","name":"Großseelift","aerialway":null,"osm":"way/48657935"},"geometry":{"type":"LineString","coordinates":[[13.9983,47.59668],[13.9983,47.59687],[13.99705,47.59729],[13.99579,47.5987],[13.99544,47.59887],[13.99512,47.59883]]}},{"type":"Feature","properties":{"kind":"piste","difficulty":"intermediate","name":"Großsee Piste","aerialway":null,"osm":"way/48657936"},"geometry":{"type":"LineString","coordinates":[[13.99655,47.5963],[13.99541,47.59771]]}},{"type":"Feature","properties":{"kind":"piste","difficulty":"easy","name":null,"aerialway":null,"osm":"way/48657937"},"geometry":{"type":"LineString","coordinates":[[13.99698,47.59639],[13.99714,47.59619]]}},{"type":"Feature","properties":{"kind":"piste","difficulty":"freeride","name":"Osthang Krallersee","aerialway":null,"osm":"way/48860446"},"geometry":{"type":"LineString","coordinates":[[13.97485,47.59769],[13.97624,47.59758],[13.97738,47.59733],[13.98078,47.59719]]}},{"type":"Feature","properties":{"kind":"piste","difficulty":"intermediate","name":null,"aerialway":null,"osm":"way/68523042"},"geometry":{"type":"LineString","coordinates":[[13.98468,47.5941],[13.98485,47.59393],[13.98612,47.59359]]}},{"type":"Feature","properties":{"kind":"piste","difficulty":"easy","name":"Mitterstein Piste","aerialway":null,"osm":"way/95985870"},"geometry":{"type":"LineString","coordinates":[[13.96341,47.59599],[13.96148,47.59575],[13.96104,47.59589],[13.9609,47.59572],[13.96053,47.5957],[13.96202,47.59524],[13.96343,47.59453]]}},{"type":"Feature","properties":{"kind":"piste","difficulty":"intermediate","name":"Verbindung Talabfahrt Tauplitz-Bad Mitterndorf","aerialway":null,"osm":"way/95985872"},"geometry":{"type":"LineString","coordinates":[[13.98839,47.58236],[13.98611,47.58131],[13.98515,47.58114],[13.98218,47.58143],[13.97839,47.58155],[13.97722,47.58108]]}},{"type":"Feature","properties":{"kind":"piste","difficulty":"advanced","name":"Mitterstein Piste","aerialway":null,"osm":"way/95985874"},"geometry":{"type":"LineString","coordinates":[[13.96745,47.5882],[13.96783,47.58713],[13.96903,47.58533]]}},{"type":"Feature","properties":{"kind":"piste","difficulty":"freeride","name":null,"aerialway":null,"osm":"way/95985875"},"geometry":{"type":"LineString","coordinates":[[13.97485,47.59769],[13.97639,47.59672],[13.97743,47.59569]]}},{"type":"Feature","properties":{"kind":"piste","difficulty":"advanced","name":"Mitterstein Piste","aerialway":null,"osm":"way/95985879"},"geometry":{"type":"LineString","coordinates":[[13.96341,47.59599],[13.96343,47.59453]]}},{"type":"Feature","properties":{"kind":"piste","difficulty":"intermediate","name":null,"aerialway":null,"osm":"way/95985881"},"geometry":{"type":"LineString","coordinates":[[14.00509,47.57461],[14.0064,47.57363],[14.00642,47.57347]]}},{"type":"Feature","properties":{"kind":"piste","difficulty":"intermediate","name":"Mitterstein Piste","aerialway":null,"osm":"way/95985883"},"geometry":{"type":"LineString","coordinates":[[13.96343,47.59453],[13.96335,47.5932],[13.96278,47.59166],[13.96342,47.59092],[13.96592,47.58864],[13.96635,47.58843],[13.96745,47.5882],[13.96847,47.58844],[13.96885,47.58829],[13.9692,47.58776],[13.97074,47.58686],[13.97069,47.58656],[13.96928,47.58565]]}},{"type":"Feature","properties":{"kind":"piste","difficulty":"intermediate","name":"Mitterstein Piste","aerialway":null,"osm":"way/95985886"},"geometry":{"type":"LineString","coordinates":[[13.96278,47.59166],[13.96304,47.59077],[13.96373,47.58975],[13.96481,47.58907],[13.96592,47.58864]]}},{"type":"Feature","properties":{"kind":"piste","difficulty":"intermediate","name":null,"aerialway":null,"osm":"way/95986055"},"geometry":{"type":"LineString","coordinates":[[13.99111,47.59828],[13.99087,47.59786],[13.99034,47.59751],[13.98842,47.59678]]}},{"type":"Feature","properties":{"kind":"piste","difficulty":"easy","name":null,"aerialway":null,"osm":"way/97539613"},"geometry":{"type":"LineString","coordinates":[[13.98563,47.59606],[13.98578,47.59632]]}},{"type":"Feature","properties":{"kind":"piste","difficulty":"intermediate","name":null,"aerialway":null,"osm":"way/98365864"},"geometry":{"type":"LineString","coordinates":[[13.96635,47.58843],[13.96794,47.58945],[13.9682,47.58947],[13.96851,47.58931]]}},{"type":"Feature","properties":{"kind":"piste","difficulty":"easy","name":null,"aerialway":null,"osm":"way/103335404"},"geometry":{"type":"LineString","coordinates":[[13.96373,47.59767],[13.96293,47.5979]]}},{"type":"Feature","properties":{"kind":"piste","difficulty":"advanced","name":"Mitterstein Piste","aerialway":null,"osm":"way/103335405"},"geometry":{"type":"LineString","coordinates":[[13.96373,47.59767],[13.96341,47.59599]]}},{"type":"Feature","properties":{"kind":"piste","difficulty":"intermediate","name":null,"aerialway":null,"osm":"way/144646974"},"geometry":{"type":"LineString","coordinates":[[14.00099,47.57848],[14.00048,47.5778],[14.00044,47.57758],[14.00358,47.57564]]}},{"type":"Feature","properties":{"kind":"piste","difficulty":"easy","name":null,"aerialway":null,"osm":"way/144999410"},"geometry":{"type":"LineString","coordinates":[[13.99119,47.59571],[13.99089,47.59558]]}},{"type":"Feature","properties":{"kind":"piste","difficulty":"intermediate","name":"Lärchkogel Piste","aerialway":null,"osm":"way/144999411"},"geometry":{"type":"LineString","coordinates":[[13.99089,47.59558],[13.98861,47.59659],[13.98842,47.59678]]}},{"type":"Feature","properties":{"kind":"piste","difficulty":"easy","name":"Mitterstein Piste","aerialway":null,"osm":"way/149569325"},"geometry":{"type":"LineString","coordinates":[[13.96296,47.59215],[13.96229,47.5922],[13.96231,47.59266],[13.96216,47.5928],[13.96203,47.59276],[13.96163,47.59161],[13.96188,47.59119],[13.96267,47.5904],[13.96076,47.59066],[13.96068,47.59057],[13.96341,47.58899],[13.96581,47.58838],[13.96635,47.58843],[13.96648,47.58879],[13.96745,47.58939],[13.96736,47.58973],[13.96817,47.58979],[13.96844,47.58954],[13.96856,47.58916],[13.96862,47.58885],[13.96847,47.58844]]}},{"type":"Feature","properties":{"kind":"piste","difficulty":"easy","name":"Mitterstein Piste","aerialway":null,"osm":"way/149569327"},"geometry":{"type":"LineString","coordinates":[[13.9692,47.58776],[13.97075,47.58741],[13.97153,47.58743],[13.97301,47.58782],[13.97409,47.58775],[13.97433,47.58753]]}},{"type":"Feature","properties":{"kind":"piste","difficulty":"intermediate","name":null,"aerialway":null,"osm":"way/149589023"},"geometry":{"type":"LineString","coordinates":[[14.00983,47.56502],[14.01095,47.56478]]}},{"type":"Feature","properties":{"kind":"piste","difficulty":"freeride","name":null,"aerialway":null,"osm":"way/153188734"},"geometry":{"type":"LineString","coordinates":[[13.96873,47.59826],[13.96936,47.59819],[13.97056,47.59842],[13.97336,47.59805],[13.97472,47.598]]}},{"type":"Feature","properties":{"kind":"piste","difficulty":"easy","name":null,"aerialway":null,"osm":"way/153188744"},"geometry":{"type":"LineString","coordinates":[[13.98866,47.59667],[13.98895,47.59665]]}},{"type":"Feature","properties":{"kind":"piste","difficulty":"intermediate","name":"Lawinenstein Piste","aerialway":null,"osm":"way/153188759"},"geometry":{"type":"LineString","coordinates":[[13.96873,47.59826],[13.96952,47.59768],[13.97254,47.5964],[13.97896,47.59538],[13.98007,47.59541],[13.98061,47.59583],[13.98114,47.59601],[13.98186,47.59588],[13.98306,47.59506],[13.98363,47.59496],[13.98494,47.59519],[13.98529,47.59508],[13.98523,47.59498]]}},{"type":"Feature","properties":{"kind":"piste","difficulty":"freeride","name":null,"aerialway":null,"osm":"way/170109524"},"geometry":{"type":"LineString","coordinates":[[13.97472,47.598],[13.97485,47.59769]]}},{"type":"Feature","properties":{"kind":"piste","difficulty":"easy","name":null,"aerialway":null,"osm":"way/171420960"},"geometry":{"type":"LineString","coordinates":[[13.97313,47.5787],[13.9716,47.57743],[13.97117,47.57665],[13.97089,47.57601],[13.97074,47.57443],[13.96945,47.57212],[13.96955,47.57185],[13.96945,47.57167]]}},{"type":"Feature","properties":{"kind":"piste","difficulty":"intermediate","name":null,"aerialway":null,"osm":"way/203257376"},"geometry":{"type":"LineString","coordinates":[[13.98613,47.59525],[13.98563,47.59606]]}},{"type":"Feature","properties":{"kind":"piste","difficulty":"intermediate","name":null,"aerialway":null,"osm":"way/203257377"},"geometry":{"type":"LineString","coordinates":[[13.98657,47.59483],[13.98613,47.59525],[13.98568,47.59526],[13.98529,47.59508]]}},{"type":"Feature","properties":{"kind":"piste","difficulty":"easy","name":"Tauplitzalm Plateauweg","aerialway":null,"osm":"way/203260153"},"geometry":{"type":"LineString","coordinates":[[14.001,47.59651],[14.00178,47.59638]]}},{"type":"Feature","properties":{"kind":"piste","difficulty":"advanced","name":null,"aerialway":null,"osm":"way/203260154"},"geometry":{"type":"LineString","coordinates":[[13.98812,47.59717],[13.98842,47.59678]]}},{"type":"Feature","properties":{"kind":"piste","difficulty":"easy","name":"Talabfahrt Bad Mitterndorf","aerialway":null,"osm":"way/203260155"},"geometry":{"type":"LineString","coordinates":[[13.98702,47.59319],[13.98471,47.59266],[13.98297,47.59181],[13.98087,47.5902],[13.97963,47.58888],[13.9786,47.58863],[13.97697,47.58853],[13.97616,47.58828],[13.97529,47.58823],[13.97447,47.5876],[13.97319,47.5871],[13.97264,47.58659],[13.97209,47.58632],[13.97026,47.58574],[13.96928,47.58565],[13.96903,47.58533],[13.97001,47.58446],[13.97067,47.58411],[13.97143,47.58399],[13.97286,47.58407],[13.9738,47.58388],[13.97546,47.58313],[13.97718,47.58301],[13.97738,47.58288],[13.97745,47.58256],[13.97722,47.58108],[13.97701,47.58053],[13.97637,47.58001],[13.97605,47.58016]]}},{"type":"Feature","properties":{"kind":"piste","difficulty":"easy","name":null,"aerialway":null,"osm":"way/203647345"},"geometry":{"type":"LineString","coordinates":[[13.99089,47.59558],[13.98995,47.59531],[13.98905,47.59522]]}},{"type":"Feature","properties":{"kind":"piste","difficulty":"easy","name":null,"aerialway":null,"osm":"way/203647347"},"geometry":{"type":"LineString","coordinates":[[13.97849,47.59533],[13.97922,47.59478],[13.9795,47.5947],[13.98091,47.59457],[13.98235,47.59418],[13.98468,47.5941]]}},{"type":"Feature","properties":{"kind":"piste","difficulty":"easy","name":null,"aerialway":null,"osm":"way/203647349"},"geometry":{"type":"LineString","coordinates":[[13.99124,47.59671],[13.99035,47.59672]]}},{"type":"Feature","properties":{"kind":"piste","difficulty":"easy","name":null,"aerialway":null,"osm":"way/203647350"},"geometry":{"type":"LineString","coordinates":[[13.97593,47.58303],[13.97521,47.58272],[13.97574,47.58233],[13.97628,47.58155],[13.97645,47.58156],[13.9765,47.58201],[13.97721,47.58202],[13.97735,47.58192],[13.97752,47.58103],[13.97686,47.58001]]}},{"type":"Feature","properties":{"kind":"piste","difficulty":"intermediate","name":null,"aerialway":null,"osm":"way/203647356"},"geometry":{"type":"LineString","coordinates":[[14.00642,47.57347],[14.00621,47.57271],[14.00624,47.572]]}},{"type":"Feature","properties":{"kind":"piste","difficulty":"easy","name":null,"aerialway":null,"osm":"way/203647361"},"geometry":{"type":"LineString","coordinates":[[13.99035,47.59672],[13.98888,47.59682],[13.98842,47.59678],[13.98866,47.59667]]}},{"type":"Feature","properties":{"kind":"piste","difficulty":"easy","name":null,"aerialway":null,"osm":"way/203647362"},"geometry":{"type":"LineString","coordinates":[[13.98657,47.59483],[13.98527,47.59477],[13.98451,47.59509]]}},{"type":"Feature","properties":{"kind":"piste","difficulty":"intermediate","name":"Talabfahrt Tauplitz","aerialway":null,"osm":"way/203647363"},"geometry":{"type":"LineString","coordinates":[[14.00687,47.57056],[14.00757,47.56974],[14.0083,47.56791],[14.00927,47.56726],[14.00995,47.56663],[14.01135,47.56411],[14.01267,47.56261],[14.01242,47.56254]]}},{"type":"Feature","properties":{"kind":"piste","difficulty":"intermediate","name":"Talabfahrt Tauplitz","aerialway":null,"osm":"way/203647364"},"geometry":{"type":"LineString","coordinates":[[14.00104,47.57877],[14.00203,47.57809],[14.0032,47.57806],[14.00518,47.57837],[14.00534,47.5785],[14.00538,47.57907]]}},{"type":"Feature","properties":{"kind":"piste","difficulty":"intermediate","name":null,"aerialway":null,"osm":"way/203647365"},"geometry":{"type":"LineString","coordinates":[[13.99068,47.58105],[13.99454,47.58123]]}},{"type":"Feature","properties":{"kind":"piste","difficulty":"intermediate","name":"Talabfahrt Tauplitz","aerialway":null,"osm":"way/203647366"},"geometry":{"type":"LineString","coordinates":[[14.00358,47.57564],[14.00461,47.57501],[14.00559,47.57399],[14.00575,47.57279],[14.00624,47.572]]}},{"type":"Feature","properties":{"kind":"piste","difficulty":"intermediate","name":null,"aerialway":null,"osm":"way/203647367"},"geometry":{"type":"LineString","coordinates":[[14.00624,47.572],[14.00687,47.57056]]}},{"type":"Feature","properties":{"kind":"piste","difficulty":"easy","name":null,"aerialway":null,"osm":"way/203647368"},"geometry":{"type":"LineString","coordinates":[[13.96591,47.56958],[13.96437,47.56718],[13.96367,47.5666],[13.96333,47.56462],[13.96264,47.56376],[13.96231,47.56303],[13.96177,47.56255],[13.96129,47.56189],[13.96097,47.56179],[13.95991,47.56182]]}},{"type":"Feature","properties":{"kind":"piste","difficulty":"easy","name":null,"aerialway":null,"osm":"way/203647369"},"geometry":{"type":"LineString","coordinates":[[13.95954,47.56165],[13.95883,47.56126],[13.95799,47.5603],[13.95735,47.55866],[13.95684,47.55806],[13.95651,47.55815],[13.95576,47.55687],[13.9554,47.55651],[13.95437,47.55574],[13.95333,47.55529],[13.9525,47.55538]]}},{"type":"Feature","properties":{"kind":"piste","difficulty":"easy","name":null,"aerialway":null,"osm":"way/203647370"},"geometry":{"type":"LineString","coordinates":[[13.96945,47.57167],[13.96806,47.57112],[13.96591,47.56958]]}},{"type":"Feature","properties":{"kind":"piste","difficulty":"easy","name":null,"aerialway":null,"osm":"way/203647371"},"geometry":{"type":"LineString","coordinates":[[13.96231,47.56303],[13.96217,47.56242],[13.96166,47.56184],[13.96088,47.56165],[13.96037,47.5618]]}},{"type":"Feature","properties":{"kind":"piste","difficulty":"easy","name":null,"aerialway":null,"osm":"way/203647372"},"geometry":{"type":"LineString","coordinates":[[13.98468,47.5941],[13.98467,47.59418]]}},{"type":"Feature","properties":{"kind":"piste","difficulty":"easy","name":"Hollauspiste","aerialway":null,"osm":"way/203647373"},"geometry":{"type":"LineString","coordinates":[[13.98467,47.59418],[13.98426,47.59504]]}},{"type":"Feature","properties":{"kind":"piste","difficulty":"freeride","name":null,"aerialway":null,"osm":"way/203768855"},"geometry":{"type":"LineString","coordinates":[[13.98514,47.60033],[13.98561,47.60005],[13.98579,47.5998],[13.98606,47.59892],[13.98699,47.59857],[13.98738,47.59812],[13.9881,47.59769]]}},{"type":"Feature","properties":{"kind":"piste","difficulty":"freeride","name":null,"aerialway":null,"osm":"way/203768861"},"geometry":{"type":"LineString","coordinates":[[13.98738,47.59812],[13.98656,47.59741]]}},{"type":"Feature","properties":{"kind":"piste","difficulty":"freeride","name":null,"aerialway":null,"osm":"way/203768863"},"geometry":{"type":"LineString","coordinates":[[13.98616,47.59887],[13.9854,47.59814]]}},{"type":"Feature","properties":{"kind":"piste","difficulty":"novice","name":null,"aerialway":null,"osm":"way/203768866"},"geometry":{"type":"LineString","coordinates":[[13.98442,47.59671],[13.98465,47.59676],[13.98512,47.59653],[13.98545,47.59612],[13.98518,47.59608]]}},{"type":"Feature","properties":{"kind":"piste","difficulty":"easy","name":null,"aerialway":null,"osm":"way/203793414"},"geometry":{"type":"LineString","coordinates":[[13.99834,47.59608],[13.99834,47.59634]]}},{"type":"Feature","properties":{"kind":"piste","difficulty":"easy","name":"Tauplitzalm Plateauweg","aerialway":null,"osm":"way/203793419"},"geometry":{"type":"LineString","coordinates":[[13.99875,47.59677],[13.99917,47.59682],[14.00011,47.59665]]}},{"type":"Feature","properties":{"kind":"piste","difficulty":"easy","name":"Skiweg Berstation-Tauplitzsee-Großsee","aerialway":null,"osm":"way/203793420"},"geometry":{"type":"LineString","coordinates":[[14.001,47.59651],[14.00121,47.59661],[14.00119,47.59675],[14.00081,47.59699],[13.99748,47.59793],[13.99688,47.59827],[13.9961,47.59839]]}},{"type":"Feature","properties":{"kind":"piste","difficulty":"easy","name":null,"aerialway":null,"osm":"way/203793421"},"geometry":{"type":"LineString","coordinates":[[13.99834,47.59634],[13.9983,47.59668]]}},{"type":"Feature","properties":{"kind":"piste","difficulty":"easy","name":"Tauplitzsee Piste","aerialway":null,"osm":"way/203793422"},"geometry":{"type":"LineString","coordinates":[[14.00274,47.59641],[14.00349,47.59645],[14.00447,47.59672],[14.0046,47.59686],[14.00449,47.59699]]}},{"type":"Feature","properties":{"kind":"piste","difficulty":"easy","name":"Lawinenstein-Gipfel I","aerialway":null,"osm":"way/321523839"},"geometry":{"type":"LineString","coordinates":[[13.96359,47.59853],[13.96359,47.59819],[13.96513,47.59836],[13.9656,47.59857],[13.96703,47.59882]]}},{"type":"Feature","properties":{"kind":"piste","difficulty":"intermediate","name":null,"aerialway":null,"osm":"way/455576134"},"geometry":{"type":"LineString","coordinates":[[14.00996,47.56576],[14.01054,47.56541]]}},{"type":"Feature","properties":{"kind":"piste","difficulty":"intermediate","name":null,"aerialway":null,"osm":"way/455576135"},"geometry":{"type":"LineString","coordinates":[[14.00588,47.56596],[14.00598,47.56612],[14.0064,47.56619],[14.00996,47.56576]]}},{"type":"Feature","properties":{"kind":"piste","difficulty":"easy","name":"Tauplitzalm Plateauweg","aerialway":null,"osm":"way/513939209"},"geometry":{"type":"LineString","coordinates":[[14.00011,47.59665],[14.001,47.59651]]}},{"type":"Feature","properties":{"kind":"piste","difficulty":"easy","name":"Tauplitzalm Plateauweg","aerialway":null,"osm":"way/614772580"},"geometry":{"type":"LineString","coordinates":[[13.9889,47.59527],[13.98764,47.59548],[13.98691,47.5953],[13.98661,47.5951]]}},{"type":"Feature","properties":{"kind":"piste","difficulty":"easy","name":null,"aerialway":null,"osm":"way/689319058"},"geometry":{"type":"LineString","coordinates":[[13.95239,47.55542],[13.95165,47.55557],[13.94985,47.55532]]}},{"type":"Feature","properties":{"kind":"piste","difficulty":"easy","name":null,"aerialway":null,"osm":"way/689319059"},"geometry":{"type":"LineString","coordinates":[[13.9525,47.55538],[13.95239,47.55542]]}},{"type":"Feature","properties":{"kind":"piste","difficulty":"easy","name":"Tauplitzalm Plateauweg","aerialway":null,"osm":"way/717186428"},"geometry":{"type":"LineString","coordinates":[[14.00178,47.59638],[14.00218,47.59639]]}},{"type":"Feature","properties":{"kind":"piste","difficulty":"intermediate","name":null,"aerialway":null,"osm":"way/855613447"},"geometry":{"type":"LineString","coordinates":[[13.98612,47.59359],[13.98646,47.59334]]}},{"type":"Feature","properties":{"kind":"piste","difficulty":"intermediate","name":null,"aerialway":null,"osm":"way/855613448"},"geometry":{"type":"LineString","coordinates":[[13.98646,47.59334],[13.98666,47.59293]]}},{"type":"Feature","properties":{"kind":"piste","difficulty":"easy","name":null,"aerialway":null,"osm":"way/855613450"},"geometry":{"type":"LineString","coordinates":[[13.98586,47.59419],[13.98594,47.59434]]}},{"type":"Feature","properties":{"kind":"piste","difficulty":"easy","name":"Tauplitzalm Plateauweg","aerialway":null,"osm":"way/855613451"},"geometry":{"type":"LineString","coordinates":[[14.00218,47.59639],[14.00244,47.5964]]}},{"type":"Feature","properties":{"kind":"piste","difficulty":"unknown","name":null,"aerialway":null,"osm":"way/1005226769"},"geometry":{"type":"LineString","coordinates":[[13.99538,47.59879],[13.99548,47.59877]]}},{"type":"Feature","properties":{"kind":"piste","difficulty":"intermediate","name":null,"aerialway":null,"osm":"way/1015030515"},"geometry":{"type":"LineString","coordinates":[[13.96952,47.59768],[13.96956,47.59718],[13.97014,47.59668],[13.97137,47.59625],[13.97185,47.59622],[13.97254,47.5964]]}},{"type":"Feature","properties":{"kind":"piste","difficulty":"easy","name":null,"aerialway":null,"osm":"way/1151973030"},"geometry":{"type":"LineString","coordinates":[[13.97686,47.58001],[13.97595,47.5794],[13.97455,47.57924],[13.97313,47.5787]]}},{"type":"Feature","properties":{"kind":"lift","difficulty":null,"name":"Bergbahn Tauplitz I","aerialway":"chair_lift","osm":"way/24530719"},"geometry":{"type":"LineString","coordinates":[[14.01242,47.56254],[14.00553,47.5787]]}},{"type":"Feature","properties":{"kind":"lift","difficulty":null,"name":"Schneiderkogel","aerialway":"chair_lift","osm":"way/24612514"},"geometry":{"type":"LineString","coordinates":[[13.98578,47.59632],[13.98907,47.60041]]}},{"type":"Feature","properties":{"kind":"lift","difficulty":null,"name":"Lärchkogellift","aerialway":"t-bar","osm":"way/24612517"},"geometry":{"type":"LineString","coordinates":[[13.98895,47.59665],[13.99119,47.59571]]}},{"type":"Feature","properties":{"kind":"lift","difficulty":null,"name":"Seillift Abfahrt Tauplitz","aerialway":"rope_tow","osm":"way/24612519"},"geometry":{"type":"LineString","coordinates":[[13.98646,47.59258],[13.98611,47.59148]]}},{"type":"Feature","properties":{"kind":"lift","difficulty":null,"name":"Lawinenstein","aerialway":"chair_lift","osm":"way/24613901"},"geometry":{"type":"LineString","coordinates":[[13.98523,47.59498],[13.96894,47.59858]]}},{"type":"Feature","properties":{"kind":"lift","difficulty":null,"name":"Schartenlift","aerialway":"platter","osm":"way/24613905"},"geometry":{"type":"LineString","coordinates":[[13.98554,47.59654],[13.98346,47.59922]]}},{"type":"Feature","properties":{"kind":"lift","difficulty":null,"name":"Bergbahn Tauplitz II","aerialway":"chair_lift","osm":"way/24613909"},"geometry":{"type":"LineString","coordinates":[[14.00538,47.57907],[13.99822,47.59588]]}},{"type":"Feature","properties":{"kind":"lift","difficulty":null,"name":"Tauplitzseelift","aerialway":"platter","osm":"way/24613915"},"geometry":{"type":"LineString","coordinates":[[14.00449,47.59699],[14.00219,47.5965]]}},{"type":"Feature","properties":{"kind":"lift","difficulty":null,"name":"Großseelift I","aerialway":"t-bar","osm":"way/24614502"},"geometry":{"type":"LineString","coordinates":[[13.99544,47.59872],[13.99691,47.59638]]}},{"type":"Feature","properties":{"kind":"lift","difficulty":null,"name":"Gipfellift I","aerialway":"t-bar","osm":"way/24614513"},"geometry":{"type":"LineString","coordinates":[[13.96679,47.59922],[13.96307,47.59842]]}},{"type":"Feature","properties":{"kind":"lift","difficulty":null,"name":"Gipfellift II","aerialway":"platter","osm":"way/24614515"},"geometry":{"type":"LineString","coordinates":[[13.9604,47.59951],[13.95402,47.59753]]}},{"type":"Feature","properties":{"kind":"lift","difficulty":null,"name":"Seillift Lawinenstein","aerialway":"rope_tow","osm":"way/24614519"},"geometry":{"type":"LineString","coordinates":[[13.96703,47.59882],[13.96835,47.59847]]}},{"type":"Feature","properties":{"kind":"lift","difficulty":null,"name":"Großseelift II","aerialway":"t-bar","osm":"way/30559976"},"geometry":{"type":"LineString","coordinates":[[13.99548,47.59877],[13.99698,47.59639]]}},{"type":"Feature","properties":{"kind":"lift","difficulty":null,"name":"Grafenwiesenlift","aerialway":"t-bar","osm":"way/32452614"},"geometry":{"type":"LineString","coordinates":[[14.01023,47.56538],[14.00588,47.56596]]}},{"type":"Feature","properties":{"kind":"lift","difficulty":null,"name":"Hollhauslift","aerialway":"platter","osm":"way/48657552"},"geometry":{"type":"LineString","coordinates":[[13.98451,47.59504],[13.98479,47.59427]]}},{"type":"Feature","properties":{"kind":"lift","difficulty":null,"name":"Mitterstein","aerialway":"gondola","osm":"way/98365863"},"geometry":{"type":"LineString","coordinates":[[13.97605,47.58016],[13.9624,47.59236],[13.96352,47.59811]]}},{"type":"Feature","properties":{"kind":"lift","difficulty":null,"name":"Kulmlift","aerialway":"chair_lift","osm":"way/133632205"},"geometry":{"type":"LineString","coordinates":[[13.99421,47.54808],[13.99556,47.54477]]}},{"type":"Feature","properties":{"kind":"lift","difficulty":null,"name":null,"aerialway":"magic_carpet","osm":"way/203768859"},"geometry":{"type":"LineString","coordinates":[[13.98518,47.59608],[13.98442,47.59671]]}},{"type":"Feature","properties":{"kind":"lift","difficulty":null,"name":null,"aerialway":"magic_carpet","osm":"way/1239992315"},"geometry":{"type":"LineString","coordinates":[[13.97638,47.58034],[13.97658,47.58035]]}}]}