{"type":"FeatureCollection","features":[{"type":"Feature","properties":{"kind":"piste","difficulty":"intermediate","name":"Neugarten Hobbyrennstrecke 11","aerialway":null,"osm":"way/31915561"},"geometry":{"type":"LineString","coordinates":[[13.91328,46.69573],[13.91284,46.6957],[13.91074,46.6967],[13.90894,46.69815],[13.90847,46.69928],[13.90772,46.70024],[13.90632,46.70167],[13.90494,46.70341],[13.90448,46.7044],[13.90429,46.70602]]}},{"type":"Feature","properties":{"kind":"piste","difficulty":"intermediate","name":"Gipfelabfahrt 1","aerialway":null,"osm":"way/31915565"},"geometry":{"type":"LineString","coordinates":[[13.9135,46.6949],[13.91174,46.69294],[13.91097,46.69237],[13.90854,46.69106],[13.90681,46.68955],[13.90638,46.68886],[13.90639,46.68839],[13.90677,46.6871],[13.90723,46.68644]]}},{"type":"Feature","properties":{"kind":"piste","difficulty":"intermediate","name":"Pacheiner Familienabfahrt 8","aerialway":null,"osm":"way/31915575"},"geometry":{"type":"LineString","coordinates":[[13.91305,46.69518],[13.90688,46.69434],[13.90355,46.6934],[13.90206,46.69246],[13.90192,46.69212],[13.90208,46.6919],[13.9032,46.69183],[13.90384,46.69162]]}},{"type":"Feature","properties":{"kind":"piste","difficulty":"advanced","name":"Gegentalerabfahrt 9","aerialway":null,"osm":"way/31915577"},"geometry":{"type":"LineString","coordinates":[[13.90854,46.69106],[13.90398,46.69038],[13.90365,46.69043],[13.90384,46.69162]]}},{"type":"Feature","properties":{"kind":"piste","difficulty":"intermediate","name":"Kanonenrohrabfahrt 14","aerialway":null,"osm":"way/31915579"},"geometry":{"type":"LineString","coordinates":[[13.91328,46.69573],[13.91339,46.69579],[13.91335,46.69598],[13.91235,46.69788],[13.91234,46.70119],[13.91187,46.70286],[13.91179,46.7037],[13.91188,46.7058]]}},{"type":"Feature","properties":{"kind":"piste","difficulty":"easy","name":"Klösterleabfahrt I","aerialway":null,"osm":"way/31915583"},"geometry":{"type":"LineString","coordinates":[[13.9133,46.72669],[13.91387,46.72823],[13.91407,46.72848],[13.91545,46.72906],[13.9158,46.72952],[13.91559,46.72978],[13.91534,46.72983],[13.91416,46.7298]]}},{"type":"Feature","properties":{"kind":"piste","difficulty":"easy","name":null,"aerialway":null,"osm":"way/31915587"},"geometry":{"type":"LineString","coordinates":[[13.91131,46.7117],[13.91039,46.71302],[13.90997,46.71341],[13.90927,46.71371]]}},{"type":"Feature","properties":{"kind":"piste","difficulty":"intermediate","name":"Klösterleabfahrt II","aerialway":null,"osm":"way/31915588"},"geometry":{"type":"LineString","coordinates":[[13.91428,46.69561],[13.91408,46.69603],[13.91403,46.69703],[13.91348,46.69982],[13.91361,46.70096],[13.91411,46.70194],[13.91417,46.70249],[13.914,46.70321],[13.91355,46.70396],[13.91161,46.70613],[13.91106,46.70756],[13.91058,46.70963],[13.91071,46.71022],[13.91123,46.71118],[13.91131,46.7117]]}},{"type":"Feature","properties":{"kind":"piste","difficulty":"easy","name":"Wörthersee Familienabfahrt 17","aerialway":null,"osm":"way/31915590"},"geometry":{"type":"LineString","coordinates":[[13.91443,46.6954],[13.91675,46.6961],[13.91819,46.69618],[13.91883,46.69593],[13.91956,46.69549],[13.92168,46.69344],[13.92204,46.69273],[13.92231,46.69275],[13.92287,46.6931],[13.92433,46.69301],[13.92461,46.69253],[13.92449,46.69169],[13.92414,46.69153]]}},{"type":"Feature","properties":{"kind":"piste","difficulty":"intermediate","name":"Feuerbergabfahrt 20","aerialway":null,"osm":"way/31915594"},"geometry":{"type":"LineString","coordinates":[[13.91819,46.69618],[13.92014,46.69626],[13.92114,46.69617],[13.92145,46.69602],[13.92212,46.69512],[13.92248,46.69382],[13.92318,46.69311]]}},{"type":"Feature","properties":{"kind":"piste","difficulty":"easy","name":"Lodron Beginners Area 26","aerialway":null,"osm":"way/31915595"},"geometry":{"type":"LineString","coordinates":[[13.921,46.69628],[13.92145,46.69602],[13.92226,46.69581],[13.92375,46.69584],[13.92392,46.69595]]}},{"type":"Feature","properties":{"kind":"piste","difficulty":"intermediate","name":"Finsterbach Naturschneeabfahrt 21","aerialway":null,"osm":"way/31915597"},"geometry":{"type":"LineString","coordinates":[[13.91606,46.69593],[13.9171,46.69545],[13.91789,46.69453],[13.91799,46.69412],[13.91799,46.69184],[13.91882,46.69031],[13.91924,46.69029],[13.91966,46.69075]]}},{"type":"Feature","properties":{"kind":"piste","difficulty":"easy","name":null,"aerialway":null,"osm":"way/31915600"},"geometry":{"type":"LineString","coordinates":[[13.91455,46.6952],[13.91443,46.69484],[13.91392,46.69466],[13.91368,46.69469],[13.9135,46.6949]]}},{"type":"Feature","properties":{"kind":"piste","difficulty":"easy","name":"27a","aerialway":null,"osm":"way/31915603"},"geometry":{"type":"LineString","coordinates":[[13.9034,46.67943],[13.9034,46.67964],[13.90401,46.67992],[13.90453,46.68049],[13.90516,46.68057],[13.90528,46.68047]]}},{"type":"Feature","properties":{"kind":"piste","difficulty":"easy","name":null,"aerialway":null,"osm":"way/31915605"},"geometry":{"type":"LineString","coordinates":[[13.90194,46.67917],[13.90135,46.67904],[13.90125,46.67917],[13.90142,46.68047],[13.90065,46.68094],[13.90021,46.68087]]}},{"type":"Feature","properties":{"kind":"piste","difficulty":"intermediate","name":"Sonnearenaabfahrt 4","aerialway":null,"osm":"way/31915608"},"geometry":{"type":"LineString","coordinates":[[13.90647,46.68566],[13.90465,46.68494],[13.90317,46.68462],[13.9026,46.68433],[13.90215,46.68375],[13.90178,46.68257],[13.90133,46.68207],[13.90044,46.68144]]}},{"type":"Feature","properties":{"kind":"piste","difficulty":"intermediate","name":"Neugarten Speed Abfahrt 12","aerialway":null,"osm":"way/32006661"},"geometry":{"type":"LineString","coordinates":[[13.91074,46.6967],[13.90709,46.69849],[13.90578,46.69898],[13.90486,46.69952],[13.90387,46.70046],[13.9033,46.70123],[13.90318,46.70213],[13.90336,46.70315],[13.9039,46.70412],[13.90429,46.70602],[13.90451,46.70616]]}},{"type":"Feature","properties":{"kind":"piste","difficulty":"intermediate","name":null,"aerialway":null,"osm":"way/215099875"},"geometry":{"type":"LineString","coordinates":[[13.91058,46.70963],[13.91014,46.71002],[13.90948,46.711],[13.90823,46.71199],[13.90927,46.71371]]}},{"type":"Feature","properties":{"kind":"piste","difficulty":"intermediate","name":null,"aerialway":null,"osm":"way/215099877"},"geometry":{"type":"LineString","coordinates":[[13.90927,46.71371],[13.91009,46.71517]]}},{"type":"Feature","properties":{"kind":"piste","difficulty":"intermediate","name":"Klösterleabfahrt I","aerialway":null,"osm":"way/215099878"},"geometry":{"type":"LineString","coordinates":[[13.91116,46.71319],[13.91102,46.71363],[13.91009,46.71517],[13.9102,46.71577],[13.91014,46.71636],[13.9108,46.7181],[13.91104,46.71937],[13.9133,46.72556],[13.9133,46.72669]]}},{"type":"Feature","properties":{"kind":"piste","difficulty":"novice","name":"6 Walderlebnis Umfahrung Kanzelhöhe","aerialway":null,"osm":"way/238160602"},"geometry":{"type":"LineString","coordinates":[[13.90144,46.67882],[13.89789,46.67653],[13.89732,46.67641],[13.89774,46.67737],[13.89969,46.67968],[13.89987,46.68014],[13.89972,46.68094],[13.89995,46.68111],[13.89996,46.68142],[13.90022,46.68166],[13.9001,46.68222]]}},{"type":"Feature","properties":{"kind":"piste","difficulty":"easy","name":null,"aerialway":null,"osm":"way/333032903"},"geometry":{"type":"LineString","coordinates":[[13.90908,46.71342],[13.90985,46.71344],[13.91007,46.71331],[13.90968,46.71339],[13.9095,46.71331]]}},{"type":"Feature","properties":{"kind":"piste","difficulty":"easy","name":null,"aerialway":null,"osm":"way/333032904"},"geometry":{"type":"LineString","coordinates":[[13.90992,46.71306],[13.90994,46.71295],[13.91039,46.71302]]}},{"type":"Feature","properties":{"kind":"piste","difficulty":"novice","name":"15a","aerialway":null,"osm":"way/333033394"},"geometry":{"type":"LineString","coordinates":[[13.90823,46.71199],[13.90762,46.71258],[13.90755,46.71377],[13.90743,46.71399],[13.90718,46.71427],[13.90678,46.71444],[13.90779,46.71436],[13.90879,46.71346],[13.90908,46.71342]]}},{"type":"Feature","properties":{"kind":"piste","difficulty":"easy","name":null,"aerialway":null,"osm":"way/333052336"},"geometry":{"type":"LineString","coordinates":[[13.91317,46.69585],[13.9135,46.69562]]}},{"type":"Feature","properties":{"kind":"piste","difficulty":"easy","name":null,"aerialway":null,"osm":"way/333052339"},"geometry":{"type":"LineString","coordinates":[[13.9135,46.69562],[13.91382,46.69544],[13.91371,46.69535]]}},{"type":"Feature","properties":{"kind":"piste","difficulty":"easy","name":null,"aerialway":null,"osm":"way/333052340"},"geometry":{"type":"LineString","coordinates":[[13.91401,46.69566],[13.91405,46.69548],[13.91382,46.69544]]}},{"type":"Feature","properties":{"kind":"piste","difficulty":"easy","name":null,"aerialway":null,"osm":"way/333052341"},"geometry":{"type":"LineString","coordinates":[[13.91428,46.69561],[13.91426,46.69546],[13.91405,46.69548]]}},{"type":"Feature","properties":{"kind":"piste","difficulty":"easy","name":null,"aerialway":null,"osm":"way/333052342"},"geometry":{"type":"LineString","coordinates":[[13.91443,46.6954],[13.91426,46.69546]]}},{"type":"Feature","properties":{"kind":"piste","difficulty":"easy","name":null,"aerialway":null,"osm":"way/333052344"},"geometry":{"type":"LineString","coordinates":[[13.91468,46.69517],[13.91443,46.6954]]}},{"type":"Feature","properties":{"kind":"piste","difficulty":"easy","name":"25b","aerialway":null,"osm":"way/333058415"},"geometry":{"type":"LineString","coordinates":[[13.91445,46.72837],[13.91602,46.72911],[13.9165,46.72914]]}},{"type":"Feature","properties":{"kind":"piste","difficulty":"easy","name":"Moserabfahrt 5a","aerialway":null,"osm":"way/333063461"},"geometry":{"type":"LineString","coordinates":[[13.90408,46.68042],[13.90403,46.6806],[13.90264,46.68085],[13.90143,46.68099],[13.90053,46.68099],[13.90021,46.68087]]}},{"type":"Feature","properties":{"kind":"piste","difficulty":"easy","name":null,"aerialway":null,"osm":"way/333063463"},"geometry":{"type":"LineString","coordinates":[[13.90408,46.68042],[13.90453,46.68049]]}},{"type":"Feature","properties":{"kind":"piste","difficulty":"easy","name":null,"aerialway":null,"osm":"way/333063802"},"geometry":{"type":"LineString","coordinates":[[13.90384,46.69162],[13.90376,46.69192]]}},{"type":"Feature","properties":{"kind":"piste","difficulty":"intermediate","name":"Birkenhofabfahrt 24","aerialway":null,"osm":"way/627608022"},"geometry":{"type":"LineString","coordinates":[[13.92449,46.69169],[13.92487,46.69102],[13.92554,46.69052],[13.92893,46.68916],[13.92937,46.6885],[13.92961,46.68758],[13.92992,46.68697],[13.9304,46.6862],[13.9311,46.68567],[13.93306,46.68534],[13.93376,46.68549],[13.93392,46.6857],[13.93369,46.68582]]}},{"type":"Feature","properties":{"kind":"piste","difficulty":"easy","name":"Alpenroseabfahrt 28","aerialway":null,"osm":"way/674550227"},"geometry":{"type":"LineString","coordinates":[[13.90465,46.68494],[13.90539,46.68197],[13.90515,46.68101],[13.90496,46.68087],[13.90435,46.68083],[13.90024,46.68144]]}},{"type":"Feature","properties":{"kind":"piste","difficulty":"intermediate","name":"19 Ossiacher See Abfahrt","aerialway":null,"osm":"way/674550228"},"geometry":{"type":"LineString","coordinates":[[13.91292,46.69334],[13.91375,46.6922],[13.91426,46.69062],[13.91682,46.68962],[13.91776,46.68954],[13.91858,46.6898],[13.91866,46.69019],[13.91911,46.69008],[13.91924,46.69029]]}},{"type":"Feature","properties":{"kind":"piste","difficulty":"easy","name":null,"aerialway":null,"osm":"way/674550643"},"geometry":{"type":"LineString","coordinates":[[13.92166,46.6922],[13.92207,46.69238],[13.92231,46.69275]]}},{"type":"Feature","properties":{"kind":"piste","difficulty":"advanced","name":"Panoramaabfahrt 2","aerialway":null,"osm":"way/674749893"},"geometry":{"type":"LineString","coordinates":[[13.91365,46.69472],[13.91337,46.69403],[13.91223,46.69242],[13.9095,46.68971],[13.90751,46.68723],[13.90724,46.68633]]}},{"type":"Feature","properties":{"kind":"piste","difficulty":"intermediate","name":"Talabfahrt Bodensdorf 29","aerialway":null,"osm":"way/713709629"},"geometry":{"type":"LineString","coordinates":[[13.93392,46.6857],[13.9345,46.68613],[13.93467,46.6867],[13.93541,46.68719],[13.93667,46.68743],[13.93735,46.68811],[13.93887,46.68842],[13.94086,46.68863],[13.94109,46.68856],[13.94149,46.68794],[13.94247,46.68788],[13.94313,46.68691],[13.94345,46.68668],[13.94422,46.68628],[13.94493,46.68645],[13.94525,46.68621],[13.94549,46.68619],[13.9457,46.68587],[13.94611,46.68582],[13.94731,46.68507],[13.9496,46.68452],[13.95371,46.68388],[13.95705,46.68293]]}},{"type":"Feature","properties":{"kind":"piste","difficulty":"intermediate","name":null,"aerialway":null,"osm":"way/758328561"},"geometry":{"type":"LineString","coordinates":[[13.91007,46.71331],[13.91116,46.71319]]}},{"type":"Feature","properties":{"kind":"piste","difficulty":"novice","name":"15b","aerialway":null,"osm":"way/759805545"},"geometry":{"type":"LineString","coordinates":[[13.90927,46.71371],[13.90888,46.71382],[13.90863,46.7147],[13.90778,46.71532],[13.90769,46.71554],[13.90961,46.71441]]}},{"type":"Feature","properties":{"kind":"piste","difficulty":"easy","name":"25a","aerialway":null,"osm":"way/759838157"},"geometry":{"type":"LineString","coordinates":[[13.91654,46.7295],[13.91648,46.73019]]}},{"type":"Feature","properties":{"kind":"piste","difficulty":"novice","name":null,"aerialway":null,"osm":"way/759838158"},"geometry":{"type":"LineString","coordinates":[[13.9164,46.72989],[13.91635,46.73006]]}},{"type":"Feature","properties":{"kind":"piste","difficulty":"intermediate","name":"22a Finsterbach Direttissima","aerialway":null,"osm":"way/1011882299"},"geometry":{"type":"LineString","coordinates":[[13.91356,46.69346],[13.91792,46.69222]]}},{"type":"Feature","properties":{"kind":"piste","difficulty":"intermediate","name":"Wörtherseeabfahrt 18","aerialway":null,"osm":"way/1011882300"},"geometry":{"type":"LineString","coordinates":[[13.92127,46.69379],[13.92318,46.69311]]}},{"type":"Feature","properties":{"kind":"piste","difficulty":"easy","name":null,"aerialway":null,"osm":"way/1011882301"},"geometry":{"type":"LineString","coordinates":[[13.9135,46.69562],[13.91332,46.69533],[13.91356,46.69506],[13.9135,46.6949]]}},{"type":"Feature","properties":{"kind":"piste","difficulty":"easy","name":null,"aerialway":null,"osm":"way/1011882302"},"geometry":{"type":"LineString","coordinates":[[13.91356,46.69506],[13.91404,46.69517],[13.91382,46.69544]]}},{"type":"Feature","properties":{"kind":"piste","difficulty":"easy","name":null,"aerialway":null,"osm":"way/1011882303"},"geometry":{"type":"LineString","coordinates":[[13.91404,46.69517],[13.91455,46.6952]]}},{"type":"Feature","properties":{"kind":"piste","difficulty":"advanced","name":"Pacheinerabfahrt 7","aerialway":null,"osm":"way/1011882304"},"geometry":{"type":"LineString","coordinates":[[13.91305,46.69518],[13.91181,46.69417],[13.90847,46.6924],[13.90641,46.6907]]}},{"type":"Feature","properties":{"kind":"piste","difficulty":"intermediate","name":"Neugartenabfahrt 10","aerialway":null,"osm":"way/1011882305"},"geometry":{"type":"LineString","coordinates":[[13.91328,46.69573],[13.91274,46.69589],[13.91244,46.69625],[13.91066,46.69743],[13.90886,46.70001],[13.9076,46.70152],[13.90685,46.70274],[13.90535,46.70426],[13.9048,46.70563],[13.90429,46.70602]]}},{"type":"Feature","properties":{"kind":"piste","difficulty":"intermediate","name":null,"aerialway":null,"osm":"way/1011882306"},"geometry":{"type":"LineString","coordinates":[[13.91131,46.7117],[13.91133,46.71235],[13.91116,46.71319]]}},{"type":"Feature","properties":{"kind":"piste","difficulty":"easy","name":null,"aerialway":null,"osm":"way/1011882308"},"geometry":{"type":"LineString","coordinates":[[13.91416,46.7298],[13.91396,46.72975]]}},{"type":"Feature","properties":{"kind":"piste","difficulty":"easy","name":null,"aerialway":null,"osm":"way/1122794692"},"geometry":{"type":"LineString","coordinates":[[13.91337,46.69525],[13.91305,46.69518]]}},{"type":"Feature","properties":{"kind":"piste","difficulty":"easy","name":null,"aerialway":null,"osm":"way/1122796805"},"geometry":{"type":"LineString","coordinates":[[13.92476,46.69358],[13.92425,46.69329],[13.9241,46.69307]]}},{"type":"Feature","properties":{"kind":"piste","difficulty":"intermediate","name":null,"aerialway":null,"osm":"way/1122797876"},"geometry":{"type":"LineString","coordinates":[[13.90693,46.68621],[13.90726,46.68625]]}},{"type":"Feature","properties":{"kind":"piste","difficulty":"easy","name":null,"aerialway":null,"osm":"way/1122797877"},"geometry":{"type":"LineString","coordinates":[[13.90515,46.68101],[13.90539,46.68099]]}},{"type":"Feature","properties":{"kind":"piste","difficulty":"easy","name":null,"aerialway":null,"osm":"way/1122798477"},"geometry":{"type":"LineString","coordinates":[[13.90021,46.68087],[13.90024,46.68144]]}},{"type":"Feature","properties":{"kind":"piste","difficulty":"easy","name":null,"aerialway":null,"osm":"way/1122798478"},"geometry":{"type":"LineString","coordinates":[[13.89959,46.68129],[13.89962,46.68148],[13.89978,46.68153]]}},{"type":"Feature","properties":{"kind":"piste","difficulty":"easy","name":null,"aerialway":null,"osm":"way/1122798522"},"geometry":{"type":"LineString","coordinates":[[13.90516,46.68057],[13.90515,46.68101]]}},{"type":"Feature","properties":{"kind":"piste","difficulty":"intermediate","name":"Klösterleabfahrt I","aerialway":null,"osm":"way/1169100351"},"geometry":{"type":"LineString","coordinates":[[13.9133,46.72669],[13.91307,46.7272],[13.91327,46.72923],[13.91347,46.72967],[13.91379,46.72991],[13.91411,46.72991],[13.91416,46.7298]]}},{"type":"Feature","properties":{"kind":"piste","difficulty":"intermediate","name":"Pöllingerabfahrt 3","aerialway":null,"osm":"way/1347925061"},"geometry":{"type":"LineString","coordinates":[[13.90723,46.68644],[13.9073,46.68612],[13.90708,46.68584],[13.90647,46.68566],[13.90597,46.68456],[13.90539,46.68197]]}},{"type":"Feature","properties":{"kind":"piste","difficulty":"intermediate","name":"22b Turmabfahrt","aerialway":null,"osm":"way/1426374369"},"geometry":{"type":"LineString","coordinates":[[13.91385,46.69467],[13.91356,46.69346],[13.91451,46.69214],[13.91488,46.69127],[13.91636,46.69055],[13.91866,46.69019],[13.91882,46.69031]]}},{"type":"Feature","properties":{"kind":"piste","difficulty":"unknown","name":"23 Schönfeldabfahrt","aerialway":null,"osm":"way/1426374370"},"geometry":{"type":"LineString","coordinates":[[13.91882,46.69031],[13.91966,46.69075],[13.92047,46.69056],[13.92229,46.68949],[13.92262,46.68896],[13.92269,46.68846],[13.92342,46.68745],[13.92426,46.68709],[13.92481,46.687],[13.92551,46.68706],[13.92591,46.68723],[13.92638,46.68825],[13.92933,46.68858]]}},{"type":"Feature","properties":{"kind":"piste","difficulty":"easy","name":"Skiroute 33 Verbindungsweg","aerialway":null,"osm":"way/1426374371"},"geometry":{"type":"LineString","coordinates":[[13.92318,46.69311],[13.92335,46.69132],[13.92354,46.69096],[13.92321,46.69052],[13.91966,46.69075],[13.91896,46.68945],[13.91857,46.68817],[13.91587,46.68819],[13.91772,46.68708],[13.91536,46.68749],[13.91383,46.68689],[13.90957,46.68621],[13.90813,46.68633],[13.90728,46.68619]]}},{"type":"Feature","properties":{"kind":"piste","difficulty":"easy","name":"Skiroute 33 Verbindungsweg","aerialway":null,"osm":"way/1426374372"},"geometry":{"type":"LineString","coordinates":[[13.90957,46.68621],[13.91056,46.68596],[13.91234,46.6858],[13.91146,46.68509],[13.90945,46.68452],[13.90773,46.68469],[13.90867,46.68403],[13.90987,46.68395],[13.90834,46.68347],[13.90753,46.6827],[13.9058,46.68173],[13.90564,46.68123],[13.90539,46.68099]]}},{"type":"Feature","properties":{"kind":"piste","difficulty":"easy","name":"Skiroute","aerialway":null,"osm":"way/1426375596"},"geometry":{"type":"LineString","coordinates":[[13.90369,46.67977],[13.90408,46.68042]]}},{"type":"Feature","properties":{"kind":"piste","difficulty":"easy","name":"27b","aerialway":null,"osm":"way/1426375597"},"geometry":{"type":"LineString","coordinates":[[13.90335,46.68075],[13.90242,46.68024],[13.90205,46.6797],[13.90194,46.67917]]}},{"type":"Feature","properties":{"kind":"piste","difficulty":"easy","name":null,"aerialway":null,"osm":"way/1426375598"},"geometry":{"type":"LineString","coordinates":[[13.90024,46.68144],[13.89983,46.68146],[13.89977,46.68163]]}},{"type":"Feature","properties":{"kind":"piste","difficulty":"unknown","name":"6 Walderlebnis Umfahrung Kanzelhöhe","aerialway":null,"osm":"way/1426375599"},"geometry":{"type":"LineString","coordinates":[[13.90194,46.67917],[13.90144,46.67882]]}},{"type":"Feature","properties":{"kind":"piste","difficulty":"novice","name":"6 Walderlebnis Umfahrung Kanzelhöhe","aerialway":null,"osm":"way/1426375600"},"geometry":{"type":"LineString","coordinates":[[13.9034,46.67964],[13.90194,46.67917]]}},{"type":"Feature","properties":{"kind":"piste","difficulty":"easy","name":"5b Rennstrecke","aerialway":null,"osm":"way/1426376128"},"geometry":{"type":"LineString","coordinates":[[13.90405,46.68059],[13.90389,46.68077],[13.90099,46.68114],[13.90058,46.68111],[13.90021,46.68087]]}},{"type":"Feature","properties":{"kind":"piste","difficulty":"easy","name":"Skiroute Verbindungsweg","aerialway":null,"osm":"way/1426390165"},"geometry":{"type":"LineString","coordinates":[[13.91057,46.69076],[13.91219,46.69034],[13.91416,46.69024],[13.91481,46.69039]]}},{"type":"Feature","properties":{"kind":"piste","difficulty":"easy","name":"Skiroute 32 Skiweg Pöllingerbahn-Pacheinerlift","aerialway":null,"osm":"way/1426390166"},"geometry":{"type":"LineString","coordinates":[[13.90693,46.68621],[13.9064,46.68664],[13.90608,46.68726],[13.90472,46.68831],[13.9041,46.68904],[13.90369,46.68993],[13.90366,46.69043]]}},{"type":"Feature","properties":{"kind":"piste","difficulty":"advanced","name":"31 Skiroute Stifterboden","aerialway":null,"osm":"way/1426390168"},"geometry":{"type":"LineString","coordinates":[[13.91266,46.6958],[13.90932,46.69687],[13.9014,46.69765],[13.89642,46.69848]]}},{"type":"Feature","properties":{"kind":"piste","difficulty":"advanced","name":"Skiroute 30 Rock'n'Roll","aerialway":null,"osm":"way/1426390169"},"geometry":{"type":"LineString","coordinates":[[13.91285,46.69686],[13.91232,46.69698],[13.91091,46.69834],[13.91079,46.6999],[13.91101,46.70069],[13.90933,46.70267],[13.90918,46.70345],[13.90675,46.70487],[13.9048,46.70563]]}},{"type":"Feature","properties":{"kind":"piste","difficulty":"easy","name":null,"aerialway":null,"osm":"way/1426390586"},"geometry":{"type":"LineString","coordinates":[[13.91407,46.72848],[13.91458,46.72851]]}},{"type":"Feature","properties":{"kind":"piste","difficulty":"easy","name":null,"aerialway":null,"osm":"way/1426390587"},"geometry":{"type":"LineString","coordinates":[[13.91649,46.72953],[13.91638,46.72945]]}},{"type":"Feature","properties":{"kind":"piste","difficulty":"easy","name":null,"aerialway":null,"osm":"way/1426390588"},"geometry":{"type":"LineString","coordinates":[[13.91611,46.72919],[13.91632,46.72913]]}},{"type":"Feature","properties":{"kind":"piste","difficulty":"easy","name":null,"aerialway":null,"osm":"way/1426390589"},"geometry":{"type":"LineString","coordinates":[[13.91571,46.72898],[13.91572,46.72934]]}},{"type":"Feature","properties":{"kind":"piste","difficulty":"easy","name":null,"aerialway":null,"osm":"way/1426390979"},"geometry":{"type":"LineString","coordinates":[[13.90021,46.68087],[13.90011,46.68068]]}},{"type":"Feature","properties":{"kind":"piste","difficulty":"easy","name":null,"aerialway":null,"osm":"way/1426390980"},"geometry":{"type":"LineString","coordinates":[[13.90035,46.68065],[13.90007,46.68051]]}},{"type":"Feature","properties":{"kind":"piste","difficulty":"easy","name":null,"aerialway":null,"osm":"way/1426390981"},"geometry":{"type":"LineString","coordinates":[[13.90001,46.68013],[13.90003,46.68]]}},{"type":"Feature","properties":{"kind":"piste","difficulty":"easy","name":null,"aerialway":null,"osm":"way/1426390982"},"geometry":{"type":"LineString","coordinates":[[13.90059,46.6799],[13.90028,46.68004],[13.90003,46.68]]}},{"type":"Feature","properties":{"kind":"piste","difficulty":"easy","name":null,"aerialway":null,"osm":"way/1426390983"},"geometry":{"type":"LineString","coordinates":[[13.90057,46.67991],[13.90077,46.68071],[13.90011,46.68068]]}},{"type":"Feature","properties":{"kind":"piste","difficulty":"easy","name":null,"aerialway":null,"osm":"way/1426390984"},"geometry":{"type":"LineString","coordinates":[[13.90001,46.68013],[13.90017,46.68014],[13.90025,46.68039],[13.90011,46.68068]]}},{"type":"Feature","properties":{"kind":"piste","difficulty":"easy","name":null,"aerialway":null,"osm":"way/1426390985"},"geometry":{"type":"LineString","coordinates":[[13.90028,46.68004],[13.90017,46.68014]]}},{"type":"Feature","properties":{"kind":"lift","difficulty":null,"name":"Kanzelbahn","aerialway":"gondola","osm":"way/28798882"},"geometry":{"type":"LineString","coordinates":[[13.90158,46.65951],[13.89959,46.68129]]}},{"type":"Feature","properties":{"kind":"lift","difficulty":null,"name":"Gipfelbahn","aerialway":"chair_lift","osm":"way/28798883"},"geometry":{"type":"LineString","coordinates":[[13.89977,46.68163],[13.91371,46.69535]]}},{"type":"Feature","properties":{"kind":"lift","difficulty":null,"name":"Neugarten 8er-Carving-Jet","aerialway":"chair_lift","osm":"way/28798884"},"geometry":{"type":"LineString","coordinates":[[13.90451,46.70616],[13.91317,46.69585]]}},{"type":"Feature","properties":{"kind":"lift","difficulty":null,"name":"Klösterlebahn II","aerialway":"chair_lift","osm":"way/28798885"},"geometry":{"type":"LineString","coordinates":[[13.9095,46.71331],[13.91401,46.69566]]}},{"type":"Feature","properties":{"kind":"lift","difficulty":null,"name":"Pacheinerlift","aerialway":"drag_lift","osm":"way/29422102"},"geometry":{"type":"LineString","coordinates":[[13.90376,46.69192],[13.91352,46.69532]]}},{"type":"Feature","properties":{"kind":"lift","difficulty":null,"name":"Klösterlebahn I","aerialway":"chair_lift","osm":"way/29422103"},"geometry":{"type":"LineString","coordinates":[[13.91396,46.72975],[13.90992,46.71306]]}},{"type":"Feature","properties":{"kind":"lift","difficulty":null,"name":"Lodronlift","aerialway":"drag_lift","osm":"way/29422104"},"geometry":{"type":"LineString","coordinates":[[13.92392,46.69595],[13.921,46.69628]]}},{"type":"Feature","properties":{"kind":"lift","difficulty":null,"name":"Wörthersee 4er-Freeride-Jet","aerialway":"chair_lift","osm":"way/29422107"},"geometry":{"type":"LineString","coordinates":[[13.91882,46.69031],[13.92166,46.6922]]}},{"type":"Feature","properties":{"kind":"lift","difficulty":null,"name":"Birkenhoflift","aerialway":"t-bar","osm":"way/29422108"},"geometry":{"type":"LineString","coordinates":[[13.93376,46.68576],[13.92467,46.69367]]}},{"type":"Feature","properties":{"kind":"lift","difficulty":null,"name":"Moserbahn","aerialway":"chair_lift","osm":"way/31908734"},"geometry":{"type":"LineString","coordinates":[[13.90021,46.68087],[13.90408,46.68042]]}},{"type":"Feature","properties":{"kind":"lift","difficulty":null,"name":"Sonnenlift","aerialway":"platter","osm":"way/31908737"},"geometry":{"type":"LineString","coordinates":[[13.90528,46.68047],[13.9034,46.67943]]}},{"type":"Feature","properties":{"kind":"lift","difficulty":null,"name":"Pöllingerbahn","aerialway":"chair_lift","osm":"way/31908739"},"geometry":{"type":"LineString","coordinates":[[13.90539,46.68099],[13.90693,46.68621]]}},{"type":"Feature","properties":{"kind":"lift","difficulty":null,"name":"Übungslift Klösterle B","aerialway":"platter","osm":"way/333058412"},"geometry":{"type":"LineString","coordinates":[[13.9165,46.72914],[13.91445,46.72837]]}},{"type":"Feature","properties":{"kind":"lift","difficulty":null,"name":"Sommerrodelbahn Ossiach","aerialway":"drag_lift","osm":"way/377864994"},"geometry":{"type":"LineString","coordinates":[[13.98015,46.66985],[13.98288,46.66907]]}},{"type":"Feature","properties":{"kind":"lift","difficulty":null,"name":"Wörthersee 6er-Family-Jet","aerialway":"chair_lift","osm":"way/627608023"},"geometry":{"type":"LineString","coordinates":[[13.92414,46.69153],[13.91468,46.69517]]}},{"type":"Feature","properties":{"kind":"lift","difficulty":null,"name":"Skischullift Lodron I","aerialway":"magic_carpet","osm":"way/741639697"},"geometry":{"type":"LineString","coordinates":[[13.90007,46.68051],[13.90001,46.68013]]}},{"type":"Feature","properties":{"kind":"lift","difficulty":null,"name":"Zauberteppiche Kinderland Klösterle B","aerialway":"magic_carpet","osm":"way/758328558"},"geometry":{"type":"LineString","coordinates":[[13.91638,46.72945],[13.91611,46.72919]]}},{"type":"Feature","properties":{"kind":"lift","difficulty":null,"name":"Übungslift Klösterle A","aerialway":"rope_tow","osm":"way/758328559"},"geometry":{"type":"LineString","coordinates":[[13.91648,46.73019],[13.91655,46.72924]]}},{"type":"Feature","properties":{"kind":"lift","difficulty":null,"name":"Zauberteppiche Kinderland Klösterle","aerialway":"magic_carpet","osm":"way/758328560"},"geometry":{"type":"LineString","coordinates":[[13.91635,46.73006],[13.9164,46.72989]]}},{"type":"Feature","properties":{"kind":"lift","difficulty":null,"name":"Skischullift Lodron II","aerialway":"magic_carpet","osm":"way/758363685"},"geometry":{"type":"LineString","coordinates":[[13.90003,46.68],[13.90059,46.6799]]}},{"type":"Feature","properties":{"kind":"lift","difficulty":null,"name":null,"aerialway":"magic_carpet","osm":"way/759887472"},"geometry":{"type":"LineString","coordinates":[[13.90011,46.68068],[13.90035,46.68065]]}},{"type":"Feature","properties":{"kind":"lift","difficulty":null,"name":"Kinder-Seilbahn","aerialway":"zip_line","osm":"way/1306380127"},"geometry":{"type":"LineString","coordinates":[[13.97147,46.67879],[13.97162,46.67865]]}}]}