{"type":"FeatureCollection","features":[{"type":"Feature","properties":{"kind":"piste","difficulty":"intermediate","name":null,"aerialway":null,"osm":"way/130682320"},"geometry":{"type":"LineString","coordinates":[[9.92833,47.22735],[9.92909,47.22741]]}},{"type":"Feature","properties":{"kind":"piste","difficulty":"intermediate","name":null,"aerialway":null,"osm":"way/130682323"},"geometry":{"type":"LineString","coordinates":[[9.92845,47.22739],[9.92844,47.22826],[9.92863,47.22879]]}},{"type":"Feature","properties":{"kind":"piste","difficulty":"intermediate","name":null,"aerialway":null,"osm":"way/130682324"},"geometry":{"type":"LineString","coordinates":[[9.92629,47.22909],[9.92599,47.22974],[9.926,47.22997],[9.92557,47.23047]]}},{"type":"Feature","properties":{"kind":"piste","difficulty":"easy","name":null,"aerialway":null,"osm":"way/130682327"},"geometry":{"type":"LineString","coordinates":[[9.93329,47.22224],[9.93249,47.2217],[9.93135,47.22203],[9.92934,47.22379],[9.92929,47.22411],[9.92877,47.22447],[9.92898,47.22467],[9.9288,47.22525],[9.92894,47.22577],[9.92964,47.22639],[9.92909,47.22741],[9.92903,47.22818],[9.92877,47.22898],[9.92915,47.2296],[9.93,47.23017],[9.93008,47.23038],[9.92999,47.2306],[9.92942,47.23089],[9.92858,47.23097],[9.92586,47.23092],[9.92541,47.23123],[9.92501,47.23174],[9.92414,47.23175]]}},{"type":"Feature","properties":{"kind":"piste","difficulty":"intermediate","name":null,"aerialway":null,"osm":"way/130682328"},"geometry":{"type":"LineString","coordinates":[[9.93348,47.22234],[9.93312,47.22155],[9.93293,47.22142],[9.93241,47.22146],[9.93105,47.22187],[9.92925,47.22288],[9.9283,47.22446],[9.92869,47.22494],[9.92856,47.22684],[9.92833,47.22736],[9.92629,47.22909],[9.92477,47.22976],[9.92482,47.22993],[9.92549,47.23018],[9.92557,47.23047],[9.92443,47.23158],[9.92403,47.23175]]}},{"type":"Feature","properties":{"kind":"piste","difficulty":"expert","name":null,"aerialway":null,"osm":"way/149355066"},"geometry":{"type":"LineString","coordinates":[[9.9335,47.22227],[9.93452,47.22257],[9.93479,47.2229],[9.93487,47.22325],[9.93482,47.22465],[9.93432,47.22651],[9.9339,47.22707],[9.93314,47.2276],[9.92877,47.22898]]}},{"type":"Feature","properties":{"kind":"piste","difficulty":"novice","name":null,"aerialway":null,"osm":"way/206377523"},"geometry":{"type":"LineString","coordinates":[[9.92341,47.2316],[9.92317,47.23169],[9.92262,47.23156]]}},{"type":"Feature","properties":{"kind":"piste","difficulty":"intermediate","name":null,"aerialway":null,"osm":"way/1442143417"},"geometry":{"type":"LineString","coordinates":[[9.9237,47.23178],[9.92326,47.23168]]}},{"type":"Feature","properties":{"kind":"piste","difficulty":"easy","name":null,"aerialway":null,"osm":"way/1442899477"},"geometry":{"type":"LineString","coordinates":[[9.92964,47.22639],[9.93047,47.22659],[9.93107,47.22693],[9.93107,47.22707],[9.9307,47.22736],[9.92909,47.22741]]}},{"type":"Feature","properties":{"kind":"piste","difficulty":"easy","name":null,"aerialway":null,"osm":"way/1442899478"},"geometry":{"type":"LineString","coordinates":[[9.92957,47.22625],[9.92858,47.2267]]}},{"type":"Feature","properties":{"kind":"piste","difficulty":"easy","name":null,"aerialway":null,"osm":"way/1442899479"},"geometry":{"type":"LineString","coordinates":[[9.92193,47.23114],[9.92204,47.23131],[9.92197,47.23162]]}},{"type":"Feature","properties":{"kind":"piste","difficulty":"intermediate","name":null,"aerialway":null,"osm":"way/1442909950"},"geometry":{"type":"LineString","coordinates":[[9.93351,47.22234],[9.93367,47.22235],[9.9337,47.22224],[9.93343,47.22201],[9.93338,47.22165],[9.93296,47.2213],[9.93158,47.2216],[9.92916,47.2227],[9.929,47.2232],[9.92825,47.22443],[9.92865,47.22494],[9.9286,47.22616],[9.92822,47.22729],[9.92668,47.22854],[9.92471,47.22959],[9.92463,47.22982],[9.92531,47.23023],[9.92442,47.23099],[9.92408,47.23147],[9.92334,47.23172],[9.92234,47.23161],[9.92223,47.2317],[9.92201,47.23158],[9.92214,47.23136],[9.92194,47.23109],[9.92185,47.23115],[9.92202,47.23129],[9.92194,47.23164],[9.92273,47.23187],[9.9245,47.23166],[9.92572,47.23044],[9.92556,47.23015],[9.92481,47.22981],[9.92584,47.2296],[9.92691,47.22896],[9.92832,47.22788],[9.92886,47.22778],[9.92887,47.22728],[9.92863,47.22726],[9.92884,47.22483],[9.92847,47.22448],[9.92912,47.22314],[9.92941,47.22286],[9.93139,47.22196],[9.93296,47.22157],[9.93351,47.22234]]}},{"type":"Feature","properties":{"kind":"piste","difficulty":"intermediate","name":null,"aerialway":null,"osm":"way/1442909956"},"geometry":{"type":"LineString","coordinates":[[9.92887,47.22867],[9.92849,47.22883],[9.92734,47.22894],[9.92609,47.22946]]}},{"type":"Feature","properties":{"kind":"piste","difficulty":"intermediate","name":null,"aerialway":null,"osm":"way/1442909957"},"geometry":{"type":"LineString","coordinates":[[9.92847,47.22782],[9.9285,47.22829],[9.92869,47.22871],[9.92862,47.22904],[9.92856,47.22883],[9.92759,47.22893],[9.92634,47.2293],[9.92742,47.22891],[9.92851,47.22877],[9.92828,47.22803],[9.92847,47.22782]]}},{"type":"Feature","properties":{"kind":"piste","difficulty":"intermediate","name":null,"aerialway":null,"osm":"way/1442909959"},"geometry":{"type":"LineString","coordinates":[[9.92591,47.22955],[9.92587,47.23003],[9.92566,47.23025],[9.92572,47.23044],[9.92606,47.23008],[9.92619,47.22944],[9.92637,47.22934],[9.92591,47.22955]]}},{"type":"Feature","properties":{"kind":"piste","difficulty":"easy","name":null,"aerialway":null,"osm":"way/1442909962"},"geometry":{"type":"LineString","coordinates":[[9.92943,47.22381],[9.92924,47.2242],[9.9288,47.22448],[9.92903,47.22468],[9.92883,47.22532],[9.92912,47.22593],[9.92979,47.2263],[9.92891,47.22652],[9.92867,47.22669],[9.92874,47.22643],[9.92938,47.22626],[9.92885,47.22564],[9.92876,47.22521],[9.92891,47.22465],[9.92873,47.22446],[9.92919,47.22417],[9.92943,47.22381]]}},{"type":"Feature","properties":{"kind":"piste","difficulty":"easy","name":null,"aerialway":null,"osm":"way/1442909963"},"geometry":{"type":"LineString","coordinates":[[9.92925,47.2265],[9.92922,47.22689],[9.92887,47.22728],[9.92896,47.22811],[9.92862,47.22904],[9.92917,47.22969],[9.9298,47.23012],[9.92986,47.23057],[9.92936,47.23085],[9.92843,47.23093],[9.92566,47.2307],[9.92524,47.23085],[9.92464,47.23171],[9.92405,47.23177],[9.92499,47.23182],[9.92553,47.23114],[9.92584,47.23095],[9.92888,47.23104],[9.92944,47.231],[9.92988,47.23077],[9.93012,47.23044],[9.93006,47.23016],[9.92913,47.22954],[9.92884,47.22909],[9.92918,47.22788],[9.92916,47.2274],[9.92979,47.2263],[9.92925,47.2265]]}},{"type":"Feature","properties":{"kind":"piste","difficulty":"easy","name":null,"aerialway":null,"osm":"way/1442909964"},"geometry":{"type":"LineString","coordinates":[[9.92979,47.2263],[9.93093,47.22676],[9.93113,47.22705],[9.9306,47.22741],[9.92941,47.22734],[9.92916,47.22744],[9.92927,47.22728],[9.93063,47.22734],[9.93084,47.22707],[9.93079,47.22683],[9.93057,47.22668],[9.92966,47.22647],[9.92979,47.2263]]}},{"type":"Feature","properties":{"kind":"piste","difficulty":"intermediate","name":null,"aerialway":null,"osm":"way/1442909966"},"geometry":{"type":"LineString","coordinates":[[9.92414,47.23175],[9.92271,47.23185],[9.92207,47.23165],[9.92213,47.23157]]}},{"type":"Feature","properties":{"kind":"piste","difficulty":"novice","name":null,"aerialway":null,"osm":"way/1442909967"},"geometry":{"type":"LineString","coordinates":[[9.92259,47.23163],[9.92229,47.23174]]}},{"type":"Feature","properties":{"kind":"piste","difficulty":"novice","name":null,"aerialway":null,"osm":"way/1442909968"},"geometry":{"type":"LineString","coordinates":[[9.92234,47.23161],[9.92348,47.23162],[9.92284,47.23173],[9.92234,47.23161]]}},{"type":"Feature","properties":{"kind":"lift","difficulty":null,"name":"Oberpartnum","aerialway":"chair_lift","osm":"way/41727693"},"geometry":{"type":"LineString","coordinates":[[9.92213,47.23157],[9.93348,47.22234]]}},{"type":"Feature","properties":{"kind":"lift","difficulty":null,"name":"Pendelbahn Sonntag-Stein","aerialway":"cable_car","osm":"way/41727697"},"geometry":{"type":"LineString","coordinates":[[9.90544,47.23961],[9.92165,47.23111]]}},{"type":"Feature","properties":{"kind":"lift","difficulty":null,"name":null,"aerialway":"magic_carpet","osm":"way/206377522"},"geometry":{"type":"LineString","coordinates":[[9.92262,47.23156],[9.92341,47.2316]]}},{"type":"Feature","properties":{"kind":"piste","difficulty":"easy","name":null,"aerialway":null,"osm":"way/1173230108"},"geometry":{"type":"LineString","coordinates":[[9.9335,47.22227],[9.93329,47.22224]]}},{"type":"Feature","properties":{"kind":"piste","difficulty":"easy","name":null,"aerialway":null,"osm":"way/1173230110"},"geometry":{"type":"LineString","coordinates":[[9.93244,47.22182],[9.93241,47.22175]]}},{"type":"Feature","properties":{"kind":"piste","difficulty":"intermediate","name":null,"aerialway":null,"osm":"way/1442899474"},"geometry":{"type":"LineString","coordinates":[[9.93131,47.22176],[9.93097,47.22229]]}},{"type":"Feature","properties":{"kind":"piste","difficulty":"easy","name":null,"aerialway":null,"osm":"way/1442909952"},"geometry":{"type":"LineString","coordinates":[[9.92924,47.22304],[9.92926,47.22365],[9.92913,47.22344],[9.92924,47.22304]]}},{"type":"Feature","properties":{"kind":"piste","difficulty":"easy","name":null,"aerialway":null,"osm":"way/1442909960"},"geometry":{"type":"LineString","coordinates":[[9.93349,47.22231],[9.93218,47.22175],[9.93105,47.22223],[9.93082,47.22258],[9.92973,47.22357],[9.9285,47.22437],[9.93063,47.22254],[9.93076,47.22231],[9.93139,47.22196],[9.9325,47.22165],[9.93349,47.22231]]}},{"type":"Feature","properties":{"kind":"piste","difficulty":"easy","name":null,"aerialway":null,"osm":"way/1442909961"},"geometry":{"type":"LineString","coordinates":[[9.93348,47.22231],[9.93312,47.22239],[9.93264,47.22278],[9.93239,47.2228],[9.93238,47.22177],[9.93252,47.22212],[9.93236,47.22262],[9.93243,47.22275],[9.93315,47.22222],[9.93348,47.22231]]}},{"type":"Feature","properties":{"kind":"piste","difficulty":"intermediate","name":null,"aerialway":null,"osm":"way/1442986741"},"geometry":{"type":"LineString","coordinates":[[9.92865,47.22487],[9.92886,47.22492]]}},{"type":"Feature","properties":{"kind":"piste","difficulty":"easy","name":null,"aerialway":null,"osm":"way/1463688249"},"geometry":{"type":"LineString","coordinates":[[9.93329,47.22224],[9.93265,47.22276],[9.93237,47.22275],[9.93244,47.22182],[9.9319,47.22138],[9.93198,47.22033],[9.93177,47.2198],[9.93183,47.21948],[9.93134,47.21884],[9.93105,47.21874],[9.9308,47.21817],[9.92993,47.219],[9.92994,47.21976],[9.93012,47.22003],[9.9297,47.22074],[9.92958,47.22157],[9.92902,47.22277],[9.92922,47.22312],[9.92916,47.22346],[9.92934,47.22379],[9.92846,47.22439],[9.92844,47.22469]]}}]}