{"type":"FeatureCollection","features":[{"type":"Feature","properties":{"kind":"lift","difficulty":null,"name":"Kellerjochbahn","aerialway":"chair_lift","osm":"way/89505029"},"geometry":{"type":"LineString","coordinates":[[11.7197,47.32085],[11.74236,47.32139]]}},{"type":"Feature","properties":{"kind":"lift","difficulty":null,"name":"Bockstalllift","aerialway":"t-bar","osm":"way/185987999"},"geometry":{"type":"LineString","coordinates":[[11.73699,47.32059],[11.74278,47.32063]]}},{"type":"Feature","properties":{"kind":"piste","difficulty":"easy","name":null,"aerialway":null,"osm":"way/417723183"},"geometry":{"type":"LineString","coordinates":[[11.74251,47.32137],[11.74088,47.32078],[11.73673,47.32114],[11.73186,47.32188],[11.73057,47.3233],[11.7293,47.32428],[11.72869,47.32525],[11.72812,47.32555],[11.72733,47.32571],[11.72657,47.32569],[11.72525,47.32503],[11.72406,47.32376],[11.72333,47.32373],[11.72261,47.32329],[11.72217,47.32255],[11.72175,47.32211],[11.72101,47.32165],[11.72047,47.32153],[11.7197,47.32103],[11.71959,47.32091],[11.7197,47.32085]]}},{"type":"Feature","properties":{"kind":"piste","difficulty":"intermediate","name":null,"aerialway":null,"osm":"way/417723188"},"geometry":{"type":"LineString","coordinates":[[11.72925,47.32259],[11.72894,47.32298],[11.72773,47.32329],[11.72696,47.32421],[11.72647,47.32439],[11.72551,47.32424],[11.72406,47.32376],[11.72347,47.32282],[11.7234,47.32237],[11.72229,47.32086],[11.72118,47.32043],[11.72058,47.32035],[11.7197,47.32085]]}},{"type":"Feature","properties":{"kind":"piste","difficulty":"intermediate","name":null,"aerialway":null,"osm":"way/417723190"},"geometry":{"type":"LineString","coordinates":[[11.73169,47.32202],[11.72972,47.32215],[11.72925,47.32259]]}},{"type":"Feature","properties":{"kind":"piste","difficulty":"advanced","name":null,"aerialway":null,"osm":"way/417723192"},"geometry":{"type":"LineString","coordinates":[[11.72972,47.32215],[11.72676,47.32091],[11.72546,47.32122],[11.72229,47.32086]]}},{"type":"Feature","properties":{"kind":"lift","difficulty":null,"name":null,"aerialway":"magic_carpet","osm":"way/474007887"},"geometry":{"type":"LineString","coordinates":[[11.72027,47.32163],[11.72076,47.32215]]}},{"type":"Feature","properties":{"kind":"lift","difficulty":null,"name":"Schlepplift Grafenast","aerialway":"t-bar","osm":"way/474007888"},"geometry":{"type":"LineString","coordinates":[[11.72026,47.32132],[11.72514,47.32262]]}},{"type":"Feature","properties":{"kind":"piste","difficulty":"easy","name":"Talabfahrt Arzberg","aerialway":null,"osm":"way/800227550"},"geometry":{"type":"LineString","coordinates":[[11.71933,47.31955],[11.7178,47.31815],[11.71546,47.31717],[11.71483,47.31717],[11.71305,47.31658],[11.71262,47.31666],[11.71245,47.31756],[11.71134,47.31743],[11.71103,47.31726],[11.71101,47.318],[11.71075,47.31803],[11.70854,47.31688],[11.70795,47.31679],[11.70753,47.31687],[11.70738,47.31701],[11.70758,47.31749],[11.70869,47.31879],[11.70957,47.31944],[11.71084,47.32134],[11.71201,47.3228],[11.71177,47.32329],[11.71072,47.32368],[11.7102,47.32405],[11.70923,47.32409],[11.70837,47.3243],[11.70812,47.32466],[11.70809,47.32509],[11.70819,47.32597],[11.70855,47.32668],[11.7084,47.32718],[11.70855,47.3274]]}},{"type":"Feature","properties":{"kind":"piste","difficulty":"easy","name":null,"aerialway":null,"osm":"way/1112213820"},"geometry":{"type":"LineString","coordinates":[[11.72047,47.32039],[11.71933,47.31955]]}},{"type":"Feature","properties":{"kind":"lift","difficulty":null,"name":null,"aerialway":"magic_carpet","osm":"way/1257594199"},"geometry":{"type":"LineString","coordinates":[[11.72036,47.32166],[11.72045,47.32177]]}}]}