{"type":"FeatureCollection","features":[{"type":"Feature","properties":{"kind":"lift","difficulty":null,"name":"Sonnenbahn","aerialway":"chair_lift","osm":"way/31005043"},"geometry":{"type":"LineString","coordinates":[[16.0299,47.51231],[16.01047,47.51926]]}},{"type":"Feature","properties":{"kind":"lift","difficulty":null,"name":"Schwaigbahn","aerialway":"chair_lift","osm":"way/31005047"},"geometry":{"type":"LineString","coordinates":[[16.01161,47.51859],[16.00051,47.51623]]}},{"type":"Feature","properties":{"kind":"lift","difficulty":null,"name":"Panoramabahn","aerialway":"chair_lift","osm":"way/31005067"},"geometry":{"type":"LineString","coordinates":[[15.99846,47.52988],[15.9858,47.51796]]}},{"type":"Feature","properties":{"kind":"piste","difficulty":"easy","name":null,"aerialway":null,"osm":"way/31005110"},"geometry":{"type":"LineString","coordinates":[[16.01047,47.51926],[16.01021,47.51931],[16.00983,47.51882],[16.00989,47.5186],[16.0105,47.51826],[16.01349,47.51738],[16.01622,47.5173],[16.01765,47.51694],[16.01907,47.51641],[16.0203,47.51611],[16.02257,47.51508],[16.02356,47.51482],[16.02461,47.51475],[16.02563,47.51441],[16.02641,47.51399],[16.0275,47.51373],[16.02836,47.51335],[16.02903,47.5124],[16.02985,47.51211],[16.0299,47.51231]]}},{"type":"Feature","properties":{"kind":"piste","difficulty":"intermediate","name":null,"aerialway":null,"osm":"way/31005378"},"geometry":{"type":"LineString","coordinates":[[16.00051,47.51623],[16.00021,47.51637],[16.0001,47.51678],[16.00025,47.51703],[16.00432,47.51745],[16.008,47.51817],[16.0089,47.51808]]}},{"type":"Feature","properties":{"kind":"piste","difficulty":"intermediate","name":null,"aerialway":null,"osm":"way/31005458"},"geometry":{"type":"LineString","coordinates":[[16.00051,47.51623],[16.00047,47.51614],[16.00086,47.51596],[16.00159,47.51589],[16.00269,47.51606],[16.00438,47.51672],[16.00515,47.51716],[16.00814,47.51775],[16.0089,47.51808],[16.01173,47.51851],[16.01161,47.51859]]}},{"type":"Feature","properties":{"kind":"piste","difficulty":"advanced","name":null,"aerialway":null,"osm":"way/102989428"},"geometry":{"type":"LineString","coordinates":[[15.98751,47.51798],[15.9892,47.51914],[15.99213,47.52017],[15.99319,47.52119],[15.99352,47.52196]]}},{"type":"Feature","properties":{"kind":"piste","difficulty":"intermediate","name":null,"aerialway":null,"osm":"way/102989437"},"geometry":{"type":"LineString","coordinates":[[15.99212,47.52411],[15.99466,47.52583],[15.99583,47.52643],[15.99732,47.52672],[15.99781,47.52738],[15.99887,47.52992],[15.99846,47.52988]]}},{"type":"Feature","properties":{"kind":"piste","difficulty":"intermediate","name":null,"aerialway":null,"osm":"way/103018252"},"geometry":{"type":"LineString","coordinates":[[15.99,47.5177],[15.9911,47.51782],[15.99541,47.51788],[15.99572,47.51802],[15.99569,47.51883],[15.99532,47.51933]]}},{"type":"Feature","properties":{"kind":"piste","difficulty":"easy","name":null,"aerialway":null,"osm":"way/103065396"},"geometry":{"type":"LineString","coordinates":[[15.9858,47.51796],[15.98751,47.51798],[15.98972,47.51779],[15.99137,47.51728],[15.99327,47.51643],[15.99596,47.51636],[15.99759,47.51653],[15.9993,47.51695],[15.99939,47.51733],[15.99906,47.51755],[15.99709,47.51859],[15.99532,47.51933],[15.99465,47.51993],[15.99384,47.52094],[15.99352,47.52196],[15.99293,47.52283],[15.99212,47.52367],[15.99212,47.52411]]}},{"type":"Feature","properties":{"kind":"piste","difficulty":"easy","name":null,"aerialway":null,"osm":"way/150173461"},"geometry":{"type":"LineString","coordinates":[[15.99212,47.52411],[15.99174,47.52467],[15.99265,47.52557],[15.99375,47.52561],[15.9938,47.52575],[15.99342,47.52636],[15.99369,47.52649],[15.99583,47.52643]]}},{"type":"Feature","properties":{"kind":"lift","difficulty":null,"name":"Tellerlift Schwaig","aerialway":"platter","osm":"way/324514338"},"geometry":{"type":"LineString","coordinates":[[16.01248,47.51738],[16.00813,47.51792]]}},{"type":"Feature","properties":{"kind":"piste","difficulty":"intermediate","name":null,"aerialway":null,"osm":"way/326513069"},"geometry":{"type":"LineString","coordinates":[[16.00086,47.51596],[16.00191,47.51605],[16.00267,47.5163],[16.00432,47.51745]]}},{"type":"Feature","properties":{"kind":"piste","difficulty":"intermediate","name":null,"aerialway":null,"osm":"way/326513070"},"geometry":{"type":"LineString","coordinates":[[16.00638,47.51782],[16.00727,47.51762]]}},{"type":"Feature","properties":{"kind":"piste","difficulty":"easy","name":null,"aerialway":null,"osm":"way/326513072"},"geometry":{"type":"LineString","coordinates":[[16.00813,47.51792],[16.0089,47.51808],[16.0125,47.51748],[16.01248,47.51738]]}},{"type":"Feature","properties":{"kind":"piste","difficulty":"easy","name":null,"aerialway":null,"osm":"way/326513073"},"geometry":{"type":"LineString","coordinates":[[15.9993,47.51695],[16.00025,47.51703]]}},{"type":"Feature","properties":{"kind":"piste","difficulty":"easy","name":null,"aerialway":null,"osm":"way/326514424"},"geometry":{"type":"LineString","coordinates":[[16.0001,47.51678],[15.99939,47.51733]]}},{"type":"Feature","properties":{"kind":"lift","difficulty":null,"name":"Kinderskiland","aerialway":"magic_carpet","osm":"way/1363898483"},"geometry":{"type":"LineString","coordinates":[[16.02928,47.51281],[16.02897,47.51322]]}},{"type":"Feature","properties":{"kind":"piste","difficulty":"novice","name":"Kinderskiland","aerialway":null,"osm":"way/1363898484"},"geometry":{"type":"LineString","coordinates":[[16.02897,47.51322],[16.02928,47.51281]]}}]}