{"type":"FeatureCollection","features":[{"type":"Feature","properties":{"kind":"piste","difficulty":"intermediate","name":null,"aerialway":null,"osm":"way/30438790"},"geometry":{"type":"LineString","coordinates":[[13.62671,47.12675],[13.62656,47.12665],[13.62669,47.12653],[13.62924,47.12576],[13.63085,47.12496],[13.63545,47.12306],[13.63632,47.12291],[13.63873,47.12188],[13.64061,47.12124],[13.64226,47.12103],[13.64327,47.12075],[13.64534,47.12061]]}},{"type":"Feature","properties":{"kind":"piste","difficulty":"easy","name":null,"aerialway":null,"osm":"way/30688824"},"geometry":{"type":"LineString","coordinates":[[13.64894,47.12016],[13.64913,47.12033],[13.65119,47.12062],[13.65418,47.12083],[13.6559,47.1208],[13.65786,47.12115]]}},{"type":"Feature","properties":{"kind":"piste","difficulty":"unknown","name":null,"aerialway":null,"osm":"way/30689621"},"geometry":{"type":"LineString","coordinates":[[13.64509,47.12062],[13.64536,47.12017],[13.64529,47.11983],[13.64462,47.11931],[13.64469,47.11905],[13.64561,47.11866],[13.64744,47.1188]]}},{"type":"Feature","properties":{"kind":"piste","difficulty":"easy","name":null,"aerialway":null,"osm":"way/30689624"},"geometry":{"type":"LineString","coordinates":[[13.65142,47.11168],[13.65102,47.1112],[13.64713,47.10838],[13.64691,47.10808],[13.64696,47.10795],[13.64811,47.1079]]}},{"type":"Feature","properties":{"kind":"piste","difficulty":"easy","name":null,"aerialway":null,"osm":"way/30689625"},"geometry":{"type":"LineString","coordinates":[[13.65245,47.10509],[13.65256,47.10463],[13.65325,47.10413],[13.65323,47.10401],[13.65253,47.10377],[13.65183,47.10384],[13.65137,47.10374],[13.65072,47.1032],[13.65033,47.10269],[13.64882,47.10217],[13.64825,47.1016],[13.64818,47.1009],[13.648,47.10085],[13.64792,47.10095]]}},{"type":"Feature","properties":{"kind":"piste","difficulty":"easy","name":null,"aerialway":null,"osm":"way/30690454"},"geometry":{"type":"LineString","coordinates":[[13.65087,47.12081],[13.65163,47.12092],[13.65165,47.12117],[13.64974,47.12222],[13.64938,47.12254],[13.64886,47.12338]]}},{"type":"Feature","properties":{"kind":"piste","difficulty":"easy","name":null,"aerialway":null,"osm":"way/100706381"},"geometry":{"type":"LineString","coordinates":[[13.64894,47.12016],[13.64817,47.11948],[13.6476,47.11923],[13.64834,47.11923],[13.64934,47.11897],[13.64836,47.11885],[13.64734,47.11799],[13.64611,47.11739],[13.64708,47.11736],[13.64753,47.11753],[13.64942,47.1178],[13.65144,47.11782],[13.65449,47.11754],[13.65523,47.11764]]}},{"type":"Feature","properties":{"kind":"piste","difficulty":"easy","name":null,"aerialway":null,"osm":"way/150500208"},"geometry":{"type":"LineString","coordinates":[[13.64886,47.11994],[13.64894,47.12016]]}},{"type":"Feature","properties":{"kind":"piste","difficulty":"easy","name":null,"aerialway":null,"osm":"way/151723447"},"geometry":{"type":"LineString","coordinates":[[13.65057,47.10662],[13.65184,47.10681],[13.65231,47.10709],[13.65212,47.10594],[13.65245,47.10509]]}},{"type":"Feature","properties":{"kind":"piste","difficulty":"easy","name":null,"aerialway":null,"osm":"way/367755038"},"geometry":{"type":"LineString","coordinates":[[13.65946,47.11339],[13.65899,47.11296],[13.65697,47.11189],[13.65641,47.11197],[13.65514,47.11182],[13.6533,47.11142],[13.65209,47.1117],[13.65142,47.11168]]}},{"type":"Feature","properties":{"kind":"piste","difficulty":"intermediate","name":null,"aerialway":null,"osm":"way/399045283"},"geometry":{"type":"LineString","coordinates":[[13.64744,47.1188],[13.64828,47.11869],[13.64849,47.11852],[13.64847,47.1183],[13.64754,47.1174],[13.64913,47.1175],[13.64938,47.11737],[13.64822,47.11648],[13.64736,47.11613],[13.64662,47.11563],[13.64696,47.11541],[13.64965,47.11484],[13.64974,47.11467],[13.64933,47.11403],[13.64933,47.11378],[13.65164,47.1137],[13.65348,47.11255],[13.65357,47.11241],[13.65346,47.11226],[13.6521,47.11239],[13.65176,47.11227],[13.65142,47.11168]]}},{"type":"Feature","properties":{"kind":"piste","difficulty":"easy","name":null,"aerialway":null,"osm":"way/497596671"},"geometry":{"type":"LineString","coordinates":[[13.65786,47.12115],[13.65879,47.12096],[13.65897,47.12081],[13.65895,47.12015],[13.65859,47.11948],[13.6572,47.11899],[13.65647,47.11852],[13.65627,47.11814],[13.6559,47.11806],[13.65523,47.11764],[13.65602,47.11787],[13.65683,47.11787],[13.65749,47.11816],[13.65923,47.11824],[13.66187,47.11922],[13.66212,47.11943],[13.66223,47.11938],[13.66217,47.11927],[13.66111,47.11832],[13.66071,47.11812],[13.66009,47.11755],[13.65917,47.11705],[13.65859,47.11646],[13.65724,47.11613],[13.65721,47.11603],[13.6589,47.11607],[13.65996,47.11633],[13.66086,47.11627],[13.66313,47.11678],[13.66199,47.11627],[13.6614,47.11576],[13.65806,47.11463],[13.65761,47.11416],[13.65599,47.1137],[13.65524,47.11323],[13.65524,47.11312],[13.6561,47.11292],[13.65854,47.11313],[13.65921,47.11352],[13.65946,47.11339]]}},{"type":"Feature","properties":{"kind":"piste","difficulty":"easy","name":null,"aerialway":null,"osm":"way/1050336048"},"geometry":{"type":"LineString","coordinates":[[13.64945,47.12048],[13.64965,47.12039]]}},{"type":"Feature","properties":{"kind":"piste","difficulty":"easy","name":null,"aerialway":null,"osm":"way/1050336049"},"geometry":{"type":"LineString","coordinates":[[13.65018,47.12046],[13.65087,47.12081]]}},{"type":"Feature","properties":{"kind":"piste","difficulty":"intermediate","name":null,"aerialway":null,"osm":"way/1355258723"},"geometry":{"type":"LineString","coordinates":[[13.63527,47.12321],[13.63584,47.12303],[13.63672,47.12296],[13.63825,47.12221],[13.64007,47.12156],[13.64404,47.1207],[13.6452,47.12066],[13.64531,47.12047],[13.64402,47.12047],[13.64236,47.12094],[13.64024,47.12121],[13.63489,47.12317],[13.63527,47.12321]]}},{"type":"Feature","properties":{"kind":"piste","difficulty":"intermediate","name":null,"aerialway":null,"osm":"way/1355441551"},"geometry":{"type":"LineString","coordinates":[[13.64534,47.12061],[13.64759,47.12045],[13.64894,47.12016]]}},{"type":"Feature","properties":{"kind":"piste","difficulty":"easy","name":null,"aerialway":null,"osm":"way/1355441552"},"geometry":{"type":"LineString","coordinates":[[13.64969,47.12205],[13.65134,47.12129],[13.65149,47.12115],[13.6513,47.12101],[13.65174,47.12085],[13.65204,47.121],[13.652,47.12112],[13.64987,47.12233],[13.64934,47.12299],[13.64951,47.12306],[13.64854,47.12301],[13.64969,47.12205]]}},{"type":"Feature","properties":{"kind":"piste","difficulty":"easy","name":null,"aerialway":null,"osm":"way/1355441555"},"geometry":{"type":"LineString","coordinates":[[13.64843,47.12038],[13.65174,47.12085],[13.6513,47.12101],[13.64755,47.1207],[13.64722,47.12062],[13.64711,47.12045],[13.64843,47.12038]]}},{"type":"Feature","properties":{"kind":"piste","difficulty":"easy","name":null,"aerialway":null,"osm":"way/1355441556"},"geometry":{"type":"LineString","coordinates":[[13.64905,47.12015],[13.64919,47.1203],[13.65031,47.12048],[13.65414,47.12076],[13.65599,47.12075],[13.65678,47.12051],[13.65727,47.12056],[13.65895,47.12113],[13.65932,47.12136],[13.65945,47.1216],[13.65939,47.12178],[13.65591,47.12086],[13.65306,47.1209],[13.65039,47.12066],[13.64893,47.12039],[13.64905,47.12015]]}},{"type":"Feature","properties":{"kind":"piste","difficulty":"easy","name":null,"aerialway":null,"osm":"way/1355441557"},"geometry":{"type":"LineString","coordinates":[[13.64908,47.12],[13.64869,47.11998],[13.64803,47.12027],[13.64893,47.12039],[13.64908,47.12]]}},{"type":"Feature","properties":{"kind":"piste","difficulty":"novice","name":"Smarty Land","aerialway":null,"osm":"way/1355441558"},"geometry":{"type":"LineString","coordinates":[[13.65031,47.12048],[13.64923,47.12022],[13.6493,47.11988],[13.64912,47.12007],[13.64908,47.12],[13.64919,47.1197],[13.64985,47.12022],[13.65067,47.1205],[13.65031,47.12048]]}},{"type":"Feature","properties":{"kind":"piste","difficulty":"intermediate","name":null,"aerialway":null,"osm":"way/1355441559"},"geometry":{"type":"LineString","coordinates":[[13.6476,47.11923],[13.64733,47.11902],[13.64744,47.1188]]}},{"type":"Feature","properties":{"kind":"piste","difficulty":"easy","name":null,"aerialway":null,"osm":"way/1355441560"},"geometry":{"type":"LineString","coordinates":[[13.64462,47.12091],[13.64569,47.12051],[13.64705,47.12036],[13.64947,47.12069]]}},{"type":"Feature","properties":{"kind":"piste","difficulty":"easy","name":null,"aerialway":null,"osm":"way/1355441561"},"geometry":{"type":"LineString","coordinates":[[13.64894,47.12016],[13.64921,47.12058],[13.64947,47.12069],[13.65087,47.12081]]}},{"type":"Feature","properties":{"kind":"piste","difficulty":"easy","name":null,"aerialway":null,"osm":"way/1355441562"},"geometry":{"type":"LineString","coordinates":[[13.64499,47.1209],[13.64453,47.1209],[13.6451,47.12075],[13.64531,47.12047],[13.64682,47.12029],[13.64803,47.12027],[13.64843,47.12038],[13.64711,47.12045],[13.64722,47.12062],[13.64606,47.12062],[13.64499,47.1209]]}},{"type":"Feature","properties":{"kind":"piste","difficulty":"intermediate","name":null,"aerialway":null,"osm":"way/1355441564"},"geometry":{"type":"LineString","coordinates":[[13.64796,47.11861],[13.64728,47.11871],[13.64709,47.11891],[13.64751,47.11927],[13.64768,47.11918],[13.64744,47.11898],[13.64864,47.1187],[13.6487,47.11828],[13.64811,47.11788],[13.64785,47.11753],[13.64805,47.11743],[13.64926,47.11755],[13.64946,47.11748],[13.64948,47.11728],[13.64828,47.11643],[13.6471,47.11591],[13.64695,47.11565],[13.64952,47.11503],[13.64935,47.11474],[13.647,47.11522],[13.64626,47.11553],[13.64719,47.11613],[13.64809,47.1165],[13.64919,47.11736],[13.64907,47.11744],[13.64763,47.11725],[13.64716,47.11735],[13.64812,47.11817],[13.6482,47.11837],[13.64796,47.11861]]}},{"type":"Feature","properties":{"kind":"piste","difficulty":"intermediate","name":null,"aerialway":null,"osm":"way/1355441565"},"geometry":{"type":"LineString","coordinates":[[13.64952,47.11503],[13.64991,47.11484],[13.64956,47.11421],[13.64958,47.11389],[13.65079,47.11393],[13.65179,47.11371],[13.65346,47.11269],[13.65377,47.11242],[13.65375,47.1123],[13.65326,47.11215],[13.65231,47.11229],[13.65173,47.11196],[13.65161,47.11175],[13.65133,47.11172],[13.65139,47.11214],[13.65172,47.11248],[13.65327,47.11233],[13.65336,47.1125],[13.65163,47.11363],[13.64903,47.11365],[13.64914,47.11409],[13.64955,47.11457],[13.64951,47.11471],[13.64935,47.11474],[13.64952,47.11503]]}},{"type":"Feature","properties":{"kind":"piste","difficulty":"easy","name":null,"aerialway":null,"osm":"way/1355441566"},"geometry":{"type":"LineString","coordinates":[[13.65161,47.11175],[13.65086,47.11101],[13.65007,47.11053],[13.64902,47.10951],[13.64764,47.10863],[13.64722,47.1084],[13.64716,47.10848],[13.6492,47.11011],[13.65096,47.11123],[13.65133,47.11172],[13.65161,47.11175]]}},{"type":"Feature","properties":{"kind":"piste","difficulty":"intermediate","name":null,"aerialway":null,"osm":"way/1355441567"},"geometry":{"type":"LineString","coordinates":[[13.6474,47.10857],[13.64768,47.10811],[13.64811,47.1079]]}},{"type":"Feature","properties":{"kind":"piste","difficulty":"easy","name":null,"aerialway":null,"osm":"way/1355441568"},"geometry":{"type":"LineString","coordinates":[[13.64811,47.1079],[13.65057,47.10662]]}},{"type":"Feature","properties":{"kind":"piste","difficulty":"easy","name":null,"aerialway":null,"osm":"way/1355441569"},"geometry":{"type":"LineString","coordinates":[[13.64783,47.10826],[13.64747,47.10813],[13.64765,47.10796],[13.64892,47.10744],[13.64963,47.10688],[13.65107,47.10608],[13.6516,47.10633],[13.65103,47.10659],[13.65193,47.10682],[13.65065,47.10672],[13.64952,47.10745],[13.64783,47.10826]]}},{"type":"Feature","properties":{"kind":"piste","difficulty":"intermediate","name":null,"aerialway":null,"osm":"way/1355441570"},"geometry":{"type":"LineString","coordinates":[[13.64747,47.10813],[13.64722,47.1084],[13.64764,47.10863],[13.64783,47.10826],[13.64747,47.10813]]}},{"type":"Feature","properties":{"kind":"piste","difficulty":"easy","name":null,"aerialway":null,"osm":"way/1355441571"},"geometry":{"type":"LineString","coordinates":[[13.65214,47.10574],[13.65221,47.10502],[13.65305,47.10399],[13.65243,47.10381],[13.65147,47.10383],[13.65092,47.10348],[13.65026,47.1027],[13.64935,47.10248],[13.64869,47.10217],[13.64807,47.10155],[13.64804,47.10078],[13.64828,47.10082],[13.64825,47.10129],[13.64877,47.10208],[13.64943,47.10243],[13.65051,47.10273],[13.65082,47.10323],[13.6515,47.10375],[13.65289,47.10378],[13.6534,47.10403],[13.65327,47.10426],[13.65267,47.10458],[13.65257,47.10537],[13.65214,47.10574]]}},{"type":"Feature","properties":{"kind":"piste","difficulty":"intermediate","name":null,"aerialway":null,"osm":"way/1355441572"},"geometry":{"type":"LineString","coordinates":[[13.65107,47.10608],[13.65156,47.10576],[13.65221,47.10502],[13.65214,47.10574],[13.6516,47.10633],[13.65107,47.10608]]}},{"type":"Feature","properties":{"kind":"piste","difficulty":"intermediate","name":null,"aerialway":null,"osm":"way/1355471822"},"geometry":{"type":"LineString","coordinates":[[13.65057,47.10662],[13.65156,47.10608],[13.65245,47.10509]]}},{"type":"Feature","properties":{"kind":"piste","difficulty":"intermediate","name":null,"aerialway":null,"osm":"way/1377290398"},"geometry":{"type":"LineString","coordinates":[[13.64658,47.1204],[13.64731,47.11889]]}},{"type":"Feature","properties":{"kind":"piste","difficulty":"intermediate","name":null,"aerialway":null,"osm":"way/1377290399"},"geometry":{"type":"LineString","coordinates":[[13.64636,47.12032],[13.64683,47.11961],[13.64709,47.11891],[13.64736,47.11916],[13.64682,47.12029],[13.64636,47.12032]]}},{"type":"Feature","properties":{"kind":"lift","difficulty":null,"name":"Trogalmbahn","aerialway":"chair_lift","osm":"way/30189485"},"geometry":{"type":"LineString","coordinates":[[13.65046,47.12366],[13.64462,47.12091]]}},{"type":"Feature","properties":{"kind":"lift","difficulty":null,"name":"Stockerboden","aerialway":"t-bar","osm":"way/30688676"},"geometry":{"type":"LineString","coordinates":[[13.65952,47.12186],[13.64853,47.12035]]}},{"type":"Feature","properties":{"kind":"lift","difficulty":null,"name":"Sonnenbahn","aerialway":"gondola","osm":"way/30688677"},"geometry":{"type":"LineString","coordinates":[[13.64792,47.10095],[13.64886,47.11994]]}},{"type":"Feature","properties":{"kind":"lift","difficulty":null,"name":"Großeckbahn II","aerialway":"chair_lift","osm":"way/30189481"},"geometry":{"type":"LineString","coordinates":[[13.6558,47.12916],[13.6461,47.13021]]}},{"type":"Feature","properties":{"kind":"lift","difficulty":null,"name":"Speiereck-Gipfelbahn","aerialway":"chair_lift","osm":"way/30189483"},"geometry":{"type":"LineString","coordinates":[[13.6486,47.12385],[13.62671,47.12675]]}},{"type":"Feature","properties":{"kind":"piste","difficulty":"advanced","name":null,"aerialway":null,"osm":"way/30688822"},"geometry":{"type":"LineString","coordinates":[[13.63463,47.1234],[13.63611,47.12365],[13.63978,47.12398],[13.64189,47.1244],[13.64365,47.12439],[13.6462,47.12405]]}},{"type":"Feature","properties":{"kind":"piste","difficulty":"easy","name":null,"aerialway":null,"osm":"way/30689630"},"geometry":{"type":"LineString","coordinates":[[13.64886,47.12338],[13.64902,47.12361],[13.64893,47.12408],[13.64913,47.12435],[13.64978,47.12446],[13.65223,47.12449],[13.6523,47.12458]]}},{"type":"Feature","properties":{"kind":"piste","difficulty":"easy","name":null,"aerialway":null,"osm":"way/30690527"},"geometry":{"type":"LineString","coordinates":[[13.6618,47.13928],[13.66168,47.13992],[13.6634,47.14176],[13.66303,47.14188]]}},{"type":"Feature","properties":{"kind":"lift","difficulty":null,"name":"Sonnenalm","aerialway":"chair_lift","osm":"way/150500116"},"geometry":{"type":"LineString","coordinates":[[13.6523,47.12458],[13.649,47.12831]]}},{"type":"Feature","properties":{"kind":"piste","difficulty":"easy","name":null,"aerialway":null,"osm":"way/150500143"},"geometry":{"type":"LineString","coordinates":[[13.64523,47.13034],[13.64279,47.13023],[13.6422,47.13009],[13.64223,47.12996],[13.64391,47.12964],[13.64464,47.12901],[13.6457,47.12839],[13.64638,47.12816],[13.64751,47.12807],[13.64934,47.12841]]}},{"type":"Feature","properties":{"kind":"piste","difficulty":"easy","name":null,"aerialway":null,"osm":"way/150500148"},"geometry":{"type":"LineString","coordinates":[[13.64934,47.12841],[13.65011,47.12856]]}},{"type":"Feature","properties":{"kind":"lift","difficulty":null,"name":null,"aerialway":"rope_tow","osm":"way/150500196"},"geometry":{"type":"LineString","coordinates":[[13.6636,47.14158],[13.66351,47.14119]]}},{"type":"Feature","properties":{"kind":"lift","difficulty":null,"name":"Übungslift Mauterndorf II","aerialway":"t-bar","osm":"way/150500202"},"geometry":{"type":"LineString","coordinates":[[13.66345,47.14141],[13.66204,47.13757]]}},{"type":"Feature","properties":{"kind":"lift","difficulty":null,"name":"Übungslift Mauterndorf I","aerialway":"t-bar","osm":"way/150500205"},"geometry":{"type":"LineString","coordinates":[[13.66333,47.14145],[13.66218,47.13832]]}},{"type":"Feature","properties":{"kind":"piste","difficulty":"easy","name":null,"aerialway":null,"osm":"way/150500211"},"geometry":{"type":"LineString","coordinates":[[13.65505,47.12984],[13.65575,47.12953],[13.65593,47.12931],[13.6558,47.12916]]}},{"type":"Feature","properties":{"kind":"piste","difficulty":"easy","name":null,"aerialway":null,"osm":"way/150500212"},"geometry":{"type":"LineString","coordinates":[[13.66218,47.13796],[13.6618,47.13928]]}},{"type":"Feature","properties":{"kind":"piste","difficulty":"intermediate","name":null,"aerialway":null,"osm":"way/151278419"},"geometry":{"type":"LineString","coordinates":[[13.65237,47.13616],[13.65258,47.13676],[13.65244,47.1372],[13.65272,47.13737],[13.65363,47.13734],[13.65487,47.13802],[13.6544,47.13878],[13.65436,47.13976],[13.65563,47.13977],[13.65578,47.14014],[13.65536,47.14071],[13.65522,47.14151],[13.65535,47.14162],[13.6565,47.14134],[13.65826,47.14157],[13.6604,47.14105],[13.66118,47.14102],[13.66221,47.14139],[13.66293,47.14189],[13.66306,47.14183]]}},{"type":"Feature","properties":{"kind":"piste","difficulty":"unknown","name":null,"aerialway":null,"osm":"way/151723451"},"geometry":{"type":"LineString","coordinates":[[13.63978,47.12398],[13.64124,47.12368],[13.64724,47.12382]]}},{"type":"Feature","properties":{"kind":"piste","difficulty":"easy","name":null,"aerialway":null,"osm":"way/205215649"},"geometry":{"type":"LineString","coordinates":[[13.65073,47.12914],[13.65111,47.12943],[13.65146,47.12939],[13.65164,47.12934],[13.65188,47.12892],[13.65231,47.12866],[13.65339,47.12856],[13.65381,47.12872],[13.65414,47.12954],[13.65444,47.12974],[13.65505,47.12984]]}},{"type":"Feature","properties":{"kind":"piste","difficulty":"easy","name":null,"aerialway":null,"osm":"way/206666059"},"geometry":{"type":"LineString","coordinates":[[13.662,47.14129],[13.66271,47.14126],[13.66324,47.14147],[13.66345,47.14141]]}},{"type":"Feature","properties":{"kind":"lift","difficulty":null,"name":"Großeckbahn","aerialway":"gondola","osm":"way/298198898"},"geometry":{"type":"LineString","coordinates":[[13.66306,47.14183],[13.65043,47.12859]]}},{"type":"Feature","properties":{"kind":"piste","difficulty":"intermediate","name":null,"aerialway":null,"osm":"way/399045281"},"geometry":{"type":"LineString","coordinates":[[13.65011,47.12856],[13.65054,47.12586],[13.65091,47.12447]]}},{"type":"Feature","properties":{"kind":"piste","difficulty":"easy","name":null,"aerialway":null,"osm":"way/399045282"},"geometry":{"type":"LineString","coordinates":[[13.64644,47.1268],[13.64578,47.12581]]}},{"type":"Feature","properties":{"kind":"piste","difficulty":"easy","name":null,"aerialway":null,"osm":"way/552784896"},"geometry":{"type":"LineString","coordinates":[[13.65237,47.13616],[13.65379,47.13577],[13.65455,47.13542],[13.65515,47.13488],[13.65624,47.13441],[13.65838,47.13425],[13.65819,47.1344],[13.6567,47.13473],[13.65611,47.13526],[13.65596,47.13596],[13.65547,47.13638],[13.65535,47.13695],[13.65495,47.13751],[13.65493,47.13799],[13.65401,47.13843],[13.65341,47.13933],[13.65331,47.1398],[13.65284,47.1404],[13.65271,47.14127],[13.65145,47.14243],[13.65046,47.14294],[13.64949,47.14389],[13.64957,47.14397],[13.65022,47.14369],[13.65347,47.14281],[13.6541,47.14245],[13.65619,47.14165],[13.65667,47.14122],[13.65819,47.14065],[13.65852,47.14044],[13.65881,47.13999],[13.65924,47.13978],[13.65949,47.13938],[13.66017,47.13884],[13.6605,47.1384]]}},{"type":"Feature","properties":{"kind":"piste","difficulty":"easy","name":null,"aerialway":null,"osm":"way/552787578"},"geometry":{"type":"LineString","coordinates":[[13.65786,47.12115],[13.65916,47.12155],[13.65936,47.12173],[13.65932,47.12183]]}},{"type":"Feature","properties":{"kind":"piste","difficulty":"easy","name":null,"aerialway":null,"osm":"way/1011505001"},"geometry":{"type":"LineString","coordinates":[[13.64565,47.12561],[13.64517,47.12503],[13.64604,47.12414]]}},{"type":"Feature","properties":{"kind":"piste","difficulty":"easy","name":null,"aerialway":null,"osm":"way/1011505002"},"geometry":{"type":"LineString","coordinates":[[13.64578,47.12581],[13.64565,47.12561]]}},{"type":"Feature","properties":{"kind":"lift","difficulty":null,"name":null,"aerialway":"magic_carpet","osm":"way/1050336042"},"geometry":{"type":"LineString","coordinates":[[13.6637,47.14169],[13.66343,47.14162]]}},{"type":"Feature","properties":{"kind":"piste","difficulty":"novice","name":"Kinderland","aerialway":null,"osm":"way/1050336043"},"geometry":{"type":"LineString","coordinates":[[13.66343,47.14162],[13.6637,47.14169]]}},{"type":"Feature","properties":{"kind":"piste","difficulty":"novice","name":"Kinderland","aerialway":null,"osm":"way/1050336044"},"geometry":{"type":"LineString","coordinates":[[13.66351,47.14119],[13.6636,47.14158]]}},{"type":"Feature","properties":{"kind":"piste","difficulty":"novice","name":"Kinderland","aerialway":null,"osm":"way/1050336046"},"geometry":{"type":"LineString","coordinates":[[13.66329,47.14147],[13.6637,47.14169]]}},{"type":"Feature","properties":{"kind":"piste","difficulty":"intermediate","name":null,"aerialway":null,"osm":"way/1052436680"},"geometry":{"type":"LineString","coordinates":[[13.64634,47.13019],[13.64569,47.13025],[13.64615,47.12979],[13.64677,47.12943],[13.64901,47.12914],[13.65073,47.12914],[13.65263,47.12887],[13.65345,47.12901],[13.65448,47.1294],[13.6554,47.12945],[13.65593,47.12931]]}},{"type":"Feature","properties":{"kind":"piste","difficulty":"easy","name":null,"aerialway":null,"osm":"way/1052436681"},"geometry":{"type":"LineString","coordinates":[[13.64634,47.13019],[13.64523,47.13034]]}},{"type":"Feature","properties":{"kind":"piste","difficulty":"intermediate","name":null,"aerialway":null,"osm":"way/1052436682"},"geometry":{"type":"LineString","coordinates":[[13.64901,47.12914],[13.65011,47.12856]]}},{"type":"Feature","properties":{"kind":"piste","difficulty":"easy","name":null,"aerialway":null,"osm":"way/1052436683"},"geometry":{"type":"LineString","coordinates":[[13.649,47.12831],[13.64895,47.12839]]}},{"type":"Feature","properties":{"kind":"piste","difficulty":"easy","name":null,"aerialway":null,"osm":"way/1052436684"},"geometry":{"type":"LineString","coordinates":[[13.65043,47.12859],[13.64994,47.12836]]}},{"type":"Feature","properties":{"kind":"piste","difficulty":"easy","name":null,"aerialway":null,"osm":"way/1052436685"},"geometry":{"type":"LineString","coordinates":[[13.65011,47.12856],[13.65073,47.12914]]}},{"type":"Feature","properties":{"kind":"piste","difficulty":"easy","name":null,"aerialway":null,"osm":"way/1052436687"},"geometry":{"type":"LineString","coordinates":[[13.66232,47.13868],[13.66224,47.13984],[13.66269,47.14102]]}},{"type":"Feature","properties":{"kind":"piste","difficulty":"novice","name":"Kinderland","aerialway":null,"osm":"way/1052436688"},"geometry":{"type":"LineString","coordinates":[[13.66329,47.14147],[13.66342,47.14162]]}},{"type":"Feature","properties":{"kind":"piste","difficulty":"novice","name":"Kinderland","aerialway":null,"osm":"way/1052436689"},"geometry":{"type":"LineString","coordinates":[[13.66343,47.14162],[13.6636,47.14158]]}},{"type":"Feature","properties":{"kind":"piste","difficulty":"easy","name":null,"aerialway":null,"osm":"way/1127524254"},"geometry":{"type":"LineString","coordinates":[[13.64553,47.13036],[13.64523,47.13034]]}},{"type":"Feature","properties":{"kind":"piste","difficulty":"easy","name":null,"aerialway":null,"osm":"way/1127524255"},"geometry":{"type":"LineString","coordinates":[[13.65011,47.12856],[13.65031,47.12848]]}},{"type":"Feature","properties":{"kind":"piste","difficulty":"easy","name":null,"aerialway":null,"osm":"way/1302952650"},"geometry":{"type":"LineString","coordinates":[[13.65011,47.12856],[13.64945,47.12765],[13.64693,47.12689],[13.64561,47.12667]]}},{"type":"Feature","properties":{"kind":"piste","difficulty":"easy","name":null,"aerialway":null,"osm":"way/1302952651"},"geometry":{"type":"LineString","coordinates":[[13.64561,47.12667],[13.64581,47.12651],[13.64696,47.12635],[13.64693,47.12625],[13.6462,47.12603]]}},{"type":"Feature","properties":{"kind":"piste","difficulty":"easy","name":null,"aerialway":null,"osm":"way/1303415523"},"geometry":{"type":"LineString","coordinates":[[13.65363,47.13374],[13.65327,47.13398],[13.65293,47.13475],[13.65199,47.13503],[13.65166,47.13534],[13.65141,47.13585],[13.65078,47.13602],[13.6508,47.13631],[13.64998,47.13693],[13.64997,47.13709]]}},{"type":"Feature","properties":{"kind":"piste","difficulty":"easy","name":null,"aerialway":null,"osm":"way/1303417962"},"geometry":{"type":"LineString","coordinates":[[13.65593,47.13129],[13.6576,47.12991],[13.65722,47.13038],[13.65688,47.1311],[13.65682,47.13169],[13.65634,47.13267]]}},{"type":"Feature","properties":{"kind":"piste","difficulty":"easy","name":null,"aerialway":null,"osm":"way/1303417963"},"geometry":{"type":"LineString","coordinates":[[13.65585,47.13008],[13.65573,47.13067],[13.65466,47.13199],[13.65551,47.13163],[13.65593,47.13129]]}},{"type":"Feature","properties":{"kind":"piste","difficulty":"intermediate","name":null,"aerialway":null,"osm":"way/1303417964"},"geometry":{"type":"LineString","coordinates":[[13.65593,47.13129],[13.65616,47.13122],[13.65629,47.13132],[13.65618,47.13182],[13.65634,47.13267]]}},{"type":"Feature","properties":{"kind":"piste","difficulty":"easy","name":null,"aerialway":null,"osm":"way/1303417965"},"geometry":{"type":"LineString","coordinates":[[13.65634,47.13267],[13.65492,47.13314],[13.65363,47.13374]]}},{"type":"Feature","properties":{"kind":"piste","difficulty":"intermediate","name":null,"aerialway":null,"osm":"way/1303417966"},"geometry":{"type":"LineString","coordinates":[[13.65363,47.13374],[13.65326,47.13489],[13.65236,47.13573],[13.65225,47.1361],[13.65237,47.13616]]}},{"type":"Feature","properties":{"kind":"piste","difficulty":"intermediate","name":null,"aerialway":null,"osm":"way/1355253133"},"geometry":{"type":"LineString","coordinates":[[13.6612,47.14125],[13.66049,47.14113],[13.65888,47.14161],[13.65815,47.14167],[13.65724,47.14149],[13.65624,47.14152],[13.65563,47.1417],[13.65509,47.14166],[13.6552,47.14073],[13.65555,47.14003],[13.65532,47.1399],[13.65412,47.13982],[13.65412,47.13876],[13.65465,47.13804],[13.65392,47.13756],[13.65226,47.13734],[13.65238,47.13673],[13.65214,47.1361],[13.65219,47.13573],[13.6523,47.13546],[13.65306,47.13502],[13.65332,47.1341],[13.65379,47.13378],[13.65351,47.13449],[13.65349,47.13495],[13.65265,47.13575],[13.65291,47.13653],[13.65273,47.13723],[13.65378,47.13721],[13.65452,47.13744],[13.65503,47.138],[13.65466,47.13872],[13.65454,47.13959],[13.655,47.13966],[13.65554,47.13952],[13.65577,47.13955],[13.65601,47.13977],[13.65598,47.14016],[13.65557,47.14067],[13.65544,47.14138],[13.65575,47.14142],[13.65655,47.14117],[13.65745,47.14118],[13.65861,47.14145],[13.66059,47.14081],[13.66098,47.14081],[13.6623,47.14119],[13.66301,47.14186],[13.66284,47.14191],[13.66252,47.14166],[13.66223,47.14166],[13.6612,47.14125]]}},{"type":"Feature","properties":{"kind":"piste","difficulty":"easy","name":null,"aerialway":null,"osm":"way/1355253134"},"geometry":{"type":"LineString","coordinates":[[13.66047,47.13851],[13.66069,47.13828],[13.66096,47.13859],[13.66172,47.13888],[13.66192,47.13852],[13.66203,47.13786],[13.66218,47.13783],[13.66214,47.13837],[13.66341,47.14173],[13.6623,47.14119],[13.66232,47.14097],[13.6613,47.13968],[13.66137,47.13913],[13.66047,47.13851]]}},{"type":"Feature","properties":{"kind":"piste","difficulty":"novice","name":null,"aerialway":null,"osm":"way/1355253135"},"geometry":{"type":"LineString","coordinates":[[13.66341,47.14155],[13.66349,47.14118],[13.66375,47.14127],[13.66381,47.14168],[13.66361,47.1419],[13.66335,47.14166],[13.66341,47.14155]]}},{"type":"Feature","properties":{"kind":"piste","difficulty":"easy","name":null,"aerialway":null,"osm":"way/1355253136"},"geometry":{"type":"LineString","coordinates":[[13.66341,47.14173],[13.66348,47.14179],[13.66307,47.14197],[13.66284,47.14191],[13.66341,47.14173]]}},{"type":"Feature","properties":{"kind":"piste","difficulty":"easy","name":null,"aerialway":null,"osm":"way/1355253137"},"geometry":{"type":"LineString","coordinates":[[13.65586,47.12975],[13.65594,47.13036],[13.65585,47.13069],[13.65478,47.1319],[13.65544,47.1316],[13.65632,47.13095],[13.65633,47.13113],[13.65563,47.13166],[13.65461,47.13211],[13.65448,47.132],[13.65456,47.13183],[13.65572,47.13057],[13.65576,47.13036],[13.65513,47.13],[13.65586,47.12975]]}},{"type":"Feature","properties":{"kind":"piste","difficulty":"easy","name":null,"aerialway":null,"osm":"way/1355253138"},"geometry":{"type":"LineString","coordinates":[[13.64997,47.13709],[13.65133,47.13633],[13.65237,47.13616]]}},{"type":"Feature","properties":{"kind":"piste","difficulty":"easy","name":null,"aerialway":null,"osm":"way/1355253139"},"geometry":{"type":"LineString","coordinates":[[13.6605,47.1384],[13.6618,47.13928]]}},{"type":"Feature","properties":{"kind":"piste","difficulty":"intermediate","name":null,"aerialway":null,"osm":"way/1355253140"},"geometry":{"type":"LineString","coordinates":[[13.64603,47.13013],[13.64545,47.13024],[13.64552,47.13008],[13.64619,47.12936],[13.64636,47.12893],[13.64676,47.12886],[13.65004,47.12863],[13.6504,47.12896],[13.65049,47.12931],[13.65104,47.12962],[13.64971,47.12972],[13.64908,47.12958],[13.64603,47.13013]]}},{"type":"Feature","properties":{"kind":"piste","difficulty":"easy","name":null,"aerialway":null,"osm":"way/1355253141"},"geometry":{"type":"LineString","coordinates":[[13.65031,47.12848],[13.65026,47.12868]]}},{"type":"Feature","properties":{"kind":"piste","difficulty":"easy","name":null,"aerialway":null,"osm":"way/1355253142"},"geometry":{"type":"LineString","coordinates":[[13.65505,47.12984],[13.65546,47.12987],[13.65585,47.13008]]}},{"type":"Feature","properties":{"kind":"piste","difficulty":"easy","name":null,"aerialway":null,"osm":"way/1355253144"},"geometry":{"type":"LineString","coordinates":[[13.65366,47.12875],[13.65291,47.12871],[13.65237,47.12882],[13.65179,47.12955],[13.65104,47.12962],[13.65049,47.12931],[13.6504,47.12896],[13.65004,47.12863],[13.6503,47.12854],[13.65088,47.12917],[13.6513,47.12931],[13.65158,47.12921],[13.65193,47.12865],[13.65272,47.12831],[13.6533,47.12822],[13.65389,47.12835],[13.65418,47.12856],[13.65434,47.1295],[13.65461,47.12968],[13.65506,47.12972],[13.65549,47.12955],[13.65581,47.12922],[13.65607,47.1293],[13.65615,47.12948],[13.65586,47.12975],[13.65513,47.13],[13.65466,47.12999],[13.65414,47.12983],[13.6539,47.1296],[13.65397,47.129],[13.65366,47.12875]]}},{"type":"Feature","properties":{"kind":"piste","difficulty":"intermediate","name":null,"aerialway":null,"osm":"way/1355253145"},"geometry":{"type":"LineString","coordinates":[[13.6522,47.129],[13.65237,47.12882],[13.65291,47.12871],[13.65366,47.12875],[13.65397,47.129],[13.65384,47.12947],[13.65325,47.12913],[13.6522,47.129]]}},{"type":"Feature","properties":{"kind":"piste","difficulty":"intermediate","name":null,"aerialway":null,"osm":"way/1355253146"},"geometry":{"type":"LineString","coordinates":[[13.6513,47.12931],[13.65158,47.12921],[13.65193,47.12865],[13.65071,47.12896],[13.65109,47.12931],[13.6513,47.12931]]}},{"type":"Feature","properties":{"kind":"piste","difficulty":"unknown","name":null,"aerialway":null,"osm":"way/1355253147"},"geometry":{"type":"LineString","coordinates":[[13.65046,47.12848],[13.6507,47.12848],[13.65071,47.12896],[13.65057,47.12882],[13.65066,47.12868],[13.65046,47.12848]]}},{"type":"Feature","properties":{"kind":"piste","difficulty":"intermediate","name":null,"aerialway":null,"osm":"way/1355253148"},"geometry":{"type":"LineString","coordinates":[[13.65581,47.12922],[13.65549,47.12955],[13.65506,47.12972],[13.65461,47.12968],[13.65434,47.1295],[13.65429,47.12906],[13.65464,47.12932],[13.65581,47.12922]]}},{"type":"Feature","properties":{"kind":"piste","difficulty":"intermediate","name":null,"aerialway":null,"osm":"way/1355258706"},"geometry":{"type":"LineString","coordinates":[[13.65049,47.12784],[13.65034,47.12833],[13.65009,47.12834],[13.64995,47.12819],[13.64988,47.12776],[13.65044,47.12454],[13.6512,47.12457],[13.65074,47.12626],[13.65049,47.12784]]}},{"type":"Feature","properties":{"kind":"piste","difficulty":"easy","name":null,"aerialway":null,"osm":"way/1355258708"},"geometry":{"type":"LineString","coordinates":[[13.65009,47.12834],[13.64986,47.12831],[13.64942,47.12768],[13.64915,47.12756],[13.64612,47.12679],[13.64593,47.12613],[13.64511,47.12507],[13.64589,47.12419],[13.64658,47.12409],[13.64594,47.12442],[13.64535,47.12514],[13.64611,47.12597],[13.64652,47.12662],[13.64673,47.12681],[13.64912,47.12741],[13.64978,47.12776],[13.65009,47.12834]]}},{"type":"Feature","properties":{"kind":"piste","difficulty":"easy","name":null,"aerialway":null,"osm":"way/1355258709"},"geometry":{"type":"LineString","coordinates":[[13.64991,47.12864],[13.64969,47.12858],[13.64986,47.12831],[13.65062,47.1284],[13.64991,47.12864]]}},{"type":"Feature","properties":{"kind":"piste","difficulty":"easy","name":null,"aerialway":null,"osm":"way/1355258710"},"geometry":{"type":"LineString","coordinates":[[13.6462,47.12405],[13.64724,47.12382],[13.64827,47.12337],[13.64886,47.12338]]}},{"type":"Feature","properties":{"kind":"piste","difficulty":"easy","name":null,"aerialway":null,"osm":"way/1355258713"},"geometry":{"type":"LineString","coordinates":[[13.64604,47.12414],[13.6462,47.12405]]}},{"type":"Feature","properties":{"kind":"piste","difficulty":"easy","name":null,"aerialway":null,"osm":"way/1355258715"},"geometry":{"type":"LineString","coordinates":[[13.6462,47.12603],[13.64578,47.12581]]}},{"type":"Feature","properties":{"kind":"piste","difficulty":"easy","name":null,"aerialway":null,"osm":"way/1355258716"},"geometry":{"type":"LineString","coordinates":[[13.64886,47.12338],[13.64886,47.12371],[13.6486,47.12385]]}},{"type":"Feature","properties":{"kind":"piste","difficulty":"advanced","name":null,"aerialway":null,"osm":"way/1355258719"},"geometry":{"type":"LineString","coordinates":[[13.63528,47.12325],[13.63482,47.12364],[13.63594,47.12394],[13.63855,47.12407],[13.64061,47.12437],[13.64177,47.12468],[13.64589,47.12419],[13.6461,47.12398],[13.64257,47.12429],[13.64059,47.12374],[13.63834,47.12362],[13.63528,47.12325]]}},{"type":"Feature","properties":{"kind":"piste","difficulty":"easy","name":null,"aerialway":null,"osm":"way/1355258720"},"geometry":{"type":"LineString","coordinates":[[13.64589,47.12419],[13.64742,47.12397],[13.64854,47.12351],[13.64854,47.12301],[13.64673,47.12382],[13.6461,47.12398],[13.64589,47.12419]]}},{"type":"Feature","properties":{"kind":"piste","difficulty":"easy","name":null,"aerialway":null,"osm":"way/1355258721"},"geometry":{"type":"LineString","coordinates":[[13.65064,47.12369],[13.65038,47.12354],[13.64891,47.12361],[13.64885,47.12375],[13.6488,47.12361],[13.64854,47.12351],[13.64854,47.12301],[13.64951,47.12306],[13.65009,47.12336],[13.65043,47.12335],[13.65065,47.12345],[13.65064,47.12369]]}},{"type":"Feature","properties":{"kind":"piste","difficulty":"intermediate","name":null,"aerialway":null,"osm":"way/1355258722"},"geometry":{"type":"LineString","coordinates":[[13.62749,47.12613],[13.62659,47.1264],[13.62642,47.12659],[13.62645,47.12683],[13.62661,47.12683],[13.62666,47.12664],[13.62777,47.12645],[13.63482,47.12364],[13.63527,47.12321],[13.63432,47.12322],[13.63378,47.12342],[13.62909,47.1256],[13.62749,47.12613]]}},{"type":"Feature","properties":{"kind":"piste","difficulty":"easy","name":null,"aerialway":null,"osm":"way/1355441553"},"geometry":{"type":"LineString","coordinates":[[13.64886,47.12338],[13.65035,47.12342],[13.65065,47.12355],[13.65056,47.12371],[13.65046,47.12366]]}},{"type":"Feature","properties":{"kind":"piste","difficulty":"easy","name":null,"aerialway":null,"osm":"way/1377290400"},"geometry":{"type":"LineString","coordinates":[[13.66269,47.14102],[13.66243,47.14137],[13.6625,47.14159]]}},{"type":"Feature","properties":{"kind":"piste","difficulty":"intermediate","name":null,"aerialway":null,"osm":"way/1377290401"},"geometry":{"type":"LineString","coordinates":[[13.6559,47.13149],[13.65612,47.13152],[13.65605,47.13234],[13.65621,47.13269],[13.6565,47.13227],[13.65639,47.132],[13.65642,47.13119],[13.65633,47.13113],[13.6559,47.13149]]}},{"type":"Feature","properties":{"kind":"piste","difficulty":"easy","name":null,"aerialway":null,"osm":"way/1377290402"},"geometry":{"type":"LineString","coordinates":[[13.6565,47.13227],[13.65637,47.13257],[13.65612,47.13275],[13.65492,47.13311],[13.65357,47.1337],[13.65332,47.1341],[13.65507,47.13316],[13.65636,47.13284],[13.65663,47.13258],[13.6565,47.13227]]}},{"type":"Feature","properties":{"kind":"piste","difficulty":"unknown","name":null,"aerialway":null,"osm":"way/1377290403"},"geometry":{"type":"LineString","coordinates":[[13.65414,47.12983],[13.65463,47.13056],[13.6549,47.1306],[13.65564,47.13034],[13.65523,47.13007],[13.6548,47.1302],[13.65466,47.12999],[13.65414,47.12983]]}},{"type":"Feature","properties":{"kind":"piste","difficulty":"easy","name":null,"aerialway":null,"osm":"way/1377290404"},"geometry":{"type":"LineString","coordinates":[[13.65414,47.12954],[13.65473,47.13036],[13.65585,47.13008]]}},{"type":"Feature","properties":{"kind":"piste","difficulty":"unknown","name":null,"aerialway":null,"osm":"way/1377290405"},"geometry":{"type":"LineString","coordinates":[[13.6507,47.12848],[13.65125,47.12837],[13.65174,47.12768],[13.65125,47.12702],[13.65059,47.12737],[13.65074,47.12626],[13.6512,47.12457],[13.65141,47.12498],[13.65168,47.12511],[13.65187,47.12565],[13.6516,47.1262],[13.65155,47.12661],[13.65165,47.127],[13.65204,47.1276],[13.65122,47.12846],[13.6509,47.1286],[13.6507,47.12848]]}}]}