{"type":"FeatureCollection","features":[{"type":"Feature","properties":{"kind":"lift","difficulty":null,"name":"Fluhexpress","aerialway":"chair_lift","osm":"way/18831571"},"geometry":{"type":"LineString","coordinates":[[10.00756,47.51802],[10.00665,47.50728]]}},{"type":"Feature","properties":{"kind":"lift","difficulty":null,"name":"Hochbühllift","aerialway":"platter","osm":"way/19029584"},"geometry":{"type":"LineString","coordinates":[[10.01072,47.50434],[10.00906,47.50641]]}},{"type":"Feature","properties":{"kind":"lift","difficulty":null,"name":"Grenzlift","aerialway":"t-bar","osm":"way/56350492"},"geometry":{"type":"LineString","coordinates":[[9.98483,47.51009],[9.99009,47.50502]]}},{"type":"Feature","properties":{"kind":"lift","difficulty":null,"name":"Hochhäderich I","aerialway":"t-bar","osm":"way/79306213"},"geometry":{"type":"LineString","coordinates":[[9.98871,47.48868],[9.99477,47.48063]]}},{"type":"Feature","properties":{"kind":"piste","difficulty":"expert","name":"Fluh","aerialway":null,"osm":"way/92403562"},"geometry":{"type":"LineString","coordinates":[[10.00665,47.50728],[10.00695,47.50724],[10.00755,47.50752],[10.0075,47.50803],[10.00767,47.50912],[10.00736,47.51063],[10.0075,47.51111]]}},{"type":"Feature","properties":{"kind":"piste","difficulty":"advanced","name":"Hochbühl","aerialway":null,"osm":"way/160559037"},"geometry":{"type":"LineString","coordinates":[[10.00714,47.50735],[10.00736,47.50674],[10.00879,47.50571],[10.0096,47.50486],[10.01028,47.50442],[10.01072,47.50434]]}},{"type":"Feature","properties":{"kind":"piste","difficulty":"easy","name":"zum Imberg","aerialway":null,"osm":"way/160559286"},"geometry":{"type":"LineString","coordinates":[[10.00916,47.50629],[10.00984,47.50632],[10.01084,47.50671],[10.01116,47.50725],[10.01201,47.50785],[10.01357,47.50838],[10.01475,47.50855],[10.01621,47.50912],[10.01661,47.50953],[10.01681,47.50994],[10.01693,47.51065]]}},{"type":"Feature","properties":{"kind":"lift","difficulty":null,"name":"Hennenmoos","aerialway":"chair_lift","osm":"way/212890350"},"geometry":{"type":"LineString","coordinates":[[9.98622,47.48818],[9.98256,47.48542]]}},{"type":"Feature","properties":{"kind":"piste","difficulty":"intermediate","name":"Steinegund","aerialway":null,"osm":"way/331366759"},"geometry":{"type":"LineString","coordinates":[[10.00755,47.50752],[10.00909,47.50814],[10.01047,47.50836],[10.01255,47.50848],[10.01357,47.50838]]}},{"type":"Feature","properties":{"kind":"lift","difficulty":null,"name":"Hochhäderich II","aerialway":"t-bar","osm":"way/337986948"},"geometry":{"type":"LineString","coordinates":[[9.98863,47.48866],[9.99471,47.48062]]}},{"type":"Feature","properties":{"kind":"lift","difficulty":null,"name":"Schmidlift","aerialway":"t-bar","osm":"way/337987008"},"geometry":{"type":"LineString","coordinates":[[9.98781,47.48802],[9.98622,47.4863]]}},{"type":"Feature","properties":{"kind":"lift","difficulty":null,"name":"Pfangerlift","aerialway":"t-bar","osm":"way/337987230"},"geometry":{"type":"LineString","coordinates":[[9.98343,47.48916],[9.98093,47.48576]]}},{"type":"Feature","properties":{"kind":"lift","difficulty":null,"name":"Hüttenlift","aerialway":"t-bar","osm":"way/338641569"},"geometry":{"type":"LineString","coordinates":[[9.98465,47.50943],[9.98676,47.50667]]}},{"type":"Feature","properties":{"kind":"lift","difficulty":null,"name":"Hochlittenlift","aerialway":"t-bar","osm":"way/338641570"},"geometry":{"type":"LineString","coordinates":[[9.98113,47.50889],[9.9845,47.50533]]}},{"type":"Feature","properties":{"kind":"piste","difficulty":"advanced","name":"Klein-Häderich-Abfahrt","aerialway":null,"osm":"way/478551020"},"geometry":{"type":"LineString","coordinates":[[9.99447,47.48103],[9.99621,47.48153],[9.99639,47.48187],[9.99681,47.48204],[9.99673,47.48289],[9.99566,47.48397],[9.99505,47.48497],[9.99521,47.4856],[9.99467,47.48633],[9.99384,47.4866],[9.9904,47.48728],[9.98905,47.48857],[9.98882,47.48866]]}},{"type":"Feature","properties":{"kind":"piste","difficulty":"freeride","name":null,"aerialway":null,"osm":"way/478551021"},"geometry":{"type":"LineString","coordinates":[[9.99447,47.48103],[9.99462,47.48135],[9.99531,47.48209],[9.9958,47.48248],[9.99673,47.48289]]}},{"type":"Feature","properties":{"kind":"piste","difficulty":"intermediate","name":"Panorama-Abfahrt","aerialway":null,"osm":"way/478551374"},"geometry":{"type":"LineString","coordinates":[[9.99442,47.48099],[9.99408,47.48082],[9.99096,47.48053],[9.98935,47.48021],[9.98801,47.48046],[9.98625,47.48115],[9.98563,47.48267],[9.98566,47.48343],[9.98657,47.48468],[9.98675,47.4856],[9.98695,47.48593],[9.98735,47.48618],[9.98855,47.48657],[9.98843,47.48747],[9.9885,47.48859],[9.98873,47.48853]]}},{"type":"Feature","properties":{"kind":"piste","difficulty":"intermediate","name":"Skiweg","aerialway":null,"osm":"way/478551375"},"geometry":{"type":"LineString","coordinates":[[9.98935,47.48021],[9.99111,47.48134],[9.98897,47.48097],[9.98611,47.4815]]}},{"type":"Feature","properties":{"kind":"piste","difficulty":"easy","name":"Hennenmoos-Abfahrt","aerialway":null,"osm":"way/478551765"},"geometry":{"type":"LineString","coordinates":[[9.98256,47.48542],[9.98257,47.48513],[9.98295,47.48489],[9.98365,47.48481],[9.98494,47.48421],[9.98579,47.48452],[9.98627,47.48519],[9.9858,47.48688],[9.98617,47.48768],[9.98649,47.48806],[9.98622,47.48818]]}},{"type":"Feature","properties":{"kind":"piste","difficulty":"advanced","name":"Slalomhang","aerialway":null,"osm":"way/478551766"},"geometry":{"type":"LineString","coordinates":[[9.98256,47.48542],[9.98206,47.48558],[9.98212,47.48593],[9.98293,47.48626],[9.98445,47.4865],[9.98649,47.48806]]}},{"type":"Feature","properties":{"kind":"piste","difficulty":"intermediate","name":"Pfangerabfahrt","aerialway":null,"osm":"way/478551767"},"geometry":{"type":"LineString","coordinates":[[9.98117,47.48608],[9.98148,47.48611],[9.98282,47.48707],[9.98587,47.48822],[9.98622,47.48818]]}},{"type":"Feature","properties":{"kind":"piste","difficulty":"intermediate","name":"Pfangerabfahrt","aerialway":null,"osm":"way/478552106"},"geometry":{"type":"LineString","coordinates":[[9.9851,47.48788],[9.98527,47.48815],[9.9851,47.48842],[9.98343,47.48916]]}},{"type":"Feature","properties":{"kind":"piste","difficulty":"intermediate","name":"Familienabfahrt","aerialway":null,"osm":"way/478552107"},"geometry":{"type":"LineString","coordinates":[[9.98256,47.48542],[9.98071,47.48549],[9.98051,47.48599],[9.9793,47.48715],[9.97943,47.48807],[9.98006,47.48864],[9.98111,47.48928],[9.98211,47.48947],[9.98343,47.48916]]}},{"type":"Feature","properties":{"kind":"piste","difficulty":"intermediate","name":"Familienabfahrt","aerialway":null,"osm":"way/478552108"},"geometry":{"type":"LineString","coordinates":[[9.98117,47.48608],[9.98006,47.48638]]}},{"type":"Feature","properties":{"kind":"piste","difficulty":"intermediate","name":"Waldabfahrt","aerialway":null,"osm":"way/478552634"},"geometry":{"type":"LineString","coordinates":[[9.99111,47.48134],[9.99065,47.4822],[9.99056,47.48253],[9.99064,47.48314],[9.99032,47.4838],[9.98947,47.48511],[9.98908,47.48614],[9.98855,47.48657]]}},{"type":"Feature","properties":{"kind":"piste","difficulty":"intermediate","name":null,"aerialway":null,"osm":"way/524749606"},"geometry":{"type":"LineString","coordinates":[[9.98178,47.48543],[9.98165,47.48593],[9.98173,47.48627]]}},{"type":"Feature","properties":{"kind":"piste","difficulty":"advanced","name":"Klein-Häderlich-Abfahrt","aerialway":null,"osm":"way/524749608"},"geometry":{"type":"LineString","coordinates":[[9.98882,47.48866],[9.98881,47.48855]]}},{"type":"Feature","properties":{"kind":"piste","difficulty":"intermediate","name":"Klein-Häderlich-Abfahrt","aerialway":null,"osm":"way/524749610"},"geometry":{"type":"LineString","coordinates":[[9.98852,47.48862],[9.98867,47.48877],[9.98882,47.48866]]}},{"type":"Feature","properties":{"kind":"piste","difficulty":"intermediate","name":"Panoramaabfahrt","aerialway":null,"osm":"way/524749719"},"geometry":{"type":"LineString","coordinates":[[9.9924,47.48067],[9.99222,47.4802],[9.99161,47.47995],[9.99149,47.48],[9.99161,47.48038],[9.99025,47.4804]]}},{"type":"Feature","properties":{"kind":"piste","difficulty":"easy","name":"Hennenmoos-Abfahrt","aerialway":null,"osm":"way/524749778"},"geometry":{"type":"LineString","coordinates":[[9.98618,47.48506],[9.98551,47.48534],[9.98612,47.48575]]}},{"type":"Feature","properties":{"kind":"piste","difficulty":"intermediate","name":"Panoramaabfahrt","aerialway":null,"osm":"way/524749779"},"geometry":{"type":"LineString","coordinates":[[9.98619,47.48131],[9.98593,47.48134],[9.98476,47.48093],[9.98458,47.48102],[9.98511,47.48162],[9.9855,47.48244],[9.9857,47.48251]]}},{"type":"Feature","properties":{"kind":"piste","difficulty":"intermediate","name":"Panoramaabfahrt","aerialway":null,"osm":"way/524749782"},"geometry":{"type":"LineString","coordinates":[[9.99454,47.48099],[9.99442,47.48092]]}},{"type":"Feature","properties":{"kind":"piste","difficulty":"intermediate","name":"Panoramaabfahrt","aerialway":null,"osm":"way/524749783"},"geometry":{"type":"LineString","coordinates":[[9.99442,47.48092],[9.99425,47.48091]]}},{"type":"Feature","properties":{"kind":"piste","difficulty":"intermediate","name":"Panoramaabfahrt","aerialway":null,"osm":"way/524749784"},"geometry":{"type":"LineString","coordinates":[[9.99449,47.48101],[9.99454,47.48099]]}},{"type":"Feature","properties":{"kind":"piste","difficulty":"easy","name":null,"aerialway":null,"osm":"way/527937601"},"geometry":{"type":"LineString","coordinates":[[9.98632,47.48642],[9.98614,47.48676],[9.98636,47.4871],[9.98731,47.48792],[9.98776,47.48797]]}},{"type":"Feature","properties":{"kind":"piste","difficulty":"intermediate","name":null,"aerialway":null,"osm":"way/527937603"},"geometry":{"type":"LineString","coordinates":[[9.98566,47.48343],[9.98494,47.48421],[9.98623,47.48413]]}},{"type":"Feature","properties":{"kind":"piste","difficulty":"advanced","name":null,"aerialway":null,"osm":"way/877893522"},"geometry":{"type":"LineString","coordinates":[[9.99566,47.48397],[9.99601,47.48475],[9.99561,47.48543],[9.99521,47.4856]]}},{"type":"Feature","properties":{"kind":"piste","difficulty":"intermediate","name":null,"aerialway":null,"osm":"way/877893523"},"geometry":{"type":"LineString","coordinates":[[9.9903,47.48118],[9.99008,47.48184],[9.99026,47.48244],[9.98933,47.48467],[9.98947,47.48511]]}},{"type":"Feature","properties":{"kind":"lift","difficulty":null,"name":null,"aerialway":"rope_tow","osm":"way/901667843"},"geometry":{"type":"LineString","coordinates":[[9.98516,47.51013],[9.98591,47.50949]]}},{"type":"Feature","properties":{"kind":"piste","difficulty":"advanced","name":null,"aerialway":null,"osm":"way/905602342"},"geometry":{"type":"LineString","coordinates":[[10.00774,47.50762],[10.01116,47.50725]]}},{"type":"Feature","properties":{"kind":"piste","difficulty":"advanced","name":null,"aerialway":null,"osm":"way/905602343"},"geometry":{"type":"LineString","coordinates":[[10.00827,47.50786],[10.01165,47.50763]]}},{"type":"Feature","properties":{"kind":"piste","difficulty":"easy","name":null,"aerialway":null,"osm":"way/905602344"},"geometry":{"type":"LineString","coordinates":[[10.01383,47.50842],[10.01249,47.50723],[10.01088,47.50517],[10.01072,47.50434]]}},{"type":"Feature","properties":{"kind":"piste","difficulty":"intermediate","name":null,"aerialway":null,"osm":"way/907795814"},"geometry":{"type":"LineString","coordinates":[[9.99408,47.48082],[9.99404,47.48066],[9.99377,47.48056],[9.99224,47.48035]]}},{"type":"Feature","properties":{"kind":"piste","difficulty":"novice","name":null,"aerialway":null,"osm":"way/907795815"},"geometry":{"type":"LineString","coordinates":[[9.9863,47.48629],[9.98787,47.48652],[9.98814,47.48685],[9.98836,47.48792],[9.98784,47.48798],[9.9863,47.48629]]}},{"type":"Feature","properties":{"kind":"lift","difficulty":null,"name":null,"aerialway":"rope_tow","osm":"way/1021963453"},"geometry":{"type":"LineString","coordinates":[[10.02622,47.48769],[10.0285,47.48828]]}},{"type":"Feature","properties":{"kind":"piste","difficulty":"novice","name":null,"aerialway":null,"osm":"way/1021964875"},"geometry":{"type":"LineString","coordinates":[[10.02823,47.48821],[10.02795,47.48827],[10.02692,47.48806],[10.02639,47.4879],[10.02632,47.48772]]}},{"type":"Feature","properties":{"kind":"piste","difficulty":"intermediate","name":null,"aerialway":null,"osm":"way/1443573081"},"geometry":{"type":"LineString","coordinates":[[9.98942,47.50541],[9.98798,47.50547],[9.98705,47.50535],[9.98681,47.50547],[9.98673,47.50584],[9.98729,47.50667],[9.98716,47.50734],[9.98666,47.50802],[9.98469,47.50984],[9.98463,47.50998],[9.98478,47.51007]]}},{"type":"Feature","properties":{"kind":"piste","difficulty":"intermediate","name":null,"aerialway":null,"osm":"way/1443573083"},"geometry":{"type":"LineString","coordinates":[[9.98681,47.50547],[9.98646,47.50563],[9.98517,47.50551],[9.98422,47.50564]]}},{"type":"Feature","properties":{"kind":"piste","difficulty":"intermediate","name":null,"aerialway":null,"osm":"way/1443573084"},"geometry":{"type":"LineString","coordinates":[[9.98422,47.50564],[9.98338,47.5058],[9.98124,47.50565],[9.98006,47.50593],[9.97953,47.5062],[9.97927,47.50712],[9.97964,47.50788],[9.98005,47.50834],[9.98119,47.50882]]}},{"type":"Feature","properties":{"kind":"piste","difficulty":"easy","name":null,"aerialway":null,"osm":"way/1443573085"},"geometry":{"type":"LineString","coordinates":[[9.98373,47.50576],[9.98175,47.50716],[9.98084,47.50836],[9.9809,47.50865]]}},{"type":"Feature","properties":{"kind":"piste","difficulty":"easy","name":null,"aerialway":null,"osm":"way/1443573086"},"geometry":{"type":"LineString","coordinates":[[9.98276,47.5058],[9.98242,47.50588],[9.98154,47.50644],[9.9796,47.50702],[9.97937,47.50739]]}},{"type":"Feature","properties":{"kind":"piste","difficulty":"easy","name":null,"aerialway":null,"osm":"way/1443708826"},"geometry":{"type":"LineString","coordinates":[[9.9818,47.50631],[9.98175,47.50716]]}},{"type":"Feature","properties":{"kind":"piste","difficulty":"advanced","name":null,"aerialway":null,"osm":"way/1443708827"},"geometry":{"type":"LineString","coordinates":[[9.98962,47.50548],[9.98942,47.50541],[9.98879,47.50572],[9.98852,47.50605],[9.98805,47.50631],[9.98721,47.50722]]}},{"type":"Feature","properties":{"kind":"piste","difficulty":"intermediate","name":null,"aerialway":null,"osm":"way/1443708828"},"geometry":{"type":"LineString","coordinates":[[9.98675,47.50557],[9.98641,47.50614],[9.98591,47.50749],[9.98509,47.50841]]}},{"type":"Feature","properties":{"kind":"piste","difficulty":"easy","name":null,"aerialway":null,"osm":"way/1443708829"},"geometry":{"type":"LineString","coordinates":[[9.98422,47.50564],[9.98608,47.50607],[9.98729,47.50693]]}},{"type":"Feature","properties":{"kind":"piste","difficulty":"intermediate","name":null,"aerialway":null,"osm":"way/1443708830"},"geometry":{"type":"LineString","coordinates":[[9.98662,47.50648],[9.9867,47.50675]]}},{"type":"Feature","properties":{"kind":"piste","difficulty":"intermediate","name":null,"aerialway":null,"osm":"way/1443708831"},"geometry":{"type":"LineString","coordinates":[[9.9867,47.50675],[9.98613,47.50699]]}},{"type":"Feature","properties":{"kind":"piste","difficulty":"intermediate","name":null,"aerialway":null,"osm":"way/1443708832"},"geometry":{"type":"LineString","coordinates":[[9.9867,47.50675],[9.98711,47.50711],[9.98716,47.50734]]}},{"type":"Feature","properties":{"kind":"piste","difficulty":"intermediate","name":null,"aerialway":null,"osm":"way/1443708833"},"geometry":{"type":"LineString","coordinates":[[9.98655,47.50587],[9.98622,47.50617],[9.9855,47.50634],[9.98525,47.50657],[9.9849,47.5075],[9.98478,47.50829]]}},{"type":"Feature","properties":{"kind":"piste","difficulty":"intermediate","name":null,"aerialway":null,"osm":"way/1443708834"},"geometry":{"type":"LineString","coordinates":[[9.9844,47.50567],[9.98461,47.50578],[9.98463,47.5061],[9.98416,47.50832]]}},{"type":"Feature","properties":{"kind":"piste","difficulty":"intermediate","name":null,"aerialway":null,"osm":"way/1443708835"},"geometry":{"type":"LineString","coordinates":[[9.98463,47.5061],[9.98476,47.5063],[9.98528,47.50654]]}},{"type":"Feature","properties":{"kind":"piste","difficulty":"easy","name":null,"aerialway":null,"osm":"way/1443708836"},"geometry":{"type":"LineString","coordinates":[[9.98509,47.50841],[9.98439,47.5089]]}},{"type":"Feature","properties":{"kind":"piste","difficulty":"easy","name":null,"aerialway":null,"osm":"way/1443708837"},"geometry":{"type":"LineString","coordinates":[[9.98478,47.50829],[9.98437,47.50899],[9.98453,47.50943]]}},{"type":"Feature","properties":{"kind":"piste","difficulty":"easy","name":null,"aerialway":null,"osm":"way/1443708838"},"geometry":{"type":"LineString","coordinates":[[9.98416,47.50832],[9.98396,47.50873],[9.98396,47.50911],[9.98445,47.50934]]}},{"type":"Feature","properties":{"kind":"piste","difficulty":"easy","name":null,"aerialway":null,"osm":"way/1443708839"},"geometry":{"type":"LineString","coordinates":[[9.98395,47.50907],[9.98412,47.50948],[9.98463,47.50995]]}},{"type":"Feature","properties":{"kind":"piste","difficulty":"easy","name":null,"aerialway":null,"osm":"way/1443708840"},"geometry":{"type":"LineString","coordinates":[[9.98416,47.50832],[9.98183,47.50838],[9.98123,47.50848],[9.98099,47.5087]]}},{"type":"Feature","properties":{"kind":"piste","difficulty":"novice","name":null,"aerialway":null,"osm":"way/1443708841"},"geometry":{"type":"LineString","coordinates":[[9.98497,47.51019],[9.98595,47.50938],[9.98635,47.50953],[9.98613,47.51002],[9.98579,47.51034],[9.98522,47.51039],[9.98497,47.51019]]}},{"type":"Feature","properties":{"kind":"piste","difficulty":"novice","name":null,"aerialway":null,"osm":"way/1443708842"},"geometry":{"type":"LineString","coordinates":[[9.98591,47.50949],[9.98598,47.50959],[9.98569,47.51016],[9.98544,47.51024],[9.98516,47.51013]]}},{"type":"Feature","properties":{"kind":"piste","difficulty":"easy","name":null,"aerialway":null,"osm":"way/1443708843"},"geometry":{"type":"LineString","coordinates":[[9.98523,47.51016],[9.98485,47.51028],[9.98464,47.51013],[9.98469,47.51004]]}},{"type":"Feature","properties":{"kind":"lift","difficulty":null,"name":null,"aerialway":"magic_carpet","osm":"way/1474848990"},"geometry":{"type":"LineString","coordinates":[[9.9874,47.48702],[9.98767,47.48731]]}},{"type":"Feature","properties":{"kind":"lift","difficulty":null,"name":null,"aerialway":"magic_carpet","osm":"way/1474848991"},"geometry":{"type":"LineString","coordinates":[[9.98796,47.4875],[9.98795,47.48724]]}}]}