{"type":"FeatureCollection","features":[{"type":"Feature","properties":{"kind":"lift","difficulty":null,"name":"UAlm-Bahn","aerialway":"gondola","osm":"way/26154200"},"geometry":{"type":"LineString","coordinates":[[10.72168,47.24196],[10.69317,47.24898]]}},{"type":"Feature","properties":{"kind":"lift","difficulty":null,"name":"Alpjochbahn","aerialway":"gondola","osm":"way/26154201"},"geometry":{"type":"LineString","coordinates":[[10.6929,47.24906],[10.67697,47.2559]]}},{"type":"Feature","properties":{"kind":"piste","difficulty":"intermediate","name":"Alpjochabfahrt","aerialway":null,"osm":"way/200035680"},"geometry":{"type":"LineString","coordinates":[[10.67698,47.25594],[10.68093,47.2545],[10.68393,47.25317],[10.68439,47.25316],[10.68521,47.25227]]}},{"type":"Feature","properties":{"kind":"piste","difficulty":"easy","name":"Malchbachabfahrt","aerialway":null,"osm":"way/200035681"},"geometry":{"type":"LineString","coordinates":[[10.68771,47.25585],[10.68825,47.25525],[10.69174,47.25236],[10.69276,47.25064],[10.69342,47.25031],[10.69451,47.25005]]}},{"type":"Feature","properties":{"kind":"lift","difficulty":null,"name":"Malchbachlift","aerialway":"t-bar","osm":"way/200035682"},"geometry":{"type":"LineString","coordinates":[[10.6949,47.25005],[10.68727,47.25637]]}},{"type":"Feature","properties":{"kind":"piste","difficulty":"advanced","name":"Pratz Bäume-Abfahrt","aerialway":null,"osm":"way/200035683"},"geometry":{"type":"LineString","coordinates":[[10.68671,47.25234],[10.68772,47.25199],[10.68931,47.25097],[10.69337,47.24914]]}},{"type":"Feature","properties":{"kind":"piste","difficulty":"intermediate","name":null,"aerialway":null,"osm":"way/200035684"},"geometry":{"type":"LineString","coordinates":[[10.68671,47.25234],[10.68696,47.25255],[10.68686,47.25314],[10.68659,47.25368],[10.68569,47.2547],[10.6856,47.25572],[10.68576,47.25582],[10.68841,47.25513]]}},{"type":"Feature","properties":{"kind":"piste","difficulty":"intermediate","name":"Talabfahrt Hochimst","aerialway":null,"osm":"way/200035685"},"geometry":{"type":"LineString","coordinates":[[10.69337,47.24914],[10.69476,47.24868],[10.69915,47.24767],[10.69997,47.2474],[10.7012,47.24676],[10.70231,47.24643],[10.7038,47.24656],[10.70715,47.24604],[10.70843,47.24546],[10.71012,47.24424],[10.71088,47.24388],[10.712,47.24366],[10.71294,47.24363],[10.7143,47.24333],[10.71593,47.24267],[10.7178,47.24218],[10.71963,47.24205],[10.72136,47.24174],[10.72175,47.24178],[10.72168,47.24196]]}},{"type":"Feature","properties":{"kind":"piste","difficulty":"easy","name":"Malchbachabfahrt","aerialway":null,"osm":"way/200035686"},"geometry":{"type":"LineString","coordinates":[[10.69132,47.25158],[10.69165,47.25111],[10.69276,47.25064]]}},{"type":"Feature","properties":{"kind":"piste","difficulty":"easy","name":"Malchbachabfahrt","aerialway":null,"osm":"way/200035688"},"geometry":{"type":"LineString","coordinates":[[10.6914,47.25262],[10.69143,47.2519],[10.69132,47.25158],[10.6915,47.2506],[10.69192,47.24997],[10.69337,47.24914],[10.69407,47.24956],[10.69451,47.25005]]}},{"type":"Feature","properties":{"kind":"piste","difficulty":"easy","name":"Winterpark Hoch-Imst","aerialway":null,"osm":"way/200036331"},"geometry":{"type":"LineString","coordinates":[[10.721,47.24227],[10.72203,47.24235],[10.72242,47.24215]]}},{"type":"Feature","properties":{"kind":"lift","difficulty":null,"name":"Übungslift","aerialway":"rope_tow","osm":"way/200036332"},"geometry":{"type":"LineString","coordinates":[[10.72242,47.24215],[10.721,47.24227]]}},{"type":"Feature","properties":{"kind":"piste","difficulty":"intermediate","name":"Alpjochabfahrt","aerialway":null,"osm":"way/565505790"},"geometry":{"type":"LineString","coordinates":[[10.67693,47.25588],[10.67694,47.25576],[10.6772,47.25567],[10.67762,47.25573]]}},{"type":"Feature","properties":{"kind":"piste","difficulty":"intermediate","name":"Alpjochabfahrt","aerialway":null,"osm":"way/565505793"},"geometry":{"type":"LineString","coordinates":[[10.68308,47.25354],[10.68363,47.25289],[10.68443,47.2524],[10.68492,47.25226],[10.68671,47.25234]]}},{"type":"Feature","properties":{"kind":"piste","difficulty":"intermediate","name":"Alpjochabfahrt","aerialway":null,"osm":"way/565505796"},"geometry":{"type":"LineString","coordinates":[[10.68308,47.25354],[10.68434,47.25359],[10.68467,47.25345],[10.68457,47.25328],[10.68495,47.25307],[10.68606,47.25272],[10.68671,47.25234]]}},{"type":"Feature","properties":{"kind":"piste","difficulty":"intermediate","name":"Alpjochabfahrt","aerialway":null,"osm":"way/565505799"},"geometry":{"type":"LineString","coordinates":[[10.68439,47.25316],[10.68457,47.25328]]}},{"type":"Feature","properties":{"kind":"piste","difficulty":"easy","name":null,"aerialway":null,"osm":"way/565505802"},"geometry":{"type":"LineString","coordinates":[[10.71963,47.24205],[10.71999,47.24235],[10.72061,47.24233]]}},{"type":"Feature","properties":{"kind":"piste","difficulty":"intermediate","name":null,"aerialway":null,"osm":"way/566382309"},"geometry":{"type":"LineString","coordinates":[[10.6856,47.25572],[10.68566,47.25643],[10.68553,47.25668],[10.68565,47.25685],[10.68538,47.25728],[10.68592,47.25733]]}},{"type":"Feature","properties":{"kind":"piste","difficulty":"freeride","name":"Variante Hinteres Hochmad","aerialway":null,"osm":"way/1010930147"},"geometry":{"type":"LineString","coordinates":[[10.67788,47.25562],[10.67857,47.25598],[10.67964,47.25607],[10.68092,47.25648],[10.68196,47.25663],[10.68296,47.25653],[10.68329,47.25597],[10.68334,47.25563],[10.68561,47.25582]]}},{"type":"Feature","properties":{"kind":"piste","difficulty":"freeride","name":"Vartiante Vorderes Hochmad","aerialway":null,"osm":"way/1010930148"},"geometry":{"type":"LineString","coordinates":[[10.68746,47.25208],[10.68789,47.25233],[10.68861,47.25339],[10.68911,47.25386],[10.6898,47.25402]]}},{"type":"Feature","properties":{"kind":"piste","difficulty":"easy","name":null,"aerialway":null,"osm":"way/1144813817"},"geometry":{"type":"LineString","coordinates":[[10.72061,47.24233],[10.721,47.24227]]}}]}