{"type":"FeatureCollection","features":[{"type":"Feature","properties":{"kind":"piste","difficulty":"intermediate","name":"FIS-Hochbifang","aerialway":null,"osm":"way/52329355"},"geometry":{"type":"LineString","coordinates":[[13.45408,47.3522],[13.45157,47.35265],[13.44233,47.3538],[13.44093,47.35417],[13.44075,47.354],[13.44012,47.35391],[13.43854,47.35381],[13.43727,47.35392],[13.43671,47.35366]]}},{"type":"Feature","properties":{"kind":"piste","difficulty":"advanced","name":"Hauber","aerialway":null,"osm":"way/52329359"},"geometry":{"type":"LineString","coordinates":[[13.44203,47.35651],[13.44195,47.35695],[13.44157,47.35732],[13.44106,47.35754],[13.44065,47.35862],[13.44055,47.35927],[13.44003,47.36017],[13.4402,47.36072],[13.44076,47.36114]]}},{"type":"Feature","properties":{"kind":"piste","difficulty":"easy","name":"Übungslift Hochbifang","aerialway":null,"osm":"way/187376153"},"geometry":{"type":"LineString","coordinates":[[13.43088,47.36022],[13.42981,47.36063],[13.42906,47.36073],[13.42771,47.36116],[13.42703,47.36114]]}},{"type":"Feature","properties":{"kind":"piste","difficulty":"intermediate","name":"FIS-Standard","aerialway":null,"osm":"way/442930478"},"geometry":{"type":"LineString","coordinates":[[13.45461,47.35266],[13.45442,47.3525],[13.4548,47.35237],[13.45507,47.35252],[13.45498,47.35291],[13.45468,47.35328],[13.45454,47.35393],[13.45486,47.35722],[13.45395,47.36001],[13.45449,47.36142],[13.45523,47.36238],[13.45564,47.36341],[13.46002,47.36768],[13.46371,47.37068],[13.46643,47.37194],[13.46685,47.37226],[13.46674,47.37243]]}},{"type":"Feature","properties":{"kind":"piste","difficulty":"easy","name":"Familien-Abfahrt","aerialway":null,"osm":"way/442930479"},"geometry":{"type":"LineString","coordinates":[[13.45425,47.35288],[13.45362,47.35288],[13.45326,47.35311],[13.45307,47.35372],[13.45309,47.35507],[13.45284,47.35655],[13.45219,47.35785],[13.45183,47.3595],[13.45224,47.36076],[13.45215,47.36277],[13.45257,47.36618],[13.45303,47.36653],[13.45379,47.36673],[13.45711,47.36682],[13.45795,47.36705],[13.46083,47.36833]]}},{"type":"Feature","properties":{"kind":"piste","difficulty":"easy","name":null,"aerialway":null,"osm":"way/449544274"},"geometry":{"type":"LineString","coordinates":[[13.42717,47.36169],[13.42696,47.3617],[13.42685,47.36154],[13.42689,47.36117],[13.42703,47.36114]]}},{"type":"Feature","properties":{"kind":"piste","difficulty":"easy","name":"Familien-Aabfahrt","aerialway":null,"osm":"way/449545380"},"geometry":{"type":"LineString","coordinates":[[13.45262,47.35281],[13.45272,47.35299],[13.45326,47.35311]]}},{"type":"Feature","properties":{"kind":"piste","difficulty":"easy","name":"Familien-Abfahrt","aerialway":null,"osm":"way/449546897"},"geometry":{"type":"LineString","coordinates":[[13.45442,47.35251],[13.45396,47.35281]]}},{"type":"Feature","properties":{"kind":"piste","difficulty":"intermediate","name":"FIS-Hochbifang","aerialway":null,"osm":"way/449546898"},"geometry":{"type":"LineString","coordinates":[[13.45262,47.35281],[13.45157,47.35265]]}},{"type":"Feature","properties":{"kind":"piste","difficulty":"intermediate","name":"FIS-Hochbifang","aerialway":null,"osm":"way/449546899"},"geometry":{"type":"LineString","coordinates":[[13.45442,47.3525],[13.45408,47.35233],[13.45314,47.35243]]}},{"type":"Feature","properties":{"kind":"piste","difficulty":"easy","name":"Nössler","aerialway":null,"osm":"way/449873148"},"geometry":{"type":"LineString","coordinates":[[13.44203,47.35651],[13.44264,47.35697],[13.44327,47.35769],[13.4435,47.35818],[13.44338,47.35951],[13.44383,47.36025],[13.44388,47.3606],[13.44344,47.36083],[13.44125,47.36095],[13.44076,47.36114],[13.44057,47.36144],[13.43979,47.36166],[13.43782,47.36151],[13.43639,47.36117],[13.43072,47.36255],[13.42945,47.3626],[13.42837,47.36241],[13.42717,47.36169],[13.42722,47.36152]]}},{"type":"Feature","properties":{"kind":"piste","difficulty":"easy","name":"Nössler","aerialway":null,"osm":"way/449873149"},"geometry":{"type":"LineString","coordinates":[[13.43979,47.36166],[13.4388,47.36321],[13.43683,47.36358],[13.43613,47.36358],[13.43536,47.36338],[13.43475,47.36301],[13.43224,47.36281],[13.43072,47.36255]]}},{"type":"Feature","properties":{"kind":"piste","difficulty":"easy","name":"Nössler","aerialway":null,"osm":"way/449873150"},"geometry":{"type":"LineString","coordinates":[[13.44093,47.35417],[13.44203,47.35651]]}},{"type":"Feature","properties":{"kind":"piste","difficulty":"intermediate","name":"Ascher","aerialway":null,"osm":"way/449873151"},"geometry":{"type":"LineString","coordinates":[[13.45183,47.3595],[13.45071,47.36038],[13.44902,47.36099],[13.44788,47.3616],[13.44566,47.36338],[13.44449,47.36377],[13.44287,47.3647],[13.44028,47.36475],[13.43837,47.36426],[13.43745,47.36371],[13.43683,47.36358]]}},{"type":"Feature","properties":{"kind":"lift","difficulty":null,"name":"Hochbifangbahn II","aerialway":"chair_lift","osm":"way/41046711"},"geometry":{"type":"LineString","coordinates":[[13.43671,47.35366],[13.45408,47.3522]]}},{"type":"Feature","properties":{"kind":"lift","difficulty":null,"name":"Königslehenbahn II","aerialway":"gondola","osm":"way/41046712"},"geometry":{"type":"LineString","coordinates":[[13.45475,47.36287],[13.45461,47.35266]]}},{"type":"Feature","properties":{"kind":"lift","difficulty":null,"name":"Kemahdhöhebahn","aerialway":"chair_lift","osm":"way/52329360"},"geometry":{"type":"LineString","coordinates":[[13.45284,47.36665],[13.45262,47.35281]]}},{"type":"Feature","properties":{"kind":"lift","difficulty":null,"name":"Hochbifangbahn I","aerialway":"gondola","osm":"way/187376155"},"geometry":{"type":"LineString","coordinates":[[13.42722,47.36152],[13.45425,47.35288]]}},{"type":"Feature","properties":{"kind":"lift","difficulty":null,"name":"Übungslift Fichtelland","aerialway":"platter","osm":"way/449544275"},"geometry":{"type":"LineString","coordinates":[[13.42703,47.36114],[13.43088,47.36022]]}},{"type":"Feature","properties":{"kind":"lift","difficulty":null,"name":null,"aerialway":"magic_carpet","osm":"way/464524541"},"geometry":{"type":"LineString","coordinates":[[13.45475,47.35204],[13.45444,47.35201]]}},{"type":"Feature","properties":{"kind":"lift","difficulty":null,"name":"Königslehenbahn I","aerialway":"gondola","osm":"way/41046713"},"geometry":{"type":"LineString","coordinates":[[13.46674,47.37243],[13.45475,47.36287]]}},{"type":"Feature","properties":{"kind":"piste","difficulty":"easy","name":"Übungslift Königslehen","aerialway":null,"osm":"way/350694459"},"geometry":{"type":"LineString","coordinates":[[13.46733,47.37007],[13.46768,47.37032],[13.4677,47.37115],[13.46742,47.37229],[13.46707,47.37249]]}},{"type":"Feature","properties":{"kind":"piste","difficulty":"easy","name":null,"aerialway":null,"osm":"way/449545379"},"geometry":{"type":"LineString","coordinates":[[13.45303,47.36653],[13.45284,47.36665]]}},{"type":"Feature","properties":{"kind":"lift","difficulty":null,"name":"Übungslift Königslehen","aerialway":"platter","osm":"way/456994234"},"geometry":{"type":"LineString","coordinates":[[13.46707,47.37249],[13.46733,47.37007]]}},{"type":"Feature","properties":{"kind":"piste","difficulty":"easy","name":"Übungslift Königslehen","aerialway":null,"osm":"way/456994235"},"geometry":{"type":"LineString","coordinates":[[13.46674,47.37243],[13.46707,47.37249]]}},{"type":"Feature","properties":{"kind":"piste","difficulty":"intermediate","name":"FIS-Standard","aerialway":null,"osm":"way/1087948009"},"geometry":{"type":"LineString","coordinates":[[13.45475,47.36287],[13.4551,47.36284],[13.45554,47.36316]]}},{"type":"Feature","properties":{"kind":"piste","difficulty":"intermediate","name":"FIS-Standard","aerialway":null,"osm":"way/1087948010"},"geometry":{"type":"LineString","coordinates":[[13.45523,47.36238],[13.45508,47.36273],[13.45475,47.36287]]}},{"type":"Feature","properties":{"kind":"piste","difficulty":"easy","name":"Übungslift Königslehen","aerialway":null,"osm":"way/1364284611"},"geometry":{"type":"LineString","coordinates":[[13.46707,47.37249],[13.46685,47.37226]]}}]}