{"type":"FeatureCollection","features":[{"type":"Feature","properties":{"kind":"piste","difficulty":"intermediate","name":"Piste 8-er Highliner I","aerialway":null,"osm":"way/30754006"},"geometry":{"type":"LineString","coordinates":[[13.41687,47.29891],[13.4175,47.29887],[13.41698,47.29827],[13.41617,47.29766],[13.41499,47.29756],[13.41342,47.29813],[13.41325,47.29795],[13.41328,47.29745],[13.4131,47.29697],[13.41286,47.29682],[13.41003,47.29681],[13.40896,47.29638],[13.40885,47.29604],[13.40897,47.29518],[13.40876,47.29467],[13.40824,47.29397],[13.40792,47.29382],[13.40673,47.29387],[13.40465,47.29481],[13.40357,47.29569],[13.40324,47.29563],[13.40319,47.29541],[13.40341,47.29432],[13.40291,47.29405],[13.40069,47.29452],[13.3998,47.29451],[13.39918,47.2943],[13.39879,47.29449],[13.39895,47.29451]]}},{"type":"Feature","properties":{"kind":"piste","difficulty":"easy","name":"Flachauwinkl 6er-Highliner II","aerialway":null,"osm":"way/32653503"},"geometry":{"type":"LineString","coordinates":[[13.42872,47.29553],[13.42841,47.29647],[13.42803,47.29658],[13.42725,47.29763],[13.4271,47.29759],[13.42616,47.29618],[13.4257,47.29645],[13.42505,47.29773],[13.42395,47.2986],[13.4235,47.29881],[13.4217,47.29894],[13.42007,47.29929],[13.41762,47.29894],[13.4175,47.29887],[13.41806,47.29851]]}},{"type":"Feature","properties":{"kind":"piste","difficulty":"easy","name":"Flachauwinkl 6er-Highliner II","aerialway":null,"osm":"way/32653508"},"geometry":{"type":"LineString","coordinates":[[13.42472,47.29799],[13.42396,47.29753],[13.42289,47.29737],[13.42057,47.29784],[13.4175,47.29887]]}},{"type":"Feature","properties":{"kind":"piste","difficulty":"easy","name":"Schiweg 8-er Highliner I","aerialway":null,"osm":"way/326009760"},"geometry":{"type":"LineString","coordinates":[[13.40158,47.29439],[13.39973,47.29527],[13.39954,47.29526],[13.39951,47.29499],[13.3998,47.29451]]}},{"type":"Feature","properties":{"kind":"piste","difficulty":"easy","name":null,"aerialway":null,"osm":"relation/4551174"},"geometry":{"type":"MultiLineString","coordinates":[[[13.41702,47.29832],[13.4165,47.29836],[13.41597,47.29857],[13.41567,47.29907],[13.4149,47.2997],[13.41292,47.29983],[13.41207,47.30027],[13.4116,47.30072],[13.41149,47.3006],[13.41176,47.30022],[13.41194,47.29913],[13.41246,47.29865],[13.41303,47.29858],[13.4132,47.29816],[13.41317,47.29777],[13.41389,47.29633],[13.41304,47.29669],[13.41237,47.29742],[13.41064,47.29818],[13.41023,47.29883],[13.40933,47.29948],[13.40948,47.29879],[13.40977,47.29848],[13.40925,47.29866],[13.40899,47.2991],[13.40877,47.29905],[13.4091,47.29791],[13.40989,47.29716],[13.40949,47.29617],[13.41008,47.2953],[13.41015,47.29473],[13.41098,47.29338],[13.41082,47.29332],[13.40909,47.29429],[13.40822,47.29461],[13.40773,47.29493],[13.40688,47.29585],[13.4061,47.29626],[13.40587,47.29651],[13.40572,47.29643],[13.4058,47.29599],[13.40557,47.29544],[13.40638,47.29426],[13.40641,47.29413],[13.40628,47.29411]],[[13.40596,47.29485],[13.40628,47.29411]]]}},{"type":"Feature","properties":{"kind":"lift","difficulty":null,"name":"Highliner II","aerialway":"chair_lift","osm":"way/32653509"},"geometry":{"type":"LineString","coordinates":[[13.41806,47.29851],[13.42903,47.2951]]}},{"type":"Feature","properties":{"kind":"lift","difficulty":null,"name":"Highliner I","aerialway":"gondola","osm":"way/97019597"},"geometry":{"type":"LineString","coordinates":[[13.39895,47.29451],[13.41687,47.29891]]}},{"type":"Feature","properties":{"kind":"piste","difficulty":"intermediate","name":"Flachauwinkl 6er-Highliner II","aerialway":null,"osm":"way/32653505"},"geometry":{"type":"LineString","coordinates":[[13.42841,47.29647],[13.42686,47.29615],[13.42616,47.29618]]}},{"type":"Feature","properties":{"kind":"piste","difficulty":"intermediate","name":"Kogelalm","aerialway":null,"osm":"way/32653511"},"geometry":{"type":"LineString","coordinates":[[13.42841,47.29647],[13.4294,47.29655],[13.43174,47.29641],[13.43249,47.29688],[13.43446,47.29774]]}},{"type":"Feature","properties":{"kind":"piste","difficulty":"easy","name":"Gamskogel Ostabfahrt","aerialway":null,"osm":"way/32653517"},"geometry":{"type":"LineString","coordinates":[[13.45846,47.29014],[13.45773,47.2902]]}},{"type":"Feature","properties":{"kind":"piste","difficulty":"easy","name":"Gamskogel Ostabfahrt","aerialway":null,"osm":"way/32653518"},"geometry":{"type":"LineString","coordinates":[[13.45773,47.2902],[13.45769,47.29054]]}},{"type":"Feature","properties":{"kind":"piste","difficulty":"easy","name":null,"aerialway":null,"osm":"way/32653519"},"geometry":{"type":"LineString","coordinates":[[13.45769,47.29054],[13.45761,47.29056],[13.4577,47.29074]]}},{"type":"Feature","properties":{"kind":"piste","difficulty":"easy","name":"Übungslift Kinderland","aerialway":null,"osm":"way/46913830"},"geometry":{"type":"LineString","coordinates":[[13.45966,47.29196],[13.45878,47.29219],[13.45817,47.2922],[13.45763,47.29213],[13.45723,47.29192]]}},{"type":"Feature","properties":{"kind":"piste","difficulty":"easy","name":"Rosskopfabfahrt","aerialway":null,"osm":"way/46914872"},"geometry":{"type":"LineString","coordinates":[[13.43752,47.29324],[13.43754,47.2943],[13.43851,47.29523],[13.43936,47.2956],[13.43928,47.29591]]}},{"type":"Feature","properties":{"kind":"piste","difficulty":"intermediate","name":"Gamskogel II Standard","aerialway":null,"osm":"way/46928971"},"geometry":{"type":"LineString","coordinates":[[13.44655,47.28125],[13.44698,47.28155]]}},{"type":"Feature","properties":{"kind":"piste","difficulty":"intermediate","name":"Gamskogel Weltcup-Abfhart oberer Teil","aerialway":null,"osm":"way/46928973"},"geometry":{"type":"LineString","coordinates":[[13.44796,47.28217],[13.44729,47.28217],[13.44625,47.28182]]}},{"type":"Feature","properties":{"kind":"piste","difficulty":"intermediate","name":"Flachauwinkl 6er-Highliner II","aerialway":null,"osm":"way/49063161"},"geometry":{"type":"LineString","coordinates":[[13.42872,47.29553],[13.42616,47.29618]]}},{"type":"Feature","properties":{"kind":"piste","difficulty":"easy","name":"Rosskopfabfahrt","aerialway":null,"osm":"way/49063369"},"geometry":{"type":"LineString","coordinates":[[13.45509,47.29039],[13.45607,47.29072],[13.4565,47.29112],[13.45626,47.29205]]}},{"type":"Feature","properties":{"kind":"piste","difficulty":"easy","name":"Rosskopfabfahrt","aerialway":null,"osm":"way/53812440"},"geometry":{"type":"LineString","coordinates":[[13.43752,47.29324],[13.43907,47.29388],[13.44484,47.29442]]}},{"type":"Feature","properties":{"kind":"piste","difficulty":"easy","name":null,"aerialway":null,"osm":"way/102532223"},"geometry":{"type":"LineString","coordinates":[[13.44835,47.28706],[13.44813,47.28839],[13.44776,47.28939],[13.4478,47.29011],[13.44732,47.29066],[13.44737,47.29159],[13.44805,47.29223],[13.44884,47.2925],[13.44921,47.29306]]}},{"type":"Feature","properties":{"kind":"piste","difficulty":"easy","name":"Höchalmrinne","aerialway":null,"osm":"way/254152167"},"geometry":{"type":"LineString","coordinates":[[13.45741,47.29022],[13.45738,47.29052],[13.45719,47.2906]]}},{"type":"Feature","properties":{"kind":"piste","difficulty":"easy","name":"Übungslift See","aerialway":null,"osm":"way/254342382"},"geometry":{"type":"LineString","coordinates":[[13.45332,47.29464],[13.45404,47.29477],[13.45581,47.29451]]}},{"type":"Feature","properties":{"kind":"piste","difficulty":"easy","name":"Rosskopfabfahrt","aerialway":null,"osm":"way/254342388"},"geometry":{"type":"LineString","coordinates":[[13.44582,47.29553],[13.44639,47.29549]]}},{"type":"Feature","properties":{"kind":"piste","difficulty":"easy","name":"Rosskopfabfahrt","aerialway":null,"osm":"way/254342391"},"geometry":{"type":"LineString","coordinates":[[13.44484,47.29442],[13.44531,47.29363],[13.44523,47.29305]]}},{"type":"Feature","properties":{"kind":"piste","difficulty":"easy","name":"Rosskopfabfahrt","aerialway":null,"osm":"way/326009758"},"geometry":{"type":"LineString","coordinates":[[13.44336,47.29562],[13.4436,47.29574],[13.44458,47.2958],[13.44516,47.2962],[13.44585,47.2963],[13.44629,47.29658],[13.44641,47.29684],[13.44672,47.29676],[13.44688,47.29654],[13.44671,47.29616],[13.44582,47.29553]]}},{"type":"Feature","properties":{"kind":"piste","difficulty":"easy","name":"Kogelalm","aerialway":null,"osm":"way/399946596"},"geometry":{"type":"LineString","coordinates":[[13.43163,47.2941],[13.43198,47.29497],[13.43342,47.29658],[13.43431,47.29722],[13.43448,47.29743],[13.43446,47.29774]]}},{"type":"Feature","properties":{"kind":"piste","difficulty":"easy","name":"Rosskopf-Abfahrt","aerialway":null,"osm":"way/405739194"},"geometry":{"type":"LineString","coordinates":[[13.45729,47.29012],[13.45773,47.2902]]}},{"type":"Feature","properties":{"kind":"piste","difficulty":"easy","name":"Rosskopfabfahrt","aerialway":null,"osm":"way/405739195"},"geometry":{"type":"LineString","coordinates":[[13.43168,47.29388],[13.43152,47.29402]]}},{"type":"Feature","properties":{"kind":"piste","difficulty":"easy","name":null,"aerialway":null,"osm":"way/405739197"},"geometry":{"type":"LineString","coordinates":[[13.44827,47.28195],[13.44826,47.28203]]}},{"type":"Feature","properties":{"kind":"piste","difficulty":"easy","name":"Verbindung zum Seekarlift Bergstation","aerialway":null,"osm":"way/405739198"},"geometry":{"type":"LineString","coordinates":[[13.44873,47.28148],[13.44885,47.28165]]}},{"type":"Feature","properties":{"kind":"piste","difficulty":"easy","name":null,"aerialway":null,"osm":"way/405739199"},"geometry":{"type":"LineString","coordinates":[[13.44762,47.29086],[13.44731,47.29089]]}},{"type":"Feature","properties":{"kind":"piste","difficulty":"easy","name":"zur Unterbergbahn","aerialway":null,"osm":"way/405739201"},"geometry":{"type":"LineString","coordinates":[[13.44882,47.29228],[13.44871,47.29206],[13.44826,47.29193]]}},{"type":"Feature","properties":{"kind":"piste","difficulty":"easy","name":"Skiweg Übungslift See","aerialway":null,"osm":"way/449491418"},"geometry":{"type":"LineString","coordinates":[[13.45578,47.29419],[13.45537,47.29441],[13.45581,47.29451]]}},{"type":"Feature","properties":{"kind":"piste","difficulty":"intermediate","name":"Gamskogel Standard","aerialway":null,"osm":"way/449492460"},"geometry":{"type":"LineString","coordinates":[[13.44821,47.28218],[13.44796,47.28217]]}},{"type":"Feature","properties":{"kind":"piste","difficulty":"easy","name":"Höchalmrinne","aerialway":null,"osm":"way/449495404"},"geometry":{"type":"LineString","coordinates":[[13.42868,47.29383],[13.42831,47.29397],[13.4283,47.29413],[13.42872,47.29553]]}},{"type":"Feature","properties":{"kind":"piste","difficulty":"easy","name":"Rosskopfabfahrt","aerialway":null,"osm":"way/449503413"},"geometry":{"type":"LineString","coordinates":[[13.44762,47.29086],[13.44889,47.29057],[13.44903,47.28981],[13.44943,47.28941],[13.45024,47.28933],[13.45048,47.2897]]}},{"type":"Feature","properties":{"kind":"piste","difficulty":"easy","name":"Rosskopfabfahrt","aerialway":null,"osm":"way/449504522"},"geometry":{"type":"LineString","coordinates":[[13.44762,47.29086],[13.44863,47.29132],[13.44941,47.29152],[13.45033,47.29157]]}},{"type":"Feature","properties":{"kind":"piste","difficulty":"easy","name":"Höchalmrinne","aerialway":null,"osm":"way/449506163"},"geometry":{"type":"LineString","coordinates":[[13.43131,47.29241],[13.43189,47.29264],[13.43303,47.29281],[13.43511,47.29289],[13.436,47.29313],[13.43752,47.29324],[13.43832,47.29275]]}},{"type":"Feature","properties":{"kind":"piste","difficulty":"intermediate","name":"Gamskogel Weltcup-Abfahrt oberer Teil","aerialway":null,"osm":"way/449506969"},"geometry":{"type":"LineString","coordinates":[[13.44655,47.28125],[13.44625,47.28182],[13.44587,47.28211],[13.44554,47.28259]]}},{"type":"Feature","properties":{"kind":"piste","difficulty":"easy","name":"Flachauwinkl 6er-Highliner II","aerialway":null,"osm":"way/452468050"},"geometry":{"type":"LineString","coordinates":[[13.42903,47.2951],[13.42906,47.29531],[13.42872,47.29553]]}},{"type":"Feature","properties":{"kind":"piste","difficulty":"advanced","name":null,"aerialway":null,"osm":"way/787223848"},"geometry":{"type":"LineString","coordinates":[[13.44634,47.27327],[13.44609,47.27304],[13.44493,47.27345],[13.44418,47.27415]]}},{"type":"Feature","properties":{"kind":"piste","difficulty":"easy","name":null,"aerialway":null,"osm":"way/1083215416"},"geometry":{"type":"LineString","coordinates":[[13.4577,47.29074],[13.45765,47.29079]]}},{"type":"Feature","properties":{"kind":"piste","difficulty":"easy","name":"Gamskogel Ostabfahrt","aerialway":null,"osm":"way/1083215417"},"geometry":{"type":"LineString","coordinates":[[13.45777,47.29073],[13.45786,47.29091]]}},{"type":"Feature","properties":{"kind":"piste","difficulty":"easy","name":"Verbindung Weltcup-Arena - Rosskopfbahn","aerialway":null,"osm":"way/1160677895"},"geometry":{"type":"LineString","coordinates":[[13.45666,47.29023],[13.4565,47.29112],[13.4558,47.29211],[13.45559,47.29299],[13.4556,47.29404]]}},{"type":"Feature","properties":{"kind":"piste","difficulty":"easy","name":"Gamskogel Ostabfahrt","aerialway":null,"osm":"way/1317348317"},"geometry":{"type":"LineString","coordinates":[[13.45769,47.29054],[13.45777,47.29073]]}},{"type":"Feature","properties":{"kind":"piste","difficulty":"easy","name":"Übungslift Kinderland","aerialway":null,"osm":"way/1466440343"},"geometry":{"type":"LineString","coordinates":[[13.4597,47.29196],[13.45943,47.2918],[13.45767,47.29178],[13.45723,47.29192]]}},{"type":"Feature","properties":{"kind":"piste","difficulty":"unknown","name":"Gamskogel Ostabfahrt","aerialway":null,"osm":"relation/3405107"},"geometry":{"type":"MultiLineString","coordinates":[[[13.44596,47.27437],[13.44589,47.27424],[13.44687,47.27445],[13.44762,47.27444],[13.44869,47.2742],[13.44939,47.27394],[13.44981,47.27355],[13.45008,47.27353],[13.45023,47.27428],[13.44918,47.27683],[13.44925,47.27745],[13.4495,47.27768],[13.45062,47.27809],[13.45141,47.27924],[13.45243,47.27973],[13.45403,47.27969],[13.45542,47.27949],[13.45933,47.2782],[13.46038,47.27809],[13.46136,47.27844],[13.46221,47.27945],[13.46214,47.27987],[13.46224,47.28045],[13.46129,47.28241],[13.46134,47.28453],[13.45996,47.28669],[13.45927,47.28877]],[[13.45927,47.28877],[13.45846,47.29014]],[[13.44869,47.2742],[13.45014,47.2746]],[[13.44954,47.27589],[13.44996,47.27653],[13.45043,47.27799]],[[13.4495,47.27768],[13.45015,47.27836],[13.44965,47.27929],[13.44931,47.27954],[13.44836,47.27981],[13.44833,47.28015],[13.44914,47.28101],[13.44873,47.28177],[13.44783,47.2822]],[[13.44828,47.282],[13.44902,47.28207],[13.45101,47.28054]],[[13.44821,47.28218],[13.44815,47.28207],[13.44826,47.28203],[13.44886,47.28215],[13.44906,47.28207],[13.44998,47.28116],[13.45101,47.28054],[13.45206,47.27963]],[[13.46221,47.27945],[13.46355,47.27986],[13.4643,47.27991],[13.46468,47.2802]],[[13.46468,47.2802],[13.46464,47.2812],[13.46439,47.28203]]]}},{"type":"Feature","properties":{"kind":"piste","difficulty":"unknown","name":"Gamskogel Standard","aerialway":null,"osm":"relation/3405111"},"geometry":{"type":"LineString","coordinates":[[13.44783,47.2822],[13.44807,47.28254],[13.44878,47.28288],[13.4493,47.28304],[13.45009,47.28303],[13.45261,47.2819],[13.45488,47.28046],[13.45842,47.27959],[13.45947,47.2795],[13.46076,47.28037],[13.46078,47.28061],[13.4606,47.28096],[13.45993,47.2815],[13.45969,47.28194],[13.45964,47.28237],[13.45979,47.28288],[13.46114,47.28499]]}},{"type":"Feature","properties":{"kind":"piste","difficulty":"unknown","name":"Gamskogel II Standard","aerialway":null,"osm":"relation/3405125"},"geometry":{"type":"MultiLineString","coordinates":[[[13.44596,47.27437],[13.4451,47.274],[13.44402,47.27422],[13.44267,47.27543],[13.44254,47.27566],[13.44251,47.27686],[13.44368,47.27843],[13.44494,47.27938],[13.44655,47.28125],[13.44718,47.28118]],[[13.44287,47.27439],[13.44316,47.27439],[13.44325,47.27493]],[[13.44291,47.27967],[13.44428,47.27983],[13.44536,47.28035],[13.44655,47.28125]]]}},{"type":"Feature","properties":{"kind":"piste","difficulty":"unknown","name":"Gamskogel Weltcup-Abfahrt oberer Teil","aerialway":null,"osm":"relation/3405126"},"geometry":{"type":"MultiLineString","coordinates":[[[13.44251,47.27686],[13.44208,47.2776],[13.44139,47.27799],[13.44121,47.27828],[13.44131,47.27865],[13.44175,47.27911],[13.44335,47.27985],[13.44454,47.28077],[13.44499,47.28122],[13.44531,47.28178],[13.44554,47.28259]],[[13.44291,47.27967],[13.44428,47.27983],[13.44536,47.28035],[13.44655,47.28125]]]}},{"type":"Feature","properties":{"kind":"piste","difficulty":"intermediate","name":"Gamskogel Weltcup-Abfahrt","aerialway":null,"osm":"relation/3405127"},"geometry":{"type":"LineString","coordinates":[[13.44554,47.28259],[13.44551,47.28297],[13.44572,47.28334],[13.44612,47.28376],[13.44672,47.28399],[13.44701,47.28432],[13.44709,47.28473],[13.44694,47.28505],[13.44647,47.28539],[13.44708,47.28628],[13.44752,47.2865],[13.44808,47.28658],[13.44827,47.28673],[13.44848,47.2873],[13.44978,47.28732],[13.45013,47.28751],[13.4496,47.2882],[13.4496,47.28849],[13.44999,47.28864],[13.45132,47.28874],[13.4519,47.2889],[13.45248,47.28926],[13.45467,47.28954],[13.4552,47.28978]]}},{"type":"Feature","properties":{"kind":"piste","difficulty":"unknown","name":"Tauernkar","aerialway":null,"osm":"relation/3405147"},"geometry":{"type":"LineString","coordinates":[[13.47459,47.28901],[13.47477,47.28922],[13.47477,47.28998],[13.47441,47.29053],[13.47357,47.29096],[13.47169,47.29137],[13.47018,47.29139],[13.46848,47.29216],[13.46782,47.29224],[13.4657,47.29233],[13.46519,47.29225],[13.46451,47.29198],[13.46347,47.29083],[13.46306,47.29068],[13.46219,47.29044],[13.45943,47.29031],[13.45846,47.29014]]}},{"type":"Feature","properties":{"kind":"piste","difficulty":"easy","name":"Höchalmrinne","aerialway":null,"osm":"relation/3407474"},"geometry":{"type":"MultiLineString","coordinates":[[[13.42868,47.29383],[13.4286,47.29379],[13.42869,47.29371],[13.42947,47.29385],[13.43168,47.29388]],[[13.43168,47.29388],[13.43108,47.2933],[13.43015,47.29277],[13.43005,47.29254],[13.43322,47.29216],[13.436,47.29236],[13.43804,47.29273],[13.44004,47.2927],[13.44327,47.29338],[13.44457,47.29325],[13.44617,47.29282],[13.44721,47.2928],[13.44749,47.29303],[13.44799,47.29315],[13.44882,47.29228],[13.4502,47.29175],[13.45035,47.29138],[13.44993,47.2901],[13.45003,47.28991],[13.45065,47.28958],[13.45136,47.28944],[13.45342,47.28983],[13.4552,47.28978]],[[13.45048,47.2897],[13.45087,47.29007],[13.45276,47.29083]],[[13.45276,47.29083],[13.45335,47.29054],[13.45729,47.29012]],[[13.4552,47.28978],[13.45741,47.29022]]]}},{"type":"Feature","properties":{"kind":"piste","difficulty":"expert","name":"Kuchlberg-Leit'n","aerialway":null,"osm":"relation/3407475"},"geometry":{"type":"LineString","coordinates":[[13.45044,47.29338],[13.4523,47.29395],[13.45317,47.29409],[13.45578,47.29419]]}},{"type":"Feature","properties":{"kind":"piste","difficulty":"intermediate","name":"Kuchlberg-Rinne","aerialway":null,"osm":"relation/3407476"},"geometry":{"type":"LineString","coordinates":[[13.4507,47.29249],[13.45375,47.29316],[13.45578,47.29419]]}},{"type":"Feature","properties":{"kind":"piste","difficulty":"intermediate","name":"Rosskopf-Abfahrt Mitte","aerialway":null,"osm":"relation/3407477"},"geometry":{"type":"LineString","coordinates":[[13.44026,47.29608],[13.4406,47.29623],[13.44394,47.29637],[13.44596,47.29579],[13.44639,47.29549],[13.44694,47.29541],[13.4482,47.29487],[13.44968,47.29461],[13.45013,47.29418],[13.45044,47.29338]]}},{"type":"Feature","properties":{"kind":"piste","difficulty":"easy","name":"Rosskopf-Abfahrt","aerialway":null,"osm":"relation/3407478"},"geometry":{"type":"MultiLineString","coordinates":[[[13.42903,47.2951],[13.42942,47.29499],[13.43045,47.29434],[13.43168,47.29388]],[[13.43152,47.29402],[13.43759,47.29596],[13.43837,47.29603],[13.43928,47.29591],[13.44026,47.29608],[13.44076,47.2958],[13.44479,47.29547],[13.44582,47.29553]],[[13.44582,47.29553],[13.44589,47.29539],[13.44576,47.29523],[13.44486,47.29468],[13.44484,47.29442]],[[13.44484,47.29442],[13.44534,47.29448],[13.44615,47.29434],[13.44694,47.29405],[13.44799,47.29315],[13.44921,47.29306],[13.45044,47.29338]],[[13.45044,47.29338],[13.4507,47.29249],[13.45187,47.29205],[13.45276,47.29083]],[[13.45276,47.29083],[13.45335,47.29054],[13.45729,47.29012]],[[13.4552,47.28978],[13.45741,47.29022]]]}},{"type":"Feature","properties":{"kind":"piste","difficulty":"expert","name":"Unterberg-Steilhang","aerialway":null,"osm":"relation/3407479"},"geometry":{"type":"LineString","coordinates":[[13.45033,47.29157],[13.45437,47.29145],[13.45597,47.29175],[13.45633,47.29194]]}},{"type":"Feature","properties":{"kind":"piste","difficulty":"intermediate","name":"Kogelalm","aerialway":null,"osm":"relation/3407492"},"geometry":{"type":"MultiLineString","coordinates":[[[13.42853,47.30022],[13.42839,47.29977],[13.42872,47.29893],[13.42883,47.29742],[13.4288,47.29711],[13.42841,47.29647]],[[13.42862,47.29917],[13.42965,47.29875],[13.43063,47.29806],[13.43209,47.29755],[13.43288,47.29755],[13.43362,47.29776],[13.43446,47.29774]],[[13.42853,47.30022],[13.42872,47.30037],[13.42966,47.30014],[13.42987,47.29997],[13.4306,47.29866],[13.43167,47.29812],[13.43446,47.29774]]]}},{"type":"Feature","properties":{"kind":"lift","difficulty":null,"name":"Rosskopfbahn","aerialway":"gondola","osm":"way/23037870"},"geometry":{"type":"LineString","coordinates":[[13.45578,47.29419],[13.441,47.29602],[13.42868,47.29383]]}},{"type":"Feature","properties":{"kind":"lift","difficulty":null,"name":"Schwarzwandbahn","aerialway":"gondola","osm":"way/23037872"},"geometry":{"type":"LineString","coordinates":[[13.45765,47.29079],[13.44596,47.27437]]}},{"type":"Feature","properties":{"kind":"lift","difficulty":null,"name":"Gamskogelbahn I","aerialway":"chair_lift","osm":"way/23037873"},"geometry":{"type":"LineString","coordinates":[[13.45719,47.2906],[13.44821,47.28218]]}},{"type":"Feature","properties":{"kind":"lift","difficulty":null,"name":"Tauernkarbahn","aerialway":"chair_lift","osm":"way/23037875"},"geometry":{"type":"LineString","coordinates":[[13.45786,47.29091],[13.47459,47.28901]]}},{"type":"Feature","properties":{"kind":"lift","difficulty":null,"name":"Seekarlift","aerialway":"t-bar","osm":"way/30754011"},"geometry":{"type":"LineString","coordinates":[[13.44688,47.28155],[13.44921,47.28146]]}},{"type":"Feature","properties":{"kind":"lift","difficulty":null,"name":"Kogelalmlift","aerialway":"t-bar","osm":"way/32653512"},"geometry":{"type":"LineString","coordinates":[[13.43469,47.29765],[13.42798,47.30045]]}},{"type":"Feature","properties":{"kind":"lift","difficulty":null,"name":"Übungslift Kinderland","aerialway":"platter","osm":"way/46913407"},"geometry":{"type":"LineString","coordinates":[[13.45719,47.29192],[13.4597,47.29196]]}},{"type":"Feature","properties":{"kind":"lift","difficulty":null,"name":"Unterbergbahn II","aerialway":"chair_lift","osm":"way/49063158"},"geometry":{"type":"LineString","coordinates":[[13.44826,47.29193],[13.43168,47.29388]]}},{"type":"Feature","properties":{"kind":"lift","difficulty":null,"name":"Unterbergbahn I","aerialway":"chair_lift","osm":"way/49063163"},"geometry":{"type":"LineString","coordinates":[[13.45626,47.29205],[13.44762,47.29086]]}},{"type":"Feature","properties":{"kind":"lift","difficulty":null,"name":"Gamskogelbahn II","aerialway":"chair_lift","osm":"way/320164854"},"geometry":{"type":"LineString","coordinates":[[13.44718,47.28118],[13.44287,47.27439]]}},{"type":"Feature","properties":{"kind":"lift","difficulty":null,"name":"Übungslift See","aerialway":"platter","osm":"way/449491419"},"geometry":{"type":"LineString","coordinates":[[13.45587,47.29451],[13.45332,47.29464]]}},{"type":"Feature","properties":{"kind":"piste","difficulty":"easy","name":null,"aerialway":null,"osm":"way/32653522"},"geometry":{"type":"LineString","coordinates":[[13.47377,47.28837],[13.47362,47.2875]]}},{"type":"Feature","properties":{"kind":"piste","difficulty":"freeride","name":null,"aerialway":null,"osm":"way/320164815"},"geometry":{"type":"LineString","coordinates":[[13.44954,47.27589],[13.45,47.27592],[13.45114,47.27563],[13.45388,47.276],[13.45583,47.27555],[13.4574,47.27559],[13.45827,47.27611],[13.45904,47.27593],[13.46006,47.27625],[13.46071,47.27682],[13.46174,47.2772],[13.46231,47.2776],[13.46381,47.27769],[13.46473,47.2782]]}},{"type":"Feature","properties":{"kind":"piste","difficulty":"freeride","name":null,"aerialway":null,"osm":"way/320164816"},"geometry":{"type":"LineString","coordinates":[[13.46565,47.27908],[13.46468,47.2802]]}},{"type":"Feature","properties":{"kind":"piste","difficulty":"freeride","name":null,"aerialway":null,"osm":"way/320164865"},"geometry":{"type":"LineString","coordinates":[[13.46473,47.2782],[13.46544,47.27849],[13.46565,47.27908]]}},{"type":"Feature","properties":{"kind":"piste","difficulty":"easy","name":null,"aerialway":null,"osm":"way/405739193"},"geometry":{"type":"LineString","coordinates":[[13.47396,47.28814],[13.47377,47.28837]]}},{"type":"Feature","properties":{"kind":"piste","difficulty":"easy","name":"Tauernkarlift Abfahrt","aerialway":null,"osm":"way/405739200"},"geometry":{"type":"LineString","coordinates":[[13.47395,47.28821],[13.47452,47.28848]]}},{"type":"Feature","properties":{"kind":"piste","difficulty":"easy","name":"Hödhütte","aerialway":null,"osm":"way/429848684"},"geometry":{"type":"LineString","coordinates":[[13.46376,47.24813],[13.46493,47.24798],[13.46608,47.24805],[13.46681,47.24815],[13.46702,47.24844]]}},{"type":"Feature","properties":{"kind":"piste","difficulty":"easy","name":"Tauernkar Familienabfahrt","aerialway":null,"osm":"way/449507941"},"geometry":{"type":"LineString","coordinates":[[13.46535,47.28241],[13.46404,47.28227]]}},{"type":"Feature","properties":{"kind":"piste","difficulty":"unknown","name":"Tauernkar Familienabfahrt","aerialway":null,"osm":"relation/3405144"},"geometry":{"type":"MultiLineString","coordinates":[[[13.47459,47.28901],[13.47463,47.28889],[13.47398,47.28836],[13.47377,47.28837],[13.47364,47.28867],[13.47441,47.29053],[13.47456,47.29142],[13.47389,47.29177],[13.47354,47.29141],[13.47271,47.29158],[13.47073,47.29313],[13.4697,47.29429],[13.46949,47.29423],[13.46932,47.29387],[13.46925,47.29257],[13.46933,47.29083],[13.46838,47.28979],[13.46745,47.2881],[13.46703,47.28789],[13.46652,47.2874],[13.46638,47.28707],[13.46625,47.28529],[13.46593,47.28477],[13.46578,47.28415],[13.46526,47.28337],[13.46537,47.28154],[13.46536,47.28135],[13.46516,47.28115]],[[13.46516,47.28115],[13.4649,47.28131]],[[13.4649,47.28131],[13.46439,47.28203]],[[13.46439,47.28203],[13.46375,47.28265],[13.46363,47.28305],[13.46305,47.28382],[13.46149,47.28475]],[[13.46149,47.28475],[13.46114,47.28499]],[[13.46221,47.27945],[13.46355,47.27986],[13.4643,47.27991],[13.46468,47.2802]],[[13.46468,47.2802],[13.46464,47.2812],[13.46439,47.28203]]]}},{"type":"Feature","properties":{"kind":"piste","difficulty":"unknown","name":"Tauernkarlift Abfahrt","aerialway":null,"osm":"relation/3405145"},"geometry":{"type":"LineString","coordinates":[[13.47436,47.28866],[13.47588,47.28762],[13.47979,47.28617],[13.48066,47.28566],[13.48138,47.28498],[13.48437,47.28372],[13.48488,47.28327],[13.48483,47.28308],[13.48461,47.28296]]}},{"type":"Feature","properties":{"kind":"piste","difficulty":"unknown","name":"Tauernkar Zwölferhang","aerialway":null,"osm":"relation/3405146"},"geometry":{"type":"LineString","coordinates":[[13.46593,47.28477],[13.46415,47.28495],[13.46221,47.28472],[13.46114,47.28499]]}},{"type":"Feature","properties":{"kind":"lift","difficulty":null,"name":"Tauernkarlift","aerialway":"t-bar","osm":"way/32653526"},"geometry":{"type":"LineString","coordinates":[[13.48475,47.28289],[13.47336,47.28844]]}},{"type":"Feature","properties":{"kind":"lift","difficulty":null,"name":"Hödhütte-Lift","aerialway":"rope_tow","osm":"way/429848683"},"geometry":{"type":"LineString","coordinates":[[13.46702,47.24844],[13.46376,47.24813]]}}]}