{"type":"FeatureCollection","features":[{"type":"Feature","properties":{"kind":"lift","difficulty":null,"name":"Stuhleckbahn","aerialway":"chair_lift","osm":"way/28939200"},"geometry":{"type":"LineString","coordinates":[[15.75765,47.61477],[15.76429,47.59117]]}},{"type":"Feature","properties":{"kind":"lift","difficulty":null,"name":"Steinbachalmbahn","aerialway":"chair_lift","osm":"way/28939202"},"geometry":{"type":"LineString","coordinates":[[15.77131,47.57038],[15.78857,47.57368]]}},{"type":"Feature","properties":{"kind":"piste","difficulty":"intermediate","name":null,"aerialway":null,"osm":"way/28939672"},"geometry":{"type":"LineString","coordinates":[[15.78857,47.57368],[15.78878,47.57374],[15.78865,47.57379],[15.78819,47.57372],[15.78475,47.57309]]}},{"type":"Feature","properties":{"kind":"lift","difficulty":null,"name":"Weißenelfbahn","aerialway":"chair_lift","osm":"way/28939676"},"geometry":{"type":"LineString","coordinates":[[15.76458,47.59199],[15.77682,47.57814]]}},{"type":"Feature","properties":{"kind":"piste","difficulty":"easy","name":null,"aerialway":null,"osm":"way/28939682"},"geometry":{"type":"LineString","coordinates":[[15.78857,47.57368],[15.78877,47.57374],[15.78867,47.57381],[15.78719,47.5741],[15.78303,47.57575],[15.77608,47.5776]]}},{"type":"Feature","properties":{"kind":"piste","difficulty":"easy","name":null,"aerialway":null,"osm":"way/28939685"},"geometry":{"type":"LineString","coordinates":[[15.77682,47.57814],[15.77692,47.57791],[15.77675,47.57768],[15.77645,47.57755],[15.77608,47.5776],[15.77553,47.57793],[15.77507,47.57848],[15.77528,47.58116],[15.77458,47.58187],[15.77444,47.5831],[15.77422,47.58348],[15.77274,47.58471],[15.77189,47.5858],[15.77096,47.58663],[15.76964,47.5871],[15.76877,47.58957],[15.76679,47.5911],[15.76364,47.59163]]}},{"type":"Feature","properties":{"kind":"piste","difficulty":"easy","name":null,"aerialway":null,"osm":"way/28939777"},"geometry":{"type":"LineString","coordinates":[[15.76991,47.58898],[15.76991,47.58883],[15.76972,47.58884],[15.76563,47.58989],[15.764,47.59071],[15.76364,47.59163],[15.76458,47.59199]]}},{"type":"Feature","properties":{"kind":"piste","difficulty":"intermediate","name":null,"aerialway":null,"osm":"way/28939778"},"geometry":{"type":"LineString","coordinates":[[15.76679,47.5911],[15.76609,47.59258],[15.76491,47.59322],[15.76436,47.59464],[15.76398,47.59789],[15.76451,47.6001],[15.765,47.60068],[15.76693,47.60146],[15.76808,47.60299],[15.76882,47.60364],[15.76973,47.60417],[15.77051,47.60418],[15.77077,47.6039]]}},{"type":"Feature","properties":{"kind":"lift","difficulty":null,"name":"Promibahn","aerialway":"chair_lift","osm":"way/28939779"},"geometry":{"type":"LineString","coordinates":[[15.77077,47.6039],[15.76991,47.58898]]}},{"type":"Feature","properties":{"kind":"piste","difficulty":"easy","name":null,"aerialway":null,"osm":"way/29293080"},"geometry":{"type":"LineString","coordinates":[[15.77507,47.57848],[15.77439,47.57864],[15.77369,47.5786],[15.77308,47.57826],[15.77252,47.57757],[15.7723,47.5758],[15.772,47.57507],[15.77109,47.57438],[15.77094,47.57396],[15.77113,47.57292],[15.77149,47.5723],[15.7715,47.57191],[15.77095,47.5711],[15.77083,47.57067],[15.77097,47.57042],[15.77131,47.57038]]}},{"type":"Feature","properties":{"kind":"lift","difficulty":null,"name":"Schieferwiesenlift II","aerialway":"drag_lift","osm":"way/29293112"},"geometry":{"type":"LineString","coordinates":[[15.75894,47.60559],[15.75788,47.59941]]}},{"type":"Feature","properties":{"kind":"piste","difficulty":"easy","name":null,"aerialway":null,"osm":"way/29293137"},"geometry":{"type":"LineString","coordinates":[[15.758,47.60008],[15.75745,47.60027],[15.75754,47.60304],[15.75812,47.60543],[15.75894,47.60559]]}},{"type":"Feature","properties":{"kind":"piste","difficulty":"easy","name":null,"aerialway":null,"osm":"way/29399019"},"geometry":{"type":"LineString","coordinates":[[15.75811,47.60007],[15.7584,47.60011],[15.75947,47.60539],[15.75904,47.60558]]}},{"type":"Feature","properties":{"kind":"piste","difficulty":"easy","name":null,"aerialway":null,"osm":"way/52902592"},"geometry":{"type":"LineString","coordinates":[[15.76753,47.5905],[15.76823,47.59181],[15.76954,47.59284],[15.77228,47.59409],[15.77312,47.59494],[15.77294,47.59542],[15.77083,47.59648],[15.77022,47.597],[15.76948,47.59816],[15.76868,47.5989],[15.76824,47.60095],[15.76894,47.60202],[15.76882,47.60364]]}},{"type":"Feature","properties":{"kind":"piste","difficulty":"easy","name":null,"aerialway":null,"osm":"way/52902593"},"geometry":{"type":"LineString","coordinates":[[15.77046,47.59326],[15.7697,47.59381],[15.76886,47.59415]]}},{"type":"Feature","properties":{"kind":"piste","difficulty":"easy","name":null,"aerialway":null,"osm":"way/52924581"},"geometry":{"type":"LineString","coordinates":[[15.76364,47.59163],[15.76327,47.5917],[15.76279,47.59224],[15.76168,47.59447],[15.76059,47.59757]]}},{"type":"Feature","properties":{"kind":"piste","difficulty":"intermediate","name":null,"aerialway":null,"osm":"way/52924582"},"geometry":{"type":"LineString","coordinates":[[15.76059,47.59757],[15.76061,47.59824],[15.75993,47.60249],[15.75966,47.6059],[15.75846,47.60867]]}},{"type":"Feature","properties":{"kind":"lift","difficulty":null,"name":"Familienlift","aerialway":"drag_lift","osm":"way/52924583"},"geometry":{"type":"LineString","coordinates":[[15.75461,47.60977],[15.75312,47.60593]]}},{"type":"Feature","properties":{"kind":"piste","difficulty":"easy","name":null,"aerialway":null,"osm":"way/52924584"},"geometry":{"type":"LineString","coordinates":[[15.75331,47.6064],[15.75308,47.60641],[15.75289,47.60661],[15.75424,47.6099],[15.75444,47.60989],[15.75459,47.60971]]}},{"type":"Feature","properties":{"kind":"piste","difficulty":"easy","name":null,"aerialway":null,"osm":"way/52924585"},"geometry":{"type":"LineString","coordinates":[[15.75436,47.60865],[15.75505,47.609],[15.75478,47.60955],[15.75463,47.60958]]}},{"type":"Feature","properties":{"kind":"piste","difficulty":"intermediate","name":null,"aerialway":null,"osm":"way/84303663"},"geometry":{"type":"LineString","coordinates":[[15.78857,47.57368],[15.78878,47.57374],[15.78865,47.5738],[15.78754,47.57379],[15.78529,47.57333],[15.78475,47.57309],[15.77385,47.5712],[15.77326,47.57095],[15.77258,47.57043],[15.77169,47.57008],[15.77108,47.57014],[15.77103,47.57027],[15.77131,47.57038]]}},{"type":"Feature","properties":{"kind":"lift","difficulty":null,"name":"Sonnenlift","aerialway":"drag_lift","osm":"way/84303666"},"geometry":{"type":"LineString","coordinates":[[15.76313,47.60723],[15.76083,47.60174]]}},{"type":"Feature","properties":{"kind":"lift","difficulty":null,"name":"Schieferwiesenlift I","aerialway":"drag_lift","osm":"way/84303669"},"geometry":{"type":"LineString","coordinates":[[15.75904,47.60558],[15.75796,47.59939]]}},{"type":"Feature","properties":{"kind":"piste","difficulty":"easy","name":null,"aerialway":null,"osm":"way/205978889"},"geometry":{"type":"LineString","coordinates":[[15.75797,47.60572],[15.75625,47.60729]]}},{"type":"Feature","properties":{"kind":"piste","difficulty":"easy","name":null,"aerialway":null,"osm":"way/205978890"},"geometry":{"type":"LineString","coordinates":[[15.75816,47.59955],[15.7584,47.60011]]}},{"type":"Feature","properties":{"kind":"piste","difficulty":"intermediate","name":null,"aerialway":null,"osm":"way/205978891"},"geometry":{"type":"LineString","coordinates":[[15.75947,47.60539],[15.75969,47.60542]]}},{"type":"Feature","properties":{"kind":"piste","difficulty":"easy","name":null,"aerialway":null,"osm":"way/205978892"},"geometry":{"type":"LineString","coordinates":[[15.75857,47.60091],[15.7601,47.60142]]}},{"type":"Feature","properties":{"kind":"piste","difficulty":"easy","name":null,"aerialway":null,"osm":"way/205978893"},"geometry":{"type":"LineString","coordinates":[[15.7601,47.60142],[15.76045,47.60162],[15.76123,47.60172],[15.76375,47.60163],[15.765,47.60154],[15.76623,47.6012]]}},{"type":"Feature","properties":{"kind":"piste","difficulty":"intermediate","name":null,"aerialway":null,"osm":"way/205978894"},"geometry":{"type":"LineString","coordinates":[[15.76005,47.60176],[15.76076,47.60222],[15.76132,47.60223],[15.76238,47.6046],[15.76269,47.6057],[15.76222,47.60604],[15.76253,47.60718],[15.76313,47.60723]]}},{"type":"Feature","properties":{"kind":"piste","difficulty":"easy","name":null,"aerialway":null,"osm":"way/209095802"},"geometry":{"type":"LineString","coordinates":[[15.75894,47.60745],[15.75953,47.60776],[15.75977,47.60823]]}},{"type":"Feature","properties":{"kind":"piste","difficulty":"easy","name":null,"aerialway":null,"osm":"way/209095804"},"geometry":{"type":"LineString","coordinates":[[15.76059,47.59757],[15.75955,47.5981],[15.75846,47.59937],[15.75543,47.60117],[15.75509,47.60164],[15.75526,47.60262],[15.75573,47.60334],[15.75627,47.60528],[15.75641,47.60644],[15.75625,47.60729],[15.75546,47.60814],[15.75505,47.609],[15.75561,47.60928],[15.75655,47.6093],[15.75781,47.60905],[15.75846,47.60867],[15.75942,47.60848]]}},{"type":"Feature","properties":{"kind":"piste","difficulty":"easy","name":null,"aerialway":null,"osm":"way/209098396"},"geometry":{"type":"LineString","coordinates":[[15.77553,47.57793],[15.77568,47.5788],[15.77522,47.5798]]}},{"type":"Feature","properties":{"kind":"piste","difficulty":"easy","name":null,"aerialway":null,"osm":"way/209099474"},"geometry":{"type":"LineString","coordinates":[[15.765,47.60068],[15.76531,47.60132],[15.76019,47.60467],[15.75969,47.60542],[15.75922,47.60571],[15.75797,47.60572]]}},{"type":"Feature","properties":{"kind":"piste","difficulty":"easy","name":null,"aerialway":null,"osm":"way/214782706"},"geometry":{"type":"LineString","coordinates":[[15.75743,47.59993],[15.75745,47.60027]]}},{"type":"Feature","properties":{"kind":"lift","difficulty":null,"name":"Minilift","aerialway":"drag_lift","osm":"way/241722562"},"geometry":{"type":"LineString","coordinates":[[15.75463,47.60958],[15.75432,47.60851]]}},{"type":"Feature","properties":{"kind":"piste","difficulty":"easy","name":null,"aerialway":null,"osm":"way/655334117"},"geometry":{"type":"LineString","coordinates":[[15.77274,47.58471],[15.77125,47.58534],[15.76901,47.58558],[15.76804,47.58598],[15.76778,47.58632],[15.76775,47.5867],[15.76801,47.58823],[15.76712,47.58953]]}},{"type":"Feature","properties":{"kind":"piste","difficulty":"easy","name":null,"aerialway":null,"osm":"way/661009082"},"geometry":{"type":"LineString","coordinates":[[15.76886,47.59415],[15.76575,47.59397],[15.76901,47.59534],[15.77196,47.59529],[15.77312,47.59494]]}},{"type":"Feature","properties":{"kind":"lift","difficulty":null,"name":"Skischullift","aerialway":"drag_lift","osm":"way/917092409"},"geometry":{"type":"LineString","coordinates":[[15.7572,47.61033],[15.75618,47.60939]]}},{"type":"Feature","properties":{"kind":"piste","difficulty":"intermediate","name":null,"aerialway":null,"osm":"way/1259224905"},"geometry":{"type":"LineString","coordinates":[[15.76364,47.59163],[15.76348,47.59213],[15.76448,47.59239],[15.76609,47.59258]]}},{"type":"Feature","properties":{"kind":"piste","difficulty":"easy","name":null,"aerialway":null,"osm":"way/1259224913"},"geometry":{"type":"LineString","coordinates":[[15.75331,47.6064],[15.75737,47.60574],[15.75812,47.60543]]}},{"type":"Feature","properties":{"kind":"piste","difficulty":"easy","name":null,"aerialway":null,"osm":"way/1259224914"},"geometry":{"type":"LineString","coordinates":[[15.75618,47.60939],[15.75697,47.60978],[15.75721,47.61004],[15.7572,47.61033]]}},{"type":"Feature","properties":{"kind":"piste","difficulty":"easy","name":null,"aerialway":null,"osm":"way/1259224915"},"geometry":{"type":"LineString","coordinates":[[15.75359,47.60826],[15.75436,47.60865]]}},{"type":"Feature","properties":{"kind":"piste","difficulty":"easy","name":null,"aerialway":null,"osm":"way/1259699427"},"geometry":{"type":"LineString","coordinates":[[15.75812,47.60543],[15.75797,47.60572]]}},{"type":"Feature","properties":{"kind":"lift","difficulty":null,"name":"Verbindungslift Sonnenlift","aerialway":"magic_carpet","osm":"way/1361020822"},"geometry":{"type":"LineString","coordinates":[[15.76121,47.60222],[15.76147,47.6017]]}},{"type":"Feature","properties":{"kind":"lift","difficulty":null,"name":"Tellerlift","aerialway":"platter","osm":"way/1361022333"},"geometry":{"type":"LineString","coordinates":[[15.75672,47.60676],[15.7577,47.60565]]}},{"type":"Feature","properties":{"kind":"piste","difficulty":"easy","name":null,"aerialway":null,"osm":"way/1537947471"},"geometry":{"type":"LineString","coordinates":[[15.7577,47.60565],[15.75775,47.60558]]}},{"type":"Feature","properties":{"kind":"piste","difficulty":"easy","name":null,"aerialway":null,"osm":"way/1537947472"},"geometry":{"type":"LineString","coordinates":[[15.75686,47.60677],[15.75672,47.60676]]}}]}