{"type":"FeatureCollection","features":[{"type":"Feature","properties":{"kind":"piste","difficulty":"intermediate","name":"20 - FIS","aerialway":null,"osm":"way/49806938"},"geometry":{"type":"LineString","coordinates":[[13.885,46.92685],[13.88369,46.92733],[13.88291,46.92871],[13.88305,46.92931],[13.88427,46.93056],[13.88497,46.93194],[13.88475,46.93449],[13.88391,46.93644],[13.88406,46.93691],[13.88456,46.93775],[13.8856,46.93903],[13.88901,46.94125],[13.88974,46.94138],[13.88992,46.94183],[13.89017,46.94176],[13.89013,46.94157]]}},{"type":"Feature","properties":{"kind":"piste","difficulty":"easy","name":"32 - Skiweg zur Sonnenbahn","aerialway":null,"osm":"way/49806950"},"geometry":{"type":"LineString","coordinates":[[13.88347,46.92582],[13.88363,46.92565],[13.88365,46.92511],[13.88335,46.92354],[13.88267,46.92303],[13.88164,46.92073],[13.88125,46.92011],[13.88065,46.91965],[13.88107,46.91824]]}},{"type":"Feature","properties":{"kind":"piste","difficulty":"easy","name":"1- Kornock","aerialway":null,"osm":"way/49807062"},"geometry":{"type":"LineString","coordinates":[[13.85588,46.91561],[13.85577,46.91575],[13.85603,46.91634],[13.85601,46.91688],[13.85567,46.91793],[13.85503,46.91904],[13.85345,46.92042],[13.85362,46.92059],[13.85467,46.92052],[13.85575,46.92107],[13.85851,46.92079],[13.85908,46.92054],[13.85974,46.91966],[13.86099,46.91904],[13.86132,46.91875],[13.86147,46.91833],[13.86177,46.91821],[13.86407,46.91831],[13.86599,46.91933],[13.86674,46.91997],[13.86719,46.92076],[13.86711,46.92192],[13.86775,46.92266],[13.86902,46.92291],[13.87004,46.92292],[13.86979,46.92268]]}},{"type":"Feature","properties":{"kind":"piste","difficulty":"intermediate","name":"2 - Hirschkogel","aerialway":null,"osm":"way/49807063"},"geometry":{"type":"LineString","coordinates":[[13.85633,46.92112],[13.85851,46.92079],[13.86127,46.92063],[13.86417,46.91997],[13.86471,46.92004],[13.86632,46.92069],[13.86699,46.92111],[13.86713,46.9214]]}},{"type":"Feature","properties":{"kind":"piste","difficulty":"easy","name":null,"aerialway":null,"osm":"way/49807064"},"geometry":{"type":"LineString","coordinates":[[13.87004,46.92292],[13.86988,46.92339]]}},{"type":"Feature","properties":{"kind":"piste","difficulty":"intermediate","name":"9 - Hüttenexpress","aerialway":null,"osm":"way/49807065"},"geometry":{"type":"LineString","coordinates":[[13.86505,46.91729],[13.86526,46.91731],[13.86435,46.9184]]}},{"type":"Feature","properties":{"kind":"piste","difficulty":"intermediate","name":"12 - Panorama","aerialway":null,"osm":"way/49807066"},"geometry":{"type":"LineString","coordinates":[[13.86589,46.91704],[13.86753,46.91633],[13.86821,46.91654],[13.8685,46.91644],[13.86859,46.91548],[13.86873,46.91533],[13.86962,46.91574],[13.87015,46.91631],[13.8705,46.91645],[13.87161,46.91525],[13.87402,46.91459],[13.87405,46.91446],[13.87362,46.91458]]}},{"type":"Feature","properties":{"kind":"piste","difficulty":"easy","name":"8 - Alibi","aerialway":null,"osm":"way/49807067"},"geometry":{"type":"LineString","coordinates":[[13.86674,46.91997],[13.8673,46.92007],[13.86874,46.91943],[13.86975,46.9194],[13.87044,46.91781],[13.8707,46.91748]]}},{"type":"Feature","properties":{"kind":"piste","difficulty":"easy","name":"26 - Wildkopf","aerialway":null,"osm":"way/49807072"},"geometry":{"type":"LineString","coordinates":[[13.87983,46.92437],[13.87985,46.92403],[13.87958,46.92385],[13.8782,46.92399],[13.87359,46.92373],[13.8723,46.92381],[13.87211,46.92385],[13.87206,46.92401]]}},{"type":"Feature","properties":{"kind":"piste","difficulty":"intermediate","name":"19 - Zirbenwald","aerialway":null,"osm":"way/49807096"},"geometry":{"type":"LineString","coordinates":[[13.87983,46.92437],[13.8801,46.92417],[13.88035,46.92486],[13.88043,46.92561],[13.88074,46.92637],[13.88181,46.92779],[13.88196,46.92844],[13.88172,46.92895],[13.88009,46.92997],[13.87902,46.93042],[13.87719,46.93083],[13.87614,46.93127],[13.87548,46.93178]]}},{"type":"Feature","properties":{"kind":"piste","difficulty":"intermediate","name":"Adrenalin","aerialway":null,"osm":"way/49807130"},"geometry":{"type":"LineString","coordinates":[[13.88369,46.92733],[13.88376,46.92776],[13.88476,46.92881],[13.88855,46.9377],[13.88854,46.93801]]}},{"type":"Feature","properties":{"kind":"piste","difficulty":"intermediate","name":"21 - Eisenhut","aerialway":null,"osm":"way/49807133"},"geometry":{"type":"LineString","coordinates":[[13.88343,46.92552],[13.88338,46.92541],[13.88316,46.92546],[13.88334,46.9258],[13.88372,46.92586],[13.88446,46.92644],[13.88479,46.92746],[13.88506,46.92774],[13.88555,46.92789],[13.88624,46.92857],[13.88794,46.92949],[13.88864,46.93023],[13.88851,46.932],[13.8886,46.93247],[13.8893,46.9337],[13.88936,46.93455],[13.88896,46.9355],[13.88866,46.93572],[13.88838,46.93616],[13.88846,46.93637],[13.88966,46.937],[13.8898,46.93721],[13.88976,46.93771],[13.88954,46.9381]]}},{"type":"Feature","properties":{"kind":"piste","difficulty":"easy","name":"Skiweg zur Turrachbahn","aerialway":null,"osm":"way/49807134"},"geometry":{"type":"LineString","coordinates":[[13.88954,46.9381],[13.88604,46.93754],[13.88504,46.93718],[13.88464,46.93734],[13.88448,46.93762]]}},{"type":"Feature","properties":{"kind":"piste","difficulty":"advanced","name":"35 - Direttissima","aerialway":null,"osm":"way/49807140"},"geometry":{"type":"LineString","coordinates":[[13.88954,46.9381],[13.88947,46.93846],[13.88962,46.93945],[13.89013,46.94069],[13.88986,46.9409],[13.88974,46.94138]]}},{"type":"Feature","properties":{"kind":"piste","difficulty":"intermediate","name":"24 - Weitentalabfahrt","aerialway":null,"osm":"way/49807142"},"geometry":{"type":"LineString","coordinates":[[13.8863,46.91791],[13.88618,46.91794],[13.88633,46.91832],[13.88649,46.91822]]}},{"type":"Feature","properties":{"kind":"piste","difficulty":"intermediate","name":"25 - Abfahrt Sonnenbahn","aerialway":null,"osm":"way/49807143"},"geometry":{"type":"LineString","coordinates":[[13.88622,46.91879],[13.88641,46.91871],[13.88629,46.91844],[13.88571,46.91826],[13.88361,46.91822],[13.88269,46.91801],[13.8818,46.91832],[13.88107,46.91824],[13.88089,46.91776],[13.88096,46.91704],[13.8807,46.91683],[13.88017,46.9169],[13.87983,46.91711],[13.87901,46.91815]]}},{"type":"Feature","properties":{"kind":"piste","difficulty":"freeride","name":"10 - Kornock Steilhang - Skiroute","aerialway":null,"osm":"way/49807145"},"geometry":{"type":"LineString","coordinates":[[13.85599,46.91701],[13.85634,46.91721],[13.85812,46.91744],[13.86051,46.91712],[13.86109,46.91735],[13.86171,46.918],[13.86222,46.91821]]}},{"type":"Feature","properties":{"kind":"piste","difficulty":"intermediate","name":"9 - Abfahrt Hüttenexpress","aerialway":null,"osm":"way/50489276"},"geometry":{"type":"LineString","coordinates":[[13.86595,46.91719],[13.86571,46.91713],[13.86526,46.91731]]}},{"type":"Feature","properties":{"kind":"piste","difficulty":"easy","name":null,"aerialway":null,"osm":"way/50489280"},"geometry":{"type":"LineString","coordinates":[[13.87329,46.92627],[13.87215,46.92622],[13.87204,46.9264],[13.87244,46.92713]]}},{"type":"Feature","properties":{"kind":"piste","difficulty":"intermediate","name":"20 - FIS","aerialway":null,"osm":"way/50489281"},"geometry":{"type":"LineString","coordinates":[[13.88311,46.92829],[13.88172,46.92895],[13.88168,46.92919],[13.88237,46.9298],[13.88379,46.93018]]}},{"type":"Feature","properties":{"kind":"piste","difficulty":"intermediate","name":"14 - Schafalm","aerialway":null,"osm":"way/50489302"},"geometry":{"type":"LineString","coordinates":[[13.85345,46.92042],[13.85291,46.92103],[13.85202,46.92309],[13.85137,46.92398],[13.85107,46.92524],[13.85116,46.92568],[13.85134,46.92584],[13.85345,46.92585],[13.85368,46.92595],[13.85377,46.92617],[13.85133,46.92815],[13.85004,46.93188],[13.85019,46.93204],[13.85063,46.93176]]}},{"type":"Feature","properties":{"kind":"piste","difficulty":"intermediate","name":"12 - Panoramaabfahrt","aerialway":null,"osm":"way/50489304"},"geometry":{"type":"LineString","coordinates":[[13.86505,46.91729],[13.86589,46.91704]]}},{"type":"Feature","properties":{"kind":"piste","difficulty":"intermediate","name":"1 - Kornock","aerialway":null,"osm":"way/50492661"},"geometry":{"type":"LineString","coordinates":[[13.86922,46.92022],[13.86904,46.92019],[13.86873,46.92042],[13.86883,46.92071],[13.86866,46.921],[13.86759,46.92201],[13.86743,46.92235]]}},{"type":"Feature","properties":{"kind":"piste","difficulty":"easy","name":"36 - Alibi","aerialway":null,"osm":"way/50493346"},"geometry":{"type":"LineString","coordinates":[[13.88499,46.92674],[13.88505,46.92641],[13.88482,46.92437],[13.88501,46.92412],[13.88538,46.92403],[13.88557,46.92422],[13.88544,46.92496],[13.88591,46.9254],[13.8862,46.92553],[13.88642,46.92548]]}},{"type":"Feature","properties":{"kind":"piste","difficulty":"intermediate","name":"Seitensprung","aerialway":null,"osm":"way/50493347"},"geometry":{"type":"LineString","coordinates":[[13.885,46.92685],[13.88499,46.92674],[13.88735,46.92469],[13.88757,46.92487]]}},{"type":"Feature","properties":{"kind":"piste","difficulty":"easy","name":"33 - Alibi","aerialway":null,"osm":"way/50495186"},"geometry":{"type":"LineString","coordinates":[[13.8822,46.92213],[13.88241,46.92201],[13.8828,46.92203],[13.88485,46.9228],[13.88737,46.92281]]}},{"type":"Feature","properties":{"kind":"piste","difficulty":"intermediate","name":"20 - FIS","aerialway":null,"osm":"way/50495187"},"geometry":{"type":"LineString","coordinates":[[13.88334,46.9258],[13.88327,46.92645],[13.88369,46.92733]]}},{"type":"Feature","properties":{"kind":"piste","difficulty":"intermediate","name":"20 - FIS","aerialway":null,"osm":"way/50495188"},"geometry":{"type":"LineString","coordinates":[[13.88389,46.926],[13.88379,46.92635],[13.88389,46.92657],[13.88369,46.92733]]}},{"type":"Feature","properties":{"kind":"piste","difficulty":"intermediate","name":"13 - Landereck","aerialway":null,"osm":"way/50592476"},"geometry":{"type":"LineString","coordinates":[[13.8705,46.91645],[13.87063,46.91668],[13.87061,46.9175],[13.87081,46.91775],[13.87163,46.91804],[13.87221,46.91804],[13.87271,46.91788],[13.87291,46.91797]]}},{"type":"Feature","properties":{"kind":"piste","difficulty":"easy","name":"27 - Skiweg zum Wildkopflift","aerialway":null,"osm":"way/55284206"},"geometry":{"type":"LineString","coordinates":[[13.88087,46.92651],[13.88027,46.92644],[13.87915,46.92595],[13.87885,46.92593],[13.87821,46.92624],[13.87599,46.9261],[13.87454,46.92532],[13.87374,46.92437],[13.87375,46.92397],[13.87359,46.92373]]}},{"type":"Feature","properties":{"kind":"piste","difficulty":"intermediate","name":"23 - Schwarzseeabfahrt","aerialway":null,"osm":"way/55284210"},"geometry":{"type":"LineString","coordinates":[[13.88816,46.92184],[13.88842,46.92221],[13.88834,46.92255],[13.88812,46.92272],[13.88737,46.92281]]}},{"type":"Feature","properties":{"kind":"piste","difficulty":"intermediate","name":"25 - Abfahrt Sonnenbahn","aerialway":null,"osm":"way/55284219"},"geometry":{"type":"LineString","coordinates":[[13.8863,46.91791],[13.88604,46.91778],[13.88587,46.9174],[13.88568,46.91736],[13.8843,46.9179],[13.88342,46.91793],[13.88293,46.91781],[13.88204,46.91822]]}},{"type":"Feature","properties":{"kind":"piste","difficulty":"intermediate","name":"3 - Pauli","aerialway":null,"osm":"way/55284238"},"geometry":{"type":"LineString","coordinates":[[13.86104,46.92357],[13.86242,46.92362],[13.86315,46.92376],[13.86411,46.92415],[13.86457,46.92418]]}},{"type":"Feature","properties":{"kind":"piste","difficulty":"intermediate","name":"3 - Pauli","aerialway":null,"osm":"way/55284250"},"geometry":{"type":"LineString","coordinates":[[13.85692,46.92294],[13.86022,46.92391],[13.86049,46.92388],[13.86231,46.92279],[13.86281,46.92274],[13.86366,46.92287],[13.86413,46.92334],[13.86465,46.92337],[13.8654,46.92319],[13.86698,46.92369]]}},{"type":"Feature","properties":{"kind":"piste","difficulty":"easy","name":"31 - Skiweg zur Turrachbahn","aerialway":null,"osm":"way/103580438"},"geometry":{"type":"LineString","coordinates":[[13.89361,46.92632],[13.89315,46.92653],[13.8933,46.92691],[13.89345,46.92709],[13.8945,46.92749],[13.8947,46.92784],[13.89448,46.92936],[13.89472,46.92986],[13.89505,46.93171],[13.89439,46.933],[13.89375,46.93361],[13.89319,46.93457],[13.89263,46.93502],[13.89175,46.9366],[13.8902,46.93788],[13.88954,46.9381]]}},{"type":"Feature","properties":{"kind":"piste","difficulty":"easy","name":"Kids slope","aerialway":null,"osm":"way/144787701"},"geometry":{"type":"LineString","coordinates":[[13.8782,46.92399],[13.87736,46.92453],[13.87641,46.92471],[13.87621,46.92445],[13.87563,46.92437],[13.87575,46.92399],[13.87488,46.92375]]}},{"type":"Feature","properties":{"kind":"piste","difficulty":"easy","name":null,"aerialway":null,"osm":"way/144787702"},"geometry":{"type":"LineString","coordinates":[[13.87664,46.92673],[13.8766,46.92704],[13.8768,46.92733],[13.87662,46.92756],[13.87623,46.92748],[13.87517,46.92662]]}},{"type":"Feature","properties":{"kind":"piste","difficulty":"easy","name":null,"aerialway":null,"osm":"way/144788199"},"geometry":{"type":"LineString","coordinates":[[13.87329,46.92627],[13.87256,46.92609],[13.87182,46.92535],[13.87121,46.92415],[13.87146,46.92374],[13.87131,46.92368]]}},{"type":"Feature","properties":{"kind":"piste","difficulty":"intermediate","name":"23 - Schwarzseeabfahrt","aerialway":null,"osm":"way/232097276"},"geometry":{"type":"LineString","coordinates":[[13.88748,46.92349],[13.88737,46.92366],[13.88735,46.92469],[13.88976,46.92433]]}},{"type":"Feature","properties":{"kind":"piste","difficulty":"intermediate","name":"23 - Schwarzseeabfahrt","aerialway":null,"osm":"way/232098058"},"geometry":{"type":"LineString","coordinates":[[13.88622,46.91879],[13.88649,46.91877],[13.88643,46.91834],[13.88705,46.91885],[13.88694,46.91938],[13.88681,46.91948]]}},{"type":"Feature","properties":{"kind":"piste","difficulty":"intermediate","name":"24 - Weitentalabfahrt","aerialway":null,"osm":"way/232098059"},"geometry":{"type":"LineString","coordinates":[[13.8863,46.91791],[13.88749,46.91874],[13.89034,46.91951],[13.8924,46.92028],[13.89325,46.92101],[13.89429,46.92139],[13.89415,46.92239],[13.89426,46.92305],[13.89483,46.92366],[13.89468,46.92409],[13.89455,46.92543],[13.8942,46.92627],[13.89398,46.9264],[13.89403,46.92624]]}},{"type":"Feature","properties":{"kind":"piste","difficulty":"intermediate","name":"23 - Schwarzsee","aerialway":null,"osm":"way/232098060"},"geometry":{"type":"LineString","coordinates":[[13.88622,46.91879],[13.88688,46.9191],[13.88681,46.91948],[13.88637,46.91982],[13.88632,46.92013],[13.88816,46.92184],[13.88781,46.92256],[13.88706,46.92295],[13.88718,46.92333],[13.88748,46.92349],[13.88903,46.92375],[13.89018,46.92461],[13.8908,46.92489],[13.89131,46.92538],[13.89382,46.9264],[13.89403,46.92624]]}},{"type":"Feature","properties":{"kind":"piste","difficulty":"intermediate","name":"6 - Übungswiesenabfahrt rechts","aerialway":null,"osm":"way/232099222"},"geometry":{"type":"LineString","coordinates":[[13.87291,46.91797],[13.87272,46.91808]]}},{"type":"Feature","properties":{"kind":"piste","difficulty":"intermediate","name":"7 - Übungswiesenabfahrt links","aerialway":null,"osm":"way/232099223"},"geometry":{"type":"LineString","coordinates":[[13.86864,46.92038],[13.86962,46.91968],[13.86997,46.91988],[13.87044,46.91988],[13.87143,46.91941],[13.8725,46.91863],[13.87294,46.91814],[13.87291,46.91797]]}},{"type":"Feature","properties":{"kind":"piste","difficulty":"intermediate","name":"5 - Engländer","aerialway":null,"osm":"way/232099284"},"geometry":{"type":"LineString","coordinates":[[13.86861,46.92042],[13.86905,46.92063],[13.86978,46.92148],[13.87025,46.92236],[13.87012,46.92244]]}},{"type":"Feature","properties":{"kind":"piste","difficulty":"easy","name":null,"aerialway":null,"osm":"way/232099510"},"geometry":{"type":"LineString","coordinates":[[13.86996,46.92331],[13.87125,46.92371]]}},{"type":"Feature","properties":{"kind":"piste","difficulty":"easy","name":null,"aerialway":null,"osm":"way/232099511"},"geometry":{"type":"LineString","coordinates":[[13.87131,46.92368],[13.87199,46.92373],[13.87206,46.92401]]}},{"type":"Feature","properties":{"kind":"piste","difficulty":"easy","name":"18 - Märchenwald","aerialway":null,"osm":"way/232099533"},"geometry":{"type":"LineString","coordinates":[[13.8782,46.92399],[13.87818,46.9246],[13.87884,46.92551],[13.87885,46.92593],[13.87841,46.9263],[13.87632,46.92676],[13.87517,46.92662],[13.87352,46.92621],[13.87274,46.92658],[13.87244,46.92713],[13.87258,46.92758],[13.87421,46.93028],[13.87513,46.93119],[13.87548,46.93178],[13.87548,46.93214],[13.87574,46.93226],[13.87588,46.93214]]}},{"type":"Feature","properties":{"kind":"piste","difficulty":"intermediate","name":"4- Mapaki","aerialway":null,"osm":"way/392627426"},"geometry":{"type":"LineString","coordinates":[[13.85735,46.92497],[13.85914,46.92532],[13.86065,46.92581],[13.8611,46.9258],[13.86278,46.9255],[13.86358,46.92474],[13.86519,46.92391],[13.86623,46.92389],[13.86698,46.92369],[13.86813,46.92377],[13.8688,46.9231],[13.87004,46.92292]]}},{"type":"Feature","properties":{"kind":"piste","difficulty":"easy","name":"17 - Lampelabfahrt","aerialway":null,"osm":"way/392627427"},"geometry":{"type":"LineString","coordinates":[[13.85725,46.92518],[13.85713,46.92553],[13.85719,46.92653],[13.85708,46.92713],[13.85549,46.92889],[13.85528,46.92943],[13.85524,46.93098],[13.85483,46.9311],[13.85449,46.93098],[13.85382,46.93028],[13.85175,46.92937],[13.85135,46.92932],[13.85075,46.9297]]}},{"type":"Feature","properties":{"kind":"piste","difficulty":"advanced","name":"Schafnase","aerialway":null,"osm":"way/392627430"},"geometry":{"type":"LineString","coordinates":[[13.85202,46.92309],[13.85249,46.9236],[13.85316,46.92467],[13.85421,46.92561],[13.85403,46.92597],[13.85377,46.92617]]}},{"type":"Feature","properties":{"kind":"piste","difficulty":"intermediate","name":"Adrenalin","aerialway":null,"osm":"way/659560132"},"geometry":{"type":"LineString","coordinates":[[13.88766,46.93567],[13.88842,46.93607]]}},{"type":"Feature","properties":{"kind":"piste","difficulty":"intermediate","name":"24 - Weitentalabfahrt","aerialway":null,"osm":"way/775341206"},"geometry":{"type":"LineString","coordinates":[[13.8866,46.91819],[13.88674,46.9182]]}},{"type":"Feature","properties":{"kind":"piste","difficulty":"intermediate","name":"24 - Weitentalabfahrt","aerialway":null,"osm":"way/775341207"},"geometry":{"type":"LineString","coordinates":[[13.88649,46.91822],[13.8866,46.91819]]}},{"type":"Feature","properties":{"kind":"piste","difficulty":"easy","name":"17 - Lampl","aerialway":null,"osm":"way/1272575529"},"geometry":{"type":"LineString","coordinates":[[13.85575,46.92107],[13.85619,46.92124],[13.85692,46.92294],[13.85702,46.92389],[13.85769,46.92457],[13.85725,46.92518]]}},{"type":"Feature","properties":{"kind":"piste","difficulty":"easy","name":null,"aerialway":null,"osm":"way/1362674623"},"geometry":{"type":"LineString","coordinates":[[13.87984,46.92367],[13.8801,46.92417],[13.87985,46.92403]]}},{"type":"Feature","properties":{"kind":"piste","difficulty":"freeride","name":null,"aerialway":null,"osm":"way/1362674624"},"geometry":{"type":"LineString","coordinates":[[13.85665,46.9212],[13.85684,46.92152],[13.85897,46.92176],[13.86038,46.92163],[13.86071,46.92113],[13.85665,46.9212]]}},{"type":"Feature","properties":{"kind":"piste","difficulty":"freeride","name":null,"aerialway":null,"osm":"way/1362674625"},"geometry":{"type":"LineString","coordinates":[[13.85665,46.92112],[13.86246,46.92102],[13.86463,46.92021],[13.86395,46.92002],[13.86254,46.92052],[13.86117,46.92072],[13.8576,46.92091],[13.85671,46.92102],[13.85665,46.92112]]}},{"type":"Feature","properties":{"kind":"piste","difficulty":"intermediate","name":null,"aerialway":null,"osm":"way/1473377630"},"geometry":{"type":"LineString","coordinates":[[13.8709,46.91644],[13.87077,46.91624]]}},{"type":"Feature","properties":{"kind":"piste","difficulty":"intermediate","name":"11 - Kornock-schuss","aerialway":null,"osm":"way/1473383340"},"geometry":{"type":"LineString","coordinates":[[13.85503,46.91904],[13.85516,46.91942],[13.85652,46.92062],[13.8576,46.92091]]}},{"type":"Feature","properties":{"kind":"piste","difficulty":"intermediate","name":null,"aerialway":null,"osm":"way/1473383341"},"geometry":{"type":"LineString","coordinates":[[13.86443,46.91829],[13.86426,46.91825]]}},{"type":"Feature","properties":{"kind":"piste","difficulty":"easy","name":null,"aerialway":null,"osm":"way/1473383342"},"geometry":{"type":"LineString","coordinates":[[13.86407,46.91831],[13.86426,46.91825]]}},{"type":"Feature","properties":{"kind":"piste","difficulty":"unknown","name":null,"aerialway":null,"osm":"way/1560137841"},"geometry":{"type":"LineString","coordinates":[[13.85361,46.92074],[13.85375,46.92061]]}},{"type":"Feature","properties":{"kind":"piste","difficulty":"unknown","name":null,"aerialway":null,"osm":"way/1560137842"},"geometry":{"type":"LineString","coordinates":[[13.85361,46.92074],[13.85331,46.92063]]}},{"type":"Feature","properties":{"kind":"lift","difficulty":null,"name":"Kornockbahn","aerialway":"chair_lift","osm":"way/27354179"},"geometry":{"type":"LineString","coordinates":[[13.86979,46.92268],[13.85588,46.91561]]}},{"type":"Feature","properties":{"kind":"lift","difficulty":null,"name":"Turrachbahn","aerialway":"chair_lift","osm":"way/27354180"},"geometry":{"type":"LineString","coordinates":[[13.89013,46.94157],[13.88343,46.92552]]}},{"type":"Feature","properties":{"kind":"lift","difficulty":null,"name":"Sonnenbahn","aerialway":"chair_lift","osm":"way/27354181"},"geometry":{"type":"LineString","coordinates":[[13.87901,46.91815],[13.88622,46.91879]]}},{"type":"Feature","properties":{"kind":"lift","difficulty":null,"name":"Seitensprunglift","aerialway":"t-bar","osm":"way/31766472"},"geometry":{"type":"LineString","coordinates":[[13.88757,46.92487],[13.88482,46.92698]]}},{"type":"Feature","properties":{"kind":"lift","difficulty":null,"name":"Weitentallift","aerialway":"t-bar","osm":"way/31766473"},"geometry":{"type":"LineString","coordinates":[[13.89403,46.92624],[13.88594,46.91753]]}},{"type":"Feature","properties":{"kind":"lift","difficulty":null,"name":"Zirbenwaldbahn","aerialway":"chair_lift","osm":"way/31766474"},"geometry":{"type":"LineString","coordinates":[[13.87588,46.93214],[13.87983,46.92437]]}},{"type":"Feature","properties":{"kind":"lift","difficulty":null,"name":"Wildkopfbahn","aerialway":"chair_lift","osm":"way/31766475"},"geometry":{"type":"LineString","coordinates":[[13.87206,46.92401],[13.87984,46.92367]]}},{"type":"Feature","properties":{"kind":"lift","difficulty":null,"name":"Maulwurf","aerialway":"rope_tow","osm":"way/31766477"},"geometry":{"type":"LineString","coordinates":[[13.87125,46.92371],[13.86988,46.92339]]}},{"type":"Feature","properties":{"kind":"lift","difficulty":null,"name":"Hüttenexpress","aerialway":"platter","osm":"way/31766479"},"geometry":{"type":"LineString","coordinates":[[13.86426,46.91825],[13.86533,46.91696]]}},{"type":"Feature","properties":{"kind":"lift","difficulty":null,"name":"Panoramabahn","aerialway":"mixed_lift","osm":"way/31766480"},"geometry":{"type":"LineString","coordinates":[[13.87362,46.91458],[13.8661,46.91715]]}},{"type":"Feature","properties":{"kind":"lift","difficulty":null,"name":"Übungswiesenlift","aerialway":"t-bar","osm":"way/49807069"},"geometry":{"type":"LineString","coordinates":[[13.87272,46.91808],[13.86884,46.92045]]}},{"type":"Feature","properties":{"kind":"lift","difficulty":null,"name":"Engländerlift","aerialway":"platter","osm":"way/50491004"},"geometry":{"type":"LineString","coordinates":[[13.87012,46.92244],[13.86861,46.92042]]}},{"type":"Feature","properties":{"kind":"lift","difficulty":null,"name":"Schafalmbahn","aerialway":"chair_lift","osm":"way/392627428"},"geometry":{"type":"LineString","coordinates":[[13.85063,46.93176],[13.85361,46.92074]]}},{"type":"Feature","properties":{"kind":"lift","difficulty":null,"name":"Hirschkogellift","aerialway":"t-bar","osm":"way/1165043507"},"geometry":{"type":"LineString","coordinates":[[13.86579,46.92085],[13.85601,46.92113]]}},{"type":"Feature","properties":{"kind":"lift","difficulty":null,"name":"Nocky's Schneezeit","aerialway":"magic_carpet","osm":"way/1473377629"},"geometry":{"type":"LineString","coordinates":[[13.8707,46.91748],[13.8709,46.91644]]}}]}