{"type":"FeatureCollection","features":[{"type":"Feature","properties":{"kind":"piste","difficulty":"easy","name":null,"aerialway":null,"osm":"way/901667778"},"geometry":{"type":"LineString","coordinates":[[9.97783,47.31462],[9.97772,47.31491],[9.97781,47.3153],[9.97917,47.31949],[9.97943,47.32008],[9.97965,47.32023]]}},{"type":"Feature","properties":{"kind":"piste","difficulty":"easy","name":null,"aerialway":null,"osm":"way/901667779"},"geometry":{"type":"LineString","coordinates":[[9.97783,47.31462],[9.97864,47.31521],[9.97893,47.31626],[9.97961,47.31783],[9.98017,47.32],[9.98007,47.32022],[9.97963,47.32025],[9.97996,47.32022]]}},{"type":"Feature","properties":{"kind":"piste","difficulty":"easy","name":null,"aerialway":null,"osm":"way/1435087210"},"geometry":{"type":"LineString","coordinates":[[9.97783,47.31462],[9.97847,47.31514],[9.97885,47.31648],[9.97943,47.31775],[9.98007,47.32011],[9.97961,47.32032],[9.9801,47.32031],[9.9802,47.31986],[9.97974,47.31781],[9.97901,47.31614],[9.97888,47.31523],[9.97858,47.31493],[9.97783,47.31462]]}},{"type":"Feature","properties":{"kind":"piste","difficulty":"easy","name":null,"aerialway":null,"osm":"way/1435087211"},"geometry":{"type":"LineString","coordinates":[[9.97787,47.31472],[9.97779,47.31489],[9.9779,47.31533],[9.97834,47.3163],[9.97964,47.32036],[9.97906,47.31966],[9.97838,47.31787],[9.97795,47.31594],[9.9776,47.31503],[9.97769,47.31472],[9.97783,47.31462],[9.97787,47.31472]]}},{"type":"Feature","properties":{"kind":"piste","difficulty":"novice","name":null,"aerialway":null,"osm":"way/1435087212"},"geometry":{"type":"LineString","coordinates":[[9.97942,47.32048],[9.97961,47.32056],[9.97979,47.32087],[9.98002,47.32185]]}},{"type":"Feature","properties":{"kind":"piste","difficulty":"novice","name":null,"aerialway":null,"osm":"way/1435087213"},"geometry":{"type":"LineString","coordinates":[[9.97942,47.32048],[9.97939,47.32094],[9.97983,47.32177],[9.98002,47.32185]]}},{"type":"Feature","properties":{"kind":"piste","difficulty":"easy","name":null,"aerialway":null,"osm":"way/1435087214"},"geometry":{"type":"LineString","coordinates":[[9.97951,47.32038],[9.97942,47.32048]]}},{"type":"Feature","properties":{"kind":"piste","difficulty":"easy","name":null,"aerialway":null,"osm":"way/1435087215"},"geometry":{"type":"LineString","coordinates":[[9.97965,47.32023],[9.97952,47.32035]]}},{"type":"Feature","properties":{"kind":"lift","difficulty":null,"name":"Grunholzlift","aerialway":"t-bar","osm":"way/41084104"},"geometry":{"type":"LineString","coordinates":[[9.97996,47.32022],[9.97762,47.31406]]}},{"type":"Feature","properties":{"kind":"lift","difficulty":null,"name":null,"aerialway":"magic_carpet","osm":"way/901667780"},"geometry":{"type":"LineString","coordinates":[[9.98002,47.32185],[9.97942,47.32048]]}},{"type":"Feature","properties":{"kind":"piste","difficulty":"easy","name":"Plateau","aerialway":null,"osm":"way/32571150"},"geometry":{"type":"LineString","coordinates":[[10.02761,47.34678],[10.0274,47.3468],[10.02745,47.34645],[10.03139,47.34352],[10.03362,47.34281],[10.03554,47.3418],[10.03735,47.34116],[10.03999,47.33903],[10.04048,47.33893],[10.04149,47.33917],[10.04188,47.33915],[10.04194,47.3393],[10.04168,47.33932]]}},{"type":"Feature","properties":{"kind":"piste","difficulty":"easy","name":"Sunnagehr","aerialway":null,"osm":"way/32571302"},"geometry":{"type":"LineString","coordinates":[[10.04366,47.33847],[10.04366,47.33802],[10.04279,47.33699],[10.04289,47.33619],[10.04272,47.33569],[10.04268,47.33474],[10.04238,47.33463],[10.04114,47.33479],[10.03941,47.33355],[10.03565,47.33161],[10.03504,47.33096],[10.03531,47.33038],[10.03523,47.32995],[10.0346,47.32917],[10.03436,47.32798],[10.0339,47.32758],[10.03297,47.32719],[10.03267,47.32722],[10.03193,47.32816],[10.03099,47.32884],[10.03101,47.32947],[10.03145,47.33],[10.0318,47.33086],[10.03162,47.3311],[10.03106,47.33102]]}},{"type":"Feature","properties":{"kind":"piste","difficulty":"intermediate","name":"Waldabfahrt","aerialway":null,"osm":"way/339364996"},"geometry":{"type":"LineString","coordinates":[[10.03106,47.33102],[10.03091,47.3309],[10.03061,47.32998],[10.02905,47.32894],[10.02895,47.32869],[10.02935,47.32833],[10.02953,47.32731],[10.02941,47.32599],[10.02884,47.32539],[10.02857,47.32487],[10.02846,47.32356],[10.02826,47.32387],[10.02808,47.32381],[10.02802,47.32313],[10.02781,47.32254],[10.02643,47.32046],[10.02663,47.32025],[10.02643,47.32011],[10.02595,47.32042],[10.02581,47.32021],[10.02594,47.31992],[10.02654,47.31951],[10.02788,47.31812],[10.02865,47.31757],[10.0294,47.31648],[10.02928,47.31627],[10.0276,47.31679],[10.02663,47.31684],[10.02571,47.31708],[10.02557,47.317],[10.02737,47.31546],[10.02748,47.31469],[10.02709,47.31468],[10.02677,47.315],[10.02654,47.31497],[10.02684,47.31404],[10.02746,47.3134],[10.02752,47.31235],[10.0273,47.31173],[10.02705,47.31155],[10.0268,47.31155],[10.02555,47.31224],[10.02314,47.31324],[10.02161,47.3142],[10.02125,47.31493],[10.02091,47.31518],[10.01954,47.31558],[10.01929,47.31599],[10.01851,47.31636],[10.01823,47.31686],[10.01756,47.31709],[10.01691,47.31698],[10.01644,47.31739],[10.01552,47.31756],[10.01462,47.31739],[10.01293,47.3168],[10.00991,47.31614],[10.00974,47.31617],[10.00917,47.31693],[10.00891,47.31702]]}},{"type":"Feature","properties":{"kind":"piste","difficulty":"intermediate","name":"Unterdiedams Talabfahrt","aerialway":null,"osm":"way/349644787"},"geometry":{"type":"LineString","coordinates":[[10.02346,47.3316],[10.02149,47.33173],[10.02119,47.33161],[10.02104,47.33126],[10.02073,47.33102],[10.01719,47.33004],[10.01727,47.32866],[10.0177,47.32797],[10.01792,47.32725],[10.01693,47.32706],[10.01506,47.327],[10.01435,47.32658],[10.01279,47.32627],[10.01214,47.32588],[10.01209,47.32569],[10.0123,47.32517],[10.01211,47.32472],[10.0125,47.32441],[10.01249,47.32425],[10.0145,47.32389],[10.0146,47.32299],[10.01575,47.32211],[10.0161,47.32145],[10.01602,47.32122],[10.01534,47.31982],[10.01491,47.3194],[10.01284,47.31881],[10.01259,47.31853],[10.01084,47.31855],[10.0095,47.31821],[10.00827,47.31737]]}},{"type":"Feature","properties":{"kind":"piste","difficulty":"intermediate","name":"Waldabfahrt","aerialway":null,"osm":"way/1061519530"},"geometry":{"type":"LineString","coordinates":[[10.03142,47.32849],[10.02942,47.32787]]}},{"type":"Feature","properties":{"kind":"piste","difficulty":"advanced","name":"Steilhang","aerialway":null,"osm":"way/1061519532"},"geometry":{"type":"LineString","coordinates":[[10.02937,47.34482],[10.02942,47.34448],[10.02909,47.34384],[10.02773,47.34199],[10.02716,47.34023],[10.02754,47.33942],[10.02835,47.33655],[10.02799,47.33599]]}},{"type":"Feature","properties":{"kind":"piste","difficulty":"expert","name":"3 Buckelpiste","aerialway":null,"osm":"way/1061519533"},"geometry":{"type":"LineString","coordinates":[[10.03565,47.33161],[10.03214,47.33158],[10.03161,47.33143]]}},{"type":"Feature","properties":{"kind":"piste","difficulty":"easy","name":null,"aerialway":null,"osm":"way/1070679989"},"geometry":{"type":"LineString","coordinates":[[10.04133,47.33893],[10.04142,47.33892]]}},{"type":"Feature","properties":{"kind":"piste","difficulty":"intermediate","name":"Die Beste","aerialway":null,"osm":"way/1075801346"},"geometry":{"type":"LineString","coordinates":[[10.03572,47.34081],[10.03608,47.34041],[10.03679,47.33851],[10.03723,47.3355],[10.03713,47.3354],[10.03693,47.3355]]}},{"type":"Feature","properties":{"kind":"piste","difficulty":"easy","name":"Familienabfahrt","aerialway":null,"osm":"way/1075801347"},"geometry":{"type":"LineString","coordinates":[[10.02818,47.3454],[10.0289,47.34517],[10.03119,47.34337],[10.03373,47.3425],[10.03455,47.34163],[10.03572,47.34081],[10.03561,47.34044],[10.03513,47.33998],[10.03315,47.33888],[10.03191,47.33782],[10.03019,47.3367],[10.02715,47.33563],[10.02534,47.33569],[10.02496,47.33554],[10.02474,47.3351],[10.02488,47.33469],[10.02592,47.33384],[10.02611,47.33338],[10.02579,47.33294],[10.02519,47.33262],[10.02541,47.33256],[10.02622,47.33281],[10.02727,47.33286]]}},{"type":"Feature","properties":{"kind":"piste","difficulty":"intermediate","name":"Breitalpe","aerialway":null,"osm":"way/1076061076"},"geometry":{"type":"LineString","coordinates":[[10.0408,47.33149],[10.03632,47.33201],[10.03513,47.33113],[10.03503,47.33088],[10.03531,47.33019],[10.03506,47.32965],[10.0346,47.32917]]}},{"type":"Feature","properties":{"kind":"piste","difficulty":"easy","name":null,"aerialway":null,"osm":"way/1076101630"},"geometry":{"type":"LineString","coordinates":[[10.02793,47.3454],[10.02818,47.3454]]}},{"type":"Feature","properties":{"kind":"piste","difficulty":"intermediate","name":"Breitenalpe","aerialway":null,"osm":"way/1076101632"},"geometry":{"type":"LineString","coordinates":[[10.03991,47.33163],[10.03513,47.33114]]}},{"type":"Feature","properties":{"kind":"piste","difficulty":"intermediate","name":"Breitenalpe","aerialway":null,"osm":"way/1076101634"},"geometry":{"type":"LineString","coordinates":[[10.0346,47.32917],[10.03396,47.32878],[10.03297,47.32875],[10.03142,47.32849]]}},{"type":"Feature","properties":{"kind":"piste","difficulty":"easy","name":"Ahorn","aerialway":null,"osm":"way/1076328944"},"geometry":{"type":"LineString","coordinates":[[10.01368,47.31747],[10.01375,47.31739],[10.01347,47.31713],[10.01286,47.31689],[10.00984,47.31632]]}},{"type":"Feature","properties":{"kind":"piste","difficulty":"easy","name":null,"aerialway":null,"osm":"way/1454021946"},"geometry":{"type":"LineString","coordinates":[[10.03373,47.3425],[10.03323,47.34294]]}},{"type":"Feature","properties":{"kind":"piste","difficulty":"easy","name":"Plateau","aerialway":null,"osm":"way/1454021947"},"geometry":{"type":"LineString","coordinates":[[10.03864,47.34006],[10.0396,47.33958],[10.04141,47.33915]]}},{"type":"Feature","properties":{"kind":"piste","difficulty":"easy","name":"Plateau","aerialway":null,"osm":"way/1454021948"},"geometry":{"type":"LineString","coordinates":[[10.04133,47.33893],[10.04141,47.33915]]}},{"type":"Feature","properties":{"kind":"piste","difficulty":"intermediate","name":"Breitenalpe","aerialway":null,"osm":"way/1454021951"},"geometry":{"type":"LineString","coordinates":[[10.03297,47.32875],[10.03184,47.32878],[10.03099,47.32901]]}},{"type":"Feature","properties":{"kind":"piste","difficulty":"advanced","name":"1 Trainingspiste","aerialway":null,"osm":"way/1454021954"},"geometry":{"type":"LineString","coordinates":[[10.02663,47.3437],[10.0269,47.34332],[10.02775,47.34315],[10.02821,47.34274]]}},{"type":"Feature","properties":{"kind":"piste","difficulty":"easy","name":"Boarderpark","aerialway":null,"osm":"way/1454024208"},"geometry":{"type":"LineString","coordinates":[[10.03439,47.34179],[10.0343,47.34146],[10.03345,47.34104],[10.03169,47.34084],[10.03088,47.34102],[10.03038,47.341],[10.02822,47.34047],[10.02794,47.34028],[10.02756,47.33934],[10.02797,47.33822],[10.0286,47.33792],[10.02888,47.33746],[10.02937,47.33743],[10.02963,47.33701],[10.0303,47.33696],[10.03032,47.33678]]}},{"type":"Feature","properties":{"kind":"piste","difficulty":"expert","name":null,"aerialway":null,"osm":"way/1557366346"},"geometry":{"type":"LineString","coordinates":[[10.03943,47.32991],[10.03882,47.32875],[10.03871,47.32801],[10.03845,47.32777],[10.03764,47.32772],[10.03713,47.32835],[10.03419,47.32777]]}},{"type":"Feature","properties":{"kind":"piste","difficulty":"advanced","name":"Oberdiedams","aerialway":null,"osm":"way/1557366347"},"geometry":{"type":"LineString","coordinates":[[10.02639,47.34492],[10.02581,47.34479],[10.02556,47.34454],[10.02574,47.34359],[10.02569,47.34238],[10.02551,47.34204],[10.0249,47.34169],[10.02462,47.34131],[10.02461,47.34094],[10.02507,47.33995],[10.02493,47.33952],[10.02456,47.33908]]}},{"type":"Feature","properties":{"kind":"piste","difficulty":"advanced","name":"Zur Aussicht","aerialway":null,"osm":"way/1557366348"},"geometry":{"type":"LineString","coordinates":[[10.02589,47.34482],[10.02517,47.34468],[10.02503,47.34453],[10.02511,47.34421],[10.02571,47.34386]]}},{"type":"Feature","properties":{"kind":"piste","difficulty":"advanced","name":"Trainingspiste","aerialway":null,"osm":"way/1557366349"},"geometry":{"type":"LineString","coordinates":[[10.02811,47.34594],[10.02823,47.34541],[10.02791,47.34507],[10.02757,47.3449],[10.02633,47.34487],[10.02675,47.34334],[10.02663,47.34176],[10.02715,47.34021],[10.02447,47.33903],[10.02368,47.33779],[10.02242,47.33717],[10.02255,47.3365],[10.02401,47.33555],[10.02437,47.33511],[10.02486,47.33408],[10.02494,47.33364]]}},{"type":"Feature","properties":{"kind":"piste","difficulty":"easy","name":"Familienabfahrt","aerialway":null,"osm":"way/1557366350"},"geometry":{"type":"LineString","coordinates":[[10.02476,47.33521],[10.02441,47.33493]]}},{"type":"Feature","properties":{"kind":"piste","difficulty":"advanced","name":"Trainingspiste","aerialway":null,"osm":"way/1557366351"},"geometry":{"type":"LineString","coordinates":[[10.02668,47.3422],[10.02629,47.34199],[10.02523,47.34188]]}},{"type":"Feature","properties":{"kind":"piste","difficulty":"intermediate","name":"Oberfelle","aerialway":null,"osm":"way/1557366352"},"geometry":{"type":"LineString","coordinates":[[10.0274,47.3468],[10.02749,47.34664],[10.02802,47.34666],[10.02884,47.34641],[10.02972,47.34669],[10.0309,47.34632],[10.03261,47.34494],[10.03301,47.34419],[10.0333,47.3439],[10.03494,47.34309],[10.03644,47.34272],[10.03698,47.34246],[10.038,47.3415],[10.03822,47.34044]]}},{"type":"Feature","properties":{"kind":"piste","difficulty":"intermediate","name":"Oberfelle","aerialway":null,"osm":"way/1557366353"},"geometry":{"type":"LineString","coordinates":[[10.02948,47.34665],[10.03011,47.34677],[10.0309,47.34632]]}},{"type":"Feature","properties":{"kind":"piste","difficulty":"intermediate","name":"Oberfelle","aerialway":null,"osm":"way/1557366354"},"geometry":{"type":"LineString","coordinates":[[10.02746,47.34666],[10.02807,47.34616],[10.02981,47.3463],[10.03099,47.34626]]}},{"type":"Feature","properties":{"kind":"piste","difficulty":"easy","name":"Skiweg Krüzle","aerialway":null,"osm":"way/1557366355"},"geometry":{"type":"LineString","coordinates":[[10.03801,47.34148],[10.0384,47.34114],[10.03895,47.3409],[10.03956,47.34092],[10.04045,47.3413],[10.04091,47.34116],[10.04146,47.34062],[10.04307,47.34037],[10.0434,47.34005],[10.04366,47.33911],[10.04366,47.33847]]}},{"type":"Feature","properties":{"kind":"piste","difficulty":"easy","name":"Mitteldiedams","aerialway":null,"osm":"way/1557652659"},"geometry":{"type":"LineString","coordinates":[[10.0236,47.33161],[10.02358,47.33153],[10.02425,47.33127],[10.02645,47.33107],[10.02692,47.33132],[10.0289,47.33178],[10.02921,47.33209],[10.03025,47.33216],[10.03171,47.33167],[10.03164,47.33146],[10.03098,47.33093],[10.03112,47.33079]]}},{"type":"Feature","properties":{"kind":"piste","difficulty":"intermediate","name":"Rennstrecke","aerialway":null,"osm":"way/1557652660"},"geometry":{"type":"LineString","coordinates":[[10.04078,47.33156],[10.04064,47.33173],[10.03934,47.3321],[10.03712,47.33232]]}},{"type":"Feature","properties":{"kind":"piste","difficulty":"easy","name":"Panoramapiste","aerialway":null,"osm":"way/1557652661"},"geometry":{"type":"LineString","coordinates":[[10.03567,47.34143],[10.03884,47.33869],[10.03765,47.33624],[10.03716,47.33566]]}},{"type":"Feature","properties":{"kind":"piste","difficulty":"easy","name":"Panoramabahn","aerialway":null,"osm":"way/1557652662"},"geometry":{"type":"LineString","coordinates":[[10.04072,47.33137],[10.04081,47.33145],[10.04064,47.33212],[10.04088,47.33358],[10.04087,47.33434],[10.04111,47.33489],[10.04066,47.33511],[10.04036,47.33548],[10.03981,47.33568],[10.03896,47.3365],[10.03756,47.33611]]}},{"type":"Feature","properties":{"kind":"piste","difficulty":"easy","name":"Schwarzwasserpiste","aerialway":null,"osm":"way/1557652663"},"geometry":{"type":"LineString","coordinates":[[10.04286,47.33648],[10.04277,47.33622],[10.04185,47.3359],[10.04047,47.33571],[10.03929,47.33588],[10.03795,47.33523],[10.0377,47.33529],[10.03749,47.33568],[10.03716,47.33566]]}},{"type":"Feature","properties":{"kind":"piste","difficulty":"easy","name":"Die Lange","aerialway":null,"osm":"way/1557652664"},"geometry":{"type":"LineString","coordinates":[[10.04282,47.33626],[10.0414,47.33531],[10.04114,47.33479]]}},{"type":"Feature","properties":{"kind":"piste","difficulty":"easy","name":"Panoramabahn","aerialway":null,"osm":"way/1557652665"},"geometry":{"type":"LineString","coordinates":[[10.04066,47.33233],[10.04046,47.33284],[10.03962,47.3337],[10.03828,47.3343],[10.03775,47.33525]]}},{"type":"Feature","properties":{"kind":"piste","difficulty":"easy","name":null,"aerialway":null,"osm":"way/1557652666"},"geometry":{"type":"LineString","coordinates":[[10.04359,47.33793],[10.04185,47.33743],[10.04094,47.33685],[10.03933,47.33644],[10.03904,47.33647]]}},{"type":"Feature","properties":{"kind":"piste","difficulty":"easy","name":null,"aerialway":null,"osm":"way/1557652667"},"geometry":{"type":"LineString","coordinates":[[10.04178,47.33862],[10.04146,47.33858],[10.04139,47.33821],[10.04031,47.33712],[10.03939,47.33659],[10.03896,47.3365]]}},{"type":"Feature","properties":{"kind":"piste","difficulty":"easy","name":"Krüzle","aerialway":null,"osm":"way/1557652668"},"geometry":{"type":"LineString","coordinates":[[10.04148,47.33872],[10.04133,47.33893]]}},{"type":"Feature","properties":{"kind":"piste","difficulty":"easy","name":null,"aerialway":null,"osm":"way/1557652669"},"geometry":{"type":"LineString","coordinates":[[10.04133,47.33893],[10.04119,47.33816],[10.04103,47.3379]]}},{"type":"Feature","properties":{"kind":"piste","difficulty":"advanced","name":"Falzerblick","aerialway":null,"osm":"way/1557652670"},"geometry":{"type":"LineString","coordinates":[[10.03094,47.34101],[10.03086,47.34095],[10.03101,47.34047],[10.03199,47.34002],[10.03243,47.33941],[10.03345,47.33868],[10.03376,47.33818],[10.03446,47.33766],[10.0356,47.33651],[10.03716,47.33566]]}},{"type":"Feature","properties":{"kind":"piste","difficulty":"easy","name":"Funsloipe","aerialway":null,"osm":"way/1557652675"},"geometry":{"type":"LineString","coordinates":[[10.03101,47.34047],[10.03061,47.33968],[10.03115,47.33931],[10.03143,47.33874],[10.03119,47.33855],[10.03163,47.33837],[10.03169,47.3382],[10.03012,47.33732],[10.03019,47.33721],[10.03069,47.33716],[10.0306,47.33695]]}},{"type":"Feature","properties":{"kind":"piste","difficulty":"easy","name":"Funsloipe","aerialway":null,"osm":"way/1557652676"},"geometry":{"type":"LineString","coordinates":[[10.03119,47.33913],[10.03133,47.33901],[10.03193,47.339],[10.03201,47.33869],[10.03237,47.33851],[10.03229,47.33813]]}},{"type":"Feature","properties":{"kind":"piste","difficulty":"easy","name":"Mitteldiedams","aerialway":null,"osm":"way/1557652677"},"geometry":{"type":"LineString","coordinates":[[10.02477,47.33173],[10.0248,47.33142],[10.02504,47.33122]]}},{"type":"Feature","properties":{"kind":"piste","difficulty":"easy","name":"Mitteldiedams","aerialway":null,"osm":"way/1557652678"},"geometry":{"type":"LineString","coordinates":[[10.0247,47.33381],[10.02526,47.33354],[10.02714,47.33305],[10.02727,47.33278],[10.02654,47.33247],[10.02622,47.33194],[10.02414,47.33154],[10.02346,47.3316]]}},{"type":"Feature","properties":{"kind":"piste","difficulty":"advanced","name":"Südhang","aerialway":null,"osm":"way/1557652679"},"geometry":{"type":"LineString","coordinates":[[10.02494,47.33364],[10.0249,47.33342],[10.02413,47.33327],[10.02401,47.33222],[10.0236,47.33161]]}},{"type":"Feature","properties":{"kind":"piste","difficulty":"easy","name":"Funsloipe","aerialway":null,"osm":"way/1557652680"},"geometry":{"type":"LineString","coordinates":[[10.03065,47.34377],[10.03106,47.34296],[10.03169,47.34266],[10.03178,47.34222],[10.03246,47.34216],[10.0327,47.34182],[10.03294,47.34176],[10.03369,47.34186],[10.03439,47.34179]]}},{"type":"Feature","properties":{"kind":"piste","difficulty":"easy","name":"Familienabfahrt","aerialway":null,"osm":"way/1557652681"},"geometry":{"type":"LineString","coordinates":[[10.03515,47.34198],[10.03567,47.34143],[10.03572,47.34081]]}},{"type":"Feature","properties":{"kind":"piste","difficulty":"intermediate","name":"Krüzle","aerialway":null,"osm":"way/1557652682"},"geometry":{"type":"LineString","coordinates":[[10.04455,47.33894],[10.04441,47.33862],[10.04366,47.33847],[10.04259,47.33851],[10.04148,47.33872]]}},{"type":"Feature","properties":{"kind":"piste","difficulty":"intermediate","name":"Nordhang","aerialway":null,"osm":"way/1557652683"},"geometry":{"type":"LineString","coordinates":[[10.04015,47.33039],[10.0391,47.33016],[10.03777,47.33067],[10.0369,47.33071],[10.03606,47.33054],[10.03531,47.33019]]}},{"type":"Feature","properties":{"kind":"piste","difficulty":"intermediate","name":"Nordhang","aerialway":null,"osm":"way/1557652684"},"geometry":{"type":"LineString","coordinates":[[10.03729,47.33072],[10.03546,47.3312]]}},{"type":"Feature","properties":{"kind":"piste","difficulty":"intermediate","name":"Geschwindigkeitsmesstrecke","aerialway":null,"osm":"way/1557652685"},"geometry":{"type":"LineString","coordinates":[[10.04081,47.33145],[10.04076,47.33129],[10.03968,47.3311],[10.03861,47.33064],[10.03795,47.33074],[10.03664,47.33132]]}},{"type":"Feature","properties":{"kind":"piste","difficulty":"easy","name":"Panoramapiste","aerialway":null,"osm":"way/1557652686"},"geometry":{"type":"LineString","coordinates":[[10.03822,47.34044],[10.03847,47.33972],[10.03834,47.33936],[10.03841,47.33914]]}},{"type":"Feature","properties":{"kind":"piste","difficulty":"easy","name":null,"aerialway":null,"osm":"way/1557652688"},"geometry":{"type":"LineString","coordinates":[[10.04148,47.33872],[10.04143,47.33853]]}},{"type":"Feature","properties":{"kind":"piste","difficulty":"advanced","name":"Sunnagehr","aerialway":null,"osm":"way/1558547239"},"geometry":{"type":"LineString","coordinates":[[10.0408,47.33131],[10.04036,47.33057],[10.03893,47.32954],[10.03617,47.32946],[10.0346,47.32917]]}},{"type":"Feature","properties":{"kind":"lift","difficulty":null,"name":"Diedamskopfbahn I","aerialway":"gondola","osm":"way/29715543"},"geometry":{"type":"LineString","coordinates":[[10.0085,47.31733],[10.0247,47.33381]]}},{"type":"Feature","properties":{"kind":"lift","difficulty":null,"name":"Diedamskopfbahn II","aerialway":"gondola","osm":"way/29715746"},"geometry":{"type":"LineString","coordinates":[[10.0247,47.33381],[10.02768,47.34534]]}},{"type":"Feature","properties":{"kind":"lift","difficulty":null,"name":"Panoramabahn","aerialway":"chair_lift","osm":"way/29715776"},"geometry":{"type":"LineString","coordinates":[[10.03693,47.3355],[10.02761,47.34678]]}},{"type":"Feature","properties":{"kind":"lift","difficulty":null,"name":"Plateaulift","aerialway":"t-bar","osm":"way/29715869"},"geometry":{"type":"LineString","coordinates":[[10.04185,47.33923],[10.02798,47.34648]]}},{"type":"Feature","properties":{"kind":"lift","difficulty":null,"name":"Krüzlelift","aerialway":"t-bar","osm":"way/29715951"},"geometry":{"type":"LineString","coordinates":[[10.04142,47.33892],[10.04505,47.33894]]}},{"type":"Feature","properties":{"kind":"lift","difficulty":null,"name":"Breitenalpbahn","aerialway":"chair_lift","osm":"way/149524016"},"geometry":{"type":"LineString","coordinates":[[10.03112,47.33079],[10.04072,47.33137]]}},{"type":"Feature","properties":{"kind":"lift","difficulty":null,"name":"Ahornlift","aerialway":"platter","osm":"way/337899140"},"geometry":{"type":"LineString","coordinates":[[10.00978,47.31631],[10.01408,47.31759]]}},{"type":"Feature","properties":{"kind":"lift","difficulty":null,"name":null,"aerialway":"magic_carpet","osm":"way/1454021957"},"geometry":{"type":"LineString","coordinates":[[10.00937,47.31697],[10.00957,47.31705]]}},{"type":"Feature","properties":{"kind":"lift","difficulty":null,"name":null,"aerialway":"magic_carpet","osm":"way/1454021958"},"geometry":{"type":"LineString","coordinates":[[10.00991,47.31701],[10.01029,47.31725]]}},{"type":"Feature","properties":{"kind":"lift","difficulty":null,"name":null,"aerialway":"magic_carpet","osm":"way/1454021959"},"geometry":{"type":"LineString","coordinates":[[10.00957,47.3167],[10.01025,47.31685]]}}]}