{"type":"FeatureCollection","features":[{"type":"Feature","properties":{"kind":"lift","difficulty":null,"name":"Jochlift","aerialway":"platter","osm":"way/127973159"},"geometry":{"type":"LineString","coordinates":[[11.69584,47.42726],[11.69875,47.4266]]}},{"type":"Feature","properties":{"kind":"lift","difficulty":null,"name":"Zwölferkopflift","aerialway":"t-bar","osm":"way/127973162"},"geometry":{"type":"LineString","coordinates":[[11.69132,47.42301],[11.69553,47.42404],[11.69883,47.4259]]}},{"type":"Feature","properties":{"kind":"lift","difficulty":null,"name":"Karwendel-Bergbahn","aerialway":"gondola","osm":"way/146644966"},"geometry":{"type":"LineString","coordinates":[[11.6968,47.43711],[11.69599,47.42746]]}},{"type":"Feature","properties":{"kind":"lift","difficulty":null,"name":"Planberglift","aerialway":"drag_lift","osm":"way/277602354"},"geometry":{"type":"LineString","coordinates":[[11.70171,47.43519],[11.70072,47.43311]]}},{"type":"Feature","properties":{"kind":"lift","difficulty":null,"name":null,"aerialway":"magic_carpet","osm":"way/347352845"},"geometry":{"type":"LineString","coordinates":[[11.69522,47.42774],[11.69578,47.42741]]}},{"type":"Feature","properties":{"kind":"lift","difficulty":null,"name":"Gratlift","aerialway":"t-bar","osm":"way/347353557"},"geometry":{"type":"LineString","coordinates":[[11.69829,47.42543],[11.69877,47.42349]]}},{"type":"Feature","properties":{"kind":"piste","difficulty":"easy","name":null,"aerialway":null,"osm":"way/417390010"},"geometry":{"type":"LineString","coordinates":[[11.69872,47.4237],[11.69854,47.42506],[11.69842,47.42542],[11.6983,47.42539]]}},{"type":"Feature","properties":{"kind":"piste","difficulty":"intermediate","name":"Zwölferkopfabfahrt","aerialway":null,"osm":"way/417390014"},"geometry":{"type":"LineString","coordinates":[[11.69837,47.42565],[11.69825,47.42588],[11.69759,47.42584],[11.69586,47.42483]]}},{"type":"Feature","properties":{"kind":"piste","difficulty":"easy","name":"Zwölferkopfabfahrt","aerialway":null,"osm":"way/417390016"},"geometry":{"type":"LineString","coordinates":[[11.69871,47.42672],[11.69888,47.42654],[11.69875,47.42629],[11.69759,47.42584],[11.69604,47.42573],[11.69507,47.4253],[11.69498,47.42514],[11.69503,47.4244],[11.69247,47.42379],[11.69049,47.4239],[11.69045,47.42373],[11.69132,47.42301]]}},{"type":"Feature","properties":{"kind":"piste","difficulty":"easy","name":"Übungspiste Jochlift","aerialway":null,"osm":"way/417390024"},"geometry":{"type":"LineString","coordinates":[[11.69599,47.42746],[11.69607,47.42736],[11.69597,47.42731],[11.69788,47.427],[11.69871,47.42672],[11.69868,47.42662]]}},{"type":"Feature","properties":{"kind":"piste","difficulty":"easy","name":"Tristenauabfahrt","aerialway":null,"osm":"way/417390027"},"geometry":{"type":"LineString","coordinates":[[11.691,47.42319],[11.69167,47.42265],[11.69239,47.4224],[11.69254,47.42222],[11.69207,47.42182],[11.69095,47.42176],[11.69022,47.422],[11.68954,47.42247],[11.68864,47.42254],[11.68817,47.42292],[11.68793,47.4235],[11.68793,47.4246],[11.68776,47.42583],[11.68737,47.4271],[11.68701,47.42778],[11.68678,47.42891],[11.68704,47.43001],[11.68692,47.43144],[11.68729,47.43257],[11.68802,47.43416],[11.68805,47.4349],[11.68832,47.43511],[11.68931,47.43528],[11.69048,47.43573],[11.69197,47.43605],[11.69537,47.4361],[11.69655,47.43696],[11.69663,47.43716],[11.6968,47.43711]]}},{"type":"Feature","properties":{"kind":"piste","difficulty":"intermediate","name":"Hubertusabfahrt","aerialway":null,"osm":"way/417390038"},"geometry":{"type":"LineString","coordinates":[[11.69876,47.4237],[11.69916,47.42251],[11.69974,47.42159],[11.70084,47.42144],[11.70182,47.42154],[11.70263,47.42104],[11.70334,47.42096],[11.70353,47.42119],[11.70333,47.42241],[11.70331,47.4238],[11.70372,47.42481],[11.70404,47.42522],[11.70478,47.42574],[11.707,47.42689],[11.70741,47.4272],[11.70822,47.42831],[11.70913,47.42894],[11.71019,47.42938],[11.71033,47.42978],[11.71,47.43013],[11.70937,47.43029],[11.70802,47.43094],[11.70601,47.43143],[11.70424,47.43146],[11.70377,47.43202],[11.70272,47.43202],[11.70231,47.43236],[11.70209,47.43274],[11.70176,47.43294],[11.70112,47.43309],[11.70051,47.43282],[11.70017,47.43281],[11.69927,47.43348],[11.69896,47.434],[11.69833,47.4343],[11.69758,47.43492],[11.69706,47.43501],[11.69637,47.43541]]}},{"type":"Feature","properties":{"kind":"piste","difficulty":"intermediate","name":"Breitlahnerskiroute","aerialway":null,"osm":"way/659166389"},"geometry":{"type":"LineString","coordinates":[[11.70741,47.4272],[11.7085,47.42798],[11.70957,47.42842],[11.71125,47.42877],[11.71243,47.42859],[11.71451,47.42924],[11.71718,47.42968],[11.71752,47.42988],[11.71776,47.43025]]}},{"type":"Feature","properties":{"kind":"piste","difficulty":"easy","name":null,"aerialway":null,"osm":"way/1062648475"},"geometry":{"type":"LineString","coordinates":[[11.69837,47.42565],[11.69842,47.42542]]}},{"type":"Feature","properties":{"kind":"piste","difficulty":"easy","name":"Übungspiste Jochlift","aerialway":null,"osm":"way/1062648476"},"geometry":{"type":"LineString","coordinates":[[11.69578,47.42741],[11.69597,47.42731]]}},{"type":"Feature","properties":{"kind":"piste","difficulty":"easy","name":"Zwölferkopfabfahrt","aerialway":null,"osm":"way/1062648477"},"geometry":{"type":"LineString","coordinates":[[11.69875,47.42629],[11.69852,47.42586],[11.69856,47.42551],[11.69842,47.42542]]}},{"type":"Feature","properties":{"kind":"piste","difficulty":"novice","name":"Planberg","aerialway":null,"osm":"way/1062648478"},"geometry":{"type":"LineString","coordinates":[[11.70078,47.43325],[11.70071,47.43365],[11.70091,47.43448],[11.70129,47.435],[11.70171,47.43519]]}},{"type":"Feature","properties":{"kind":"piste","difficulty":"easy","name":"Zwölferkopfabfahrt","aerialway":null,"osm":"way/1240260586"},"geometry":{"type":"LineString","coordinates":[[11.69893,47.42653],[11.69848,47.42571],[11.69855,47.42604],[11.69546,47.4254],[11.6952,47.42527],[11.6958,47.42515],[11.6957,47.42505],[11.69511,47.42518],[11.69513,47.42474],[11.69477,47.42453],[11.69484,47.42524],[11.69551,47.42568],[11.69794,47.42647],[11.69893,47.42653]]}},{"type":"Feature","properties":{"kind":"piste","difficulty":"easy","name":"Übunspiste Gratlift","aerialway":null,"osm":"way/1240260587"},"geometry":{"type":"LineString","coordinates":[[11.69854,47.42575],[11.69869,47.42542],[11.69876,47.4237],[11.69832,47.4254],[11.69834,47.42561],[11.69849,47.4255],[11.69854,47.42575]]}},{"type":"Feature","properties":{"kind":"piste","difficulty":"intermediate","name":"Hubertusabfahrt","aerialway":null,"osm":"way/1240260588"},"geometry":{"type":"LineString","coordinates":[[11.70097,47.4213],[11.70094,47.42154],[11.70184,47.42161],[11.7029,47.42105],[11.70346,47.42111],[11.70318,47.42253],[11.70334,47.42463],[11.70449,47.42572],[11.70717,47.42713],[11.70752,47.42751],[11.70768,47.42743],[11.707,47.42669],[11.70421,47.42522],[11.70375,47.42455],[11.70352,47.42277],[11.70364,47.42118],[11.70354,47.42102],[11.70288,47.42095],[11.70173,47.42151],[11.70097,47.4213]]}},{"type":"Feature","properties":{"kind":"piste","difficulty":"intermediate","name":"Hubertusabfahrt","aerialway":null,"osm":"way/1240260590"},"geometry":{"type":"LineString","coordinates":[[11.69637,47.43541],[11.69526,47.43587],[11.69518,47.43596],[11.69528,47.43609]]}},{"type":"Feature","properties":{"kind":"piste","difficulty":"easy","name":"Sunkid","aerialway":null,"osm":"way/1240260591"},"geometry":{"type":"LineString","coordinates":[[11.69597,47.42731],[11.69579,47.42751],[11.69522,47.42774]]}},{"type":"Feature","properties":{"kind":"piste","difficulty":"easy","name":"Tristenauabfahrt","aerialway":null,"osm":"way/1240260592"},"geometry":{"type":"LineString","coordinates":[[11.69242,47.42217],[11.69266,47.42212],[11.69197,47.42169],[11.69114,47.42167],[11.69043,47.42181],[11.68967,47.42235],[11.69008,47.4223],[11.69073,47.42186],[11.69156,47.4218],[11.69198,47.42188],[11.69242,47.42217]]}},{"type":"Feature","properties":{"kind":"piste","difficulty":"easy","name":null,"aerialway":null,"osm":"way/1240260593"},"geometry":{"type":"LineString","coordinates":[[11.696,47.42735],[11.69586,47.42762],[11.69514,47.4278],[11.69538,47.42757],[11.69512,47.42738],[11.696,47.42735]]}},{"type":"Feature","properties":{"kind":"piste","difficulty":"easy","name":"Übungspiste Jochlift","aerialway":null,"osm":"way/1240260595"},"geometry":{"type":"LineString","coordinates":[[11.69595,47.42723],[11.69597,47.42731]]}},{"type":"Feature","properties":{"kind":"piste","difficulty":"easy","name":"Hubertusabfahrt","aerialway":null,"osm":"way/1240260597"},"geometry":{"type":"LineString","coordinates":[[11.6988,47.42371],[11.699,47.42343],[11.69923,47.42243],[11.69965,47.42175],[11.69978,47.42163],[11.70094,47.42154],[11.70097,47.4213],[11.69981,47.4215],[11.69954,47.42173],[11.69911,47.42239],[11.6987,47.4236],[11.6988,47.42371]]}},{"type":"Feature","properties":{"kind":"piste","difficulty":"intermediate","name":"Zwöferkopfabfahrt","aerialway":null,"osm":"way/1240260598"},"geometry":{"type":"LineString","coordinates":[[11.69845,47.42589],[11.69834,47.42561],[11.69833,47.42569],[11.69747,47.42546],[11.69613,47.42467],[11.6958,47.42515],[11.69648,47.42569],[11.69855,47.42604],[11.69845,47.42589]]}},{"type":"Feature","properties":{"kind":"piste","difficulty":"easy","name":"Zwölferkopfabfahrt","aerialway":null,"osm":"way/1240260599"},"geometry":{"type":"LineString","coordinates":[[11.69507,47.4253],[11.69566,47.42516],[11.69586,47.42483],[11.69503,47.4244]]}},{"type":"Feature","properties":{"kind":"piste","difficulty":"intermediate","name":"Hubertusabfahrt","aerialway":null,"osm":"way/1240260602"},"geometry":{"type":"LineString","coordinates":[[11.69623,47.43552],[11.6962,47.43597],[11.69653,47.43699],[11.69663,47.43702],[11.6967,47.43669],[11.69646,47.43581],[11.69623,47.43552]]}},{"type":"Feature","properties":{"kind":"piste","difficulty":"easy","name":"Zwölferkopfabfahrt","aerialway":null,"osm":"way/1240260603"},"geometry":{"type":"LineString","coordinates":[[11.6958,47.42515],[11.69613,47.42467],[11.69533,47.4241],[11.69287,47.4237],[11.69185,47.42366],[11.69072,47.42384],[11.69042,47.42368],[11.69024,47.42377],[11.69023,47.42401],[11.69037,47.42411],[11.69185,47.42388],[11.69435,47.42433],[11.6958,47.42515]]}},{"type":"Feature","properties":{"kind":"piste","difficulty":"easy","name":"Übungspiste Jochlift","aerialway":null,"osm":"way/1240260604"},"geometry":{"type":"LineString","coordinates":[[11.69893,47.42653],[11.69594,47.42727],[11.69615,47.42739],[11.69797,47.4272],[11.69887,47.42676],[11.69893,47.42653]]}},{"type":"Feature","properties":{"kind":"piste","difficulty":"intermediate","name":"Zwölferkopfabfahrt","aerialway":null,"osm":"way/1240290507"},"geometry":{"type":"LineString","coordinates":[[11.69512,47.42738],[11.69451,47.42732],[11.69396,47.42643],[11.69397,47.42615],[11.69458,47.42585],[11.6959,47.42578],[11.69616,47.42588],[11.69486,47.42602],[11.69454,47.42623],[11.69431,47.42667],[11.69472,47.42716],[11.69516,47.42731],[11.696,47.42735],[11.69512,47.42738]]}},{"type":"Feature","properties":{"kind":"piste","difficulty":"intermediate","name":"Zwölferkopfabfahrt","aerialway":null,"osm":"way/1240381818"},"geometry":{"type":"LineString","coordinates":[[11.69597,47.42731],[11.69474,47.42725],[11.69424,47.42666],[11.69432,47.42631],[11.69452,47.42608],[11.6961,47.42588],[11.69604,47.42573]]}},{"type":"Feature","properties":{"kind":"piste","difficulty":"intermediate","name":"Hubertusabfahrt","aerialway":null,"osm":"way/1240490271"},"geometry":{"type":"LineString","coordinates":[[11.69637,47.43541],[11.69622,47.43563],[11.69662,47.43702]]}}]}