{"type":"FeatureCollection","features":[{"type":"Feature","properties":{"kind":"piste","difficulty":"easy","name":"7","aerialway":null,"osm":"way/419944469"},"geometry":{"type":"LineString","coordinates":[[12.64495,47.59726],[12.64482,47.59708],[12.64377,47.5965],[12.64312,47.5964],[12.6421,47.59667],[12.64117,47.59722],[12.64018,47.59943],[12.64009,47.60039],[12.63885,47.60295],[12.63759,47.60365],[12.6373,47.60414],[12.63713,47.60543],[12.63751,47.60659],[12.63791,47.60691]]}},{"type":"Feature","properties":{"kind":"piste","difficulty":"easy","name":"7a","aerialway":null,"osm":"way/419944470"},"geometry":{"type":"LineString","coordinates":[[12.64018,47.59943],[12.63716,47.60023],[12.63562,47.60131],[12.63531,47.60174],[12.63535,47.60207],[12.63575,47.6025],[12.63687,47.60301],[12.63759,47.60365]]}},{"type":"Feature","properties":{"kind":"piste","difficulty":"easy","name":"5","aerialway":null,"osm":"way/419944472"},"geometry":{"type":"LineString","coordinates":[[12.64441,47.59687],[12.64374,47.59719],[12.64364,47.59756],[12.6445,47.59836],[12.64472,47.59898],[12.64565,47.60003],[12.64584,47.60056],[12.64586,47.60167],[12.64568,47.60243],[12.64529,47.60321],[12.64423,47.60417],[12.64288,47.60489],[12.64173,47.60508],[12.6408,47.6048],[12.64023,47.60432],[12.63961,47.60344],[12.6382,47.60331]]}},{"type":"Feature","properties":{"kind":"piste","difficulty":"intermediate","name":"5a","aerialway":null,"osm":"way/419944474"},"geometry":{"type":"LineString","coordinates":[[12.64588,47.60113],[12.64504,47.60195],[12.64432,47.60218],[12.64158,47.60205],[12.6407,47.60213],[12.64005,47.6023],[12.63885,47.60295]]}},{"type":"Feature","properties":{"kind":"piste","difficulty":"intermediate","name":"8","aerialway":null,"osm":"way/419944476"},"geometry":{"type":"LineString","coordinates":[[12.64399,47.59793],[12.64302,47.59901],[12.63943,47.60186]]}},{"type":"Feature","properties":{"kind":"piste","difficulty":"advanced","name":"8a","aerialway":null,"osm":"way/419944481"},"geometry":{"type":"LineString","coordinates":[[12.64503,47.6002],[12.64417,47.6004],[12.63927,47.60217]]}},{"type":"Feature","properties":{"kind":"piste","difficulty":"easy","name":"15a","aerialway":null,"osm":"way/419944484"},"geometry":{"type":"LineString","coordinates":[[12.64743,47.61361],[12.64982,47.61377],[12.65172,47.61373],[12.65313,47.61259],[12.65413,47.60936],[12.65512,47.60857],[12.6566,47.60825],[12.65671,47.60801]]}},{"type":"Feature","properties":{"kind":"lift","difficulty":null,"name":"Senderexpress","aerialway":"chair_lift","osm":"way/204798987"},"geometry":{"type":"LineString","coordinates":[[12.63791,47.60691],[12.64486,47.59737]]}},{"type":"Feature","properties":{"kind":"lift","difficulty":null,"name":"Almen 8er Schwarzeck","aerialway":"chair_lift","osm":"way/236537108"},"geometry":{"type":"LineString","coordinates":[[12.65656,47.60811],[12.64743,47.61361]]}},{"type":"Feature","properties":{"kind":"lift","difficulty":null,"name":"Almbahn I","aerialway":"gondola","osm":"way/29397240"},"geometry":{"type":"LineString","coordinates":[[12.69139,47.58775],[12.68356,47.60422]]}},{"type":"Feature","properties":{"kind":"lift","difficulty":null,"name":"Almbahn II","aerialway":"gondola","osm":"way/29397296"},"geometry":{"type":"LineString","coordinates":[[12.6825,47.60444],[12.6542,47.60808]]}},{"type":"Feature","properties":{"kind":"lift","difficulty":null,"name":"Family Express","aerialway":"chair_lift","osm":"way/204798902"},"geometry":{"type":"LineString","coordinates":[[12.65621,47.60712],[12.64516,47.60029]]}},{"type":"Feature","properties":{"kind":"lift","difficulty":null,"name":"Grubhörndllift","aerialway":"t-bar","osm":"way/204799184"},"geometry":{"type":"LineString","coordinates":[[12.65715,47.60714],[12.65944,47.60238],[12.6606,47.59771]]}},{"type":"Feature","properties":{"kind":"lift","difficulty":null,"name":"Postalmlift","aerialway":"t-bar","osm":"way/204799862"},"geometry":{"type":"LineString","coordinates":[[12.68405,47.60177],[12.67403,47.60131]]}},{"type":"Feature","properties":{"kind":"piste","difficulty":"advanced","name":"10","aerialway":null,"osm":"way/419886549"},"geometry":{"type":"LineString","coordinates":[[12.67468,47.60155],[12.67916,47.60208],[12.68288,47.60202],[12.68398,47.60177]]}},{"type":"Feature","properties":{"kind":"piste","difficulty":"easy","name":"11a","aerialway":null,"osm":"way/419886550"},"geometry":{"type":"LineString","coordinates":[[12.67683,47.60372],[12.67727,47.60344],[12.67828,47.60338],[12.68262,47.60402],[12.68278,47.60427],[12.6825,47.60444]]}},{"type":"Feature","properties":{"kind":"piste","difficulty":"intermediate","name":"11","aerialway":null,"osm":"way/419886551"},"geometry":{"type":"LineString","coordinates":[[12.67456,47.60165],[12.67594,47.60273],[12.67682,47.60305],[12.67727,47.60344]]}},{"type":"Feature","properties":{"kind":"piste","difficulty":"intermediate","name":"13","aerialway":null,"osm":"way/419886552"},"geometry":{"type":"LineString","coordinates":[[12.68348,47.60274],[12.68534,47.6021],[12.68552,47.60192],[12.68537,47.59947],[12.68463,47.59725],[12.68468,47.59695]]}},{"type":"Feature","properties":{"kind":"piste","difficulty":"easy","name":"13","aerialway":null,"osm":"way/419886553"},"geometry":{"type":"LineString","coordinates":[[12.68468,47.59695],[12.68485,47.5968],[12.68743,47.59668],[12.68879,47.59622],[12.69041,47.59593],[12.69088,47.59571],[12.6913,47.59456],[12.69136,47.59395],[12.69203,47.59268],[12.6906,47.58986],[12.69053,47.58935],[12.6906,47.58836],[12.69107,47.5877],[12.69124,47.58761],[12.69139,47.58775]]}},{"type":"Feature","properties":{"kind":"piste","difficulty":"advanced","name":"12","aerialway":null,"osm":"way/419944460"},"geometry":{"type":"LineString","coordinates":[[12.66053,47.59801],[12.66117,47.59836],[12.66135,47.5988],[12.66138,47.59968],[12.66042,47.60035],[12.66024,47.6009],[12.66052,47.602],[12.66085,47.60265],[12.66101,47.60402],[12.66145,47.60451],[12.66137,47.60512],[12.66037,47.60627],[12.65945,47.60595],[12.65954,47.60665],[12.6589,47.60699],[12.65745,47.60729]]}},{"type":"Feature","properties":{"kind":"piste","difficulty":"easy","name":"4c","aerialway":null,"osm":"way/419944462"},"geometry":{"type":"LineString","coordinates":[[12.64516,47.60029],[12.64503,47.6002],[12.64521,47.60017],[12.64652,47.60049],[12.64714,47.60096],[12.65083,47.60246],[12.65248,47.60246],[12.65294,47.6026],[12.65364,47.6031],[12.65466,47.60481]]}},{"type":"Feature","properties":{"kind":"piste","difficulty":"easy","name":"3","aerialway":null,"osm":"way/419944463"},"geometry":{"type":"LineString","coordinates":[[12.66053,47.59801],[12.65914,47.59804],[12.65843,47.59851],[12.65769,47.5987],[12.65721,47.59793],[12.65712,47.59727],[12.65695,47.59695],[12.65659,47.59686],[12.6556,47.5971],[12.65372,47.59823],[12.65218,47.59807],[12.65124,47.59811],[12.64926,47.59912],[12.64909,47.59948],[12.64958,47.60024],[12.65004,47.60069],[12.65253,47.60214],[12.65303,47.60321],[12.65417,47.60454],[12.65466,47.60481],[12.6558,47.60642],[12.6559,47.60676],[12.65633,47.60704],[12.65699,47.60722]]}},{"type":"Feature","properties":{"kind":"piste","difficulty":"easy","name":"9","aerialway":null,"osm":"way/419944464"},"geometry":{"type":"LineString","coordinates":[[12.64495,47.59726],[12.64495,47.59668],[12.64528,47.5958],[12.64544,47.59571],[12.64624,47.59573],[12.64865,47.59618],[12.64966,47.59618],[12.6504,47.59639],[12.65055,47.5971],[12.64926,47.59827],[12.64889,47.59877],[12.64909,47.59948]]}},{"type":"Feature","properties":{"kind":"piste","difficulty":"intermediate","name":"2","aerialway":null,"osm":"way/419944465"},"geometry":{"type":"LineString","coordinates":[[12.65721,47.59793],[12.65507,47.59795],[12.65372,47.59823]]}},{"type":"Feature","properties":{"kind":"piste","difficulty":"easy","name":"4","aerialway":null,"osm":"way/419944466"},"geometry":{"type":"LineString","coordinates":[[12.64714,47.60096],[12.64834,47.60234],[12.64869,47.603],[12.64957,47.60525],[12.64976,47.60624],[12.6501,47.60664],[12.65076,47.60681],[12.65344,47.60652],[12.65485,47.60654],[12.6559,47.60676],[12.65644,47.60712],[12.65638,47.60721],[12.65621,47.60712]]}},{"type":"Feature","properties":{"kind":"piste","difficulty":"intermediate","name":"4a","aerialway":null,"osm":"way/419944467"},"geometry":{"type":"LineString","coordinates":[[12.64957,47.60525],[12.65033,47.60571],[12.65344,47.60652]]}},{"type":"Feature","properties":{"kind":"piste","difficulty":"intermediate","name":"4b","aerialway":null,"osm":"way/419944468"},"geometry":{"type":"LineString","coordinates":[[12.64902,47.60364],[12.65175,47.60487],[12.65458,47.60652]]}},{"type":"Feature","properties":{"kind":"piste","difficulty":"intermediate","name":"6","aerialway":null,"osm":"way/419944479"},"geometry":{"type":"LineString","coordinates":[[12.64319,47.59885],[12.64026,47.59927]]}},{"type":"Feature","properties":{"kind":"piste","difficulty":"easy","name":null,"aerialway":null,"osm":"way/419944487"},"geometry":{"type":"LineString","coordinates":[[12.6542,47.60808],[12.65413,47.60792],[12.6543,47.60784],[12.65502,47.60762],[12.65565,47.60762],[12.65664,47.60783],[12.65671,47.60801],[12.65656,47.60811]]}},{"type":"Feature","properties":{"kind":"piste","difficulty":"easy","name":null,"aerialway":null,"osm":"way/419944488"},"geometry":{"type":"LineString","coordinates":[[12.65502,47.60762],[12.6549,47.60702],[12.65528,47.60663]]}},{"type":"Feature","properties":{"kind":"piste","difficulty":"intermediate","name":"15","aerialway":null,"osm":"way/419944489"},"geometry":{"type":"LineString","coordinates":[[12.6527,47.61286],[12.65201,47.61115],[12.65216,47.60985],[12.65238,47.60946],[12.65305,47.60909],[12.65512,47.60857]]}},{"type":"Feature","properties":{"kind":"piste","difficulty":"intermediate","name":"1","aerialway":null,"osm":"way/419944490"},"geometry":{"type":"LineString","coordinates":[[12.65734,47.60732],[12.65785,47.60735],[12.65956,47.60788],[12.6616,47.6077],[12.66359,47.60818],[12.66385,47.60804],[12.66404,47.60764],[12.66524,47.60625],[12.66603,47.60622],[12.66749,47.6066],[12.66864,47.60653],[12.67201,47.60573],[12.67277,47.60544],[12.67305,47.60526],[12.67338,47.60463],[12.67397,47.60426]]}},{"type":"Feature","properties":{"kind":"lift","difficulty":null,"name":"Kinderland Komfortlift","aerialway":"rope_tow","osm":"way/463553569"},"geometry":{"type":"LineString","coordinates":[[12.69086,47.58729],[12.68992,47.5881]]}},{"type":"Feature","properties":{"kind":"lift","difficulty":null,"name":"Loderbichl Tellerlift","aerialway":"platter","osm":"way/463553570"},"geometry":{"type":"LineString","coordinates":[[12.68325,47.60397],[12.67637,47.6037]]}},{"type":"Feature","properties":{"kind":"lift","difficulty":null,"name":"Wenalift","aerialway":"rope_tow","osm":"way/463554593"},"geometry":{"type":"LineString","coordinates":[[12.65852,47.60806],[12.6573,47.6073]]}},{"type":"Feature","properties":{"kind":"lift","difficulty":null,"name":"Almenwelt Zauberteppich","aerialway":"magic_carpet","osm":"way/463554594"},"geometry":{"type":"LineString","coordinates":[[12.65604,47.60792],[12.65433,47.60836]]}},{"type":"Feature","properties":{"kind":"piste","difficulty":"easy","name":"3","aerialway":null,"osm":"way/852428766"},"geometry":{"type":"LineString","coordinates":[[12.65087,47.59824],[12.65066,47.59892],[12.65074,47.59966],[12.65107,47.60079],[12.6525,47.60247]]}},{"type":"Feature","properties":{"kind":"piste","difficulty":"advanced","name":"12","aerialway":null,"osm":"way/1066221212"},"geometry":{"type":"LineString","coordinates":[[12.65745,47.60729],[12.65715,47.60714]]}},{"type":"Feature","properties":{"kind":"piste","difficulty":"intermediate","name":"1","aerialway":null,"osm":"way/1066221213"},"geometry":{"type":"LineString","coordinates":[[12.65699,47.60722],[12.65773,47.60742],[12.65852,47.60806]]}},{"type":"Feature","properties":{"kind":"piste","difficulty":"easy","name":"11a","aerialway":null,"osm":"way/1066221214"},"geometry":{"type":"LineString","coordinates":[[12.67478,47.60134],[12.67408,47.60213],[12.67341,47.6036],[12.6734,47.60384],[12.67369,47.60422],[12.67397,47.60426],[12.67622,47.60349],[12.67727,47.60344]]}},{"type":"Feature","properties":{"kind":"piste","difficulty":"easy","name":"11a","aerialway":null,"osm":"way/1066221215"},"geometry":{"type":"LineString","coordinates":[[12.68278,47.60427],[12.68398,47.60177]]}},{"type":"Feature","properties":{"kind":"piste","difficulty":"easy","name":"11a","aerialway":null,"osm":"way/1066221217"},"geometry":{"type":"LineString","coordinates":[[12.68278,47.60427],[12.68325,47.60397]]}}]}