{"type":"FeatureCollection","features":[{"type":"Feature","properties":{"kind":"lift","difficulty":null,"name":"Köfelelift I","aerialway":"t-bar","osm":"way/33053104"},"geometry":{"type":"LineString","coordinates":[[13.18418,47.01411],[13.18878,47.00935]]}},{"type":"Feature","properties":{"kind":"lift","difficulty":null,"name":"Köfelelift II","aerialway":"platter","osm":"way/33053105"},"geometry":{"type":"LineString","coordinates":[[13.18447,47.01393],[13.18673,47.01159]]}},{"type":"Feature","properties":{"kind":"lift","difficulty":null,"name":"Ankogelbahn 1","aerialway":"cable_car","osm":"way/33053106"},"geometry":{"type":"LineString","coordinates":[[13.18627,47.01379],[13.19393,47.02781]]}},{"type":"Feature","properties":{"kind":"lift","difficulty":null,"name":"Ankogelschlepplift","aerialway":"t-bar","osm":"way/33053107"},"geometry":{"type":"LineString","coordinates":[[13.20189,47.03444],[13.20624,47.04196]]}},{"type":"Feature","properties":{"kind":"lift","difficulty":null,"name":"Ankogelbahn 2","aerialway":"cable_car","osm":"way/101845716"},"geometry":{"type":"LineString","coordinates":[[13.19409,47.02782],[13.21544,47.04251]]}},{"type":"Feature","properties":{"kind":"piste","difficulty":"advanced","name":null,"aerialway":null,"osm":"way/101854522"},"geometry":{"type":"LineString","coordinates":[[13.21336,47.04098],[13.21356,47.04058],[13.21341,47.04019],[13.21224,47.03925],[13.21062,47.03761],[13.20885,47.03693]]}},{"type":"Feature","properties":{"kind":"piste","difficulty":"advanced","name":null,"aerialway":null,"osm":"way/101865378"},"geometry":{"type":"LineString","coordinates":[[13.20028,47.03418],[13.1999,47.03331],[13.19965,47.03306],[13.19729,47.03161]]}},{"type":"Feature","properties":{"kind":"piste","difficulty":"intermediate","name":null,"aerialway":null,"osm":"way/101865383"},"geometry":{"type":"LineString","coordinates":[[13.19194,47.02528],[13.1904,47.02515],[13.18938,47.02532],[13.18877,47.02564],[13.18829,47.02556],[13.18807,47.02505],[13.18798,47.02399],[13.18804,47.02249],[13.18819,47.02197]]}},{"type":"Feature","properties":{"kind":"piste","difficulty":"intermediate","name":null,"aerialway":null,"osm":"way/101865385"},"geometry":{"type":"LineString","coordinates":[[13.18819,47.02197],[13.18752,47.0212],[13.18679,47.02069],[13.18676,47.02035],[13.18717,47.01999],[13.18884,47.01968],[13.18808,47.01928],[13.18774,47.01875],[13.18732,47.01853],[13.18724,47.01836],[13.1876,47.01663],[13.18699,47.01529],[13.18659,47.01475],[13.18638,47.01455],[13.18605,47.01454],[13.18617,47.01383],[13.18536,47.0137]]}},{"type":"Feature","properties":{"kind":"piste","difficulty":"advanced","name":null,"aerialway":null,"osm":"way/101865389"},"geometry":{"type":"LineString","coordinates":[[13.19194,47.02528],[13.19093,47.02368],[13.19046,47.02363],[13.18952,47.02386],[13.18917,47.02373],[13.18819,47.02197]]}},{"type":"Feature","properties":{"kind":"piste","difficulty":"intermediate","name":null,"aerialway":null,"osm":"way/101865393"},"geometry":{"type":"LineString","coordinates":[[13.19476,47.02834],[13.19507,47.02818],[13.19516,47.02792],[13.1943,47.02501],[13.19398,47.02494],[13.19372,47.02532],[13.1933,47.02563],[13.19194,47.02528]]}},{"type":"Feature","properties":{"kind":"piste","difficulty":"intermediate","name":"6","aerialway":null,"osm":"way/102212442"},"geometry":{"type":"LineString","coordinates":[[13.20175,47.03446],[13.20193,47.0343],[13.20259,47.03432]]}},{"type":"Feature","properties":{"kind":"piste","difficulty":"easy","name":null,"aerialway":null,"osm":"way/102212443"},"geometry":{"type":"LineString","coordinates":[[13.20588,47.04133],[13.20646,47.04114],[13.2067,47.04072],[13.20767,47.04029],[13.20836,47.03972],[13.20954,47.03807],[13.20928,47.0375]]}},{"type":"Feature","properties":{"kind":"piste","difficulty":"advanced","name":null,"aerialway":null,"osm":"way/102212444"},"geometry":{"type":"LineString","coordinates":[[13.20588,47.04133],[13.20624,47.04123],[13.20627,47.04104],[13.20563,47.04029],[13.20475,47.03888],[13.20403,47.03733]]}},{"type":"Feature","properties":{"kind":"piste","difficulty":"intermediate","name":null,"aerialway":null,"osm":"way/102212445"},"geometry":{"type":"LineString","coordinates":[[13.20111,47.03585],[13.20175,47.03446],[13.20189,47.03444]]}},{"type":"Feature","properties":{"kind":"piste","difficulty":"advanced","name":null,"aerialway":null,"osm":"way/102212449"},"geometry":{"type":"LineString","coordinates":[[13.20508,47.0393],[13.20508,47.0385],[13.20379,47.03699],[13.20259,47.03432]]}},{"type":"Feature","properties":{"kind":"piste","difficulty":"intermediate","name":null,"aerialway":null,"osm":"way/102212450"},"geometry":{"type":"LineString","coordinates":[[13.21544,47.04251],[13.21653,47.04297]]}},{"type":"Feature","properties":{"kind":"piste","difficulty":"advanced","name":null,"aerialway":null,"osm":"way/102212454"},"geometry":{"type":"LineString","coordinates":[[13.20599,47.0407],[13.20595,47.03955],[13.20508,47.0385]]}},{"type":"Feature","properties":{"kind":"piste","difficulty":"advanced","name":null,"aerialway":null,"osm":"way/102212456"},"geometry":{"type":"LineString","coordinates":[[13.20403,47.03733],[13.20466,47.03608],[13.20449,47.03508]]}},{"type":"Feature","properties":{"kind":"piste","difficulty":"intermediate","name":null,"aerialway":null,"osm":"way/102212457"},"geometry":{"type":"LineString","coordinates":[[13.20588,47.04133],[13.20537,47.0412],[13.20436,47.03971],[13.20133,47.03649],[13.20081,47.03487],[13.20028,47.03418]]}},{"type":"Feature","properties":{"kind":"piste","difficulty":"intermediate","name":null,"aerialway":null,"osm":"way/102212459"},"geometry":{"type":"LineString","coordinates":[[13.21207,47.04042],[13.20878,47.03953],[13.20832,47.03891],[13.20716,47.03804],[13.20693,47.03766],[13.20667,47.03686],[13.20653,47.03571]]}},{"type":"Feature","properties":{"kind":"piste","difficulty":"intermediate","name":null,"aerialway":null,"osm":"way/243439610"},"geometry":{"type":"LineString","coordinates":[[13.21653,47.04297],[13.21689,47.04298],[13.2169,47.04272],[13.21559,47.04091],[13.21516,47.04087],[13.21469,47.04136],[13.21439,47.04142],[13.21207,47.04042],[13.21139,47.03978],[13.21049,47.03817],[13.20928,47.0375],[13.20885,47.03693],[13.20828,47.03647],[13.20613,47.03554],[13.20484,47.03525],[13.20388,47.03477],[13.20195,47.03407],[13.20045,47.03421],[13.19924,47.03382],[13.19761,47.03375],[13.19741,47.03341],[13.19729,47.03161],[13.19649,47.03027],[13.19641,47.02952],[13.19409,47.02782]]}},{"type":"Feature","properties":{"kind":"lift","difficulty":null,"name":"Kinderland","aerialway":"magic_carpet","osm":"way/1216616341"},"geometry":{"type":"LineString","coordinates":[[13.18565,47.01397],[13.18576,47.01381]]}},{"type":"Feature","properties":{"kind":"piste","difficulty":"intermediate","name":null,"aerialway":null,"osm":"way/1216616344"},"geometry":{"type":"LineString","coordinates":[[13.18617,47.01383],[13.18627,47.01379]]}},{"type":"Feature","properties":{"kind":"piste","difficulty":"easy","name":null,"aerialway":null,"osm":"way/1216616345"},"geometry":{"type":"LineString","coordinates":[[13.18842,47.00973],[13.1884,47.01028],[13.18793,47.0111],[13.18536,47.0137]]}},{"type":"Feature","properties":{"kind":"piste","difficulty":"easy","name":null,"aerialway":null,"osm":"way/1216616346"},"geometry":{"type":"LineString","coordinates":[[13.18536,47.0137],[13.18451,47.01415],[13.18418,47.01411]]}},{"type":"Feature","properties":{"kind":"piste","difficulty":"easy","name":null,"aerialway":null,"osm":"way/1216616347"},"geometry":{"type":"LineString","coordinates":[[13.18477,47.01397],[13.18447,47.01393]]}},{"type":"Feature","properties":{"kind":"piste","difficulty":"easy","name":null,"aerialway":null,"osm":"way/1216616348"},"geometry":{"type":"LineString","coordinates":[[13.18652,47.01181],[13.18666,47.01241]]}}]}