{"type":"FeatureCollection","features":[{"type":"Feature","properties":{"kind":"piste","difficulty":"intermediate","name":"Skiweg Jägerlift","aerialway":null,"osm":"way/196680329"},"geometry":{"type":"LineString","coordinates":[[13.53176,47.35775],[13.53223,47.3579],[13.53232,47.35934],[13.53282,47.36033],[13.53248,47.36141],[13.53282,47.36195],[13.53645,47.36518],[13.53878,47.36644],[13.53844,47.36659],[13.53762,47.36652],[13.53752,47.36657],[13.53756,47.36673],[13.53894,47.36703],[13.54063,47.36789]]}},{"type":"Feature","properties":{"kind":"piste","difficulty":"intermediate","name":"Jägerliftabfahrt","aerialway":null,"osm":"way/196680331"},"geometry":{"type":"LineString","coordinates":[[13.53366,47.35765],[13.53388,47.35767],[13.5358,47.36063],[13.53634,47.36127],[13.53719,47.36184],[13.53745,47.36282],[13.5381,47.36362],[13.54092,47.36416],[13.54152,47.36435],[13.54193,47.36468],[13.54235,47.36596],[13.54228,47.36648],[13.54197,47.36694],[13.54142,47.36727],[13.54088,47.36801]]}},{"type":"Feature","properties":{"kind":"piste","difficulty":"intermediate","name":"Talabfahrt Forstau","aerialway":null,"osm":"way/196680350"},"geometry":{"type":"LineString","coordinates":[[13.54088,47.36801],[13.54339,47.36936],[13.54438,47.36972],[13.54447,47.3703],[13.54275,47.37083],[13.542,47.37216],[13.54205,47.37241],[13.54234,47.37259],[13.54344,47.37274],[13.54388,47.37266],[13.54442,47.37292]]}},{"type":"Feature","properties":{"kind":"piste","difficulty":"intermediate","name":"Forstau - Talabfahrt","aerialway":null,"osm":"way/450682444"},"geometry":{"type":"LineString","coordinates":[[13.54396,47.37531],[13.54399,47.37548],[13.54321,47.37659],[13.54306,47.37731]]}},{"type":"Feature","properties":{"kind":"lift","difficulty":null,"name":"Übungslift Tal","aerialway":"rope_tow","osm":"way/464531212"},"geometry":{"type":"LineString","coordinates":[[13.54157,47.37639],[13.54245,47.37723]]}},{"type":"Feature","properties":{"kind":"piste","difficulty":"easy","name":"Skiweg Talabfahrt","aerialway":null,"osm":"way/470069228"},"geometry":{"type":"LineString","coordinates":[[13.54088,47.36801],[13.54207,47.36803],[13.54287,47.3685],[13.54287,47.36863],[13.54246,47.36871],[13.54257,47.36914],[13.5418,47.36907],[13.54176,47.36916],[13.5432,47.36954],[13.54379,47.36927],[13.54473,47.36923],[13.54534,47.36883],[13.54548,47.36885],[13.54438,47.37031],[13.54203,47.37098],[13.54126,47.37109],[13.54129,47.37118],[13.54258,47.3714],[13.54414,47.37126],[13.54416,47.37139],[13.54239,47.37214],[13.54101,47.37224],[13.54083,47.37235],[13.54224,47.37269],[13.54268,47.37252],[13.54332,47.37251],[13.54492,47.37217],[13.54493,47.37231],[13.54461,47.37256],[13.54433,47.37304],[13.54199,47.37399],[13.54216,47.3743],[13.54396,47.37531],[13.54145,47.37499],[13.54119,47.37505],[13.5422,47.37593],[13.54223,47.37616],[13.54167,47.3763],[13.54325,47.37744],[13.54391,47.37763],[13.54538,47.37744],[13.54598,47.37753],[13.54616,47.37775],[13.54622,47.37766]]}},{"type":"Feature","properties":{"kind":"piste","difficulty":"easy","name":null,"aerialway":null,"osm":"way/847323622"},"geometry":{"type":"LineString","coordinates":[[13.5411,47.36422],[13.54109,47.36435],[13.54074,47.36444],[13.53925,47.36456],[13.53839,47.36524],[13.53778,47.36545],[13.53683,47.36541]]}},{"type":"Feature","properties":{"kind":"lift","difficulty":null,"name":"Fageralmbahn","aerialway":"gondola","osm":"way/1311583819"},"geometry":{"type":"LineString","coordinates":[[13.54622,47.37766],[13.54209,47.36867],[13.52862,47.34893]]}}]}