{"type":"FeatureCollection","features":[{"type":"Feature","properties":{"kind":"lift","difficulty":null,"name":"Sesselbahn Grünleitennock","aerialway":"chair_lift","osm":"way/32689130"},"geometry":{"type":"LineString","coordinates":[[13.74869,46.97115],[13.75041,46.95868]]}},{"type":"Feature","properties":{"kind":"lift","difficulty":null,"name":"Schlepplift Strasseralm I","aerialway":"drag_lift","osm":"way/32689131"},"geometry":{"type":"LineString","coordinates":[[13.75492,46.9697],[13.7506,46.968]]}},{"type":"Feature","properties":{"kind":"lift","difficulty":null,"name":"Schlepplift Strasseralm II","aerialway":"t-bar","osm":"way/32689132"},"geometry":{"type":"LineString","coordinates":[[13.74893,46.96829],[13.74887,46.96616],[13.74585,46.96421],[13.74125,46.96317]]}},{"type":"Feature","properties":{"kind":"lift","difficulty":null,"name":"Doppelsessellift Blutige Alm","aerialway":"chair_lift","osm":"way/32689133"},"geometry":{"type":"LineString","coordinates":[[13.74702,46.97124],[13.7461,46.98745]]}},{"type":"Feature","properties":{"kind":"piste","difficulty":"intermediate","name":null,"aerialway":null,"osm":"way/88683191"},"geometry":{"type":"LineString","coordinates":[[13.74612,46.98726],[13.74676,46.98698],[13.74581,46.98463]]}},{"type":"Feature","properties":{"kind":"piste","difficulty":"intermediate","name":"1 Familienabfahrt","aerialway":null,"osm":"way/148937094"},"geometry":{"type":"LineString","coordinates":[[13.75041,46.95868],[13.74864,46.95775],[13.74761,46.95784],[13.74621,46.95829],[13.74455,46.95907],[13.74401,46.95964],[13.74374,46.96104],[13.74335,46.96187],[13.74237,46.96293],[13.74269,46.96331],[13.74553,46.96382],[13.74748,46.96468],[13.74904,46.96584],[13.74977,46.96662],[13.75006,46.96718],[13.74971,46.96889],[13.749,46.97025],[13.74862,46.97066]]}},{"type":"Feature","properties":{"kind":"lift","difficulty":null,"name":"Schlepplift Slalom Kärnten 2006","aerialway":"t-bar","osm":"way/148937095"},"geometry":{"type":"LineString","coordinates":[[13.74768,46.9706],[13.74579,46.96586]]}},{"type":"Feature","properties":{"kind":"piste","difficulty":"advanced","name":null,"aerialway":null,"osm":"way/148937096"},"geometry":{"type":"LineString","coordinates":[[13.74596,46.96628],[13.74658,46.9665],[13.74712,46.96748],[13.74822,46.97011],[13.74798,46.97055],[13.74768,46.9706]]}},{"type":"Feature","properties":{"kind":"piste","difficulty":"intermediate","name":null,"aerialway":null,"osm":"way/148937097"},"geometry":{"type":"LineString","coordinates":[[13.7512,46.96823],[13.75061,46.96796],[13.74971,46.96889]]}},{"type":"Feature","properties":{"kind":"piste","difficulty":"intermediate","name":null,"aerialway":null,"osm":"way/148937098"},"geometry":{"type":"LineString","coordinates":[[13.74198,46.96334],[13.74199,46.96346],[13.7429,46.96384],[13.74554,46.96478],[13.74639,46.96636]]}},{"type":"Feature","properties":{"kind":"piste","difficulty":"intermediate","name":null,"aerialway":null,"osm":"way/148937100"},"geometry":{"type":"LineString","coordinates":[[13.74198,46.96334],[13.74214,46.96318],[13.74269,46.96331]]}},{"type":"Feature","properties":{"kind":"piste","difficulty":"intermediate","name":null,"aerialway":null,"osm":"way/148937101"},"geometry":{"type":"LineString","coordinates":[[13.74612,46.98726],[13.74558,46.98664],[13.74581,46.98463],[13.74281,46.98083],[13.74105,46.97984],[13.74025,46.97916],[13.74034,46.97834],[13.7406,46.97772],[13.74035,46.97697],[13.73984,46.97647],[13.73826,46.97581],[13.73816,46.9756],[13.73828,46.97542],[13.73935,46.97483],[13.73989,46.97402],[13.74157,46.9735],[13.74307,46.97374],[13.74464,46.97367],[13.74674,46.97302],[13.74722,46.97202],[13.74757,46.97172],[13.74761,46.97148],[13.74752,46.97128],[13.74702,46.97124]]}},{"type":"Feature","properties":{"kind":"lift","difficulty":null,"name":"Schlepplift Zechnerhöhe","aerialway":"t-bar","osm":"way/205059682"},"geometry":{"type":"LineString","coordinates":[[13.74856,46.98376],[13.74581,46.99377]]}},{"type":"Feature","properties":{"kind":"piste","difficulty":"intermediate","name":null,"aerialway":null,"osm":"way/205059683"},"geometry":{"type":"LineString","coordinates":[[13.7499,46.96792],[13.74893,46.96822]]}},{"type":"Feature","properties":{"kind":"piste","difficulty":"easy","name":null,"aerialway":null,"osm":"way/206134434"},"geometry":{"type":"LineString","coordinates":[[13.7459,46.99347],[13.7448,46.9929],[13.7446,46.99256],[13.7456,46.991],[13.74648,46.98761],[13.74805,46.98474],[13.74819,46.98381],[13.74843,46.98373],[13.74852,46.9839]]}},{"type":"Feature","properties":{"kind":"lift","difficulty":null,"name":null,"aerialway":"rope_tow","osm":"way/206136251"},"geometry":{"type":"LineString","coordinates":[[13.74522,46.97236],[13.74651,46.97272]]}},{"type":"Feature","properties":{"kind":"piste","difficulty":"intermediate","name":"2 Sauereggabfahrt","aerialway":null,"osm":"way/206136252"},"geometry":{"type":"LineString","coordinates":[[13.75041,46.95868],[13.75069,46.95851],[13.75133,46.95855],[13.75266,46.95889],[13.75468,46.95872],[13.75592,46.95924],[13.75682,46.95942],[13.75814,46.95943],[13.75862,46.95957],[13.75946,46.95986],[13.76076,46.96065],[13.76109,46.96172],[13.76151,46.96205],[13.76158,46.96242],[13.7612,46.9631],[13.76135,46.96476],[13.76115,46.96584],[13.76142,46.96718],[13.76007,46.96829],[13.76023,46.96897],[13.76027,46.97023],[13.75935,46.97037],[13.75644,46.96949],[13.75585,46.96945],[13.75528,46.96979],[13.75492,46.9697]]}},{"type":"Feature","properties":{"kind":"piste","difficulty":"easy","name":null,"aerialway":null,"osm":"way/206168089"},"geometry":{"type":"LineString","coordinates":[[13.7512,46.96823],[13.75165,46.96813],[13.75542,46.96967]]}},{"type":"Feature","properties":{"kind":"piste","difficulty":"intermediate","name":null,"aerialway":null,"osm":"way/206168090"},"geometry":{"type":"LineString","coordinates":[[13.74596,46.96628],[13.74695,46.96623],[13.74787,46.96593],[13.74904,46.96584]]}},{"type":"Feature","properties":{"kind":"piste","difficulty":"intermediate","name":null,"aerialway":null,"osm":"way/206168091"},"geometry":{"type":"LineString","coordinates":[[13.74822,46.97011],[13.74861,46.97033],[13.74855,46.97098],[13.74869,46.97115]]}},{"type":"Feature","properties":{"kind":"piste","difficulty":"easy","name":null,"aerialway":null,"osm":"way/209313438"},"geometry":{"type":"LineString","coordinates":[[13.7438,46.98117],[13.74281,46.98083]]}},{"type":"Feature","properties":{"kind":"piste","difficulty":"advanced","name":"16 - Skiroute Innerkrems-Jagglbaueralm","aerialway":null,"osm":"way/610058090"},"geometry":{"type":"LineString","coordinates":[[13.76751,46.98012],[13.76722,46.9799],[13.76717,46.97969],[13.76769,46.9793],[13.7678,46.97908],[13.76684,46.97869],[13.76679,46.9784],[13.76646,46.97815],[13.76508,46.97768],[13.76397,46.97686],[13.76332,46.97674],[13.76332,46.97652],[13.76247,46.97594],[13.76204,46.97547],[13.76164,46.97475],[13.7616,46.97432],[13.76124,46.97399],[13.76106,46.97363],[13.75984,46.97262],[13.75987,46.97247],[13.76039,46.97274],[13.76063,46.97273],[13.76009,46.97221],[13.75919,46.97174],[13.75767,46.97173],[13.75834,46.97144],[13.75927,46.97123],[13.75986,46.97123],[13.75914,46.97107]]}},{"type":"Feature","properties":{"kind":"piste","difficulty":"intermediate","name":"2 Sauereggabfahrt","aerialway":null,"osm":"way/717714073"},"geometry":{"type":"LineString","coordinates":[[13.75468,46.95872],[13.75611,46.9602],[13.75721,46.96086],[13.75775,46.96095],[13.75946,46.95986]]}},{"type":"Feature","properties":{"kind":"piste","difficulty":"intermediate","name":"3 Grünleitenscharte-Abfahrt","aerialway":null,"osm":"way/717714074"},"geometry":{"type":"LineString","coordinates":[[13.75069,46.95851],[13.75239,46.95698],[13.75943,46.95639],[13.76326,46.95651],[13.76571,46.95683],[13.7674,46.95749],[13.76459,46.95991],[13.76347,46.96173],[13.76269,46.9626],[13.76226,46.96385],[13.76134,46.96457]]}},{"type":"Feature","properties":{"kind":"piste","difficulty":"easy","name":"6 Kesselgrubenabfahrt","aerialway":null,"osm":"way/717714075"},"geometry":{"type":"LineString","coordinates":[[13.74198,46.96334],[13.7417,46.9631],[13.74189,46.96247],[13.7423,46.96182],[13.74219,46.96135],[13.7413,46.96129],[13.73981,46.96078],[13.73857,46.96092],[13.73596,46.96063],[13.73495,46.9603],[13.73463,46.95959],[13.73495,46.95896],[13.73409,46.9585],[13.7331,46.95772],[13.73267,46.95665],[13.73183,46.95686],[13.73135,46.95717],[13.73145,46.95818],[13.73095,46.95772],[13.73084,46.95843],[13.73033,46.95951],[13.72919,46.96057],[13.7293,46.96149],[13.72917,46.96177],[13.72816,46.96224],[13.72783,46.96337],[13.72735,46.96381],[13.72679,46.96477],[13.72675,46.96594],[13.72613,46.96639],[13.72601,46.96664],[13.7272,46.96763],[13.72698,46.96771],[13.72623,46.96741],[13.72551,46.96729],[13.72539,46.96747],[13.72583,46.96774],[13.72625,46.96821]]}},{"type":"Feature","properties":{"kind":"piste","difficulty":"easy","name":"6 Kesselgrubenabfahrt","aerialway":null,"osm":"way/717714076"},"geometry":{"type":"LineString","coordinates":[[13.72551,46.96729],[13.72504,46.96727],[13.72358,46.96856],[13.72256,46.96921],[13.72197,46.97007],[13.72201,46.97045],[13.72219,46.97071],[13.72211,46.97089]]}},{"type":"Feature","properties":{"kind":"piste","difficulty":"easy","name":null,"aerialway":null,"osm":"way/1083215415"},"geometry":{"type":"LineString","coordinates":[[13.75006,46.96718],[13.75165,46.96813]]}},{"type":"Feature","properties":{"kind":"lift","difficulty":null,"name":"Snowtubing Almresort Fruhauf","aerialway":"rope_tow","osm":"way/1161054232"},"geometry":{"type":"LineString","coordinates":[[13.7228,46.96982],[13.72163,46.96947]]}}]}