{"type":"FeatureCollection","features":[{"type":"Feature","properties":{"kind":"piste","difficulty":"intermediate","name":"Muggengrat - Täli","aerialway":null,"osm":"way/29494024"},"geometry":{"type":"LineString","coordinates":[[10.13472,47.16481],[10.13501,47.16416],[10.1345,47.16301],[10.13518,47.16179],[10.13547,47.16181],[10.13814,47.16305],[10.13882,47.16309],[10.14134,47.1619],[10.14291,47.16094],[10.14355,47.16035],[10.14395,47.1597],[10.1438,47.15903],[10.14427,47.15877],[10.14579,47.15833],[10.14949,47.15777],[10.15145,47.15711],[10.15372,47.15687],[10.15493,47.1572],[10.15547,47.15754],[10.15604,47.15768],[10.1581,47.15783],[10.15944,47.15813],[10.16184,47.15776],[10.16321,47.15811],[10.16373,47.15849],[10.16445,47.15957],[10.1646,47.16061],[10.16419,47.1634],[10.16386,47.16446],[10.16349,47.16654],[10.16341,47.16777],[10.16356,47.16788]]}},{"type":"Feature","properties":{"kind":"piste","difficulty":"easy","name":"Madlochalm","aerialway":null,"osm":"way/29980389"},"geometry":{"type":"LineString","coordinates":[[10.14299,47.17486],[10.14262,47.17498],[10.14244,47.17519],[10.14224,47.17596],[10.14181,47.1765],[10.14129,47.17635],[10.14109,47.17595],[10.14098,47.17594],[10.14097,47.17606]]}},{"type":"Feature","properties":{"kind":"piste","difficulty":"easy","name":null,"aerialway":null,"osm":"way/29980390"},"geometry":{"type":"LineString","coordinates":[[10.14238,47.17537],[10.14171,47.17457],[10.14067,47.17406],[10.13909,47.17358],[10.13833,47.17393],[10.13817,47.17392],[10.13809,47.1737]]}},{"type":"Feature","properties":{"kind":"piste","difficulty":"intermediate","name":null,"aerialway":null,"osm":"way/29980391"},"geometry":{"type":"LineString","coordinates":[[10.14446,47.17342],[10.14531,47.17244],[10.14846,47.1713],[10.14929,47.1702],[10.15012,47.16976],[10.15185,47.16919],[10.15351,47.16897],[10.15439,47.16915],[10.15599,47.17016],[10.15878,47.17144],[10.16127,47.17159],[10.16161,47.17183]]}},{"type":"Feature","properties":{"kind":"piste","difficulty":"intermediate","name":"Balmen","aerialway":null,"osm":"way/29980392"},"geometry":{"type":"LineString","coordinates":[[10.18494,47.16179],[10.18555,47.16119],[10.18582,47.16016],[10.18413,47.15964],[10.18407,47.15949],[10.18521,47.15892],[10.1857,47.15844],[10.18634,47.15734],[10.18678,47.15693],[10.18644,47.15662],[10.18585,47.15658],[10.1809,47.15845],[10.17898,47.15889]]}},{"type":"Feature","properties":{"kind":"piste","difficulty":"intermediate","name":null,"aerialway":null,"osm":"way/29980395"},"geometry":{"type":"LineString","coordinates":[[10.17527,47.16996],[10.17414,47.16928],[10.17267,47.16947],[10.17172,47.16982],[10.16944,47.17135],[10.16808,47.172],[10.1668,47.1721]]}},{"type":"Feature","properties":{"kind":"piste","difficulty":"easy","name":null,"aerialway":null,"osm":"way/29980398"},"geometry":{"type":"LineString","coordinates":[[10.17969,47.17208],[10.17975,47.17171],[10.17916,47.16937],[10.17882,47.16869],[10.17723,47.16673],[10.17689,47.16673],[10.1754,47.16862],[10.17517,47.1709],[10.17472,47.17121],[10.17369,47.17157],[10.17333,47.17209],[10.17312,47.17424],[10.17328,47.17506]]}},{"type":"Feature","properties":{"kind":"piste","difficulty":"easy","name":"Familienabfahrt","aerialway":null,"osm":"way/46732248"},"geometry":{"type":"LineString","coordinates":[[10.16517,47.17238],[10.16354,47.17322],[10.16329,47.17387],[10.1633,47.17429],[10.16273,47.17507]]}},{"type":"Feature","properties":{"kind":"piste","difficulty":"easy","name":null,"aerialway":null,"osm":"way/46732249"},"geometry":{"type":"LineString","coordinates":[[10.14266,47.1754],[10.14238,47.17537]]}},{"type":"Feature","properties":{"kind":"piste","difficulty":"easy","name":null,"aerialway":null,"osm":"way/46732253"},"geometry":{"type":"LineString","coordinates":[[10.16348,47.17202],[10.16356,47.1721],[10.16344,47.17228],[10.163,47.17254]]}},{"type":"Feature","properties":{"kind":"piste","difficulty":"easy","name":null,"aerialway":null,"osm":"way/46732255"},"geometry":{"type":"LineString","coordinates":[[10.16238,47.1718],[10.16348,47.17202]]}},{"type":"Feature","properties":{"kind":"piste","difficulty":"easy","name":null,"aerialway":null,"osm":"way/46732256"},"geometry":{"type":"LineString","coordinates":[[10.16185,47.17168],[10.16238,47.1718]]}},{"type":"Feature","properties":{"kind":"piste","difficulty":"easy","name":null,"aerialway":null,"osm":"way/46732257"},"geometry":{"type":"LineString","coordinates":[[10.18244,47.17019],[10.18256,47.17018],[10.18254,47.16989],[10.18298,47.1694],[10.18277,47.16913],[10.18263,47.1685],[10.18236,47.1682],[10.18223,47.16756],[10.18163,47.16712],[10.1816,47.16593],[10.18138,47.16568],[10.18003,47.1651],[10.1785,47.16533],[10.17836,47.16555],[10.17847,47.16609],[10.17803,47.16617],[10.17762,47.16593],[10.17752,47.16651],[10.17696,47.16671]]}},{"type":"Feature","properties":{"kind":"piste","difficulty":"advanced","name":"Langer Zug","aerialway":null,"osm":"way/56222601"},"geometry":{"type":"LineString","coordinates":[[10.16421,47.1972],[10.16357,47.19702],[10.1608,47.19684],[10.16015,47.19704],[10.1596,47.19801],[10.15905,47.19814],[10.15845,47.198],[10.15749,47.19821],[10.15751,47.19844],[10.1581,47.19938],[10.15816,47.19973],[10.15798,47.20072],[10.15747,47.20124],[10.15726,47.203]]}},{"type":"Feature","properties":{"kind":"piste","difficulty":"easy","name":"Muggengrat - Zürsersee","aerialway":null,"osm":"way/56222602"},"geometry":{"type":"LineString","coordinates":[[10.13601,47.16543],[10.13525,47.165],[10.13425,47.16466],[10.13383,47.16463],[10.13352,47.16475],[10.13396,47.16604],[10.13511,47.16713],[10.13536,47.16752],[10.13536,47.16811],[10.135,47.16943],[10.13491,47.17222],[10.13648,47.17302],[10.13703,47.17379],[10.13841,47.17395],[10.1391,47.17444],[10.13967,47.1743],[10.14014,47.17442],[10.14033,47.17474],[10.14028,47.17525],[10.14071,47.17574],[10.14065,47.17595]]}},{"type":"Feature","properties":{"kind":"piste","difficulty":"intermediate","name":null,"aerialway":null,"osm":"way/105896651"},"geometry":{"type":"LineString","coordinates":[[10.16694,47.20156],[10.16703,47.20171],[10.16675,47.20179],[10.16668,47.20167],[10.16666,47.20025],[10.16625,47.19914],[10.16615,47.19837],[10.1652,47.19773],[10.16436,47.19735],[10.16396,47.1967],[10.16303,47.1958],[10.16294,47.19509],[10.1631,47.1941],[10.16204,47.19275],[10.1621,47.19253],[10.16294,47.19192],[10.16334,47.18975],[10.16371,47.18862]]}},{"type":"Feature","properties":{"kind":"piste","difficulty":"easy","name":"Piste Walchlift","aerialway":null,"osm":"way/110299701"},"geometry":{"type":"LineString","coordinates":[[10.15835,47.14369],[10.15856,47.14346],[10.1587,47.14298],[10.15893,47.14109],[10.15886,47.14055],[10.15861,47.14024]]}},{"type":"Feature","properties":{"kind":"piste","difficulty":"easy","name":"Piste Walchlift","aerialway":null,"osm":"way/110299704"},"geometry":{"type":"LineString","coordinates":[[10.15835,47.14369],[10.15825,47.14106],[10.1587,47.14006]]}},{"type":"Feature","properties":{"kind":"piste","difficulty":"easy","name":"Familienabfahrt","aerialway":null,"osm":"way/120712104"},"geometry":{"type":"LineString","coordinates":[[10.16273,47.17507],[10.16205,47.1752]]}},{"type":"Feature","properties":{"kind":"piste","difficulty":"easy","name":"Familienabfahrt","aerialway":null,"osm":"way/120712105"},"geometry":{"type":"LineString","coordinates":[[10.16205,47.1752],[10.16175,47.17558],[10.16169,47.17586]]}},{"type":"Feature","properties":{"kind":"piste","difficulty":"intermediate","name":"Balmen unten","aerialway":null,"osm":"way/122998709"},"geometry":{"type":"LineString","coordinates":[[10.17898,47.15889],[10.17782,47.15941],[10.17682,47.15917],[10.17453,47.15934],[10.17424,47.15997],[10.17389,47.1603],[10.17333,47.16057],[10.17297,47.16109],[10.17206,47.16146],[10.17176,47.16187],[10.17138,47.16176],[10.17086,47.16279],[10.17106,47.16428],[10.1709,47.16428],[10.17021,47.1637],[10.16994,47.16319],[10.16979,47.16317],[10.16956,47.16401],[10.16918,47.16456],[10.16691,47.16507],[10.16528,47.16637],[10.1644,47.16797],[10.16456,47.1681]]}},{"type":"Feature","properties":{"kind":"piste","difficulty":"intermediate","name":"Tonisböden","aerialway":null,"osm":"way/132547651"},"geometry":{"type":"LineString","coordinates":[[10.18006,47.17193],[10.1798,47.1723],[10.1766,47.17398],[10.17479,47.1756],[10.17442,47.17611],[10.17334,47.17662]]}},{"type":"Feature","properties":{"kind":"piste","difficulty":"easy","name":null,"aerialway":null,"osm":"way/132550113"},"geometry":{"type":"LineString","coordinates":[[10.16987,47.18981],[10.16986,47.18859],[10.16949,47.18717],[10.16779,47.1851],[10.16762,47.18465],[10.16761,47.18412],[10.16856,47.18239],[10.16935,47.1806],[10.16992,47.17987],[10.17028,47.17965],[10.17168,47.17948],[10.17218,47.17929],[10.17262,47.17896],[10.17262,47.17847],[10.17249,47.1783],[10.17262,47.17815]]}},{"type":"Feature","properties":{"kind":"piste","difficulty":"easy","name":null,"aerialway":null,"osm":"way/133849428"},"geometry":{"type":"LineString","coordinates":[[10.16925,47.16937],[10.16946,47.16943],[10.16903,47.16998],[10.16726,47.17068],[10.16656,47.17083],[10.16562,47.17183],[10.16548,47.17232]]}},{"type":"Feature","properties":{"kind":"piste","difficulty":"intermediate","name":"Linheraabfahrt","aerialway":null,"osm":"way/148855661"},"geometry":{"type":"LineString","coordinates":[[10.14238,47.17537],[10.14267,47.17477],[10.14274,47.17425],[10.1433,47.17378],[10.14466,47.17339],[10.14628,47.17346],[10.147,47.17363],[10.14732,47.17393],[10.14786,47.17504],[10.14836,47.17529],[10.14938,47.17531],[10.15124,47.1749],[10.15191,47.17489],[10.15264,47.17534],[10.15391,47.17562],[10.15462,47.17618]]}},{"type":"Feature","properties":{"kind":"piste","difficulty":"easy","name":null,"aerialway":null,"osm":"way/148855665"},"geometry":{"type":"LineString","coordinates":[[10.16238,47.17181],[10.16185,47.17168],[10.16188,47.17135]]}},{"type":"Feature","properties":{"kind":"piste","difficulty":"easy","name":"Trittalp","aerialway":null,"osm":"way/148855666"},"geometry":{"type":"LineString","coordinates":[[10.17328,47.17506],[10.17341,47.17567],[10.17334,47.17662],[10.17311,47.17741],[10.17232,47.17817],[10.17244,47.17826],[10.17262,47.17815]]}},{"type":"Feature","properties":{"kind":"piste","difficulty":"easy","name":null,"aerialway":null,"osm":"way/148855667"},"geometry":{"type":"LineString","coordinates":[[10.16348,47.17203],[10.16238,47.17181]]}},{"type":"Feature","properties":{"kind":"piste","difficulty":"easy","name":null,"aerialway":null,"osm":"way/148855672"},"geometry":{"type":"LineString","coordinates":[[10.16394,47.1724],[10.16363,47.17232],[10.16348,47.17203]]}},{"type":"Feature","properties":{"kind":"piste","difficulty":"easy","name":null,"aerialway":null,"osm":"way/148855676"},"geometry":{"type":"LineString","coordinates":[[10.1427,47.17435],[10.14258,47.17414],[10.14207,47.17393],[10.14067,47.17406]]}},{"type":"Feature","properties":{"kind":"piste","difficulty":"intermediate","name":"Skiroute - Tanzböden","aerialway":null,"osm":"way/148855677"},"geometry":{"type":"LineString","coordinates":[[10.14884,47.1709],[10.14917,47.17064],[10.15002,47.17047],[10.15237,47.1709],[10.15287,47.17089],[10.15411,47.17057],[10.15642,47.17038]]}},{"type":"Feature","properties":{"kind":"piste","difficulty":"advanced","name":"Skiroute - Seekopf Run","aerialway":null,"osm":"way/148855679"},"geometry":{"type":"LineString","coordinates":[[10.14757,47.17436],[10.14901,47.17472],[10.15008,47.17466],[10.15176,47.17478],[10.15235,47.17493],[10.15284,47.17529],[10.15404,47.17497],[10.15649,47.17484]]}},{"type":"Feature","properties":{"kind":"piste","difficulty":"easy","name":"Seekopf Standard","aerialway":null,"osm":"way/148994418"},"geometry":{"type":"LineString","coordinates":[[10.14184,47.17648],[10.14158,47.17685],[10.14179,47.17725],[10.14102,47.17749],[10.14084,47.17778],[10.14113,47.17814],[10.14183,47.17843],[10.14233,47.17848],[10.1434,47.17833],[10.14449,47.17794],[10.14981,47.17784],[10.15206,47.17743],[10.15299,47.17712],[10.15579,47.17561]]}},{"type":"Feature","properties":{"kind":"piste","difficulty":"intermediate","name":"Skiroute - Skiweg Trittkopf","aerialway":null,"osm":"way/149174683"},"geometry":{"type":"LineString","coordinates":[[10.18199,47.16016],[10.181,47.16069],[10.18025,47.16127],[10.18029,47.1619],[10.17997,47.16266],[10.18035,47.16324],[10.18095,47.16351],[10.18103,47.16393],[10.18074,47.16467],[10.17983,47.16509]]}},{"type":"Feature","properties":{"kind":"piste","difficulty":"easy","name":"Monzabonsee","aerialway":null,"osm":"way/149174685"},"geometry":{"type":"LineString","coordinates":[[10.16694,47.20156],[10.16703,47.20171],[10.16797,47.20165],[10.16833,47.20146],[10.16929,47.19933],[10.16927,47.19844],[10.16976,47.19804],[10.17019,47.19736],[10.17138,47.19709],[10.17289,47.19548],[10.17346,47.19422],[10.17333,47.1925],[10.17314,47.1923],[10.17162,47.19185],[10.16957,47.19144],[10.16894,47.19141],[10.16752,47.19161],[10.16729,47.19154],[10.16598,47.1903],[10.16371,47.18862],[10.16343,47.18737],[10.16362,47.18721],[10.16393,47.18743]]}},{"type":"Feature","properties":{"kind":"piste","difficulty":"intermediate","name":null,"aerialway":null,"osm":"way/149488238"},"geometry":{"type":"LineString","coordinates":[[10.16633,47.20237],[10.16644,47.20205],[10.16675,47.20179]]}},{"type":"Feature","properties":{"kind":"piste","difficulty":"advanced","name":null,"aerialway":null,"osm":"way/149488240"},"geometry":{"type":"LineString","coordinates":[[10.16186,47.2076],[10.16147,47.20831],[10.16093,47.20872],[10.16057,47.20881],[10.15976,47.21052],[10.15999,47.2114],[10.15991,47.21414],[10.15937,47.21443],[10.15878,47.21551],[10.15789,47.21611],[10.15592,47.21607],[10.1543,47.2156],[10.15358,47.21518]]}},{"type":"Feature","properties":{"kind":"piste","difficulty":"easy","name":"Schüttboden","aerialway":null,"osm":"way/203268981"},"geometry":{"type":"LineString","coordinates":[[10.16989,47.18964],[10.16914,47.18899],[10.166,47.18722],[10.16523,47.18705],[10.16449,47.18731],[10.16393,47.18732],[10.16393,47.18743]]}},{"type":"Feature","properties":{"kind":"piste","difficulty":"intermediate","name":null,"aerialway":null,"osm":"way/203268990"},"geometry":{"type":"LineString","coordinates":[[10.16731,47.20166],[10.16723,47.20143],[10.16669,47.20124]]}},{"type":"Feature","properties":{"kind":"piste","difficulty":"easy","name":"Madlochalm","aerialway":null,"osm":"way/203985211"},"geometry":{"type":"LineString","coordinates":[[10.1567,47.17731],[10.15746,47.17663],[10.15797,47.17667],[10.15863,47.17727],[10.15873,47.17778],[10.15835,47.1784],[10.15852,47.1785],[10.15946,47.17795],[10.15976,47.17698],[10.15978,47.17572],[10.16047,47.17485],[10.16077,47.17473],[10.16118,47.17516],[10.16181,47.17551]]}},{"type":"Feature","properties":{"kind":"piste","difficulty":"easy","name":"Madlochalm","aerialway":null,"osm":"way/203985214"},"geometry":{"type":"LineString","coordinates":[[10.14165,47.17837],[10.14167,47.17884],[10.1411,47.17915],[10.14131,47.17943],[10.14176,47.17964],[10.14321,47.1798],[10.14528,47.17953],[10.14559,47.17982],[10.14548,47.18023],[10.14593,47.18081],[10.1463,47.18107],[10.14701,47.18127],[10.14841,47.18135],[10.15117,47.18052],[10.15257,47.17996],[10.15368,47.17923],[10.15412,47.17908],[10.155,47.17833],[10.15633,47.17784],[10.1567,47.17731]]}},{"type":"Feature","properties":{"kind":"piste","difficulty":"intermediate","name":null,"aerialway":null,"osm":"way/251692369"},"geometry":{"type":"LineString","coordinates":[[10.17969,47.17208],[10.17997,47.17194],[10.1803,47.172],[10.18036,47.17247],[10.18025,47.1729],[10.17969,47.17376],[10.17824,47.17525],[10.17805,47.176],[10.17812,47.17664],[10.17765,47.17813],[10.17638,47.17871],[10.17555,47.17875],[10.17447,47.17942],[10.17305,47.17939],[10.17263,47.17885]]}},{"type":"Feature","properties":{"kind":"piste","difficulty":"easy","name":null,"aerialway":null,"osm":"way/251692370"},"geometry":{"type":"LineString","coordinates":[[10.1668,47.1721],[10.16665,47.17168],[10.16668,47.17133],[10.16772,47.17033],[10.16785,47.16994],[10.16776,47.16955],[10.16753,47.16918],[10.16711,47.16884],[10.16544,47.16841],[10.16507,47.1679]]}},{"type":"Feature","properties":{"kind":"piste","difficulty":"intermediate","name":"Skiroute - Rossgraben (grooming occasionally)","aerialway":null,"osm":"way/251692373"},"geometry":{"type":"LineString","coordinates":[[10.1667,47.20143],[10.16696,47.20135],[10.16688,47.19949],[10.16703,47.19921],[10.16664,47.199],[10.1663,47.19834],[10.16569,47.19808],[10.16551,47.1978],[10.1655,47.19702],[10.16532,47.19677],[10.16576,47.19574],[10.16635,47.19549],[10.16741,47.19451],[10.1673,47.19388],[10.16781,47.19272],[10.16783,47.19235],[10.16734,47.19156]]}},{"type":"Feature","properties":{"kind":"piste","difficulty":"intermediate","name":"Hohe Standard","aerialway":null,"osm":"way/251699527"},"geometry":{"type":"LineString","coordinates":[[10.14449,47.17794],[10.14523,47.17757],[10.14762,47.1774],[10.15369,47.17552],[10.15435,47.17545],[10.15579,47.17561]]}},{"type":"Feature","properties":{"kind":"piste","difficulty":"intermediate","name":"Hohe Standard","aerialway":null,"osm":"way/251699529"},"geometry":{"type":"LineString","coordinates":[[10.14145,47.17738],[10.14194,47.17761],[10.14523,47.17757]]}},{"type":"Feature","properties":{"kind":"piste","difficulty":"advanced","name":"Sonnenberg","aerialway":null,"osm":"way/251699532"},"geometry":{"type":"LineString","coordinates":[[10.14757,47.17436],[10.14965,47.17404],[10.1511,47.17337],[10.15157,47.17328],[10.15266,47.17369],[10.15332,47.17376],[10.1545,47.1737],[10.15589,47.17342],[10.15821,47.17353]]}},{"type":"Feature","properties":{"kind":"piste","difficulty":"easy","name":null,"aerialway":null,"osm":"way/258497420"},"geometry":{"type":"LineString","coordinates":[[10.13357,47.16469],[10.13295,47.16497],[10.13266,47.16526],[10.13234,47.16578],[10.13232,47.16627],[10.1326,47.16636],[10.1337,47.16625],[10.1343,47.16638]]}},{"type":"Feature","properties":{"kind":"piste","difficulty":"intermediate","name":"Skiroute - Skiweg Ochsenboden","aerialway":null,"osm":"way/462621916"},"geometry":{"type":"LineString","coordinates":[[10.17988,47.15371],[10.18082,47.15368],[10.18176,47.15401],[10.18213,47.15478],[10.18177,47.15533],[10.18183,47.15569],[10.18117,47.15662],[10.18066,47.15716],[10.18013,47.1575],[10.17957,47.15831],[10.17898,47.15889]]}},{"type":"Feature","properties":{"kind":"piste","difficulty":"intermediate","name":"Hexenboden Standard","aerialway":null,"osm":"way/466961569"},"geometry":{"type":"LineString","coordinates":[[10.17816,47.1732],[10.17328,47.17506]]}},{"type":"Feature","properties":{"kind":"piste","difficulty":"intermediate","name":null,"aerialway":null,"osm":"way/466970568"},"geometry":{"type":"LineString","coordinates":[[10.17895,47.16894],[10.1761,47.16921],[10.1753,47.16967]]}},{"type":"Feature","properties":{"kind":"piste","difficulty":"easy","name":"Rauztobel","aerialway":null,"osm":"way/481822285"},"geometry":{"type":"LineString","coordinates":[[10.16078,47.13736],[10.15883,47.13745],[10.15743,47.13769],[10.15648,47.13756],[10.15559,47.13841]]}},{"type":"Feature","properties":{"kind":"piste","difficulty":"easy","name":null,"aerialway":null,"osm":"way/482221371"},"geometry":{"type":"LineString","coordinates":[[10.16925,47.16937],[10.16946,47.16943],[10.16946,47.16926],[10.16913,47.16888],[10.16501,47.16699]]}},{"type":"Feature","properties":{"kind":"piste","difficulty":"easy","name":null,"aerialway":null,"osm":"way/549652226"},"geometry":{"type":"LineString","coordinates":[[10.16502,47.16795],[10.16482,47.16822]]}},{"type":"Feature","properties":{"kind":"piste","difficulty":"advanced","name":"Skiroute - Ochsenboden","aerialway":null,"osm":"way/549661077"},"geometry":{"type":"LineString","coordinates":[[10.1804,47.15367],[10.18054,47.1539],[10.1804,47.15443],[10.17931,47.15588],[10.17743,47.15734],[10.17484,47.15855],[10.17435,47.15906],[10.17436,47.15962]]}},{"type":"Feature","properties":{"kind":"piste","difficulty":"advanced","name":"Skiroute - Ochsenboden","aerialway":null,"osm":"way/567126722"},"geometry":{"type":"LineString","coordinates":[[10.1746,47.15879],[10.16902,47.16001],[10.16807,47.16033],[10.16748,47.1607],[10.16719,47.16114],[10.16744,47.16228],[10.16702,47.16275],[10.16688,47.16341],[10.16528,47.16637]]}},{"type":"Feature","properties":{"kind":"piste","difficulty":"intermediate","name":"Mähder","aerialway":null,"osm":"way/567909879"},"geometry":{"type":"LineString","coordinates":[[10.14674,47.17352],[10.14809,47.17353],[10.14995,47.17304],[10.15102,47.17293],[10.15209,47.17254],[10.15339,47.17229],[10.15896,47.17272]]}},{"type":"Feature","properties":{"kind":"piste","difficulty":"intermediate","name":"Skiroute - Tobelmähder","aerialway":null,"osm":"way/580582715"},"geometry":{"type":"LineString","coordinates":[[10.17764,47.16593],[10.17706,47.16549],[10.17645,47.16549],[10.17558,47.16581],[10.17434,47.16579],[10.17272,47.16554],[10.17202,47.16512],[10.17158,47.16504],[10.16761,47.16485]]}},{"type":"Feature","properties":{"kind":"piste","difficulty":"freeride","name":"Valluga - Pazieltal","aerialway":null,"osm":"way/582583980"},"geometry":{"type":"LineString","coordinates":[[10.21301,47.15757],[10.21274,47.15775],[10.21246,47.1585],[10.21257,47.15878],[10.2123,47.15903],[10.21219,47.15984],[10.21202,47.15999],[10.20973,47.16042],[10.20936,47.16068],[10.20869,47.16149],[10.20801,47.16179],[10.20591,47.16202],[10.20406,47.16168],[10.20236,47.1623],[10.20175,47.16312],[10.20023,47.16387],[10.19867,47.16501],[10.19828,47.16563],[10.19765,47.1664],[10.19712,47.16683],[10.19668,47.16749],[10.19638,47.16928],[10.19662,47.16967],[10.19788,47.17039],[10.19814,47.17078],[10.19811,47.17098],[10.19775,47.17147],[10.19695,47.17216],[10.19609,47.17268],[10.1951,47.17394],[10.19476,47.1752],[10.19424,47.17607],[10.19227,47.17736],[10.19053,47.17815],[10.18981,47.17832],[10.18891,47.17831],[10.18594,47.17779],[10.1834,47.17778],[10.17948,47.17803],[10.17614,47.17875]]}},{"type":"Feature","properties":{"kind":"piste","difficulty":"freeride","name":"Valluga West","aerialway":null,"osm":"way/582583982"},"geometry":{"type":"LineString","coordinates":[[10.21301,47.15757],[10.21095,47.1571],[10.20902,47.15699],[10.20512,47.15752],[10.20387,47.15777],[10.20379,47.15796],[10.20399,47.15834],[10.20454,47.15872],[10.20466,47.15921],[10.20442,47.15953],[10.20323,47.15993],[10.19904,47.16003],[10.19856,47.16019],[10.19821,47.16046],[10.19806,47.16099],[10.19808,47.16203],[10.19734,47.16396],[10.19742,47.16475],[10.19807,47.16587]]}},{"type":"Feature","properties":{"kind":"piste","difficulty":"freeride","name":"Hexenboden Ost","aerialway":null,"osm":"way/582583985"},"geometry":{"type":"LineString","coordinates":[[10.1826,47.17029],[10.18381,47.17029],[10.18418,47.17046],[10.18503,47.1712],[10.18681,47.17177],[10.1912,47.17276],[10.19193,47.17356],[10.19215,47.17442],[10.19207,47.17588],[10.19158,47.17696],[10.19053,47.17815]]}},{"type":"Feature","properties":{"kind":"piste","difficulty":"freeride","name":"Hexenboden Nord","aerialway":null,"osm":"way/582583986"},"geometry":{"type":"LineString","coordinates":[[10.1826,47.17029],[10.18407,47.17104],[10.18432,47.17192],[10.18408,47.17311],[10.18362,47.17378],[10.18331,47.17452],[10.18296,47.17629],[10.18231,47.17719],[10.18056,47.17794]]}},{"type":"Feature","properties":{"kind":"piste","difficulty":"freeride","name":"Guggis Sattel","aerialway":null,"osm":"way/582619194"},"geometry":{"type":"LineString","coordinates":[[10.14507,47.16161],[10.14692,47.16151],[10.14967,47.16159],[10.15319,47.16209],[10.1546,47.16209],[10.15437,47.16258],[10.155,47.16302],[10.15573,47.16313],[10.15649,47.16298],[10.15808,47.16319],[10.15824,47.16351],[10.15812,47.16394],[10.15709,47.16527],[10.15707,47.16548],[10.15732,47.16578],[10.15846,47.16628],[10.16209,47.16686],[10.16235,47.16681],[10.16315,47.16597],[10.16359,47.16601]]}},{"type":"Feature","properties":{"kind":"piste","difficulty":"freeride","name":"Flexenmähder","aerialway":null,"osm":"way/582619195"},"geometry":{"type":"LineString","coordinates":[[10.14507,47.16161],[10.14677,47.16105],[10.14817,47.1608],[10.15047,47.15999],[10.15195,47.15889],[10.15321,47.15824],[10.15431,47.15832],[10.15615,47.1587],[10.15705,47.15917],[10.15866,47.15923],[10.16014,47.15965],[10.16094,47.15975],[10.16238,47.15962],[10.16452,47.15975]]}},{"type":"Feature","properties":{"kind":"piste","difficulty":"freeride","name":"Guggis","aerialway":null,"osm":"way/582619196"},"geometry":{"type":"LineString","coordinates":[[10.13493,47.16397],[10.13637,47.16364],[10.13861,47.16405],[10.13997,47.16402],[10.14099,47.16362],[10.14198,47.16296],[10.14507,47.16161]]}},{"type":"Feature","properties":{"kind":"piste","difficulty":"freeride","name":"Erzberg Standard","aerialway":null,"osm":"way/582619197"},"geometry":{"type":"LineString","coordinates":[[10.13523,47.16177],[10.13616,47.16153],[10.13729,47.1618],[10.1392,47.16178],[10.14164,47.16067],[10.14209,47.16008],[10.14221,47.15905],[10.14277,47.15834],[10.14319,47.15739],[10.14335,47.15719],[10.14386,47.1571],[10.14434,47.15662],[10.14446,47.15606],[10.14434,47.15566],[10.1447,47.15467],[10.14637,47.15358],[10.14863,47.15331],[10.15099,47.15256],[10.15171,47.15204],[10.1526,47.15177],[10.15424,47.15172],[10.1561,47.15222],[10.15875,47.15322],[10.16091,47.15363],[10.16183,47.1541],[10.16291,47.154],[10.16452,47.15434],[10.16483,47.15484],[10.16485,47.15514],[10.16442,47.15646],[10.16431,47.15823]]}},{"type":"Feature","properties":{"kind":"piste","difficulty":"intermediate","name":"Muggengrat - Täli","aerialway":null,"osm":"way/582619198"},"geometry":{"type":"LineString","coordinates":[[10.16299,47.15804],[10.16431,47.15823],[10.16407,47.1587],[10.16408,47.15893]]}},{"type":"Feature","properties":{"kind":"piste","difficulty":"freeride","name":"Erzberg","aerialway":null,"osm":"way/582619199"},"geometry":{"type":"LineString","coordinates":[[10.14829,47.15339],[10.14915,47.15352],[10.15013,47.15398],[10.15371,47.15376],[10.1561,47.15317],[10.15741,47.15376],[10.16183,47.1541]]}},{"type":"Feature","properties":{"kind":"piste","difficulty":"freeride","name":"Hasenfluhscharte","aerialway":null,"osm":"way/582619200"},"geometry":{"type":"LineString","coordinates":[[10.13601,47.16543],[10.13638,47.16553],[10.13654,47.16647],[10.13709,47.16776],[10.13865,47.16924],[10.13982,47.17002],[10.14141,47.16996],[10.14287,47.16967],[10.14543,47.16881],[10.14736,47.16844],[10.15387,47.16831],[10.15517,47.16855],[10.15625,47.16954],[10.15707,47.16992],[10.15721,47.17015],[10.15891,47.17124],[10.16029,47.17155]]}},{"type":"Feature","properties":{"kind":"piste","difficulty":"freeride","name":"Wöster Bockbachtal","aerialway":null,"osm":"way/582924597"},"geometry":{"type":"LineString","coordinates":[[10.16919,47.19957],[10.16962,47.1992],[10.17013,47.19934],[10.17049,47.19969],[10.17078,47.19969],[10.17094,47.19958],[10.1708,47.19948],[10.17098,47.19937],[10.17113,47.19902],[10.1715,47.1988],[10.1719,47.19899],[10.17231,47.19888],[10.17366,47.19918],[10.17421,47.19914],[10.17547,47.19857],[10.17632,47.19836],[10.17721,47.1974],[10.17775,47.19742],[10.17921,47.19782],[10.1806,47.19922],[10.1815,47.1995],[10.18304,47.1996],[10.18443,47.20006],[10.18449,47.20091],[10.18504,47.20138],[10.18553,47.20202],[10.1853,47.20282],[10.18519,47.20413],[10.18549,47.20606],[10.18584,47.20708],[10.18527,47.20777],[10.18519,47.20827],[10.18532,47.21017],[10.18507,47.21199],[10.18449,47.21301],[10.18493,47.21546],[10.18457,47.21671],[10.18457,47.21801],[10.18501,47.21856],[10.18574,47.21896],[10.18747,47.21952],[10.18888,47.21972],[10.19064,47.22031],[10.19287,47.22145],[10.19428,47.22186],[10.19504,47.22189],[10.19624,47.22141],[10.19735,47.22124],[10.19966,47.22154],[10.20117,47.22193],[10.20331,47.22211],[10.20464,47.22176],[10.2055,47.22119],[10.2058,47.22055],[10.20657,47.22024],[10.20913,47.22016],[10.21079,47.22033],[10.21156,47.22075],[10.21206,47.22145],[10.21236,47.22208],[10.21231,47.22271],[10.2125,47.22309],[10.2134,47.22399],[10.21402,47.22441],[10.21505,47.22479],[10.21511,47.22493],[10.21645,47.22553],[10.21824,47.2259],[10.21814,47.2261],[10.21852,47.22643],[10.2192,47.22737],[10.21956,47.22817],[10.21985,47.22829],[10.21973,47.22853],[10.21998,47.22937],[10.22126,47.23005],[10.22137,47.23048],[10.22198,47.23106],[10.22227,47.23163],[10.22282,47.23182],[10.22286,47.23192],[10.22248,47.23218],[10.2229,47.23383],[10.22388,47.23508],[10.22445,47.23611],[10.22475,47.23695],[10.22468,47.23718],[10.22486,47.23733],[10.2251,47.23884],[10.22559,47.23932],[10.22575,47.23976]]}},{"type":"Feature","properties":{"kind":"piste","difficulty":"freeride","name":"Trittkopf Antenne Pazieltal","aerialway":null,"osm":"way/662969895"},"geometry":{"type":"LineString","coordinates":[[10.18512,47.1617],[10.18446,47.16181],[10.1849,47.16215],[10.18496,47.16199],[10.1851,47.16213],[10.18533,47.162],[10.1856,47.16208],[10.18562,47.16197],[10.18589,47.16209],[10.18637,47.16191],[10.18677,47.16207],[10.18686,47.16191],[10.18707,47.16204],[10.18711,47.16187],[10.18726,47.162],[10.18734,47.16184],[10.1875,47.16197],[10.18763,47.16173],[10.18778,47.16195],[10.18794,47.16193],[10.18782,47.16161],[10.18809,47.16165],[10.18824,47.16186],[10.18842,47.16173],[10.18859,47.16187],[10.18897,47.16165],[10.18891,47.16195],[10.1893,47.16257],[10.18966,47.16288],[10.19121,47.16356],[10.19193,47.16409],[10.19306,47.16596],[10.19348,47.16615],[10.1935,47.16641],[10.19377,47.16669],[10.1959,47.168],[10.19638,47.16928]]}},{"type":"Feature","properties":{"kind":"piste","difficulty":"easy","name":"Abfahrt Schafalp","aerialway":null,"osm":"way/853516758"},"geometry":{"type":"LineString","coordinates":[[10.16186,47.2076],[10.16237,47.20701],[10.16183,47.20648],[10.16145,47.20562],[10.15983,47.20432],[10.15973,47.20382],[10.15948,47.20349],[10.15896,47.20311],[10.15811,47.20285],[10.15757,47.20285],[10.15726,47.203]]}},{"type":"Feature","properties":{"kind":"piste","difficulty":"intermediate","name":"Kurtschuss","aerialway":null,"osm":"way/853516759"},"geometry":{"type":"LineString","coordinates":[[10.16987,47.18981],[10.16905,47.19044],[10.16801,47.1907],[10.16598,47.1903]]}},{"type":"Feature","properties":{"kind":"piste","difficulty":"freeride","name":"Umfahrung Schüttboden","aerialway":null,"osm":"way/853516761"},"geometry":{"type":"LineString","coordinates":[[10.17333,47.1925],[10.17301,47.19156],[10.17196,47.19022],[10.17165,47.18964],[10.16989,47.18964]]}},{"type":"Feature","properties":{"kind":"piste","difficulty":"easy","name":"Madlochalm","aerialway":null,"osm":"way/1051549042"},"geometry":{"type":"LineString","coordinates":[[10.14184,47.17648],[10.14158,47.17685],[10.14179,47.17725],[10.14102,47.17749],[10.14084,47.17766],[10.14104,47.17809],[10.14165,47.17837]]}},{"type":"Feature","properties":{"kind":"piste","difficulty":"easy","name":null,"aerialway":null,"osm":"way/1164563733"},"geometry":{"type":"LineString","coordinates":[[10.15821,47.17353],[10.15866,47.17352],[10.15865,47.17385],[10.1588,47.1739],[10.15959,47.17312],[10.15977,47.17276],[10.16018,47.17275],[10.16044,47.17326],[10.16036,47.17427],[10.16077,47.17473]]}},{"type":"Feature","properties":{"kind":"piste","difficulty":"easy","name":null,"aerialway":null,"osm":"way/1249858293"},"geometry":{"type":"LineString","coordinates":[[10.16543,47.1684],[10.16445,47.16842]]}},{"type":"Feature","properties":{"kind":"piste","difficulty":"easy","name":null,"aerialway":null,"osm":"way/1249887799"},"geometry":{"type":"LineString","coordinates":[[10.16181,47.17551],[10.16177,47.17591]]}},{"type":"Feature","properties":{"kind":"piste","difficulty":"unknown","name":null,"aerialway":null,"osm":"way/1249887801"},"geometry":{"type":"LineString","coordinates":[[10.14075,47.17595],[10.14098,47.17594]]}},{"type":"Feature","properties":{"kind":"piste","difficulty":"unknown","name":null,"aerialway":null,"osm":"way/1249887802"},"geometry":{"type":"LineString","coordinates":[[10.14065,47.17595],[10.14075,47.17595]]}},{"type":"Feature","properties":{"kind":"piste","difficulty":"easy","name":"Monzabonsee","aerialway":null,"osm":"way/1382782705"},"geometry":{"type":"LineString","coordinates":[[10.16925,47.19847],[10.16877,47.19852],[10.16854,47.19838],[10.16832,47.19773],[10.16839,47.19729],[10.16861,47.19701],[10.16886,47.19678],[10.16937,47.19664],[10.16962,47.19682],[10.16976,47.19735],[10.17019,47.19736]]}},{"type":"Feature","properties":{"kind":"piste","difficulty":"advanced","name":null,"aerialway":null,"osm":"way/1382943123"},"geometry":{"type":"LineString","coordinates":[[10.16411,47.19728],[10.16356,47.19707],[10.163,47.19714],[10.16062,47.19695],[10.16016,47.19712],[10.15985,47.19783],[10.15961,47.19804],[10.15914,47.19819],[10.15849,47.19806],[10.15753,47.19822],[10.15803,47.19897],[10.15828,47.19969],[10.15814,47.20035],[10.1582,47.20075],[10.15755,47.20135],[10.15746,47.20283],[10.15726,47.203],[10.15739,47.20102],[10.15779,47.20072],[10.15806,47.19962],[10.15779,47.19893],[10.15745,47.19855],[10.15743,47.19819],[10.15837,47.19792],[10.15909,47.19811],[10.15962,47.19796],[10.16008,47.19701],[10.16077,47.19675],[10.16251,47.19695],[10.16364,47.19694],[10.16394,47.19703],[10.16411,47.19728]]}},{"type":"Feature","properties":{"kind":"piste","difficulty":"easy","name":null,"aerialway":null,"osm":"way/1382943124"},"geometry":{"type":"LineString","coordinates":[[10.15726,47.203],[10.15806,47.20288],[10.15914,47.20324],[10.15964,47.20372],[10.15981,47.20434],[10.16147,47.20573],[10.16185,47.20662],[10.16221,47.20696],[10.16194,47.20722],[10.16186,47.2076],[10.16242,47.2071],[10.1624,47.2069],[10.16196,47.20654],[10.16146,47.20557],[10.15988,47.20432],[10.15979,47.20385],[10.15931,47.20328],[10.15793,47.20277],[10.15746,47.20283],[10.15726,47.203]]}},{"type":"Feature","properties":{"kind":"piste","difficulty":"easy","name":"Muggengrat - Zürsersee","aerialway":null,"osm":"way/1383788362"},"geometry":{"type":"LineString","coordinates":[[10.14065,47.17595],[10.14002,47.1764],[10.1402,47.17683],[10.14016,47.17705]]}},{"type":"Feature","properties":{"kind":"piste","difficulty":"easy","name":"Familienabfahrt","aerialway":null,"osm":"way/1383788368"},"geometry":{"type":"LineString","coordinates":[[10.16169,47.17586],[10.16154,47.17601]]}},{"type":"Feature","properties":{"kind":"piste","difficulty":"easy","name":"Seekopf Standard","aerialway":null,"osm":"way/1383944506"},"geometry":{"type":"LineString","coordinates":[[10.15896,47.17272],[10.15942,47.17245],[10.15965,47.17183],[10.15979,47.17256],[10.16013,47.17273],[10.16041,47.17262],[10.16077,47.1722],[10.16185,47.17168]]}},{"type":"Feature","properties":{"kind":"piste","difficulty":"easy","name":"Madlochalm","aerialway":null,"osm":"way/1383944507"},"geometry":{"type":"LineString","coordinates":[[10.15579,47.17561],[10.15778,47.1766]]}},{"type":"Feature","properties":{"kind":"piste","difficulty":"intermediate","name":null,"aerialway":null,"osm":"way/1383944509"},"geometry":{"type":"LineString","coordinates":[[10.15896,47.17272],[10.15911,47.17226],[10.15899,47.17187],[10.15908,47.17149]]}},{"type":"Feature","properties":{"kind":"piste","difficulty":"easy","name":"Seekopf Standard","aerialway":null,"osm":"way/1383944510"},"geometry":{"type":"LineString","coordinates":[[10.15579,47.17561],[10.15697,47.17438],[10.15788,47.17389],[10.15863,47.17322],[10.15896,47.17272]]}},{"type":"Feature","properties":{"kind":"piste","difficulty":"easy","name":"Madlochalm","aerialway":null,"osm":"way/1384195716"},"geometry":{"type":"LineString","coordinates":[[10.14016,47.17705],[10.14064,47.17788],[10.14113,47.17814]]}},{"type":"Feature","properties":{"kind":"piste","difficulty":"intermediate","name":"Skiroute - Hübner Hang","aerialway":null,"osm":"way/1384435867"},"geometry":{"type":"LineString","coordinates":[[10.18519,47.16165],[10.18464,47.16061],[10.1822,47.16082],[10.18234,47.16025],[10.18199,47.16016]]}},{"type":"Feature","properties":{"kind":"piste","difficulty":"intermediate","name":null,"aerialway":null,"osm":"way/1384435868"},"geometry":{"type":"LineString","coordinates":[[10.17782,47.15941],[10.17694,47.15955],[10.17628,47.15993],[10.17589,47.1604],[10.17585,47.16098],[10.17559,47.1616],[10.17515,47.16185],[10.17485,47.16226],[10.17385,47.16263],[10.17295,47.16236],[10.17291,47.1619],[10.17268,47.16138],[10.17238,47.16132]]}},{"type":"Feature","properties":{"kind":"piste","difficulty":"easy","name":null,"aerialway":null,"osm":"way/1384467136"},"geometry":{"type":"LineString","coordinates":[[10.1646,47.16776],[10.16512,47.16785],[10.16524,47.16708]]}},{"type":"Feature","properties":{"kind":"piste","difficulty":"easy","name":null,"aerialway":null,"osm":"way/1384547342"},"geometry":{"type":"LineString","coordinates":[[10.16947,47.16932],[10.1691,47.16852],[10.16821,47.1678],[10.16699,47.1679]]}},{"type":"Feature","properties":{"kind":"piste","difficulty":"easy","name":null,"aerialway":null,"osm":"way/1384547343"},"geometry":{"type":"LineString","coordinates":[[10.16848,47.16756],[10.16821,47.1678],[10.16647,47.16715]]}},{"type":"Feature","properties":{"kind":"piste","difficulty":"intermediate","name":null,"aerialway":null,"osm":"way/1384647069"},"geometry":{"type":"LineString","coordinates":[[10.18244,47.17019],[10.18256,47.17018],[10.18257,47.17033],[10.18203,47.17045],[10.18137,47.17081],[10.18006,47.17193],[10.17975,47.17171]]}},{"type":"Feature","properties":{"kind":"piste","difficulty":"easy","name":null,"aerialway":null,"osm":"way/1384648719"},"geometry":{"type":"LineString","coordinates":[[10.1685,47.17533],[10.16862,47.17594],[10.16843,47.17661],[10.16849,47.17692],[10.16835,47.17693],[10.16805,47.17663]]}},{"type":"Feature","properties":{"kind":"piste","difficulty":"easy","name":null,"aerialway":null,"osm":"way/1384771273"},"geometry":{"type":"LineString","coordinates":[[10.18159,47.16638],[10.18122,47.16657],[10.18082,47.16731],[10.18077,47.16857],[10.18032,47.16909],[10.17895,47.16894]]}},{"type":"Feature","properties":{"kind":"piste","difficulty":"intermediate","name":null,"aerialway":null,"osm":"way/1384793079"},"geometry":{"type":"LineString","coordinates":[[10.17953,47.17096],[10.1761,47.17081],[10.17543,47.17092],[10.17472,47.17121]]}},{"type":"Feature","properties":{"kind":"piste","difficulty":"intermediate","name":null,"aerialway":null,"osm":"way/1384793080"},"geometry":{"type":"LineString","coordinates":[[10.17654,47.17079],[10.1754,47.17055],[10.17474,47.16961]]}},{"type":"Feature","properties":{"kind":"piste","difficulty":"intermediate","name":null,"aerialway":null,"osm":"way/1384793082"},"geometry":{"type":"LineString","coordinates":[[10.18254,47.17007],[10.18186,47.17024],[10.1815,47.17073]]}},{"type":"Feature","properties":{"kind":"piste","difficulty":"easy","name":"Piste Angerlift","aerialway":null,"osm":"way/1385515395"},"geometry":{"type":"LineString","coordinates":[[10.15824,47.14201],[10.15805,47.14176],[10.15744,47.14156],[10.1573,47.14137]]}},{"type":"Feature","properties":{"kind":"piste","difficulty":"easy","name":null,"aerialway":null,"osm":"way/1471910849"},"geometry":{"type":"LineString","coordinates":[[10.16507,47.1679],[10.16473,47.16818],[10.16456,47.1681]]}},{"type":"Feature","properties":{"kind":"piste","difficulty":"easy","name":null,"aerialway":null,"osm":"way/1471910850"},"geometry":{"type":"LineString","coordinates":[[10.17328,47.17506],[10.17287,47.17498],[10.17222,47.17448],[10.1719,47.1744],[10.17137,47.17445],[10.17063,47.17473],[10.1689,47.17491],[10.16856,47.17516],[10.16816,47.17659],[10.16805,47.17663],[10.16776,47.17582],[10.16768,47.17405],[10.1668,47.1721],[10.16503,47.1724],[10.16355,47.17241],[10.163,47.17254],[10.16302,47.17267]]}},{"type":"Feature","properties":{"kind":"piste","difficulty":"easy","name":null,"aerialway":null,"osm":"way/1492938114"},"geometry":{"type":"LineString","coordinates":[[10.16032,47.17288],[10.16154,47.17322],[10.16198,47.17349]]}},{"type":"Feature","properties":{"kind":"piste","difficulty":"intermediate","name":"Aufschließungsweg Hexenboden - Ochsenboden","aerialway":null,"osm":"way/1551998079"},"geometry":{"type":"LineString","coordinates":[[10.18218,47.1592],[10.18197,47.15963],[10.18206,47.15989],[10.18199,47.16016]]}},{"type":"Feature","properties":{"kind":"piste","difficulty":"intermediate","name":"Skiroute - Hübner Hang","aerialway":null,"osm":"way/1551998081"},"geometry":{"type":"LineString","coordinates":[[10.18199,47.16016],[10.1796,47.16042],[10.17905,47.16021],[10.17782,47.15941]]}},{"type":"Feature","properties":{"kind":"piste","difficulty":"intermediate","name":"Multifunktionsweg Ochsenboden","aerialway":null,"osm":"way/1551998082"},"geometry":{"type":"LineString","coordinates":[[10.18004,47.15763],[10.18066,47.15773],[10.18135,47.15802],[10.18218,47.15793],[10.18257,47.15807],[10.18267,47.15832],[10.18218,47.1592]]}},{"type":"Feature","properties":{"kind":"piste","difficulty":"advanced","name":"Skiroute - Seekopf Run","aerialway":null,"osm":"way/1551999949"},"geometry":{"type":"LineString","coordinates":[[10.15649,47.17484],[10.16047,47.17485]]}},{"type":"Feature","properties":{"kind":"piste","difficulty":"easy","name":null,"aerialway":null,"osm":"relation/19066623"},"geometry":{"type":"MultiLineString","coordinates":[[[10.16983,47.18018],[10.17025,47.17981],[10.17205,47.1796],[10.1729,47.17903],[10.17285,47.17881],[10.17257,47.17856],[10.17241,47.17897],[10.17195,47.17924],[10.17019,47.17951],[10.16935,47.17991],[10.16933,47.18023],[10.1689,47.18102],[10.16827,47.1827],[10.16753,47.18403],[10.16749,47.18447],[10.16768,47.1851],[10.1692,47.1873],[10.16959,47.18857],[10.16944,47.18903],[10.16614,47.18713],[10.16554,47.18694],[10.16487,47.18703],[10.16435,47.18725],[10.16367,47.18713],[10.16334,47.18722],[10.16357,47.18861],[10.16741,47.19166],[10.16774,47.19172],[10.16926,47.19151],[10.17131,47.19191],[10.17324,47.19247],[10.1734,47.1942],[10.17287,47.19542],[10.17113,47.19718],[10.16983,47.19736],[10.16967,47.19681],[10.1694,47.19663],[10.16884,47.19675],[10.16858,47.19699],[10.16836,47.19729],[10.1683,47.1979],[10.16858,47.19854],[10.16918,47.19852],[10.16927,47.19922],[10.16874,47.20052],[10.16813,47.20156],[10.16751,47.20162],[10.16737,47.20152],[10.16679,47.20165],[10.16653,47.20178],[10.16619,47.20225],[10.16674,47.20184],[10.16731,47.2017],[10.1681,47.2017],[10.16836,47.20153],[10.16934,47.1993],[10.16929,47.1985],[10.16986,47.19814],[10.17037,47.19737],[10.17122,47.19724],[10.17155,47.19703],[10.17323,47.19512],[10.17352,47.19421],[10.17333,47.19227],[10.17166,47.19174],[10.16917,47.19129],[10.1673,47.19152],[10.16609,47.19023],[10.1638,47.18858],[10.16373,47.18793],[10.16352,47.18741],[10.16359,47.18729],[10.16439,47.18743],[10.1655,47.18714],[10.16916,47.18913],[10.16975,47.18976],[10.16989,47.18981],[10.17022,47.1896],[10.17009,47.18795],[10.16974,47.18683],[10.16791,47.18513],[10.16769,47.18431],[10.1677,47.18409],[10.16983,47.18018]],[[10.16959,47.18005],[10.1695,47.17999],[10.16959,47.18005]],[[10.1699,47.19743],[10.1697,47.19733],[10.1695,47.19673],[10.16886,47.1968],[10.16839,47.19745],[10.16837,47.19782],[10.16856,47.19827],[10.16886,47.19845],[10.16925,47.1984],[10.1699,47.19743]]]}},{"type":"Feature","properties":{"kind":"piste","difficulty":"intermediate","name":null,"aerialway":null,"osm":"relation/19066624"},"geometry":{"type":"MultiLineString","coordinates":[[[10.16975,47.18976],[10.16989,47.18981],[10.16968,47.19011],[10.16909,47.19055],[10.16813,47.1908],[10.16633,47.19051],[10.16609,47.19023],[10.16797,47.19062],[10.16895,47.19038],[10.16975,47.18976]],[[10.16647,47.20187],[10.16661,47.20157],[10.16658,47.20018],[10.16618,47.1992],[10.16611,47.1984],[10.16508,47.19773],[10.16411,47.19728],[10.16382,47.19673],[10.16294,47.19582],[10.16283,47.195],[10.16288,47.1941],[10.16188,47.19267],[10.16208,47.19241],[10.16273,47.19204],[10.16304,47.19015],[10.16353,47.18825],[10.16357,47.18861],[10.16386,47.18886],[10.16355,47.18975],[10.16315,47.19183],[10.16299,47.1921],[10.16233,47.19245],[10.1621,47.19274],[10.1633,47.19401],[10.16324,47.19474],[10.163,47.19513],[10.16315,47.1958],[10.16408,47.19665],[10.1645,47.19736],[10.16529,47.19771],[10.16622,47.19834],[10.16643,47.19958],[10.16674,47.20013],[10.16677,47.20118],[10.16737,47.20152],[10.16721,47.20155],[10.16714,47.20143],[10.16673,47.20153],[10.16679,47.20165],[10.16647,47.20187]]]}},{"type":"Feature","properties":{"kind":"piste","difficulty":"easy","name":null,"aerialway":null,"osm":"relation/19085640"},"geometry":{"type":"MultiLineString","coordinates":[[[10.17328,47.17528],[10.17324,47.17645],[10.173,47.17743],[10.17227,47.17817],[10.17267,47.17842],[10.17266,47.17827],[10.17242,47.17812],[10.1732,47.17742],[10.17349,47.17649],[10.1735,47.17554],[10.17318,47.17444],[10.1734,47.17209],[10.17372,47.1717],[10.17592,47.17102],[10.17534,47.17042],[10.17544,47.1688],[10.17698,47.16681],[10.17795,47.16758],[10.17908,47.16935],[10.17948,47.17181],[10.17964,47.17203],[10.18011,47.17164],[10.17991,47.17152],[10.17968,47.17109],[10.17917,47.16913],[10.18032,47.16915],[10.18081,47.16862],[10.18081,47.1675],[10.18118,47.1667],[10.18151,47.1664],[10.18158,47.1671],[10.18218,47.1676],[10.18224,47.16818],[10.18258,47.1685],[10.18271,47.16914],[10.18294,47.16939],[10.18245,47.16994],[10.1825,47.17019],[10.18269,47.17016],[10.1826,47.16989],[10.18302,47.16939],[10.18244,47.16816],[10.18228,47.16752],[10.18168,47.16716],[10.18168,47.16596],[10.18152,47.16571],[10.18049,47.16515],[10.17974,47.16501],[10.17922,47.16522],[10.17842,47.16533],[10.1783,47.16561],[10.17846,47.16599],[10.17832,47.16608],[10.17803,47.16612],[10.17754,47.16592],[10.17751,47.16641],[10.1766,47.16679],[10.17618,47.16758],[10.17522,47.16875],[10.17516,47.17037],[10.17483,47.1709],[10.17449,47.17117],[10.17362,47.1714],[10.17344,47.17163],[10.17322,47.17217],[10.17303,47.17391],[10.17307,47.17441],[10.17324,47.1747],[10.1732,47.17499],[10.17285,47.17493],[10.17234,47.17441],[10.17195,47.17428],[10.17137,47.17436],[10.17046,47.1747],[10.16912,47.17481],[10.16849,47.17516],[10.16803,47.17652],[10.16771,47.17503],[10.16778,47.17437],[10.16765,47.17377],[10.16679,47.17179],[10.16677,47.17124],[10.16784,47.17049],[10.16913,47.16998],[10.16952,47.16958],[10.16954,47.169],[10.1691,47.16837],[10.16841,47.16778],[10.16851,47.16756],[10.16837,47.16763],[10.16634,47.16713],[10.16658,47.16734],[10.16799,47.16781],[10.16736,47.16778],[10.16618,47.1672],[10.16515,47.16688],[10.1649,47.16718],[10.16513,47.16715],[10.16506,47.16776],[10.16467,47.16781],[10.16498,47.16793],[10.16485,47.16807],[10.16511,47.16805],[10.1652,47.16831],[10.16504,47.16843],[10.16446,47.16846],[10.16573,47.16853],[10.16644,47.16874],[10.16743,47.16928],[10.16777,47.16977],[10.16776,47.16994],[10.16723,47.17063],[10.16647,47.17084],[10.1654,47.17203],[10.16475,47.17222],[10.16381,47.17226],[10.16348,47.17202],[10.16324,47.17235],[10.16291,47.17253],[10.16424,47.17254],[10.16401,47.17286],[10.1634,47.1733],[10.16322,47.17437],[10.16269,47.17503],[10.16334,47.17434],[10.16356,47.17325],[10.16465,47.17281],[10.16677,47.17227],[10.16767,47.17415],[10.16761,47.17515],[10.16785,47.17649],[10.16839,47.17702],[10.16855,47.17696],[10.16846,47.17665],[10.16867,47.17589],[10.16859,47.17524],[10.16884,47.17497],[10.17064,47.17479],[10.17141,47.17451],[10.17182,47.17449],[10.17328,47.17528]],[[10.15918,47.17359],[10.15981,47.17282],[10.1602,47.17291],[10.16033,47.17309],[10.16027,47.1743],[10.16052,47.1747],[10.15971,47.17569],[10.15967,47.17695],[10.15935,47.17795],[10.15844,47.17841],[10.1588,47.1778],[10.15865,47.17716],[10.15791,47.17659],[10.15604,47.17559],[10.15691,47.17462],[10.15765,47.17422],[10.15822,47.17367],[10.15859,47.17359],[10.1586,47.17386],[10.15877,47.17393],[10.15918,47.17359]],[[10.14196,47.17829],[10.14118,47.17807],[10.14093,47.17768],[10.14204,47.17726],[10.14167,47.17691],[10.14234,47.17589],[10.14253,47.17526],[10.14287,47.17501],[10.14285,47.17479],[10.14305,47.17453],[10.14291,47.1743],[10.14207,47.17391],[10.14073,47.17403],[10.13899,47.17347],[10.13834,47.17386],[10.13712,47.17371],[10.1368,47.17345],[10.13649,47.17289],[10.13523,47.17236],[10.13507,47.17216],[10.13499,47.17142],[10.13511,47.16932],[10.13547,47.16796],[10.13548,47.16743],[10.13518,47.16698],[10.13416,47.16604],[10.13376,47.16485],[10.13392,47.1647],[10.13444,47.16476],[10.13601,47.16543],[10.13616,47.1653],[10.13547,47.16506]],[[10.13547,47.16506],[10.13406,47.16458],[10.13331,47.16474],[10.13259,47.16531],[10.13232,47.16575],[10.13228,47.16625],[10.1325,47.16638],[10.13398,47.16633],[10.13421,47.16643],[10.13522,47.16752],[10.13527,47.1681],[10.13495,47.16901],[10.13476,47.17076],[10.13471,47.17192],[10.13481,47.17233],[10.13564,47.17263],[10.1364,47.17308],[10.137,47.17392],[10.13846,47.17403],[10.13901,47.17445]],[[10.14196,47.17829],[10.14259,47.17837],[10.14341,47.17825],[10.1447,47.1777],[10.14577,47.17785],[10.14997,47.17776],[10.15264,47.17716],[10.15433,47.1761],[10.15538,47.17579],[10.15665,47.17441],[10.15776,47.17387],[10.15915,47.17251],[10.15941,47.17252],[10.15907,47.17276],[10.15855,47.17345],[10.15872,47.1735],[10.1587,47.17374],[10.15882,47.17378],[10.15954,47.17312],[10.15979,47.17253],[10.16032,47.17259],[10.16054,47.17228],[10.16135,47.17172],[10.16189,47.17167],[10.16238,47.1718],[10.16189,47.17173],[10.16084,47.17225],[10.16046,47.1728],[10.16046,47.17291],[10.16156,47.17317],[10.16199,47.17345],[10.16048,47.17304],[10.16044,47.17425],[10.16056,47.17439],[10.16169,47.17449],[10.16121,47.17463],[10.16105,47.17479],[10.16108,47.17492],[10.16179,47.17544],[10.16205,47.1752],[10.16173,47.17586],[10.16169,47.17554],[10.16067,47.17487],[10.15997,47.17553],[10.15983,47.17574],[10.15994,47.17638],[10.15984,47.177],[10.15954,47.17808],[10.15855,47.17856],[10.15827,47.17849],[10.15868,47.1778],[10.15859,47.17729],[10.15804,47.17677],[10.15755,47.17666],[10.15685,47.17725],[10.15625,47.17798],[10.15496,47.17839],[10.15413,47.17912],[10.15374,47.17924],[10.15286,47.17986],[10.15132,47.18056],[10.14854,47.1814],[10.14719,47.18137],[10.1463,47.18119],[10.14574,47.18076],[10.14539,47.1803],[10.14536,47.18009],[10.14554,47.17987],[10.1452,47.17961],[10.14325,47.17986],[10.14197,47.17976],[10.14117,47.17949],[10.14094,47.17905],[10.14156,47.17886],[10.14166,47.17873],[10.1416,47.17847],[10.14066,47.17795],[10.14004,47.17703],[10.14016,47.17682],[10.13999,47.1764],[10.14069,47.17582],[10.14025,47.17527],[10.14029,47.1747],[10.14011,47.17444],[10.13978,47.17433],[10.13901,47.17445]],[[10.15947,47.17235],[10.15959,47.1718],[10.15974,47.17178],[10.15984,47.17239],[10.15973,47.17237],[10.15967,47.17188],[10.15947,47.17235]],[[10.18151,47.16632],[10.18119,47.16656],[10.18075,47.16734],[10.18073,47.16859],[10.18025,47.16907],[10.17921,47.16876],[10.17745,47.16695],[10.17739,47.16676],[10.17765,47.16645],[10.17765,47.16596],[10.17803,47.16623],[10.17855,47.16612],[10.1786,47.16596],[10.17841,47.16562],[10.1785,47.16537],[10.17989,47.16517],[10.18037,47.16527],[10.18144,47.16578],[10.18151,47.16632]],[[10.16698,47.17078],[10.16716,47.17075],[10.16664,47.17124],[10.1665,47.17194],[10.16562,47.17198],[10.16623,47.1712],[10.16664,47.17084],[10.16698,47.17078]],[[10.16823,47.1767],[10.16852,47.17562],[10.16859,47.17594],[10.16842,47.17647],[10.16845,47.17688],[10.16823,47.1767]],[[10.16777,47.16797],[10.16809,47.16791],[10.16901,47.16856],[10.16777,47.16797]],[[10.16528,47.16756],[10.16534,47.16734],[10.16904,47.16913],[10.16932,47.16933],[10.16928,47.16963],[10.16891,47.16998],[10.168,47.17015],[10.16774,47.16925],[10.1672,47.16861],[10.16557,47.16835],[10.16529,47.16796],[10.16528,47.16756]],[[10.13386,47.16623],[10.13245,47.16634],[10.13234,47.16626],[10.13234,47.16588],[10.13283,47.16509],[10.13316,47.16488],[10.13357,47.16523],[10.13363,47.16581],[10.13386,47.16623]],[[10.1409,47.17409],[10.14201,47.17394],[10.14244,47.1741],[10.14243,47.17476],[10.14201,47.17483],[10.1418,47.17452],[10.1409,47.17409]],[[10.14024,47.17702],[10.14006,47.17639],[10.14069,47.17596],[10.14076,47.17576],[10.14034,47.1753],[10.14038,47.17485],[10.14019,47.17442],[10.13975,47.17428],[10.13907,47.17441],[10.13856,47.17399],[10.13901,47.17366],[10.14057,47.1741],[10.14186,47.17479],[10.14228,47.1755],[10.14218,47.17594],[10.14188,47.17635],[10.14163,47.17641],[10.14107,47.17589],[10.14096,47.17597],[10.14109,47.17602],[10.14115,47.17639],[10.14163,47.17657],[10.14149,47.17684]],[[10.14149,47.17684],[10.14169,47.17714],[10.14086,47.17741],[10.14073,47.17766],[10.14082,47.17796],[10.1406,47.17777],[10.14024,47.17702]],[[10.1559,47.17579],[10.15322,47.17716],[10.15215,47.17752],[10.14966,47.17793],[10.14809,47.17789],[10.14425,47.17808],[10.14276,47.17857],[10.14182,47.17855],[10.14169,47.1789],[10.14123,47.17918],[10.14172,47.17955],[10.14241,47.17973],[10.14352,47.17972],[10.14528,47.17945],[10.14567,47.17984],[10.14558,47.18017],[10.14633,47.18099],[10.14719,47.18123],[10.14849,47.18127],[10.15227,47.18008],[10.15301,47.17971],[10.15351,47.17928],[10.15412,47.17905],[10.15522,47.17812],[10.15628,47.1778],[10.1566,47.17731],[10.15744,47.17657],[10.1559,47.17579]]]}},{"type":"Feature","properties":{"kind":"piste","difficulty":"advanced","name":null,"aerialway":null,"osm":"relation/19099248"},"geometry":{"type":"MultiLineString","coordinates":[[[10.1478,47.17452],[10.14997,47.17409],[10.15148,47.17336],[10.15185,47.17341],[10.15266,47.17385],[10.15316,47.17389],[10.15418,47.17384],[10.15589,47.17354],[10.15793,47.17365],[10.15817,47.1734],[10.15699,47.17343],[10.15559,47.17329],[10.15452,47.17359],[10.1533,47.17364],[10.1515,47.17322],[10.14927,47.17398],[10.14756,47.17411],[10.1478,47.17452]],[[10.18068,47.15372],[10.1808,47.15401],[10.1803,47.15501],[10.17909,47.1563],[10.17761,47.1574],[10.17514,47.15847],[10.1742,47.15948],[10.17421,47.15904],[10.17492,47.15831],[10.17679,47.15755],[10.17881,47.15617],[10.18024,47.1543],[10.1803,47.15406],[10.18018,47.15383],[10.18068,47.15372]]]}},{"type":"Feature","properties":{"kind":"lift","difficulty":null,"name":"Übungshangbahn","aerialway":"chair_lift","osm":"way/23102660"},"geometry":{"type":"LineString","coordinates":[[10.16482,47.16822],[10.16925,47.16937]]}},{"type":"Feature","properties":{"kind":"lift","difficulty":null,"name":"Hexenboden","aerialway":"chair_lift","osm":"way/29494017"},"geometry":{"type":"LineString","coordinates":[[10.16302,47.17267],[10.18244,47.17019]]}},{"type":"Feature","properties":{"kind":"lift","difficulty":null,"name":"Trittalpbahn","aerialway":"chair_lift","osm":"way/29494018"},"geometry":{"type":"LineString","coordinates":[[10.17262,47.17815],[10.17969,47.17208]]}},{"type":"Feature","properties":{"kind":"lift","difficulty":null,"name":"Muggengratbahn","aerialway":"chair_lift","osm":"way/29494019"},"geometry":{"type":"LineString","coordinates":[[10.13809,47.1737],[10.13601,47.16543]]}},{"type":"Feature","properties":{"kind":"lift","difficulty":null,"name":"Schafalplift","aerialway":"platter","osm":"way/29494020"},"geometry":{"type":"LineString","coordinates":[[10.15726,47.203],[10.16228,47.20802]]}},{"type":"Feature","properties":{"kind":"lift","difficulty":null,"name":"Schüttbodenlift","aerialway":"t-bar","osm":"way/53634281"},"geometry":{"type":"LineString","coordinates":[[10.16393,47.18743],[10.17046,47.19004]]}},{"type":"Feature","properties":{"kind":"lift","difficulty":null,"name":"Walchlift","aerialway":"t-bar","osm":"way/100874744"},"geometry":{"type":"LineString","coordinates":[[10.1587,47.14006],[10.15832,47.14403]]}},{"type":"Feature","properties":{"kind":"lift","difficulty":null,"name":"Angerlift","aerialway":"platter","osm":"way/110299703"},"geometry":{"type":"LineString","coordinates":[[10.15775,47.13978],[10.15772,47.14137]]}},{"type":"Feature","properties":{"kind":"lift","difficulty":null,"name":null,"aerialway":"magic_carpet","osm":"way/122886697"},"geometry":{"type":"LineString","coordinates":[[10.16618,47.16605],[10.16701,47.16556]]}},{"type":"Feature","properties":{"kind":"lift","difficulty":null,"name":null,"aerialway":"magic_carpet","osm":"way/122886698"},"geometry":{"type":"LineString","coordinates":[[10.16558,47.16669],[10.16626,47.16612]]}},{"type":"Feature","properties":{"kind":"lift","difficulty":null,"name":null,"aerialway":"magic_carpet","osm":"way/148855663"},"geometry":{"type":"LineString","coordinates":[[10.16348,47.17203],[10.16238,47.17181]]}},{"type":"Feature","properties":{"kind":"lift","difficulty":null,"name":"Seekopfbahn","aerialway":"chair_lift","osm":"way/149824162"},"geometry":{"type":"LineString","coordinates":[[10.16154,47.17601],[10.14266,47.1754]]}},{"type":"Feature","properties":{"kind":"lift","difficulty":null,"name":"Zürsersee","aerialway":"chair_lift","osm":"way/149824163"},"geometry":{"type":"LineString","coordinates":[[10.16188,47.17135],[10.14299,47.17486]]}},{"type":"Feature","properties":{"kind":"lift","difficulty":null,"name":"Babylift","aerialway":"platter","osm":"way/338661671"},"geometry":{"type":"LineString","coordinates":[[10.16546,47.16695],[10.1688,47.16762]]}},{"type":"Feature","properties":{"kind":"lift","difficulty":null,"name":"Flexenbahn","aerialway":"gondola","osm":"way/457900532"},"geometry":{"type":"LineString","coordinates":[[10.18017,47.13857],[10.17972,47.1536]]}},{"type":"Feature","properties":{"kind":"lift","difficulty":null,"name":"Trittkopfbahn II","aerialway":"gondola","osm":"way/458106192"},"geometry":{"type":"LineString","coordinates":[[10.17986,47.1539],[10.18494,47.16179]]}},{"type":"Feature","properties":{"kind":"lift","difficulty":null,"name":"Trittkopfbahn I","aerialway":"gondola","osm":"way/458106193"},"geometry":{"type":"LineString","coordinates":[[10.16456,47.1681],[10.17949,47.1539],[10.17986,47.1539]]}},{"type":"Feature","properties":{"kind":"lift","difficulty":null,"name":null,"aerialway":"magic_carpet","osm":"way/1383788366"},"geometry":{"type":"LineString","coordinates":[[10.16238,47.1718],[10.16348,47.17202]]}},{"type":"Feature","properties":{"kind":"lift","difficulty":null,"name":null,"aerialway":"magic_carpet","osm":"way/1476637265"},"geometry":{"type":"LineString","coordinates":[[10.16552,47.1664],[10.16543,47.16657]]}}]}