{"type":"FeatureCollection","features":[{"type":"Feature","properties":{"kind":"lift","difficulty":null,"name":"Kuglerlift","aerialway":"t-bar","osm":"way/30047136"},"geometry":{"type":"LineString","coordinates":[[14.63621,48.56136],[14.62425,48.55931]]}},{"type":"Feature","properties":{"kind":"piste","difficulty":"easy","name":"Stierberg","aerialway":null,"osm":"way/252433266"},"geometry":{"type":"LineString","coordinates":[[14.62462,48.55975],[14.62782,48.56053],[14.63142,48.56121],[14.63355,48.56189],[14.6342,48.56195],[14.6356,48.56164]]}},{"type":"Feature","properties":{"kind":"piste","difficulty":"easy","name":"Kalbling","aerialway":null,"osm":"way/252433268"},"geometry":{"type":"LineString","coordinates":[[14.62467,48.55947],[14.62637,48.55928],[14.62907,48.55977],[14.63268,48.55996],[14.63451,48.56083],[14.6355,48.56116],[14.6364,48.5613],[14.6364,48.56139]]}},{"type":"Feature","properties":{"kind":"piste","difficulty":"easy","name":"Kuhspitz","aerialway":null,"osm":"way/252433270"},"geometry":{"type":"LineString","coordinates":[[14.62479,48.55954],[14.62954,48.56032],[14.63373,48.56128],[14.63468,48.56163],[14.6356,48.56164],[14.6364,48.56139]]}},{"type":"Feature","properties":{"kind":"lift","difficulty":null,"name":"Elektrolift","aerialway":"t-bar","osm":"way/776513373"},"geometry":{"type":"LineString","coordinates":[[14.63422,48.56281],[14.62346,48.55954]]}}]}