{"type":"FeatureCollection","features":[{"type":"Feature","properties":{"kind":"piste","difficulty":"easy","name":null,"aerialway":null,"osm":"way/23309379"},"geometry":{"type":"LineString","coordinates":[[11.81465,47.17584],[11.81496,47.17628],[11.81574,47.17673]]}},{"type":"Feature","properties":{"kind":"piste","difficulty":"intermediate","name":"Verbindung Eggalm","aerialway":null,"osm":"way/29165286"},"geometry":{"type":"LineString","coordinates":[[11.73189,47.17809],[11.73234,47.17753],[11.7324,47.17706],[11.73184,47.17695],[11.7314,47.17705]]}},{"type":"Feature","properties":{"kind":"piste","difficulty":"intermediate","name":null,"aerialway":null,"osm":"way/29165287"},"geometry":{"type":"LineString","coordinates":[[11.70361,47.16381],[11.70349,47.16363],[11.70363,47.16358],[11.70604,47.16439],[11.70746,47.16449],[11.70927,47.16355],[11.70999,47.16341],[11.71016,47.16453],[11.71061,47.16507],[11.71161,47.16574],[11.71203,47.16624],[11.71258,47.16654],[11.71291,47.16702],[11.71206,47.16773],[11.71234,47.16806],[11.71238,47.1689]]}},{"type":"Feature","properties":{"kind":"piste","difficulty":"intermediate","name":null,"aerialway":null,"osm":"way/29190904"},"geometry":{"type":"LineString","coordinates":[[11.76387,47.19367],[11.76404,47.19378],[11.76434,47.19371],[11.76448,47.19333],[11.76326,47.19089],[11.76269,47.1889],[11.76237,47.18861],[11.76136,47.18848],[11.75982,47.18853]]}},{"type":"Feature","properties":{"kind":"piste","difficulty":"intermediate","name":"Rastkogel Panoramaabfahrt","aerialway":null,"osm":"way/29190908"},"geometry":{"type":"LineString","coordinates":[[11.7701,47.18549],[11.77101,47.18508],[11.77198,47.18489]]}},{"type":"Feature","properties":{"kind":"piste","difficulty":"advanced","name":"Rastkogel Gspielkopfabfahrt","aerialway":null,"osm":"way/29190909"},"geometry":{"type":"LineString","coordinates":[[11.78797,47.17416],[11.78838,47.17405],[11.78904,47.17422],[11.78998,47.17387],[11.79248,47.17501],[11.79436,47.17616],[11.79511,47.17713],[11.79584,47.17761],[11.79729,47.17792]]}},{"type":"Feature","properties":{"kind":"piste","difficulty":"easy","name":null,"aerialway":null,"osm":"way/29190910"},"geometry":{"type":"LineString","coordinates":[[11.75888,47.18643],[11.75735,47.18671],[11.75358,47.18542],[11.74954,47.1847],[11.74899,47.18446],[11.74771,47.18344],[11.74691,47.18306],[11.7459,47.18286],[11.74466,47.18285],[11.74287,47.1822],[11.7414,47.18222],[11.73891,47.18254],[11.73781,47.18219],[11.73733,47.1814]]}},{"type":"Feature","properties":{"kind":"piste","difficulty":"easy","name":null,"aerialway":null,"osm":"way/29190911"},"geometry":{"type":"LineString","coordinates":[[11.7701,47.18549],[11.76976,47.18713],[11.76173,47.18625]]}},{"type":"Feature","properties":{"kind":"piste","difficulty":"easy","name":null,"aerialway":null,"osm":"way/29190912"},"geometry":{"type":"LineString","coordinates":[[11.74899,47.18446],[11.74908,47.18178],[11.74869,47.18158]]}},{"type":"Feature","properties":{"kind":"piste","difficulty":"easy","name":null,"aerialway":null,"osm":"way/29190913"},"geometry":{"type":"LineString","coordinates":[[11.74557,47.18321],[11.74594,47.18314],[11.74609,47.18292]]}},{"type":"Feature","properties":{"kind":"piste","difficulty":"easy","name":null,"aerialway":null,"osm":"way/29190914"},"geometry":{"type":"LineString","coordinates":[[11.74557,47.18321],[11.74466,47.18285]]}},{"type":"Feature","properties":{"kind":"piste","difficulty":"easy","name":null,"aerialway":null,"osm":"way/29190916"},"geometry":{"type":"LineString","coordinates":[[11.80027,47.18256],[11.79997,47.18252],[11.79979,47.18233],[11.80003,47.18141]]}},{"type":"Feature","properties":{"kind":"piste","difficulty":"intermediate","name":null,"aerialway":null,"osm":"way/29190917"},"geometry":{"type":"LineString","coordinates":[[11.79182,47.19118],[11.79222,47.19067],[11.79311,47.19053],[11.79411,47.19096],[11.7949,47.19105],[11.79596,47.19069],[11.79743,47.19051],[11.79923,47.19071],[11.80055,47.19119],[11.80195,47.19131],[11.80255,47.19107],[11.80295,47.1907],[11.80722,47.19164],[11.80981,47.19245],[11.813,47.19245],[11.81387,47.19224],[11.81451,47.19192],[11.81471,47.19174],[11.81479,47.19141]]}},{"type":"Feature","properties":{"kind":"piste","difficulty":"intermediate","name":null,"aerialway":null,"osm":"way/29190918"},"geometry":{"type":"LineString","coordinates":[[11.79154,47.19131],[11.79182,47.19118],[11.7923,47.19156],[11.79206,47.19189],[11.79169,47.19197],[11.79133,47.19249],[11.79063,47.19291],[11.79035,47.19339],[11.79093,47.19464],[11.79309,47.19565],[11.79437,47.19587],[11.79686,47.19582],[11.79806,47.19556],[11.79974,47.19576],[11.80006,47.19601],[11.80002,47.1961]]}},{"type":"Feature","properties":{"kind":"piste","difficulty":"intermediate","name":null,"aerialway":null,"osm":"way/29190919"},"geometry":{"type":"LineString","coordinates":[[11.79806,47.19556],[11.79942,47.19639],[11.79979,47.19638],[11.80002,47.1961],[11.7999,47.19603]]}},{"type":"Feature","properties":{"kind":"piste","difficulty":"intermediate","name":null,"aerialway":null,"osm":"way/29190920"},"geometry":{"type":"LineString","coordinates":[[11.80255,47.19107],[11.80292,47.1913],[11.80915,47.19245],[11.80981,47.19245],[11.81034,47.19299],[11.81033,47.19242]]}},{"type":"Feature","properties":{"kind":"piste","difficulty":"easy","name":null,"aerialway":null,"osm":"way/29190921"},"geometry":{"type":"LineString","coordinates":[[11.81021,47.18827],[11.80927,47.18762],[11.80887,47.18678],[11.80843,47.18642],[11.80757,47.18603],[11.80727,47.18561],[11.80671,47.18539],[11.8068,47.18504],[11.80423,47.18303],[11.80491,47.18199]]}},{"type":"Feature","properties":{"kind":"piste","difficulty":"advanced","name":null,"aerialway":null,"osm":"way/29190922"},"geometry":{"type":"LineString","coordinates":[[11.79436,47.19011],[11.8055,47.18532],[11.80599,47.185],[11.80658,47.18368],[11.80742,47.18295]]}},{"type":"Feature","properties":{"kind":"piste","difficulty":"advanced","name":null,"aerialway":null,"osm":"way/29191124"},"geometry":{"type":"LineString","coordinates":[[11.80976,47.17514],[11.8087,47.17539],[11.80799,47.17615],[11.80554,47.17721],[11.80445,47.17886]]}},{"type":"Feature","properties":{"kind":"piste","difficulty":"intermediate","name":null,"aerialway":null,"osm":"way/29191127"},"geometry":{"type":"LineString","coordinates":[[11.8004,47.16869],[11.80097,47.16835],[11.80152,47.16831],[11.80175,47.16815],[11.80202,47.16709]]}},{"type":"Feature","properties":{"kind":"piste","difficulty":"intermediate","name":null,"aerialway":null,"osm":"way/29191128"},"geometry":{"type":"LineString","coordinates":[[11.80743,47.17141],[11.81042,47.17177]]}},{"type":"Feature","properties":{"kind":"piste","difficulty":"advanced","name":"Harakiri","aerialway":null,"osm":"way/29191263"},"geometry":{"type":"LineString","coordinates":[[11.80743,47.17141],[11.80791,47.17166],[11.80785,47.17193],[11.80577,47.17221],[11.80525,47.17248],[11.80471,47.17383],[11.80408,47.17427],[11.80383,47.17473],[11.80199,47.17628],[11.80007,47.17879]]}},{"type":"Feature","properties":{"kind":"piste","difficulty":"intermediate","name":null,"aerialway":null,"osm":"way/29191306"},"geometry":{"type":"LineString","coordinates":[[11.79914,47.16944],[11.79952,47.16942],[11.79957,47.1696],[11.79934,47.16996],[11.7989,47.17022],[11.79716,47.17072],[11.79661,47.17105],[11.79605,47.17184],[11.7951,47.17276],[11.79539,47.17287],[11.79678,47.17272],[11.79709,47.17299],[11.79746,47.17363],[11.79901,47.17426],[11.79924,47.17455],[11.79933,47.17527],[11.79886,47.1774],[11.79843,47.17853]]}},{"type":"Feature","properties":{"kind":"piste","difficulty":"intermediate","name":null,"aerialway":null,"osm":"way/29191307"},"geometry":{"type":"LineString","coordinates":[[11.79585,47.1743],[11.79602,47.17504],[11.79647,47.17571],[11.79669,47.17752],[11.79729,47.17792]]}},{"type":"Feature","properties":{"kind":"piste","difficulty":"easy","name":null,"aerialway":null,"osm":"way/30291247"},"geometry":{"type":"LineString","coordinates":[[11.80156,47.16717],[11.8015,47.16691],[11.8008,47.16677],[11.79968,47.16699],[11.79859,47.16757],[11.79881,47.16711],[11.79961,47.16633],[11.80059,47.16582],[11.80151,47.1656],[11.80142,47.16553],[11.7997,47.16565],[11.79846,47.166],[11.79715,47.16664],[11.79697,47.16662],[11.79769,47.16564],[11.79867,47.16476],[11.80027,47.1642],[11.80123,47.16409]]}},{"type":"Feature","properties":{"kind":"piste","difficulty":"intermediate","name":null,"aerialway":null,"osm":"way/30293123"},"geometry":{"type":"LineString","coordinates":[[11.8093,47.16353],[11.80896,47.16314],[11.80788,47.16258]]}},{"type":"Feature","properties":{"kind":"piste","difficulty":"easy","name":null,"aerialway":null,"osm":"way/31776902"},"geometry":{"type":"LineString","coordinates":[[11.8145,47.17378],[11.8147,47.17451],[11.8152,47.17493],[11.81508,47.17528],[11.8148,47.17532]]}},{"type":"Feature","properties":{"kind":"piste","difficulty":"easy","name":null,"aerialway":null,"osm":"way/31777086"},"geometry":{"type":"LineString","coordinates":[[11.79979,47.18233],[11.80055,47.18203],[11.8034,47.18139],[11.8064,47.18246],[11.80742,47.18295],[11.80857,47.18316],[11.80848,47.18347],[11.80835,47.18346]]}},{"type":"Feature","properties":{"kind":"piste","difficulty":"easy","name":null,"aerialway":null,"osm":"way/31837939"},"geometry":{"type":"LineString","coordinates":[[11.79933,47.16939],[11.79935,47.16925],[11.79886,47.16886],[11.79819,47.16907],[11.79823,47.16883],[11.79924,47.16829],[11.79994,47.16767],[11.80156,47.16717]]}},{"type":"Feature","properties":{"kind":"piste","difficulty":"intermediate","name":null,"aerialway":null,"osm":"way/31839519"},"geometry":{"type":"LineString","coordinates":[[11.81045,47.17654],[11.81145,47.17888]]}},{"type":"Feature","properties":{"kind":"piste","difficulty":"intermediate","name":null,"aerialway":null,"osm":"way/31839907"},"geometry":{"type":"LineString","coordinates":[[11.81496,47.17628],[11.815,47.17674],[11.81555,47.1774],[11.81336,47.17765],[11.81057,47.17954],[11.80946,47.17984],[11.80902,47.18026],[11.80867,47.18075],[11.80862,47.18136],[11.80922,47.18225],[11.80888,47.18256],[11.80857,47.18316]]}},{"type":"Feature","properties":{"kind":"piste","difficulty":"easy","name":null,"aerialway":null,"osm":"way/31892249"},"geometry":{"type":"LineString","coordinates":[[11.79224,47.1912],[11.79182,47.19118],[11.7909,47.19086],[11.79306,47.18999],[11.79417,47.19006],[11.79522,47.19049],[11.79547,47.19018],[11.79518,47.18943],[11.79647,47.18996],[11.79845,47.19042],[11.79864,47.19028],[11.79819,47.19003],[11.79769,47.18951],[11.79733,47.18949],[11.79723,47.18923],[11.79764,47.18908],[11.7982,47.18952],[11.80023,47.18999],[11.80224,47.19005],[11.80284,47.19036],[11.8041,47.19064],[11.80574,47.19095],[11.80673,47.19095],[11.81033,47.19242],[11.8107,47.19267],[11.81171,47.19299],[11.8121,47.19329],[11.81222,47.19361],[11.81222,47.19401],[11.81205,47.19428]]}},{"type":"Feature","properties":{"kind":"piste","difficulty":"advanced","name":null,"aerialway":null,"osm":"way/31892794"},"geometry":{"type":"LineString","coordinates":[[11.74624,47.18801],[11.74624,47.18783],[11.74514,47.18708],[11.74496,47.18653],[11.74512,47.18577],[11.74505,47.1851]]}},{"type":"Feature","properties":{"kind":"piste","difficulty":"easy","name":null,"aerialway":null,"osm":"way/31892795"},"geometry":{"type":"LineString","coordinates":[[11.76173,47.18625],[11.76033,47.18552],[11.75797,47.1851]]}},{"type":"Feature","properties":{"kind":"piste","difficulty":"easy","name":null,"aerialway":null,"osm":"way/32075980"},"geometry":{"type":"LineString","coordinates":[[11.80003,47.18141],[11.80002,47.18057],[11.79982,47.17975],[11.7996,47.17938],[11.79963,47.17897],[11.79921,47.17896]]}},{"type":"Feature","properties":{"kind":"piste","difficulty":"intermediate","name":null,"aerialway":null,"osm":"way/32076001"},"geometry":{"type":"LineString","coordinates":[[11.81175,47.17237],[11.81176,47.17387],[11.81155,47.17414],[11.81087,47.17445],[11.81015,47.17453],[11.80979,47.17487],[11.80993,47.17561]]}},{"type":"Feature","properties":{"kind":"piste","difficulty":"easy","name":null,"aerialway":null,"osm":"way/32076298"},"geometry":{"type":"LineString","coordinates":[[11.74599,47.18786],[11.74624,47.18801],[11.74821,47.18833],[11.74896,47.18836],[11.74925,47.18827],[11.74944,47.18802],[11.74947,47.18702],[11.74901,47.18507],[11.74868,47.18422]]}},{"type":"Feature","properties":{"kind":"piste","difficulty":"intermediate","name":null,"aerialway":null,"osm":"way/32076301"},"geometry":{"type":"LineString","coordinates":[[11.75982,47.18853],[11.75881,47.18861],[11.75823,47.18849],[11.75663,47.18737],[11.75565,47.18632],[11.7541,47.18559]]}},{"type":"Feature","properties":{"kind":"piste","difficulty":"easy","name":null,"aerialway":null,"osm":"way/32549632"},"geometry":{"type":"LineString","coordinates":[[11.74903,47.18315],[11.75069,47.18207],[11.75168,47.18164]]}},{"type":"Feature","properties":{"kind":"piste","difficulty":"intermediate","name":null,"aerialway":null,"osm":"way/32549796"},"geometry":{"type":"LineString","coordinates":[[11.76448,47.19333],[11.76426,47.19314],[11.76384,47.19312],[11.76048,47.19331],[11.75962,47.19267],[11.75914,47.19223],[11.75869,47.19139],[11.75823,47.18982],[11.75737,47.18787]]}},{"type":"Feature","properties":{"kind":"piste","difficulty":"easy","name":null,"aerialway":null,"osm":"way/32549962"},"geometry":{"type":"LineString","coordinates":[[11.82707,47.17516],[11.82835,47.17503],[11.82866,47.17346],[11.82787,47.17272],[11.82742,47.17259]]}},{"type":"Feature","properties":{"kind":"piste","difficulty":"intermediate","name":null,"aerialway":null,"osm":"way/48144041"},"geometry":{"type":"LineString","coordinates":[[11.71268,47.16964],[11.7125,47.16995],[11.71195,47.17036],[11.71195,47.17061],[11.71232,47.17078],[11.71406,47.17084]]}},{"type":"Feature","properties":{"kind":"piste","difficulty":"easy","name":null,"aerialway":null,"osm":"way/48144042"},"geometry":{"type":"LineString","coordinates":[[11.71024,47.16327],[11.70999,47.16341],[11.71271,47.16385],[11.71487,47.16478],[11.71773,47.1652],[11.71981,47.16523],[11.72327,47.16503],[11.7239,47.16568],[11.72383,47.16582]]}},{"type":"Feature","properties":{"kind":"piste","difficulty":"intermediate","name":null,"aerialway":null,"osm":"way/48144043"},"geometry":{"type":"LineString","coordinates":[[11.71238,47.1689],[11.71268,47.16964],[11.71333,47.17033],[11.7146,47.17108],[11.71718,47.17107],[11.71785,47.17117],[11.71851,47.17147],[11.71904,47.1715],[11.72059,47.17138],[11.72098,47.17152],[11.72169,47.17237],[11.72226,47.17275]]}},{"type":"Feature","properties":{"kind":"piste","difficulty":"intermediate","name":null,"aerialway":null,"osm":"way/48144044"},"geometry":{"type":"LineString","coordinates":[[11.74949,47.18769],[11.74505,47.1851]]}},{"type":"Feature","properties":{"kind":"piste","difficulty":"easy","name":null,"aerialway":null,"osm":"way/48144045"},"geometry":{"type":"LineString","coordinates":[[11.79979,47.18233],[11.79857,47.18156],[11.79734,47.18034],[11.79742,47.17929],[11.79694,47.17894],[11.79622,47.17869],[11.79563,47.17884]]}},{"type":"Feature","properties":{"kind":"piste","difficulty":"advanced","name":"Ahorn Talabfahrt","aerialway":null,"osm":"way/51519932"},"geometry":{"type":"LineString","coordinates":[[11.85328,47.14284],[11.85323,47.14303],[11.853,47.14313],[11.85231,47.14318],[11.85185,47.14336],[11.85181,47.14357],[11.85418,47.14523],[11.85678,47.1464],[11.85784,47.14629],[11.85953,47.14662],[11.85937,47.14737],[11.85952,47.1481],[11.85848,47.14873],[11.85676,47.14894],[11.85705,47.14949],[11.85894,47.15038],[11.85906,47.15093],[11.85943,47.15141],[11.86087,47.1514],[11.86116,47.15192],[11.86175,47.15219],[11.86235,47.15209],[11.8628,47.15169],[11.86311,47.15171],[11.86407,47.15244],[11.86447,47.15254],[11.86451,47.15265],[11.86373,47.15282],[11.86415,47.1531],[11.86491,47.15334],[11.86433,47.15568],[11.86373,47.15564],[11.86317,47.15635],[11.86143,47.15684],[11.86034,47.15736],[11.85932,47.15759],[11.85925,47.15803],[11.85961,47.15919],[11.85998,47.15989],[11.86026,47.15995]]}},{"type":"Feature","properties":{"kind":"piste","difficulty":"easy","name":null,"aerialway":null,"osm":"way/68248206"},"geometry":{"type":"LineString","coordinates":[[11.74284,47.16394],[11.74279,47.16385]]}},{"type":"Feature","properties":{"kind":"piste","difficulty":"intermediate","name":null,"aerialway":null,"osm":"way/68252489"},"geometry":{"type":"LineString","coordinates":[[11.7267,47.17396],[11.72734,47.17326],[11.7278,47.17231],[11.72847,47.17206],[11.72857,47.17198],[11.72849,47.1719],[11.7274,47.1719],[11.72552,47.17238],[11.7245,47.1731],[11.72414,47.17309],[11.72366,47.17282]]}},{"type":"Feature","properties":{"kind":"piste","difficulty":"intermediate","name":"Verbindung Eggalm","aerialway":null,"osm":"way/68252541"},"geometry":{"type":"LineString","coordinates":[[11.7314,47.17705],[11.73058,47.17737],[11.73075,47.17597],[11.73101,47.17552],[11.73141,47.17518],[11.73246,47.17453],[11.7335,47.17415],[11.7354,47.17426],[11.73595,47.17447],[11.73659,47.17435],[11.73556,47.17355],[11.73531,47.17319],[11.73465,47.17323],[11.73415,47.17302],[11.73418,47.17292],[11.73466,47.17288],[11.73417,47.17253],[11.73403,47.17218],[11.73106,47.17258],[11.72929,47.17364],[11.72788,47.17379],[11.72725,47.17402],[11.72656,47.1745],[11.72643,47.17444],[11.7267,47.17396]]}},{"type":"Feature","properties":{"kind":"piste","difficulty":"easy","name":"Zauberwald","aerialway":null,"osm":"way/68260292"},"geometry":{"type":"LineString","coordinates":[[11.75031,47.18093],[11.74992,47.1803],[11.74962,47.18012],[11.7471,47.17976],[11.74608,47.17977],[11.74605,47.17966],[11.74716,47.17927],[11.74694,47.17917],[11.74516,47.17913],[11.74412,47.17941],[11.74234,47.17957],[11.74088,47.17947],[11.73974,47.17955],[11.73741,47.17925]]}},{"type":"Feature","properties":{"kind":"piste","difficulty":"easy","name":null,"aerialway":null,"osm":"way/68280577"},"geometry":{"type":"LineString","coordinates":[[11.74267,47.16384],[11.74273,47.16399]]}},{"type":"Feature","properties":{"kind":"piste","difficulty":"easy","name":null,"aerialway":null,"osm":"way/68280585"},"geometry":{"type":"LineString","coordinates":[[11.74273,47.16399],[11.74286,47.16398]]}},{"type":"Feature","properties":{"kind":"piste","difficulty":"easy","name":null,"aerialway":null,"osm":"way/68281650"},"geometry":{"type":"LineString","coordinates":[[11.71198,47.16271],[11.71298,47.16304],[11.71319,47.16327],[11.71353,47.16412],[11.71409,47.16445],[11.71524,47.16428],[11.71531,47.164],[11.71509,47.16338]]}},{"type":"Feature","properties":{"kind":"piste","difficulty":"easy","name":null,"aerialway":null,"osm":"way/68282091"},"geometry":{"type":"LineString","coordinates":[[11.70947,47.16326],[11.70892,47.16257],[11.70877,47.16219],[11.70892,47.16212],[11.71198,47.16271]]}},{"type":"Feature","properties":{"kind":"piste","difficulty":"intermediate","name":null,"aerialway":null,"osm":"way/93658771"},"geometry":{"type":"LineString","coordinates":[[11.72364,47.16533],[11.72584,47.16495],[11.72701,47.16428],[11.72864,47.16418],[11.73217,47.16526]]}},{"type":"Feature","properties":{"kind":"piste","difficulty":"easy","name":null,"aerialway":null,"osm":"way/93658773"},"geometry":{"type":"LineString","coordinates":[[11.7358,47.16311],[11.73533,47.16255],[11.73102,47.16026],[11.73041,47.16012],[11.72965,47.15959],[11.72761,47.1577],[11.72868,47.15718]]}},{"type":"Feature","properties":{"kind":"piste","difficulty":"easy","name":null,"aerialway":null,"osm":"way/97474360"},"geometry":{"type":"LineString","coordinates":[[11.71015,47.1623],[11.70881,47.16149],[11.70757,47.1599]]}},{"type":"Feature","properties":{"kind":"piste","difficulty":"easy","name":"Talabfahrt Lanersbach","aerialway":null,"osm":"way/97474361"},"geometry":{"type":"LineString","coordinates":[[11.72752,47.15762],[11.72609,47.15592]]}},{"type":"Feature","properties":{"kind":"piste","difficulty":"intermediate","name":null,"aerialway":null,"osm":"way/97474362"},"geometry":{"type":"LineString","coordinates":[[11.70812,47.16343],[11.70999,47.16341]]}},{"type":"Feature","properties":{"kind":"piste","difficulty":"intermediate","name":null,"aerialway":null,"osm":"way/97474363"},"geometry":{"type":"LineString","coordinates":[[11.70681,47.1645],[11.70743,47.16504],[11.70744,47.1654],[11.70716,47.16599],[11.70728,47.16702],[11.7069,47.16726],[11.70681,47.16759],[11.70706,47.16796],[11.70807,47.16853],[11.70872,47.1691],[11.71092,47.16867],[11.71238,47.16903]]}},{"type":"Feature","properties":{"kind":"piste","difficulty":"easy","name":null,"aerialway":null,"osm":"way/97474365"},"geometry":{"type":"LineString","coordinates":[[11.71271,47.16385],[11.71254,47.16307],[11.71266,47.16291]]}},{"type":"Feature","properties":{"kind":"piste","difficulty":"easy","name":"Eggalm Bärenroute","aerialway":null,"osm":"way/97474367"},"geometry":{"type":"LineString","coordinates":[[11.70999,47.16341],[11.70947,47.16326]]}},{"type":"Feature","properties":{"kind":"piste","difficulty":"easy","name":"Talabfahrt Lanersbach Zentrum","aerialway":null,"osm":"way/97474368"},"geometry":{"type":"LineString","coordinates":[[11.72761,47.1577],[11.72752,47.15762]]}},{"type":"Feature","properties":{"kind":"piste","difficulty":"easy","name":null,"aerialway":null,"osm":"way/97474370"},"geometry":{"type":"LineString","coordinates":[[11.71847,47.16408],[11.7184,47.16369],[11.71927,47.16427]]}},{"type":"Feature","properties":{"kind":"piste","difficulty":"easy","name":null,"aerialway":null,"osm":"way/97474371"},"geometry":{"type":"LineString","coordinates":[[11.72841,47.16596],[11.73093,47.16532],[11.73217,47.16526],[11.73251,47.16504],[11.73323,47.16396],[11.73558,47.16313],[11.73802,47.16274],[11.73865,47.16292]]}},{"type":"Feature","properties":{"kind":"piste","difficulty":"intermediate","name":"Verbindungsroute Lämmerbichl-Eggalm","aerialway":null,"osm":"way/97474372"},"geometry":{"type":"LineString","coordinates":[[11.7359,47.17378],[11.734,47.17302],[11.73354,47.17247],[11.73311,47.17232]]}},{"type":"Feature","properties":{"kind":"piste","difficulty":"easy","name":null,"aerialway":null,"osm":"way/97474374"},"geometry":{"type":"LineString","coordinates":[[11.74279,47.16376],[11.74301,47.16365]]}},{"type":"Feature","properties":{"kind":"piste","difficulty":"easy","name":null,"aerialway":null,"osm":"way/97474375"},"geometry":{"type":"LineString","coordinates":[[11.74279,47.16385],[11.74279,47.16376]]}},{"type":"Feature","properties":{"kind":"piste","difficulty":"easy","name":null,"aerialway":null,"osm":"way/97474376"},"geometry":{"type":"LineString","coordinates":[[11.72364,47.16533],[11.72334,47.16584],[11.72197,47.16675],[11.72172,47.16724],[11.7208,47.16751],[11.72065,47.16786],[11.72071,47.16822],[11.7209,47.16847],[11.72074,47.16896],[11.72043,47.1692],[11.72055,47.16956],[11.72018,47.16977],[11.72004,47.17018],[11.71954,47.17071],[11.71853,47.17125],[11.71851,47.17147]]}},{"type":"Feature","properties":{"kind":"piste","difficulty":"intermediate","name":null,"aerialway":null,"osm":"way/97474377"},"geometry":{"type":"LineString","coordinates":[[11.70137,47.16331],[11.70363,47.16358],[11.70368,47.16348],[11.7042,47.16347],[11.70605,47.16366],[11.70812,47.16343],[11.70687,47.16271],[11.70652,47.16182],[11.70749,47.16127],[11.70757,47.1599],[11.70793,47.15942],[11.70782,47.15915]]}},{"type":"Feature","properties":{"kind":"piste","difficulty":"easy","name":null,"aerialway":null,"osm":"way/97474378"},"geometry":{"type":"LineString","coordinates":[[11.71254,47.16266],[11.71198,47.16271]]}},{"type":"Feature","properties":{"kind":"piste","difficulty":"easy","name":null,"aerialway":null,"osm":"way/97474379"},"geometry":{"type":"LineString","coordinates":[[11.71839,47.17234],[11.71894,47.17222],[11.7195,47.17149],[11.72074,47.17095],[11.72149,47.17021],[11.72275,47.1697],[11.72349,47.16959],[11.72386,47.16889],[11.72443,47.1687],[11.72536,47.1679]]}},{"type":"Feature","properties":{"kind":"piste","difficulty":"intermediate","name":null,"aerialway":null,"osm":"way/97474380"},"geometry":{"type":"LineString","coordinates":[[11.71271,47.16385],[11.71311,47.16482],[11.71285,47.16519],[11.71305,47.16615]]}},{"type":"Feature","properties":{"kind":"piste","difficulty":"easy","name":null,"aerialway":null,"osm":"way/97474381"},"geometry":{"type":"LineString","coordinates":[[11.74555,47.18301],[11.74557,47.18321]]}},{"type":"Feature","properties":{"kind":"piste","difficulty":"intermediate","name":null,"aerialway":null,"osm":"way/97474382"},"geometry":{"type":"LineString","coordinates":[[11.70921,47.16908],[11.70967,47.16847],[11.7107,47.16774],[11.71148,47.16752],[11.71206,47.16773]]}},{"type":"Feature","properties":{"kind":"piste","difficulty":"easy","name":null,"aerialway":null,"osm":"way/97474390"},"geometry":{"type":"LineString","coordinates":[[11.71335,47.16136],[11.71449,47.16187],[11.71524,47.16237],[11.71649,47.16286],[11.71847,47.16408],[11.72014,47.16456],[11.72044,47.1648],[11.72145,47.16511]]}},{"type":"Feature","properties":{"kind":"piste","difficulty":"intermediate","name":null,"aerialway":null,"osm":"way/97609409"},"geometry":{"type":"LineString","coordinates":[[11.81465,47.17584],[11.81263,47.17567],[11.81068,47.17518],[11.80976,47.17514]]}},{"type":"Feature","properties":{"kind":"piste","difficulty":"intermediate","name":null,"aerialway":null,"osm":"way/97609410"},"geometry":{"type":"LineString","coordinates":[[11.75175,47.18509],[11.75136,47.18416],[11.75123,47.18252],[11.75168,47.18164]]}},{"type":"Feature","properties":{"kind":"piste","difficulty":"easy","name":null,"aerialway":null,"osm":"way/97609414"},"geometry":{"type":"LineString","coordinates":[[11.81547,47.17553],[11.81547,47.17539],[11.81508,47.17528]]}},{"type":"Feature","properties":{"kind":"piste","difficulty":"easy","name":null,"aerialway":null,"osm":"way/97609418"},"geometry":{"type":"LineString","coordinates":[[11.77513,47.18433],[11.77479,47.18449],[11.77407,47.18441]]}},{"type":"Feature","properties":{"kind":"piste","difficulty":"easy","name":null,"aerialway":null,"osm":"way/97609419"},"geometry":{"type":"LineString","coordinates":[[11.74891,47.18164],[11.74945,47.1816],[11.74989,47.18078],[11.7498,47.18053]]}},{"type":"Feature","properties":{"kind":"piste","difficulty":"intermediate","name":null,"aerialway":null,"osm":"way/97609421"},"geometry":{"type":"LineString","coordinates":[[11.80966,47.17727],[11.8085,47.17671],[11.80804,47.17664],[11.80504,47.17701],[11.8027,47.17682],[11.8004,47.17709],[11.79886,47.1774],[11.79938,47.17816],[11.79983,47.17829],[11.80007,47.17879]]}},{"type":"Feature","properties":{"kind":"piste","difficulty":"intermediate","name":null,"aerialway":null,"osm":"way/97609423"},"geometry":{"type":"LineString","coordinates":[[11.79729,47.17792],[11.79938,47.17816]]}},{"type":"Feature","properties":{"kind":"piste","difficulty":"intermediate","name":null,"aerialway":null,"osm":"way/97609426"},"geometry":{"type":"LineString","coordinates":[[11.79886,47.1774],[11.79729,47.17792],[11.79668,47.17834],[11.79587,47.17864]]}},{"type":"Feature","properties":{"kind":"piste","difficulty":"easy","name":"Rastkogel Weit offen","aerialway":null,"osm":"way/97609427"},"geometry":{"type":"LineString","coordinates":[[11.77198,47.18489],[11.77095,47.18538],[11.77002,47.18693],[11.76976,47.18713]]}},{"type":"Feature","properties":{"kind":"piste","difficulty":"intermediate","name":null,"aerialway":null,"osm":"way/97609432"},"geometry":{"type":"LineString","coordinates":[[11.76427,47.19385],[11.76441,47.19413],[11.76442,47.19462]]}},{"type":"Feature","properties":{"kind":"piste","difficulty":"intermediate","name":null,"aerialway":null,"osm":"way/97609436"},"geometry":{"type":"LineString","coordinates":[[11.80993,47.17561],[11.8085,47.17671]]}},{"type":"Feature","properties":{"kind":"piste","difficulty":"easy","name":null,"aerialway":null,"osm":"way/97609437"},"geometry":{"type":"LineString","coordinates":[[11.76434,47.19371],[11.76464,47.19336],[11.76476,47.19276],[11.76448,47.19232],[11.76446,47.19206],[11.76569,47.19072],[11.76671,47.19014],[11.76662,47.18993],[11.76584,47.18964],[11.76586,47.18953],[11.76673,47.18917],[11.76658,47.18877]]}},{"type":"Feature","properties":{"kind":"piste","difficulty":"easy","name":null,"aerialway":null,"osm":"way/97725119"},"geometry":{"type":"LineString","coordinates":[[11.81387,47.17413],[11.81379,47.17428],[11.8147,47.17421]]}},{"type":"Feature","properties":{"kind":"piste","difficulty":"intermediate","name":null,"aerialway":null,"osm":"way/97725122"},"geometry":{"type":"LineString","coordinates":[[11.81575,47.17596],[11.8158,47.17579],[11.81642,47.17558],[11.81679,47.17524],[11.81829,47.17525]]}},{"type":"Feature","properties":{"kind":"piste","difficulty":"easy","name":null,"aerialway":null,"osm":"way/97725123"},"geometry":{"type":"LineString","coordinates":[[11.82346,47.17686],[11.82149,47.17873],[11.82099,47.17893],[11.81965,47.18076],[11.81776,47.18159],[11.81695,47.18173],[11.81685,47.18184],[11.817,47.18193],[11.81829,47.18221],[11.81821,47.18239],[11.81701,47.18259],[11.80992,47.18201],[11.80922,47.18225],[11.80925,47.1827],[11.81,47.18315],[11.80996,47.18322],[11.80942,47.18336],[11.80857,47.18316]]}},{"type":"Feature","properties":{"kind":"piste","difficulty":"easy","name":null,"aerialway":null,"osm":"way/97725124"},"geometry":{"type":"LineString","coordinates":[[11.82864,47.17356],[11.82813,47.17351]]}},{"type":"Feature","properties":{"kind":"piste","difficulty":"easy","name":null,"aerialway":null,"osm":"way/97725126"},"geometry":{"type":"LineString","coordinates":[[11.81574,47.17673],[11.81585,47.1769],[11.81648,47.1772],[11.81731,47.17714],[11.81754,47.17638],[11.81784,47.17588],[11.81822,47.17564]]}},{"type":"Feature","properties":{"kind":"piste","difficulty":"easy","name":null,"aerialway":null,"osm":"way/97725129"},"geometry":{"type":"LineString","coordinates":[[11.81822,47.17564],[11.81904,47.17527],[11.81945,47.1755],[11.81945,47.17564],[11.81901,47.17575],[11.81876,47.17596],[11.81876,47.17669],[11.81911,47.17712]]}},{"type":"Feature","properties":{"kind":"piste","difficulty":"easy","name":"Hinteranger","aerialway":null,"osm":"way/98034599"},"geometry":{"type":"LineString","coordinates":[[11.7215,47.15235],[11.722,47.15229],[11.72385,47.15282],[11.72493,47.15348],[11.72482,47.15367]]}},{"type":"Feature","properties":{"kind":"piste","difficulty":"easy","name":null,"aerialway":null,"osm":"way/124774015"},"geometry":{"type":"LineString","coordinates":[[11.71509,47.16338],[11.71335,47.16136]]}},{"type":"Feature","properties":{"kind":"piste","difficulty":"easy","name":null,"aerialway":null,"osm":"way/124775312"},"geometry":{"type":"LineString","coordinates":[[11.72536,47.1679],[11.72578,47.16748],[11.72752,47.16657]]}},{"type":"Feature","properties":{"kind":"piste","difficulty":"easy","name":null,"aerialway":null,"osm":"way/124781430"},"geometry":{"type":"LineString","coordinates":[[11.75031,47.18093],[11.75069,47.18126],[11.75168,47.18164],[11.75226,47.18141],[11.75275,47.18146],[11.75322,47.18091]]}},{"type":"Feature","properties":{"kind":"piste","difficulty":"easy","name":null,"aerialway":null,"osm":"way/124781439"},"geometry":{"type":"LineString","coordinates":[[11.74704,47.18196],[11.74698,47.18108],[11.74728,47.18083],[11.74815,47.18047]]}},{"type":"Feature","properties":{"kind":"piste","difficulty":"easy","name":null,"aerialway":null,"osm":"way/124785150"},"geometry":{"type":"LineString","coordinates":[[11.80492,47.17021],[11.80883,47.17121]]}},{"type":"Feature","properties":{"kind":"piste","difficulty":"easy","name":null,"aerialway":null,"osm":"way/130740586"},"geometry":{"type":"LineString","coordinates":[[11.81205,47.19428],[11.81341,47.19375],[11.81388,47.19319],[11.814,47.19324],[11.81392,47.1936],[11.81404,47.1936],[11.81431,47.19319],[11.81434,47.19288],[11.8147,47.19264],[11.81489,47.19228],[11.81528,47.19214],[11.81495,47.19154]]}},{"type":"Feature","properties":{"kind":"piste","difficulty":"intermediate","name":null,"aerialway":null,"osm":"way/130740600"},"geometry":{"type":"LineString","coordinates":[[11.81021,47.18827],[11.81043,47.18709],[11.81079,47.18686],[11.8113,47.18683],[11.81316,47.18786],[11.8134,47.18775],[11.81303,47.1868],[11.81234,47.18623],[11.81195,47.1857],[11.81006,47.18413],[11.80941,47.18383],[11.80904,47.18341]]}},{"type":"Feature","properties":{"kind":"piste","difficulty":"easy","name":null,"aerialway":null,"osm":"way/130740610"},"geometry":{"type":"LineString","coordinates":[[11.81495,47.19154],[11.81461,47.19134],[11.81244,47.19075],[11.81166,47.19031],[11.81104,47.18973],[11.81096,47.1893],[11.81068,47.189],[11.81064,47.18857],[11.81021,47.18827]]}},{"type":"Feature","properties":{"kind":"piste","difficulty":"easy","name":"Horberg Baby Tour Penken","aerialway":null,"osm":"way/139080640"},"geometry":{"type":"LineString","coordinates":[[11.80857,47.18316],[11.80904,47.18341]]}},{"type":"Feature","properties":{"kind":"piste","difficulty":"easy","name":"Horberg Baby Tour Penken","aerialway":null,"osm":"way/139080641"},"geometry":{"type":"LineString","coordinates":[[11.80904,47.18341],[11.80867,47.18365],[11.80862,47.18354]]}},{"type":"Feature","properties":{"kind":"piste","difficulty":"intermediate","name":null,"aerialway":null,"osm":"way/139080665"},"geometry":{"type":"LineString","coordinates":[[11.815,47.17674],[11.81391,47.17751],[11.81395,47.17804],[11.81221,47.17974],[11.81142,47.17975],[11.81057,47.17954]]}},{"type":"Feature","properties":{"kind":"piste","difficulty":"easy","name":null,"aerialway":null,"osm":"way/139080666"},"geometry":{"type":"LineString","coordinates":[[11.79897,47.18142],[11.80003,47.18141],[11.80076,47.18116],[11.80162,47.18105],[11.8034,47.18139]]}},{"type":"Feature","properties":{"kind":"piste","difficulty":"intermediate","name":null,"aerialway":null,"osm":"way/139080667"},"geometry":{"type":"LineString","coordinates":[[11.79539,47.19591],[11.79882,47.19645],[11.79942,47.19639]]}},{"type":"Feature","properties":{"kind":"piste","difficulty":"easy","name":null,"aerialway":null,"osm":"way/139080687"},"geometry":{"type":"LineString","coordinates":[[11.79426,47.18247],[11.79454,47.18255],[11.79449,47.1821],[11.79474,47.182],[11.7959,47.18198],[11.7964,47.18184],[11.7977,47.18198],[11.79902,47.18234],[11.79979,47.18233]]}},{"type":"Feature","properties":{"kind":"piste","difficulty":"intermediate","name":"Tappental","aerialway":null,"osm":"way/139080688"},"geometry":{"type":"LineString","coordinates":[[11.80063,47.18737],[11.80076,47.18688],[11.80067,47.1864],[11.80013,47.18581],[11.79991,47.18576],[11.79924,47.18618],[11.79867,47.18616],[11.79834,47.18641],[11.79808,47.18644],[11.79784,47.18669],[11.79714,47.18658],[11.79863,47.18448],[11.79906,47.18347],[11.79954,47.18296],[11.79979,47.18233]]}},{"type":"Feature","properties":{"kind":"piste","difficulty":"easy","name":null,"aerialway":null,"osm":"way/139080749"},"geometry":{"type":"LineString","coordinates":[[11.7942,47.18253],[11.79409,47.1825],[11.79411,47.18234],[11.79449,47.1821]]}},{"type":"Feature","properties":{"kind":"piste","difficulty":"easy","name":null,"aerialway":null,"osm":"way/139080842"},"geometry":{"type":"LineString","coordinates":[[11.79921,47.17896],[11.79818,47.17904],[11.798,47.17885],[11.79779,47.17883]]}},{"type":"Feature","properties":{"kind":"piste","difficulty":"easy","name":null,"aerialway":null,"osm":"way/139080845"},"geometry":{"type":"LineString","coordinates":[[11.79963,47.17897],[11.79982,47.17889]]}},{"type":"Feature","properties":{"kind":"piste","difficulty":"easy","name":null,"aerialway":null,"osm":"way/139080846"},"geometry":{"type":"LineString","coordinates":[[11.80904,47.18341],[11.80953,47.18354],[11.81016,47.18345],[11.81024,47.18351],[11.81009,47.18362]]}},{"type":"Feature","properties":{"kind":"piste","difficulty":"intermediate","name":"Penken Nordhang","aerialway":null,"osm":"way/140152823"},"geometry":{"type":"LineString","coordinates":[[11.79843,47.17853],[11.79844,47.17867]]}},{"type":"Feature","properties":{"kind":"piste","difficulty":"intermediate","name":"Penken Nordhang","aerialway":null,"osm":"way/140152824"},"geometry":{"type":"LineString","coordinates":[[11.79844,47.17867],[11.79851,47.17892],[11.79826,47.17896],[11.79823,47.17886]]}},{"type":"Feature","properties":{"kind":"piste","difficulty":"easy","name":null,"aerialway":null,"osm":"way/140153029"},"geometry":{"type":"LineString","coordinates":[[11.79982,47.17889],[11.79994,47.17884]]}},{"type":"Feature","properties":{"kind":"piste","difficulty":"easy","name":null,"aerialway":null,"osm":"way/140153030"},"geometry":{"type":"LineString","coordinates":[[11.79994,47.17884],[11.80035,47.17881]]}},{"type":"Feature","properties":{"kind":"piste","difficulty":"easy","name":null,"aerialway":null,"osm":"way/140153031"},"geometry":{"type":"LineString","coordinates":[[11.79277,47.19128],[11.79212,47.19123]]}},{"type":"Feature","properties":{"kind":"piste","difficulty":"easy","name":null,"aerialway":null,"osm":"way/141122890"},"geometry":{"type":"LineString","coordinates":[[11.81604,47.17596],[11.81465,47.17584]]}},{"type":"Feature","properties":{"kind":"piste","difficulty":"intermediate","name":null,"aerialway":null,"osm":"way/141123072"},"geometry":{"type":"LineString","coordinates":[[11.81829,47.17525],[11.82139,47.17522],[11.82266,47.17567],[11.82423,47.17541],[11.82551,47.17495]]}},{"type":"Feature","properties":{"kind":"piste","difficulty":"easy","name":null,"aerialway":null,"osm":"way/141195981"},"geometry":{"type":"LineString","coordinates":[[11.80032,47.16853],[11.80053,47.16892],[11.8031,47.16912],[11.80362,47.16894],[11.80417,47.16834],[11.80492,47.16818],[11.80503,47.16825]]}},{"type":"Feature","properties":{"kind":"piste","difficulty":"intermediate","name":null,"aerialway":null,"osm":"way/141323625"},"geometry":{"type":"LineString","coordinates":[[11.86158,47.13713],[11.8609,47.13728],[11.86024,47.13831],[11.85998,47.13857],[11.85943,47.1387],[11.85916,47.13892],[11.85898,47.13935],[11.85834,47.13947],[11.8573,47.13936],[11.85691,47.13949],[11.85671,47.1398],[11.85669,47.14014],[11.8565,47.14027],[11.85533,47.14016]]}},{"type":"Feature","properties":{"kind":"piste","difficulty":"intermediate","name":"Rastkogel Panoramaabfahrt","aerialway":null,"osm":"way/144008972"},"geometry":{"type":"LineString","coordinates":[[11.77198,47.18489],[11.77255,47.18458],[11.77343,47.18373],[11.77509,47.1826],[11.77606,47.18211],[11.77606,47.18174],[11.77645,47.18077],[11.77715,47.17811],[11.77765,47.17762],[11.77896,47.17726],[11.78071,47.17699],[11.78217,47.17695],[11.78317,47.1767],[11.78392,47.1761],[11.78605,47.17484],[11.78797,47.17416],[11.78919,47.17468],[11.79162,47.1752],[11.79366,47.17481],[11.79518,47.17435],[11.79585,47.1743]]}},{"type":"Feature","properties":{"kind":"piste","difficulty":"easy","name":null,"aerialway":null,"osm":"way/144009071"},"geometry":{"type":"LineString","coordinates":[[11.74719,47.18838],[11.7479,47.18848],[11.74841,47.18874],[11.74999,47.1889],[11.752,47.18849],[11.75331,47.18839],[11.75365,47.18823],[11.75447,47.18834],[11.75564,47.1883],[11.75626,47.18793]]}},{"type":"Feature","properties":{"kind":"piste","difficulty":"intermediate","name":null,"aerialway":null,"osm":"way/144009154"},"geometry":{"type":"LineString","coordinates":[[11.72226,47.17275],[11.72267,47.173]]}},{"type":"Feature","properties":{"kind":"piste","difficulty":"intermediate","name":null,"aerialway":null,"osm":"way/144009250"},"geometry":{"type":"LineString","coordinates":[[11.72267,47.173],[11.72366,47.17282],[11.7235,47.1727]]}},{"type":"Feature","properties":{"kind":"piste","difficulty":"intermediate","name":null,"aerialway":null,"osm":"way/144009270"},"geometry":{"type":"LineString","coordinates":[[11.76584,47.18961],[11.7648,47.18934],[11.76369,47.18922],[11.76237,47.18861]]}},{"type":"Feature","properties":{"kind":"piste","difficulty":"easy","name":null,"aerialway":null,"osm":"way/156215480"},"geometry":{"type":"LineString","coordinates":[[11.82551,47.17495],[11.82707,47.17516],[11.82753,47.17541],[11.82754,47.17566]]}},{"type":"Feature","properties":{"kind":"piste","difficulty":"easy","name":null,"aerialway":null,"osm":"way/156215488"},"geometry":{"type":"LineString","coordinates":[[11.81911,47.17712],[11.81947,47.1772],[11.82019,47.17764],[11.82063,47.1777],[11.8213,47.17751],[11.82182,47.1771],[11.82304,47.17679],[11.82346,47.17686]]}},{"type":"Feature","properties":{"kind":"piste","difficulty":"easy","name":"Eggalm Bärenroute","aerialway":null,"osm":"way/202867172"},"geometry":{"type":"LineString","coordinates":[[11.70922,47.16174],[11.70959,47.16167],[11.71056,47.16187],[11.70982,47.16131],[11.70918,47.16054]]}},{"type":"Feature","properties":{"kind":"piste","difficulty":"easy","name":null,"aerialway":null,"osm":"way/202867175"},"geometry":{"type":"LineString","coordinates":[[11.73878,47.16298],[11.73936,47.16368],[11.73986,47.16387],[11.74068,47.16392],[11.74108,47.16355],[11.74118,47.16311],[11.74133,47.16302],[11.74267,47.16341],[11.74258,47.16372],[11.74267,47.16384]]}},{"type":"Feature","properties":{"kind":"piste","difficulty":"easy","name":null,"aerialway":null,"osm":"way/202867176"},"geometry":{"type":"LineString","coordinates":[[11.73865,47.16292],[11.73878,47.16298]]}},{"type":"Feature","properties":{"kind":"piste","difficulty":"easy","name":null,"aerialway":null,"osm":"way/208080236"},"geometry":{"type":"LineString","coordinates":[[11.80644,47.16125],[11.8058,47.16121],[11.80494,47.16136],[11.8043,47.16122],[11.80282,47.16032],[11.80237,47.15978],[11.80239,47.15966]]}},{"type":"Feature","properties":{"kind":"piste","difficulty":"intermediate","name":null,"aerialway":null,"osm":"way/208080238"},"geometry":{"type":"LineString","coordinates":[[11.80701,47.16214],[11.80691,47.16182]]}},{"type":"Feature","properties":{"kind":"piste","difficulty":"advanced","name":null,"aerialway":null,"osm":"way/208080240"},"geometry":{"type":"LineString","coordinates":[[11.7864,47.16708],[11.78525,47.16704],[11.78452,47.16719],[11.78431,47.16729],[11.78418,47.16754],[11.7824,47.16736],[11.78141,47.16777],[11.7809,47.1676],[11.78141,47.16704],[11.78301,47.16647],[11.78375,47.16645],[11.78402,47.16583],[11.78502,47.16557],[11.78601,47.16478],[11.78746,47.16404]]}},{"type":"Feature","properties":{"kind":"piste","difficulty":"easy","name":null,"aerialway":null,"osm":"way/208080241"},"geometry":{"type":"LineString","coordinates":[[11.80123,47.16409],[11.80213,47.164],[11.80236,47.16386],[11.8011,47.16339],[11.80278,47.16317]]}},{"type":"Feature","properties":{"kind":"piste","difficulty":"intermediate","name":null,"aerialway":null,"osm":"way/208080242"},"geometry":{"type":"LineString","coordinates":[[11.80364,47.16523],[11.80766,47.16584],[11.80849,47.16616],[11.80869,47.16607],[11.8093,47.16353]]}},{"type":"Feature","properties":{"kind":"piste","difficulty":"advanced","name":null,"aerialway":null,"osm":"way/208080243"},"geometry":{"type":"LineString","coordinates":[[11.79819,47.16907],[11.79608,47.16965],[11.79451,47.1696],[11.79375,47.16997],[11.79214,47.16978],[11.78997,47.16863],[11.78844,47.16762],[11.7864,47.16708]]}},{"type":"Feature","properties":{"kind":"piste","difficulty":"easy","name":null,"aerialway":null,"osm":"way/208080245"},"geometry":{"type":"LineString","coordinates":[[11.80246,47.17031],[11.80083,47.16946]]}},{"type":"Feature","properties":{"kind":"piste","difficulty":"easy","name":null,"aerialway":null,"osm":"way/208080246"},"geometry":{"type":"LineString","coordinates":[[11.81043,47.17173],[11.81042,47.17177]]}},{"type":"Feature","properties":{"kind":"piste","difficulty":"intermediate","name":null,"aerialway":null,"osm":"way/208080247"},"geometry":{"type":"LineString","coordinates":[[11.80788,47.16258],[11.80701,47.16214]]}},{"type":"Feature","properties":{"kind":"piste","difficulty":"advanced","name":null,"aerialway":null,"osm":"way/208080248"},"geometry":{"type":"LineString","coordinates":[[11.79805,47.17045],[11.79601,47.16993],[11.79561,47.1697]]}},{"type":"Feature","properties":{"kind":"piste","difficulty":"advanced","name":null,"aerialway":null,"osm":"way/208080249"},"geometry":{"type":"LineString","coordinates":[[11.79375,47.16997],[11.7933,47.17044],[11.79249,47.17024],[11.79214,47.16978]]}},{"type":"Feature","properties":{"kind":"piste","difficulty":"advanced","name":null,"aerialway":null,"osm":"way/208080250"},"geometry":{"type":"LineString","coordinates":[[11.78997,47.16863],[11.78829,47.16841],[11.78634,47.1679],[11.78632,47.16761]]}},{"type":"Feature","properties":{"kind":"piste","difficulty":"easy","name":null,"aerialway":null,"osm":"way/208080251"},"geometry":{"type":"LineString","coordinates":[[11.80246,47.17031],[11.80316,47.16981],[11.80362,47.16968]]}},{"type":"Feature","properties":{"kind":"piste","difficulty":"intermediate","name":null,"aerialway":null,"osm":"way/208080253"},"geometry":{"type":"LineString","coordinates":[[11.80284,47.16475],[11.80123,47.16409],[11.80071,47.16361],[11.79952,47.1629],[11.79833,47.16253],[11.79522,47.16243],[11.79156,47.16254],[11.78928,47.16189]]}},{"type":"Feature","properties":{"kind":"piste","difficulty":"intermediate","name":null,"aerialway":null,"osm":"way/208080254"},"geometry":{"type":"LineString","coordinates":[[11.80284,47.16475],[11.80312,47.16303],[11.80558,47.16237],[11.80717,47.16165],[11.80734,47.16176]]}},{"type":"Feature","properties":{"kind":"piste","difficulty":"intermediate","name":null,"aerialway":null,"osm":"way/208080255"},"geometry":{"type":"LineString","coordinates":[[11.80202,47.16709],[11.80364,47.16523],[11.80284,47.16475]]}},{"type":"Feature","properties":{"kind":"piste","difficulty":"intermediate","name":null,"aerialway":null,"osm":"way/208080256"},"geometry":{"type":"LineString","coordinates":[[11.8004,47.16869],[11.80011,47.16908],[11.79952,47.16942]]}},{"type":"Feature","properties":{"kind":"piste","difficulty":"intermediate","name":null,"aerialway":null,"osm":"way/208081236"},"geometry":{"type":"LineString","coordinates":[[11.80626,47.16212],[11.80754,47.16244],[11.80774,47.16227]]}},{"type":"Feature","properties":{"kind":"piste","difficulty":"easy","name":null,"aerialway":null,"osm":"way/208081237"},"geometry":{"type":"LineString","coordinates":[[11.80417,47.16834],[11.80374,47.16675]]}},{"type":"Feature","properties":{"kind":"piste","difficulty":"easy","name":null,"aerialway":null,"osm":"way/208081238"},"geometry":{"type":"LineString","coordinates":[[11.80374,47.16675],[11.8061,47.1676]]}},{"type":"Feature","properties":{"kind":"piste","difficulty":"easy","name":"Eggalm Bärenroute","aerialway":null,"osm":"way/208444875"},"geometry":{"type":"LineString","coordinates":[[11.70918,47.16054],[11.71247,47.16143],[11.71394,47.16208]]}},{"type":"Feature","properties":{"kind":"piste","difficulty":"intermediate","name":null,"aerialway":null,"osm":"way/209254361"},"geometry":{"type":"LineString","coordinates":[[11.76898,47.18708],[11.76851,47.18657],[11.76706,47.18593],[11.76409,47.18582],[11.76085,47.18528],[11.75922,47.18531]]}},{"type":"Feature","properties":{"kind":"piste","difficulty":"intermediate","name":null,"aerialway":null,"osm":"way/209254362"},"geometry":{"type":"LineString","coordinates":[[11.76996,47.18549],[11.7701,47.18549],[11.76999,47.18538],[11.76917,47.18532],[11.76762,47.18544],[11.76706,47.18593]]}},{"type":"Feature","properties":{"kind":"piste","difficulty":"easy","name":null,"aerialway":null,"osm":"way/209254707"},"geometry":{"type":"LineString","coordinates":[[11.80278,47.16317],[11.8031,47.16311]]}},{"type":"Feature","properties":{"kind":"piste","difficulty":"easy","name":null,"aerialway":null,"osm":"way/209254708"},"geometry":{"type":"LineString","coordinates":[[11.80277,47.16996],[11.80264,47.16989],[11.8031,47.16912]]}},{"type":"Feature","properties":{"kind":"piste","difficulty":"advanced","name":null,"aerialway":null,"osm":"way/217936398"},"geometry":{"type":"LineString","coordinates":[[11.78203,47.16768],[11.78223,47.16766],[11.7825,47.16737]]}},{"type":"Feature","properties":{"kind":"piste","difficulty":"intermediate","name":null,"aerialway":null,"osm":"way/257455451"},"geometry":{"type":"LineString","coordinates":[[11.74505,47.1851],[11.74108,47.18356],[11.73733,47.1814]]}},{"type":"Feature","properties":{"kind":"piste","difficulty":"easy","name":null,"aerialway":null,"osm":"way/265279735"},"geometry":{"type":"LineString","coordinates":[[11.80239,47.15966],[11.80198,47.15949],[11.80003,47.15948],[11.79867,47.15925],[11.79806,47.15927],[11.7945,47.15991],[11.79429,47.1603],[11.7919,47.16089]]}},{"type":"Feature","properties":{"kind":"piste","difficulty":"intermediate","name":null,"aerialway":null,"osm":"way/265279748"},"geometry":{"type":"LineString","coordinates":[[11.79919,47.16886],[11.79946,47.16905],[11.79924,47.16913]]}},{"type":"Feature","properties":{"kind":"piste","difficulty":"intermediate","name":null,"aerialway":null,"osm":"way/265279752"},"geometry":{"type":"LineString","coordinates":[[11.78975,47.16091],[11.78727,47.16069],[11.78577,47.16011],[11.78566,47.16021],[11.78579,47.16031]]}},{"type":"Feature","properties":{"kind":"piste","difficulty":"intermediate","name":null,"aerialway":null,"osm":"way/265279758"},"geometry":{"type":"LineString","coordinates":[[11.78928,47.16189],[11.78915,47.1618],[11.78924,47.16149],[11.78975,47.16091]]}},{"type":"Feature","properties":{"kind":"piste","difficulty":"intermediate","name":null,"aerialway":null,"osm":"way/327088916"},"geometry":{"type":"LineString","coordinates":[[11.77281,47.18466],[11.77269,47.18458],[11.77274,47.18448],[11.77347,47.18377],[11.77549,47.18241],[11.77627,47.18216],[11.7762,47.18178],[11.77687,47.18036],[11.77721,47.17862],[11.7774,47.17818],[11.77815,47.17763],[11.78054,47.17714],[11.78224,47.17709],[11.78302,47.1769],[11.78397,47.17617],[11.78598,47.17494],[11.78774,47.17427],[11.78804,47.17428],[11.78891,47.17478],[11.79147,47.17536],[11.79585,47.1743],[11.79536,47.17425],[11.79352,47.17479],[11.7913,47.17511],[11.79051,47.1748],[11.78892,47.17452],[11.78804,47.17403],[11.78579,47.17492],[11.78404,47.17593],[11.78306,47.17665],[11.7824,47.17683],[11.77836,47.17714],[11.77746,47.17752],[11.77693,47.17804],[11.77636,47.17909],[11.77625,47.18018],[11.77583,47.18153],[11.77582,47.18209],[11.77342,47.18367],[11.77257,47.18452],[11.77171,47.18491],[11.77281,47.18466]]}},{"type":"Feature","properties":{"kind":"piste","difficulty":"easy","name":null,"aerialway":null,"osm":"way/327090466"},"geometry":{"type":"LineString","coordinates":[[11.79742,47.17929],[11.79759,47.1788]]}},{"type":"Feature","properties":{"kind":"piste","difficulty":"easy","name":null,"aerialway":null,"osm":"way/327090467"},"geometry":{"type":"LineString","coordinates":[[11.8101,47.18248],[11.80922,47.18225]]}},{"type":"Feature","properties":{"kind":"piste","difficulty":"intermediate","name":null,"aerialway":null,"osm":"way/327090468"},"geometry":{"type":"LineString","coordinates":[[11.79729,47.17792],[11.79742,47.17865],[11.79779,47.17883]]}},{"type":"Feature","properties":{"kind":"piste","difficulty":"intermediate","name":null,"aerialway":null,"osm":"way/331853329"},"geometry":{"type":"LineString","coordinates":[[11.80993,47.17561],[11.81045,47.17654],[11.80876,47.17799],[11.80727,47.17875],[11.80626,47.17906]]}},{"type":"Feature","properties":{"kind":"piste","difficulty":"intermediate","name":null,"aerialway":null,"osm":"way/331853330"},"geometry":{"type":"LineString","coordinates":[[11.80374,47.16675],[11.80291,47.16618]]}},{"type":"Feature","properties":{"kind":"piste","difficulty":"intermediate","name":null,"aerialway":null,"osm":"way/331853332"},"geometry":{"type":"LineString","coordinates":[[11.82163,47.17358],[11.82281,47.1741],[11.82551,47.17495]]}},{"type":"Feature","properties":{"kind":"piste","difficulty":"intermediate","name":null,"aerialway":null,"osm":"way/331853433"},"geometry":{"type":"LineString","coordinates":[[11.79219,47.16238],[11.7957,47.1623],[11.79881,47.16244],[11.80079,47.16348],[11.8013,47.16402],[11.80237,47.16438],[11.80182,47.16511],[11.80116,47.1642],[11.80069,47.16378],[11.79953,47.16308],[11.79847,47.16267],[11.79643,47.16249],[11.79405,47.16258],[11.79285,47.16276],[11.7915,47.16271],[11.791,47.16263],[11.79014,47.16223],[11.78927,47.16218],[11.78912,47.16212],[11.78909,47.16177],[11.78934,47.16113],[11.78917,47.16103],[11.78661,47.16073],[11.7857,47.16013],[11.78605,47.15994],[11.78657,47.16026],[11.78725,47.16042],[11.78954,47.1606],[11.78995,47.16074],[11.78928,47.16148],[11.78923,47.16178],[11.79088,47.16213],[11.79166,47.16243],[11.79219,47.16238]]}},{"type":"Feature","properties":{"kind":"piste","difficulty":"easy","name":null,"aerialway":null,"osm":"way/331868081"},"geometry":{"type":"LineString","coordinates":[[11.82346,47.17686],[11.82346,47.17718],[11.82388,47.17751],[11.82418,47.17749],[11.82436,47.17663],[11.82462,47.17664],[11.8246,47.17697],[11.82496,47.17684],[11.82492,47.17638],[11.82527,47.17565]]}},{"type":"Feature","properties":{"kind":"piste","difficulty":"intermediate","name":null,"aerialway":null,"osm":"way/331869373"},"geometry":{"type":"LineString","coordinates":[[11.7541,47.18559],[11.75342,47.18515],[11.75299,47.18408],[11.75216,47.18284],[11.75168,47.18164]]}},{"type":"Feature","properties":{"kind":"piste","difficulty":"easy","name":null,"aerialway":null,"osm":"way/331869376"},"geometry":{"type":"LineString","coordinates":[[11.76173,47.18625],[11.75982,47.18621],[11.75888,47.18643]]}},{"type":"Feature","properties":{"kind":"piste","difficulty":"intermediate","name":null,"aerialway":null,"osm":"way/331870822"},"geometry":{"type":"LineString","coordinates":[[11.74634,47.18802],[11.74543,47.18836],[11.74189,47.18891],[11.74012,47.18948],[11.73641,47.18968]]}},{"type":"Feature","properties":{"kind":"piste","difficulty":"intermediate","name":null,"aerialway":null,"osm":"way/331870824"},"geometry":{"type":"LineString","coordinates":[[11.73641,47.18968],[11.73648,47.18878],[11.73693,47.18846],[11.73771,47.18734],[11.73796,47.1868],[11.73793,47.18616],[11.73846,47.1854],[11.73842,47.18504],[11.73877,47.18482],[11.73812,47.18411],[11.73816,47.18346],[11.7378,47.18325],[11.73734,47.18234],[11.73729,47.18206],[11.73752,47.18171]]}},{"type":"Feature","properties":{"kind":"piste","difficulty":"easy","name":null,"aerialway":null,"osm":"way/332025048"},"geometry":{"type":"LineString","coordinates":[[11.73733,47.1814],[11.73413,47.17959],[11.73189,47.17809],[11.7317,47.17811],[11.73181,47.17827]]}},{"type":"Feature","properties":{"kind":"piste","difficulty":"easy","name":null,"aerialway":null,"osm":"way/332025052"},"geometry":{"type":"LineString","coordinates":[[11.75982,47.18853],[11.75902,47.1877],[11.75883,47.18727],[11.75888,47.18643],[11.75787,47.18494],[11.7582,47.18487]]}},{"type":"Feature","properties":{"kind":"piste","difficulty":"easy","name":null,"aerialway":null,"osm":"way/371238522"},"geometry":{"type":"LineString","coordinates":[[11.74286,47.16398],[11.74284,47.16394]]}},{"type":"Feature","properties":{"kind":"piste","difficulty":"easy","name":null,"aerialway":null,"osm":"way/390227665"},"geometry":{"type":"LineString","coordinates":[[11.82541,47.17522],[11.82551,47.17495]]}},{"type":"Feature","properties":{"kind":"piste","difficulty":"easy","name":null,"aerialway":null,"osm":"way/390227667"},"geometry":{"type":"LineString","coordinates":[[11.82527,47.17565],[11.82541,47.17522]]}},{"type":"Feature","properties":{"kind":"piste","difficulty":"easy","name":null,"aerialway":null,"osm":"way/390227676"},"geometry":{"type":"LineString","coordinates":[[11.82776,47.17494],[11.82835,47.17503],[11.82934,47.17545]]}},{"type":"Feature","properties":{"kind":"piste","difficulty":"easy","name":null,"aerialway":null,"osm":"way/390227677"},"geometry":{"type":"LineString","coordinates":[[11.8147,47.17451],[11.81467,47.17507],[11.8148,47.17532],[11.81465,47.17584]]}},{"type":"Feature","properties":{"kind":"piste","difficulty":"intermediate","name":null,"aerialway":null,"osm":"way/390227678"},"geometry":{"type":"LineString","coordinates":[[11.8152,47.17493],[11.8159,47.1749],[11.81679,47.17524]]}},{"type":"Feature","properties":{"kind":"piste","difficulty":"intermediate","name":"Penken KarlKraxler Tour","aerialway":null,"osm":"way/390227680"},"geometry":{"type":"LineString","coordinates":[[11.82108,47.17375],[11.82115,47.17318],[11.82142,47.17311],[11.82248,47.17325]]}},{"type":"Feature","properties":{"kind":"piste","difficulty":"intermediate","name":null,"aerialway":null,"osm":"way/390227681"},"geometry":{"type":"LineString","coordinates":[[11.82163,47.17358],[11.82248,47.17325],[11.82458,47.17343],[11.82608,47.17328],[11.82787,47.17272]]}},{"type":"Feature","properties":{"kind":"piste","difficulty":"intermediate","name":"Penken KarlKraxler Tour","aerialway":null,"osm":"way/390227682"},"geometry":{"type":"LineString","coordinates":[[11.8147,47.17421],[11.8153,47.17406]]}},{"type":"Feature","properties":{"kind":"piste","difficulty":"intermediate","name":null,"aerialway":null,"osm":"way/390227683"},"geometry":{"type":"LineString","coordinates":[[11.81679,47.17524],[11.817,47.17471],[11.81771,47.17431]]}},{"type":"Feature","properties":{"kind":"piste","difficulty":"intermediate","name":null,"aerialway":null,"osm":"way/390227704"},"geometry":{"type":"LineString","coordinates":[[11.82707,47.17516],[11.82686,47.17556],[11.82711,47.1762],[11.82739,47.17654],[11.82754,47.17753],[11.82939,47.17883],[11.82951,47.17921],[11.82944,47.17947],[11.82901,47.18024],[11.82929,47.18069],[11.83079,47.17994],[11.83185,47.17907],[11.83246,47.17932],[11.83267,47.17957],[11.83371,47.17969],[11.8342,47.17956],[11.83482,47.18007],[11.83594,47.18057],[11.83595,47.18086],[11.83647,47.1815],[11.83616,47.18217],[11.83779,47.18202],[11.83856,47.18254],[11.83866,47.18319],[11.83896,47.18348],[11.83952,47.18357],[11.84035,47.18347],[11.84063,47.18398],[11.84144,47.18404],[11.84169,47.18422],[11.84159,47.18434],[11.84187,47.18453],[11.84229,47.18521],[11.84273,47.18527],[11.84288,47.1858],[11.84265,47.18647],[11.84311,47.18744],[11.84472,47.18793],[11.84376,47.18807],[11.84347,47.18843],[11.84382,47.18894],[11.84435,47.18933],[11.84521,47.18951],[11.84576,47.1898],[11.8461,47.19019],[11.8477,47.19063],[11.84859,47.19121],[11.8507,47.1914],[11.85095,47.19132],[11.85098,47.19101],[11.85273,47.1906],[11.85323,47.19024],[11.85409,47.1901],[11.8542,47.18945],[11.85477,47.18893],[11.85566,47.18849],[11.85605,47.189],[11.8561,47.18924],[11.85591,47.18965],[11.85674,47.1905]]}},{"type":"Feature","properties":{"kind":"piste","difficulty":"easy","name":"Zauberwald","aerialway":null,"osm":"way/402477682"},"geometry":{"type":"LineString","coordinates":[[11.73389,47.17794],[11.73518,47.17853],[11.73741,47.17925]]}},{"type":"Feature","properties":{"kind":"piste","difficulty":"easy","name":"Zauberwald","aerialway":null,"osm":"way/402477684"},"geometry":{"type":"LineString","coordinates":[[11.73389,47.17794],[11.733,47.17784],[11.73189,47.17809]]}},{"type":"Feature","properties":{"kind":"piste","difficulty":"advanced","name":null,"aerialway":null,"osm":"way/466626950"},"geometry":{"type":"LineString","coordinates":[[11.78746,47.16404],[11.78796,47.16396]]}},{"type":"Feature","properties":{"kind":"piste","difficulty":"advanced","name":null,"aerialway":null,"osm":"way/466626955"},"geometry":{"type":"LineString","coordinates":[[11.78796,47.16396],[11.78854,47.16322],[11.78907,47.16294],[11.78906,47.16255],[11.78923,47.1623],[11.78918,47.16188]]}},{"type":"Feature","properties":{"kind":"piste","difficulty":"intermediate","name":null,"aerialway":null,"osm":"way/475122535"},"geometry":{"type":"LineString","coordinates":[[11.85458,47.14009],[11.85427,47.13989],[11.85359,47.13983],[11.85209,47.1402],[11.85193,47.1404],[11.85067,47.14048],[11.85072,47.14097],[11.85085,47.14112],[11.85214,47.14114],[11.85239,47.1412],[11.85236,47.14134]]}},{"type":"Feature","properties":{"kind":"piste","difficulty":"easy","name":null,"aerialway":null,"osm":"way/475122536"},"geometry":{"type":"LineString","coordinates":[[11.85328,47.14284],[11.85361,47.1433],[11.85343,47.14347],[11.85356,47.14354]]}},{"type":"Feature","properties":{"kind":"piste","difficulty":"intermediate","name":null,"aerialway":null,"osm":"way/475498015"},"geometry":{"type":"LineString","coordinates":[[11.85533,47.14016],[11.85403,47.14017],[11.8537,47.14046],[11.85354,47.14095],[11.85236,47.14134],[11.85204,47.14159],[11.85328,47.14284]]}},{"type":"Feature","properties":{"kind":"piste","difficulty":"easy","name":null,"aerialway":null,"osm":"way/576023168"},"geometry":{"type":"LineString","coordinates":[[11.82934,47.17545],[11.82847,47.17566],[11.82754,47.17566]]}},{"type":"Feature","properties":{"kind":"piste","difficulty":"advanced","name":null,"aerialway":null,"osm":"way/669486541"},"geometry":{"type":"LineString","coordinates":[[11.8121,47.19329],[11.81373,47.19408],[11.81457,47.19472],[11.81554,47.19605],[11.81519,47.19658],[11.81256,47.19877],[11.81268,47.19959],[11.81329,47.20019],[11.81363,47.20082],[11.815,47.20258],[11.81573,47.20278],[11.81687,47.20282]]}},{"type":"Feature","properties":{"kind":"piste","difficulty":"easy","name":null,"aerialway":null,"osm":"way/700627333"},"geometry":{"type":"LineString","coordinates":[[11.74301,47.16365],[11.74311,47.16367]]}},{"type":"Feature","properties":{"kind":"piste","difficulty":"easy","name":"Vans Penken Park","aerialway":null,"osm":"way/768662995"},"geometry":{"type":"LineString","coordinates":[[11.7958,47.17866],[11.79566,47.17868]]}},{"type":"Feature","properties":{"kind":"piste","difficulty":"easy","name":"Vans Penken Park","aerialway":null,"osm":"way/768662996"},"geometry":{"type":"LineString","coordinates":[[11.79587,47.17864],[11.7958,47.17866]]}},{"type":"Feature","properties":{"kind":"piste","difficulty":"intermediate","name":null,"aerialway":null,"osm":"way/768662997"},"geometry":{"type":"LineString","coordinates":[[11.7958,47.17866],[11.79566,47.17868]]}},{"type":"Feature","properties":{"kind":"piste","difficulty":"intermediate","name":null,"aerialway":null,"osm":"way/768662998"},"geometry":{"type":"LineString","coordinates":[[11.79587,47.17864],[11.7958,47.17866]]}},{"type":"Feature","properties":{"kind":"piste","difficulty":"easy","name":"53","aerialway":null,"osm":"way/775115845"},"geometry":{"type":"LineString","coordinates":[[11.79933,47.16939],[11.79946,47.16905],[11.80011,47.16908],[11.80083,47.16946],[11.80248,47.16941],[11.80362,47.16968]]}},{"type":"Feature","properties":{"kind":"piste","difficulty":"intermediate","name":null,"aerialway":null,"osm":"way/775115846"},"geometry":{"type":"LineString","coordinates":[[11.8121,47.19329],[11.81404,47.1936]]}},{"type":"Feature","properties":{"kind":"piste","difficulty":"intermediate","name":null,"aerialway":null,"osm":"way/777536486"},"geometry":{"type":"LineString","coordinates":[[11.80388,47.16552],[11.80403,47.1654],[11.80556,47.16553],[11.80885,47.16628],[11.80897,47.16617],[11.80937,47.1635],[11.80888,47.16307],[11.80698,47.16207],[11.80696,47.16187],[11.80684,47.16196],[11.80696,47.16218],[11.80776,47.16274],[11.80875,47.16312],[11.80919,47.16347],[11.80921,47.16361],[11.80864,47.16448],[11.80839,47.16595],[11.80715,47.16556],[11.80468,47.16529],[11.80388,47.16509],[11.80388,47.16552]]}},{"type":"Feature","properties":{"kind":"piste","difficulty":"intermediate","name":null,"aerialway":null,"osm":"way/777536487"},"geometry":{"type":"LineString","coordinates":[[11.80126,47.16905],[11.80154,47.16884],[11.80175,47.16815]]}},{"type":"Feature","properties":{"kind":"piste","difficulty":"easy","name":null,"aerialway":null,"osm":"way/777536488"},"geometry":{"type":"LineString","coordinates":[[11.79924,47.16922],[11.79943,47.16904],[11.79885,47.16879],[11.79825,47.169],[11.79826,47.16885],[11.79927,47.1683],[11.79995,47.16769],[11.80108,47.16751],[11.80152,47.16715],[11.80003,47.16758],[11.79924,47.16825],[11.79815,47.16884],[11.79811,47.16907],[11.79885,47.16901],[11.79924,47.16922]]}},{"type":"Feature","properties":{"kind":"piste","difficulty":"easy","name":null,"aerialway":null,"osm":"way/778940087"},"geometry":{"type":"LineString","coordinates":[[11.7919,47.16089],[11.78975,47.16091]]}},{"type":"Feature","properties":{"kind":"piste","difficulty":"intermediate","name":null,"aerialway":null,"osm":"way/778940088"},"geometry":{"type":"LineString","coordinates":[[11.80388,47.16509],[11.80313,47.16475],[11.80356,47.16394],[11.8037,47.16299],[11.80637,47.16226],[11.80731,47.16162],[11.80718,47.16156],[11.806,47.1621],[11.80265,47.16301],[11.80227,47.16364],[11.80254,47.16381],[11.80237,47.16438],[11.80182,47.16511],[11.80196,47.16527],[11.8015,47.16687],[11.80152,47.16715],[11.80108,47.16751],[11.80153,47.16813],[11.80085,47.16829],[11.80043,47.16855],[11.80057,47.16864],[11.80125,47.16841],[11.80136,47.16885],[11.80189,47.16882],[11.8022,47.168],[11.80253,47.16764],[11.80362,47.1669],[11.8041,47.16629],[11.80388,47.16509]]}},{"type":"Feature","properties":{"kind":"piste","difficulty":"easy","name":null,"aerialway":null,"osm":"way/828484907"},"geometry":{"type":"LineString","coordinates":[[11.81018,47.17164],[11.81043,47.17173]]}},{"type":"Feature","properties":{"kind":"piste","difficulty":"easy","name":null,"aerialway":null,"osm":"way/828484911"},"geometry":{"type":"LineString","coordinates":[[11.80362,47.16968],[11.80492,47.17021]]}},{"type":"Feature","properties":{"kind":"piste","difficulty":"easy","name":null,"aerialway":null,"osm":"way/977977739"},"geometry":{"type":"LineString","coordinates":[[11.72752,47.16657],[11.72841,47.16596]]}},{"type":"Feature","properties":{"kind":"piste","difficulty":"easy","name":null,"aerialway":null,"osm":"way/1025560447"},"geometry":{"type":"LineString","coordinates":[[11.86158,47.13713],[11.86122,47.13747],[11.86119,47.13775],[11.86139,47.13856],[11.86186,47.13922],[11.86157,47.13925],[11.86076,47.13849],[11.86077,47.13935],[11.86092,47.13964],[11.86217,47.14043],[11.86042,47.13981],[11.8598,47.13917],[11.8597,47.13926],[11.8598,47.13954],[11.86015,47.13999],[11.86002,47.14002],[11.85965,47.13976],[11.85949,47.13982],[11.8598,47.14045],[11.85834,47.14066],[11.85755,47.14049],[11.85741,47.14029],[11.85717,47.14023],[11.85687,47.14064],[11.8561,47.14071],[11.85701,47.14104],[11.85703,47.14122],[11.85536,47.14114],[11.85545,47.14145],[11.85589,47.14192],[11.85677,47.14231],[11.85537,47.14213],[11.85393,47.14157],[11.85634,47.14347],[11.85806,47.14409],[11.85689,47.14413],[11.85361,47.1433]]}},{"type":"Feature","properties":{"kind":"piste","difficulty":"easy","name":null,"aerialway":null,"osm":"way/1054061900"},"geometry":{"type":"LineString","coordinates":[[11.74869,47.18158],[11.74862,47.18113],[11.74837,47.18077],[11.74836,47.18043]]}},{"type":"Feature","properties":{"kind":"piste","difficulty":"easy","name":null,"aerialway":null,"osm":"way/1054061902"},"geometry":{"type":"LineString","coordinates":[[11.74691,47.18306],[11.7469,47.18242]]}},{"type":"Feature","properties":{"kind":"piste","difficulty":"novice","name":null,"aerialway":null,"osm":"way/1056721332"},"geometry":{"type":"LineString","coordinates":[[11.80173,47.17037],[11.80144,47.17024],[11.79979,47.17029],[11.79969,47.17055]]}},{"type":"Feature","properties":{"kind":"piste","difficulty":"novice","name":null,"aerialway":null,"osm":"way/1056721333"},"geometry":{"type":"LineString","coordinates":[[11.80059,47.1701],[11.80031,47.1701]]}},{"type":"Feature","properties":{"kind":"piste","difficulty":"novice","name":null,"aerialway":null,"osm":"way/1056721334"},"geometry":{"type":"LineString","coordinates":[[11.80059,47.16996],[11.80031,47.16996]]}},{"type":"Feature","properties":{"kind":"piste","difficulty":"intermediate","name":null,"aerialway":null,"osm":"way/1123472241"},"geometry":{"type":"LineString","coordinates":[[11.71392,47.16441],[11.71373,47.16537],[11.71305,47.16615],[11.71291,47.16702],[11.71311,47.16745],[11.713,47.16793],[11.71313,47.1684],[11.71238,47.1689]]}},{"type":"Feature","properties":{"kind":"piste","difficulty":"easy","name":null,"aerialway":null,"osm":"way/1132502739"},"geometry":{"type":"LineString","coordinates":[[11.77407,47.18441],[11.77198,47.18489]]}},{"type":"Feature","properties":{"kind":"piste","difficulty":"advanced","name":null,"aerialway":null,"osm":"way/1133481474"},"geometry":{"type":"LineString","coordinates":[[11.78632,47.16761],[11.78647,47.16725],[11.7864,47.16708]]}},{"type":"Feature","properties":{"kind":"piste","difficulty":"easy","name":null,"aerialway":null,"osm":"way/1133481475"},"geometry":{"type":"LineString","coordinates":[[11.80085,47.16721],[11.80156,47.16717]]}},{"type":"Feature","properties":{"kind":"piste","difficulty":"intermediate","name":null,"aerialway":null,"osm":"way/1133481476"},"geometry":{"type":"LineString","coordinates":[[11.80156,47.16717],[11.80202,47.16709]]}},{"type":"Feature","properties":{"kind":"piste","difficulty":"easy","name":null,"aerialway":null,"osm":"way/1133483719"},"geometry":{"type":"LineString","coordinates":[[11.80702,47.16174],[11.80644,47.16125]]}},{"type":"Feature","properties":{"kind":"piste","difficulty":"easy","name":null,"aerialway":null,"osm":"way/1134931277"},"geometry":{"type":"LineString","coordinates":[[11.81175,47.17237],[11.81397,47.17339],[11.8145,47.17378]]}},{"type":"Feature","properties":{"kind":"piste","difficulty":"easy","name":null,"aerialway":null,"osm":"way/1134931278"},"geometry":{"type":"LineString","coordinates":[[11.81042,47.17177],[11.81175,47.17237]]}},{"type":"Feature","properties":{"kind":"piste","difficulty":"intermediate","name":null,"aerialway":null,"osm":"way/1134931279"},"geometry":{"type":"LineString","coordinates":[[11.8145,47.17378],[11.81576,47.1742],[11.81891,47.17433],[11.8206,47.17414],[11.82108,47.17375],[11.82163,47.17358]]}},{"type":"Feature","properties":{"kind":"piste","difficulty":"intermediate","name":null,"aerialway":null,"osm":"way/1134931280"},"geometry":{"type":"LineString","coordinates":[[11.82551,47.17495],[11.82589,47.17438],[11.82783,47.17332],[11.82821,47.17299]]}},{"type":"Feature","properties":{"kind":"piste","difficulty":"intermediate","name":null,"aerialway":null,"osm":"way/1135237442"},"geometry":{"type":"LineString","coordinates":[[11.81829,47.17525],[11.81891,47.17433]]}},{"type":"Feature","properties":{"kind":"piste","difficulty":"easy","name":null,"aerialway":null,"osm":"way/1135421703"},"geometry":{"type":"LineString","coordinates":[[11.83136,47.17561],[11.83208,47.17573],[11.83299,47.17481],[11.83298,47.17455],[11.83174,47.17416],[11.8297,47.17392],[11.82864,47.17356]]}},{"type":"Feature","properties":{"kind":"piste","difficulty":"intermediate","name":null,"aerialway":null,"osm":"way/1135459798"},"geometry":{"type":"LineString","coordinates":[[11.80626,47.17906],[11.80156,47.17871],[11.80019,47.17891],[11.80007,47.17879]]}},{"type":"Feature","properties":{"kind":"piste","difficulty":"intermediate","name":null,"aerialway":null,"osm":"way/1135459800"},"geometry":{"type":"LineString","coordinates":[[11.79709,47.17299],[11.79585,47.1743]]}},{"type":"Feature","properties":{"kind":"piste","difficulty":"intermediate","name":null,"aerialway":null,"osm":"way/1135459801"},"geometry":{"type":"LineString","coordinates":[[11.79585,47.1743],[11.79931,47.1748]]}},{"type":"Feature","properties":{"kind":"piste","difficulty":"intermediate","name":null,"aerialway":null,"osm":"way/1135955298"},"geometry":{"type":"LineString","coordinates":[[11.80592,47.16753],[11.80604,47.16645],[11.80616,47.16626],[11.80779,47.16648],[11.80834,47.16633],[11.80849,47.16616]]}},{"type":"Feature","properties":{"kind":"piste","difficulty":"easy","name":null,"aerialway":null,"osm":"way/1135955299"},"geometry":{"type":"LineString","coordinates":[[11.8061,47.1676],[11.806,47.16723]]}},{"type":"Feature","properties":{"kind":"piste","difficulty":"advanced","name":null,"aerialway":null,"osm":"way/1135955301"},"geometry":{"type":"LineString","coordinates":[[11.78796,47.16396],[11.78795,47.16367],[11.78754,47.16342],[11.78587,47.16297],[11.78525,47.16233],[11.78532,47.16207],[11.7867,47.16124],[11.78671,47.16101],[11.78581,47.16055],[11.78565,47.16042],[11.78566,47.16021]]}},{"type":"Feature","properties":{"kind":"piste","difficulty":"easy","name":null,"aerialway":null,"osm":"way/1136182511"},"geometry":{"type":"LineString","coordinates":[[11.80362,47.16968],[11.80543,47.16852],[11.80614,47.16789],[11.8061,47.1676]]}},{"type":"Feature","properties":{"kind":"piste","difficulty":"easy","name":null,"aerialway":null,"osm":"way/1151610983"},"geometry":{"type":"LineString","coordinates":[[11.80165,47.17026],[11.8022,47.17014],[11.80264,47.16989]]}},{"type":"Feature","properties":{"kind":"piste","difficulty":"advanced","name":null,"aerialway":null,"osm":"way/1152249348"},"geometry":{"type":"LineString","coordinates":[[11.81431,47.19319],[11.81373,47.19408]]}},{"type":"Feature","properties":{"kind":"piste","difficulty":"easy","name":null,"aerialway":null,"osm":"way/1163829757"},"geometry":{"type":"LineString","coordinates":[[11.71851,47.17147],[11.71839,47.17234]]}},{"type":"Feature","properties":{"kind":"piste","difficulty":"easy","name":null,"aerialway":null,"osm":"way/1163856633"},"geometry":{"type":"LineString","coordinates":[[11.74815,47.18047],[11.7498,47.18053],[11.75031,47.18093]]}},{"type":"Feature","properties":{"kind":"piste","difficulty":"easy","name":null,"aerialway":null,"osm":"way/1201194957"},"geometry":{"type":"LineString","coordinates":[[11.76658,47.18877],[11.7674,47.18808],[11.76855,47.18777],[11.76976,47.18713]]}},{"type":"Feature","properties":{"kind":"piste","difficulty":"intermediate","name":null,"aerialway":null,"osm":"way/1254967122"},"geometry":{"type":"LineString","coordinates":[[11.80701,47.16214],[11.80726,47.1621]]}},{"type":"Feature","properties":{"kind":"piste","difficulty":"novice","name":null,"aerialway":null,"osm":"way/1254967123"},"geometry":{"type":"LineString","coordinates":[[11.80083,47.16946],[11.80077,47.17023]]}},{"type":"Feature","properties":{"kind":"piste","difficulty":"intermediate","name":null,"aerialway":null,"osm":"way/1254967124"},"geometry":{"type":"LineString","coordinates":[[11.79979,47.17029],[11.7989,47.17022]]}},{"type":"Feature","properties":{"kind":"piste","difficulty":"easy","name":null,"aerialway":null,"osm":"way/1254967125"},"geometry":{"type":"LineString","coordinates":[[11.80188,47.16569],[11.80153,47.16557]]}},{"type":"Feature","properties":{"kind":"piste","difficulty":"easy","name":null,"aerialway":null,"osm":"way/1257898098"},"geometry":{"type":"LineString","coordinates":[[11.74864,47.18388],[11.74821,47.18384],[11.74837,47.18249],[11.74869,47.18158]]}},{"type":"Feature","properties":{"kind":"piste","difficulty":"easy","name":null,"aerialway":null,"osm":"way/1257898103"},"geometry":{"type":"LineString","coordinates":[[11.75322,47.18091],[11.75344,47.18054],[11.75363,47.18056]]}},{"type":"Feature","properties":{"kind":"piste","difficulty":"easy","name":null,"aerialway":null,"osm":"way/1257898104"},"geometry":{"type":"LineString","coordinates":[[11.74639,47.18276],[11.74466,47.18236],[11.7433,47.18233]]}},{"type":"Feature","properties":{"kind":"piste","difficulty":"easy","name":null,"aerialway":null,"osm":"way/1257898105"},"geometry":{"type":"LineString","coordinates":[[11.74609,47.18292],[11.7469,47.18242],[11.74704,47.18196],[11.74837,47.18177],[11.74869,47.18158]]}},{"type":"Feature","properties":{"kind":"piste","difficulty":"easy","name":null,"aerialway":null,"osm":"way/1257898106"},"geometry":{"type":"LineString","coordinates":[[11.74869,47.18158],[11.74882,47.18165]]}},{"type":"Feature","properties":{"kind":"piste","difficulty":"novice","name":null,"aerialway":null,"osm":"way/1257898108"},"geometry":{"type":"LineString","coordinates":[[11.74765,47.18288],[11.74798,47.18283],[11.74837,47.18249],[11.74779,47.18209],[11.74776,47.18181]]}},{"type":"Feature","properties":{"kind":"piste","difficulty":"easy","name":null,"aerialway":null,"osm":"way/1257898110"},"geometry":{"type":"LineString","coordinates":[[11.73536,47.18027],[11.7352,47.17941],[11.73408,47.17804]]}},{"type":"Feature","properties":{"kind":"piste","difficulty":"easy","name":null,"aerialway":null,"osm":"way/1257898112"},"geometry":{"type":"LineString","coordinates":[[11.74665,47.18805],[11.74719,47.18838]]}},{"type":"Feature","properties":{"kind":"piste","difficulty":"easy","name":null,"aerialway":null,"osm":"way/1257898114"},"geometry":{"type":"LineString","coordinates":[[11.74973,47.18113],[11.75015,47.18109],[11.75069,47.18126]]}},{"type":"Feature","properties":{"kind":"piste","difficulty":"intermediate","name":null,"aerialway":null,"osm":"way/1257898116"},"geometry":{"type":"LineString","coordinates":[[11.74505,47.1851],[11.74466,47.18285]]}},{"type":"Feature","properties":{"kind":"piste","difficulty":"intermediate","name":null,"aerialway":null,"osm":"way/1257898551"},"geometry":{"type":"LineString","coordinates":[[11.76403,47.19497],[11.76304,47.1945],[11.76165,47.19453]]}},{"type":"Feature","properties":{"kind":"piste","difficulty":"intermediate","name":null,"aerialway":null,"osm":"way/1257898552"},"geometry":{"type":"LineString","coordinates":[[11.76442,47.19462],[11.76444,47.19481],[11.76403,47.19497],[11.76187,47.19469],[11.76074,47.19379],[11.76048,47.19331]]}},{"type":"Feature","properties":{"kind":"piste","difficulty":"intermediate","name":null,"aerialway":null,"osm":"way/1257898554"},"geometry":{"type":"LineString","coordinates":[[11.76404,47.19378],[11.76427,47.19385]]}},{"type":"Feature","properties":{"kind":"piste","difficulty":"easy","name":null,"aerialway":null,"osm":"way/1327817798"},"geometry":{"type":"LineString","coordinates":[[11.80883,47.17121],[11.81018,47.17164]]}},{"type":"Feature","properties":{"kind":"piste","difficulty":"easy","name":null,"aerialway":null,"osm":"way/1358007326"},"geometry":{"type":"LineString","coordinates":[[11.80423,47.18303],[11.80243,47.18224],[11.8021,47.18194]]}},{"type":"Feature","properties":{"kind":"piste","difficulty":"advanced","name":null,"aerialway":null,"osm":"way/1358007327"},"geometry":{"type":"LineString","coordinates":[[11.80524,47.18544],[11.80544,47.18523],[11.80528,47.18491],[11.80477,47.1847],[11.80422,47.18401],[11.80367,47.18368],[11.80248,47.18249],[11.80168,47.18139],[11.80021,47.18022],[11.79982,47.17975]]}},{"type":"Feature","properties":{"kind":"piste","difficulty":"intermediate","name":null,"aerialway":null,"osm":"way/1359312668"},"geometry":{"type":"LineString","coordinates":[[11.8012,47.19006],[11.80085,47.18894],[11.80009,47.18812],[11.80063,47.18737]]}},{"type":"Feature","properties":{"kind":"piste","difficulty":"easy","name":null,"aerialway":null,"osm":"way/1359313670"},"geometry":{"type":"LineString","coordinates":[[11.79586,47.17876],[11.79587,47.17864]]}},{"type":"Feature","properties":{"kind":"piste","difficulty":"easy","name":null,"aerialway":null,"osm":"way/1359315345"},"geometry":{"type":"LineString","coordinates":[[11.75626,47.18793],[11.75693,47.18756]]}},{"type":"Feature","properties":{"kind":"piste","difficulty":"intermediate","name":null,"aerialway":null,"osm":"way/1362618527"},"geometry":{"type":"LineString","coordinates":[[11.79939,47.16948],[11.79973,47.16944],[11.79939,47.17001],[11.79883,47.17029],[11.79723,47.17073],[11.79525,47.17272],[11.79547,47.17284],[11.79639,47.17265],[11.79705,47.17268],[11.79766,47.17357],[11.79926,47.17422],[11.79938,47.1744],[11.79947,47.17485],[11.79932,47.17699],[11.7987,47.17858],[11.79839,47.17851],[11.79891,47.17453],[11.79793,47.17407],[11.79635,47.17357],[11.79644,47.17293],[11.79632,47.17286],[11.79514,47.17305],[11.79482,47.17286],[11.796,47.17155],[11.79622,47.17074],[11.79673,47.17045],[11.79879,47.17],[11.79922,47.16981],[11.79939,47.16948]]}},{"type":"Feature","properties":{"kind":"piste","difficulty":"intermediate","name":null,"aerialway":null,"osm":"way/1362618528"},"geometry":{"type":"LineString","coordinates":[[11.79657,47.17412],[11.79675,47.17372],[11.79635,47.17357],[11.79585,47.1743],[11.79504,47.17447],[11.79618,47.17577],[11.79634,47.17675],[11.79633,47.17763],[11.79729,47.17792],[11.79766,47.17772],[11.79712,47.17751],[11.79702,47.17735],[11.79663,47.17559],[11.79657,47.17412]]}},{"type":"Feature","properties":{"kind":"piste","difficulty":"advanced","name":"Rastkogel Gspielkopfabfahrt","aerialway":null,"osm":"way/1362618529"},"geometry":{"type":"LineString","coordinates":[[11.79283,47.17497],[11.7946,47.17601],[11.79556,47.17732],[11.79729,47.17792],[11.79582,47.17816],[11.79457,47.17676],[11.79424,47.1762],[11.79235,47.1751],[11.79283,47.17497]]}},{"type":"Feature","properties":{"kind":"piste","difficulty":"intermediate","name":null,"aerialway":null,"osm":"way/1362618530"},"geometry":{"type":"LineString","coordinates":[[11.79859,47.17731],[11.79729,47.17792],[11.7975,47.17822],[11.798,47.17828],[11.79839,47.17851],[11.79859,47.17731]]}},{"type":"Feature","properties":{"kind":"piste","difficulty":"easy","name":null,"aerialway":null,"osm":"way/1485336776"},"geometry":{"type":"LineString","coordinates":[[11.81479,47.19141],[11.81567,47.19153],[11.81577,47.19171],[11.81566,47.19171]]}},{"type":"Feature","properties":{"kind":"piste","difficulty":"intermediate","name":null,"aerialway":null,"osm":"way/1552533957"},"geometry":{"type":"LineString","coordinates":[[11.74545,47.18535],[11.74691,47.18306]]}},{"type":"Feature","properties":{"kind":"piste","difficulty":"intermediate","name":null,"aerialway":null,"osm":"way/1552533958"},"geometry":{"type":"LineString","coordinates":[[11.80626,47.17906],[11.80711,47.18],[11.80866,47.18088]]}},{"type":"Feature","properties":{"kind":"lift","difficulty":null,"name":"8er Horbergjoch","aerialway":"chair_lift","osm":"way/25842594"},"geometry":{"type":"LineString","coordinates":[[11.75363,47.18056],[11.76387,47.19367]]}},{"type":"Feature","properties":{"kind":"lift","difficulty":null,"name":"6er Wanglspitz","aerialway":"chair_lift","osm":"way/25842657"},"geometry":{"type":"LineString","coordinates":[[11.7582,47.18487],[11.76996,47.18549]]}},{"type":"Feature","properties":{"kind":"lift","difficulty":null,"name":"6er Lämmerbichl","aerialway":"chair_lift","osm":"way/25842760"},"geometry":{"type":"LineString","coordinates":[[11.73181,47.17827],[11.74599,47.18786]]}},{"type":"Feature","properties":{"kind":"lift","difficulty":null,"name":"4er Nordhang","aerialway":"chair_lift","osm":"way/26158182"},"geometry":{"type":"LineString","coordinates":[[11.79823,47.17886],[11.79914,47.16944]]}},{"type":"Feature","properties":{"kind":"lift","difficulty":null,"name":"6er Knorren","aerialway":"chair_lift","osm":"way/26158183"},"geometry":{"type":"LineString","coordinates":[[11.80035,47.17881],[11.80743,47.17141]]}},{"type":"Feature","properties":{"kind":"lift","difficulty":null,"name":"Penken-Express","aerialway":"chair_lift","osm":"way/26158184"},"geometry":{"type":"LineString","coordinates":[[11.82742,47.17259],[11.81387,47.17413]]}},{"type":"Feature","properties":{"kind":"lift","difficulty":null,"name":"8er Tappenalmbahn","aerialway":"chair_lift","osm":"way/26158261"},"geometry":{"type":"LineString","coordinates":[[11.80835,47.18346],[11.80027,47.18256]]}},{"type":"Feature","properties":{"kind":"lift","difficulty":null,"name":"150er Tux","aerialway":"cable_car","osm":"way/26158267"},"geometry":{"type":"LineString","coordinates":[[11.79566,47.17868],[11.77513,47.18433]]}},{"type":"Feature","properties":{"kind":"lift","difficulty":null,"name":"Rastkogelbahn","aerialway":"gondola","osm":"way/29159902"},"geometry":{"type":"LineString","coordinates":[[11.74311,47.16367],[11.74555,47.18301]]}},{"type":"Feature","properties":{"kind":"lift","difficulty":null,"name":"4er Sunjet","aerialway":"chair_lift","osm":"way/29160837"},"geometry":{"type":"LineString","coordinates":[[11.79779,47.17883],[11.79426,47.18247]]}},{"type":"Feature","properties":{"kind":"lift","difficulty":null,"name":"Mittertrettlift","aerialway":"t-bar","osm":"way/29160839"},"geometry":{"type":"LineString","coordinates":[[11.79921,47.17896],[11.79892,47.18189]]}},{"type":"Feature","properties":{"kind":"lift","difficulty":null,"name":"6er Schneekar","aerialway":"chair_lift","osm":"way/29160840"},"geometry":{"type":"LineString","coordinates":[[11.81009,47.18362],[11.79224,47.1912]]}},{"type":"Feature","properties":{"kind":"lift","difficulty":null,"name":"6er Unterbergalm","aerialway":"chair_lift","osm":"way/29160841"},"geometry":{"type":"LineString","coordinates":[[11.7999,47.19603],[11.79154,47.19131]]}},{"type":"Feature","properties":{"kind":"lift","difficulty":null,"name":"6er Gerent","aerialway":"chair_lift","osm":"way/29160842"},"geometry":{"type":"LineString","coordinates":[[11.81566,47.19171],[11.79277,47.19128]]}},{"type":"Feature","properties":{"kind":"lift","difficulty":null,"name":"4er Lärchwald-Express","aerialway":"chair_lift","osm":"way/29160843"},"geometry":{"type":"LineString","coordinates":[[11.80862,47.18354],[11.81547,47.17553]]}},{"type":"Feature","properties":{"kind":"lift","difficulty":null,"name":"Finkenberger Almbahn I","aerialway":"gondola","osm":"way/29160845"},"geometry":{"type":"LineString","coordinates":[[11.82217,47.1525],[11.80757,47.16215]]}},{"type":"Feature","properties":{"kind":"lift","difficulty":null,"name":"6er Katzenmoos","aerialway":"chair_lift","osm":"way/29160846"},"geometry":{"type":"LineString","coordinates":[[11.78579,47.16031],[11.79919,47.16886]]}},{"type":"Feature","properties":{"kind":"lift","difficulty":null,"name":"Eggalm Nord","aerialway":"chair_lift","osm":"way/29164678"},"geometry":{"type":"LineString","coordinates":[[11.7235,47.1727],[11.70361,47.16381]]}},{"type":"Feature","properties":{"kind":"lift","difficulty":null,"name":"Penkenbahn","aerialway":"gondola","osm":"way/30978865"},"geometry":{"type":"LineString","coordinates":[[11.86064,47.16342],[11.8475,47.16923],[11.82934,47.17545]]}},{"type":"Feature","properties":{"kind":"lift","difficulty":null,"name":"Ahornbahn","aerialway":"cable_car","osm":"way/31892248"},"geometry":{"type":"LineString","coordinates":[[11.85973,47.16035],[11.8705,47.13656]]}},{"type":"Feature","properties":{"kind":"lift","difficulty":null,"name":null,"aerialway":"magic_carpet","osm":"way/32076202"},"geometry":{"type":"LineString","coordinates":[[11.80957,47.18349],[11.81013,47.18322]]}},{"type":"Feature","properties":{"kind":"lift","difficulty":null,"name":null,"aerialway":"magic_carpet","osm":"way/32076222"},"geometry":{"type":"LineString","coordinates":[[11.81558,47.17628],[11.81651,47.17662]]}},{"type":"Feature","properties":{"kind":"lift","difficulty":null,"name":"Eggalmbahn","aerialway":"gondola","osm":"way/47511946"},"geometry":{"type":"LineString","coordinates":[[11.72853,47.1571],[11.71254,47.16266]]}},{"type":"Feature","properties":{"kind":"lift","difficulty":null,"name":"Lattenalm","aerialway":"chair_lift","osm":"way/47511949"},"geometry":{"type":"LineString","coordinates":[[11.72383,47.16582],[11.71024,47.16327]]}},{"type":"Feature","properties":{"kind":"lift","difficulty":null,"name":"Beilspitzlift","aerialway":"t-bar","osm":"way/51110759"},"geometry":{"type":"LineString","coordinates":[[11.70782,47.15915],[11.70099,47.16356]]}},{"type":"Feature","properties":{"kind":"lift","difficulty":null,"name":"Finkenberger Almbahn II","aerialway":"gondola","osm":"way/51781539"},"geometry":{"type":"LineString","coordinates":[[11.80734,47.16176],[11.8007,47.16823]]}},{"type":"Feature","properties":{"kind":"lift","difficulty":null,"name":"6er Ebenwald","aerialway":"chair_lift","osm":"way/51781543"},"geometry":{"type":"LineString","coordinates":[[11.85356,47.14354],[11.86381,47.13577]]}},{"type":"Feature","properties":{"kind":"lift","difficulty":null,"name":"Lämmerbichl","aerialway":"platter","osm":"way/68262826"},"geometry":{"type":"LineString","coordinates":[[11.74882,47.18165],[11.74859,47.18419]]}},{"type":"Feature","properties":{"kind":"lift","difficulty":null,"name":"Hinterangerlift","aerialway":"platter","osm":"way/93738823"},"geometry":{"type":"LineString","coordinates":[[11.72482,47.15367],[11.72138,47.15231]]}},{"type":"Feature","properties":{"kind":"lift","difficulty":null,"name":"Kombibahn Penken","aerialway":"mixed_lift","osm":"way/97725127"},"geometry":{"type":"LineString","coordinates":[[11.82754,47.17566],[11.81604,47.17596]]}},{"type":"Feature","properties":{"kind":"lift","difficulty":null,"name":"Hasenmuldenlift II","aerialway":"t-bar","osm":"way/130580355"},"geometry":{"type":"LineString","coordinates":[[11.80615,47.16755],[11.80197,47.17067]]}},{"type":"Feature","properties":{"kind":"lift","difficulty":null,"name":"Horbergbahn","aerialway":"gondola","osm":"way/156215470"},"geometry":{"type":"LineString","coordinates":[[11.85778,47.19056],[11.81048,47.18263]]}},{"type":"Feature","properties":{"kind":"lift","difficulty":null,"name":"Penkenkuli (Gschlössalm)","aerialway":"platter","osm":"way/156220204"},"geometry":{"type":"LineString","coordinates":[[11.82815,47.17343],[11.82774,47.17501]]}},{"type":"Feature","properties":{"kind":"lift","difficulty":null,"name":"Babylift Penkenjoch","aerialway":"j-bar","osm":"way/208444895"},"geometry":{"type":"LineString","coordinates":[[11.79969,47.17055],[11.80191,47.17036]]}},{"type":"Feature","properties":{"kind":"lift","difficulty":null,"name":null,"aerialway":"magic_carpet","osm":"way/208444896"},"geometry":{"type":"LineString","coordinates":[[11.80031,47.16996],[11.80059,47.16996]]}},{"type":"Feature","properties":{"kind":"lift","difficulty":null,"name":null,"aerialway":"magic_carpet","osm":"way/208720781"},"geometry":{"type":"LineString","coordinates":[[11.81009,47.18313],[11.80944,47.18271]]}},{"type":"Feature","properties":{"kind":"lift","difficulty":null,"name":"Minilift","aerialway":"rope_tow","osm":"way/209254360"},"geometry":{"type":"LineString","coordinates":[[11.77288,47.18452],[11.77462,47.18406]]}},{"type":"Feature","properties":{"kind":"lift","difficulty":null,"name":"Hasenmuldenlift I","aerialway":"platter","osm":"way/331853331"},"geometry":{"type":"LineString","coordinates":[[11.80582,47.16765],[11.80241,47.17024]]}},{"type":"Feature","properties":{"kind":"lift","difficulty":null,"name":"Babylift Penken","aerialway":"t-bar","osm":"way/343558827"},"geometry":{"type":"LineString","coordinates":[[11.82985,47.17492],[11.83184,47.17558]]}},{"type":"Feature","properties":{"kind":"lift","difficulty":null,"name":null,"aerialway":"magic_carpet","osm":"way/564726491"},"geometry":{"type":"LineString","coordinates":[[11.80952,47.18262],[11.8096,47.18247]]}},{"type":"Feature","properties":{"kind":"lift","difficulty":null,"name":"Möslbahn II","aerialway":"gondola","osm":"way/655440326"},"geometry":{"type":"LineString","coordinates":[[11.81687,47.20282],[11.81034,47.19299]]}},{"type":"Feature","properties":{"kind":"lift","difficulty":null,"name":null,"aerialway":"magic_carpet","osm":"way/777532865"},"geometry":{"type":"LineString","coordinates":[[11.80031,47.1701],[11.80059,47.1701]]}},{"type":"Feature","properties":{"kind":"lift","difficulty":null,"name":"Übungsland Penken","aerialway":"rope_tow","osm":"way/1040656054"},"geometry":{"type":"LineString","coordinates":[[11.83058,47.17647],[11.8313,47.17567]]}},{"type":"Feature","properties":{"kind":"lift","difficulty":null,"name":"Übungsland Penken","aerialway":"magic_carpet","osm":"way/1040656055"},"geometry":{"type":"LineString","coordinates":[[11.82993,47.17613],[11.82973,47.17561]]}},{"type":"Feature","properties":{"kind":"lift","difficulty":null,"name":"Übungsland Penken","aerialway":"platter","osm":"way/1040656056"},"geometry":{"type":"LineString","coordinates":[[11.83006,47.17648],[11.82872,47.17588]]}},{"type":"Feature","properties":{"kind":"lift","difficulty":null,"name":null,"aerialway":"rope_tow","osm":"way/1257898107"},"geometry":{"type":"LineString","coordinates":[[11.74779,47.18209],[11.74765,47.18288]]}},{"type":"Feature","properties":{"kind":"lift","difficulty":null,"name":"Möslbahn I","aerialway":"gondola","osm":"way/1547790150"},"geometry":{"type":"LineString","coordinates":[[11.8189,47.20592],[11.81687,47.20282]]}}]}