{"type":"FeatureCollection","features":[{"type":"Feature","properties":{"kind":"lift","difficulty":null,"name":"Krähenberglift","aerialway":"t-bar","osm":"way/477226744"},"geometry":{"type":"LineString","coordinates":[[10.04084,47.4178],[10.04951,47.41089]]}},{"type":"Feature","properties":{"kind":"piste","difficulty":"easy","name":null,"aerialway":null,"osm":"way/1434839013"},"geometry":{"type":"LineString","coordinates":[[10.04911,47.41122],[10.04924,47.41127],[10.0492,47.41144],[10.04819,47.41214],[10.0481,47.41334],[10.047,47.41379],[10.04622,47.41499],[10.04583,47.4151],[10.04519,47.41485],[10.04477,47.4149],[10.04435,47.41524],[10.04396,47.41582],[10.04332,47.41614],[10.04238,47.4171],[10.04118,47.41779],[10.04095,47.41771]]}},{"type":"Feature","properties":{"kind":"piste","difficulty":"easy","name":null,"aerialway":null,"osm":"way/1434839014"},"geometry":{"type":"LineString","coordinates":[[10.04923,47.41139],[10.04885,47.41272],[10.04864,47.41306],[10.04737,47.41451],[10.04622,47.41499]]}},{"type":"Feature","properties":{"kind":"piste","difficulty":"intermediate","name":null,"aerialway":null,"osm":"way/1434839015"},"geometry":{"type":"LineString","coordinates":[[10.04911,47.41122],[10.04704,47.41206],[10.04679,47.41238],[10.04668,47.41278],[10.04529,47.41323],[10.04511,47.41347],[10.04504,47.41396],[10.04414,47.41453]]}},{"type":"Feature","properties":{"kind":"piste","difficulty":"easy","name":null,"aerialway":null,"osm":"way/1434839016"},"geometry":{"type":"LineString","coordinates":[[10.04543,47.41493],[10.04489,47.41451],[10.04414,47.41453]]}},{"type":"Feature","properties":{"kind":"piste","difficulty":"easy","name":null,"aerialway":null,"osm":"way/1434839017"},"geometry":{"type":"LineString","coordinates":[[10.04414,47.41453],[10.04308,47.41516],[10.04227,47.41623],[10.04061,47.41748],[10.04048,47.41767],[10.04057,47.41788],[10.04089,47.41792],[10.04098,47.41775]]}},{"type":"Feature","properties":{"kind":"lift","difficulty":null,"name":null,"aerialway":"rope_tow","osm":"way/1434839018"},"geometry":{"type":"LineString","coordinates":[[10.04247,47.41764],[10.0435,47.41724]]}},{"type":"Feature","properties":{"kind":"piste","difficulty":"easy","name":null,"aerialway":null,"osm":"way/1434839019"},"geometry":{"type":"LineString","coordinates":[[10.0435,47.41724],[10.04316,47.41751],[10.04247,47.41764]]}},{"type":"Feature","properties":{"kind":"piste","difficulty":"easy","name":null,"aerialway":null,"osm":"way/1443001874"},"geometry":{"type":"LineString","coordinates":[[10.04272,47.41764],[10.04118,47.41779]]}}]}