{"type":"FeatureCollection","features":[{"type":"Feature","properties":{"kind":"piste","difficulty":"easy","name":"Ahornleiten","aerialway":null,"osm":"way/144398468"},"geometry":{"type":"LineString","coordinates":[[15.20639,47.92157],[15.20445,47.92288],[15.20356,47.92302]]}},{"type":"Feature","properties":{"kind":"lift","difficulty":null,"name":"Ahornlift","aerialway":"t-bar","osm":"way/144398469"},"geometry":{"type":"LineString","coordinates":[[15.20356,47.92302],[15.2061,47.92148]]}},{"type":"Feature","properties":{"kind":"piste","difficulty":"easy","name":"Birkenhang II","aerialway":null,"osm":"way/144398471"},"geometry":{"type":"LineString","coordinates":[[15.21426,47.92735],[15.21297,47.92699],[15.2117,47.92641],[15.20811,47.9239],[15.20778,47.92291],[15.20676,47.92145]]}},{"type":"Feature","properties":{"kind":"lift","difficulty":null,"name":"Birkenhanglift","aerialway":"t-bar","osm":"way/144398472"},"geometry":{"type":"LineString","coordinates":[[15.20676,47.92145],[15.21426,47.92735]]}},{"type":"Feature","properties":{"kind":"piste","difficulty":"easy","name":"Waldwiese","aerialway":null,"osm":"way/144398478"},"geometry":{"type":"LineString","coordinates":[[15.21426,47.92735],[15.21279,47.9279],[15.21192,47.92804],[15.21073,47.92785],[15.20956,47.92742],[15.20813,47.92628],[15.20798,47.92588],[15.2081,47.92498],[15.20581,47.9245],[15.20451,47.92352],[15.20356,47.92302]]}},{"type":"Feature","properties":{"kind":"piste","difficulty":"easy","name":"Birkenhang I","aerialway":null,"osm":"way/378272647"},"geometry":{"type":"LineString","coordinates":[[15.21376,47.9272],[15.20959,47.92407],[15.20701,47.92186]]}},{"type":"Feature","properties":{"kind":"piste","difficulty":"intermediate","name":"Lärchenschuss","aerialway":null,"osm":"way/378273169"},"geometry":{"type":"LineString","coordinates":[[15.21286,47.92694],[15.21198,47.92759],[15.2114,47.92772],[15.21113,47.92762],[15.21087,47.92737],[15.20922,47.92659],[15.20887,47.92608],[15.20859,47.92515],[15.2081,47.92498]]}},{"type":"Feature","properties":{"kind":"piste","difficulty":"easy","name":"Waldwiese","aerialway":null,"osm":"way/378273347"},"geometry":{"type":"LineString","coordinates":[[15.2081,47.92498],[15.20811,47.9239]]}}]}