{"type":"FeatureCollection","features":[{"type":"Feature","properties":{"kind":"piste","difficulty":"easy","name":null,"aerialway":null,"osm":"way/120952382"},"geometry":{"type":"LineString","coordinates":[[13.22536,47.34109],[13.22543,47.34122]]}},{"type":"Feature","properties":{"kind":"piste","difficulty":"easy","name":null,"aerialway":null,"osm":"way/120952383"},"geometry":{"type":"LineString","coordinates":[[13.22543,47.34122],[13.22584,47.34217],[13.2262,47.34254]]}},{"type":"Feature","properties":{"kind":"piste","difficulty":"easy","name":null,"aerialway":null,"osm":"way/120952387"},"geometry":{"type":"LineString","coordinates":[[13.22537,47.34094],[13.22536,47.34109]]}},{"type":"Feature","properties":{"kind":"piste","difficulty":"intermediate","name":null,"aerialway":null,"osm":"way/120952393"},"geometry":{"type":"LineString","coordinates":[[13.22537,47.34094],[13.22503,47.34055]]}},{"type":"Feature","properties":{"kind":"piste","difficulty":"freeride","name":null,"aerialway":null,"osm":"way/144329670"},"geometry":{"type":"LineString","coordinates":[[13.22736,47.34494],[13.22743,47.34508]]}},{"type":"Feature","properties":{"kind":"piste","difficulty":"freeride","name":null,"aerialway":null,"osm":"way/144329671"},"geometry":{"type":"LineString","coordinates":[[13.2164,47.34746],[13.21642,47.34729]]}},{"type":"Feature","properties":{"kind":"piste","difficulty":"freeride","name":null,"aerialway":null,"osm":"way/144329690"},"geometry":{"type":"LineString","coordinates":[[13.22311,47.34651],[13.22275,47.34738]]}},{"type":"Feature","properties":{"kind":"piste","difficulty":"intermediate","name":"Hahnbaum","aerialway":null,"osm":"way/144329702"},"geometry":{"type":"LineString","coordinates":[[13.22077,47.34405],[13.22011,47.34407],[13.21957,47.3439],[13.21915,47.34397],[13.21874,47.34457],[13.21826,47.34496],[13.21595,47.3462],[13.21394,47.3469],[13.21355,47.34728],[13.21355,47.34756],[13.21266,47.34788],[13.21063,47.34799],[13.20972,47.34891],[13.20983,47.34905]]}},{"type":"Feature","properties":{"kind":"piste","difficulty":"easy","name":"Übungshang Hahnbaum","aerialway":null,"osm":"way/144329705"},"geometry":{"type":"LineString","coordinates":[[13.21334,47.34682],[13.21205,47.34702],[13.21085,47.34737],[13.20989,47.34783],[13.2098,47.348],[13.20999,47.34799]]}},{"type":"Feature","properties":{"kind":"piste","difficulty":"intermediate","name":null,"aerialway":null,"osm":"way/144329713"},"geometry":{"type":"LineString","coordinates":[[13.2254,47.34117],[13.2255,47.34106],[13.22537,47.34094]]}},{"type":"Feature","properties":{"kind":"piste","difficulty":"freeride","name":null,"aerialway":null,"osm":"way/169352812"},"geometry":{"type":"LineString","coordinates":[[13.21677,47.34729],[13.21642,47.34729],[13.21634,47.34712]]}},{"type":"Feature","properties":{"kind":"piste","difficulty":"freeride","name":null,"aerialway":null,"osm":"way/169352813"},"geometry":{"type":"LineString","coordinates":[[13.21636,47.34716],[13.21461,47.34749],[13.21355,47.34756]]}},{"type":"Feature","properties":{"kind":"piste","difficulty":"freeride","name":null,"aerialway":null,"osm":"way/169352814"},"geometry":{"type":"LineString","coordinates":[[13.22275,47.34738],[13.22161,47.34715],[13.21916,47.3471],[13.21821,47.34743],[13.21665,47.34757],[13.2164,47.34746]]}},{"type":"Feature","properties":{"kind":"piste","difficulty":"easy","name":"Großunterbergabfahrt","aerialway":null,"osm":"way/550664427"},"geometry":{"type":"LineString","coordinates":[[13.21355,47.34756],[13.21247,47.34756]]}},{"type":"Feature","properties":{"kind":"piste","difficulty":"freeride","name":null,"aerialway":null,"osm":"way/550664430"},"geometry":{"type":"LineString","coordinates":[[13.22743,47.34508],[13.2275,47.34669],[13.2273,47.34712]]}},{"type":"Feature","properties":{"kind":"piste","difficulty":"freeride","name":null,"aerialway":null,"osm":"way/550664445"},"geometry":{"type":"LineString","coordinates":[[13.22691,47.34392],[13.22736,47.34494]]}},{"type":"Feature","properties":{"kind":"piste","difficulty":"freeride","name":null,"aerialway":null,"osm":"way/550664452"},"geometry":{"type":"LineString","coordinates":[[13.2243,47.34724],[13.22378,47.34666],[13.22352,47.34651],[13.22311,47.34651]]}},{"type":"Feature","properties":{"kind":"piste","difficulty":"freeride","name":null,"aerialway":null,"osm":"way/550664455"},"geometry":{"type":"LineString","coordinates":[[13.22502,47.34848],[13.2243,47.34724]]}},{"type":"Feature","properties":{"kind":"piste","difficulty":"freeride","name":null,"aerialway":null,"osm":"way/550664458"},"geometry":{"type":"LineString","coordinates":[[13.2273,47.34712],[13.22692,47.34745],[13.22661,47.34801],[13.22656,47.34872],[13.22639,47.3491],[13.22619,47.34934],[13.22566,47.34958]]}},{"type":"Feature","properties":{"kind":"piste","difficulty":"easy","name":null,"aerialway":null,"osm":"way/1527793056"},"geometry":{"type":"LineString","coordinates":[[13.22622,47.34256],[13.22691,47.34392]]}},{"type":"Feature","properties":{"kind":"piste","difficulty":"easy","name":null,"aerialway":null,"osm":"way/1527793057"},"geometry":{"type":"LineString","coordinates":[[13.2262,47.34254],[13.22622,47.34256]]}},{"type":"Feature","properties":{"kind":"lift","difficulty":null,"name":"Tellerlift Hetzenbichl","aerialway":"platter","osm":"way/120968513"},"geometry":{"type":"LineString","coordinates":[[13.20999,47.34799],[13.21334,47.34682]]}},{"type":"Feature","properties":{"kind":"lift","difficulty":null,"name":"Hahnbaumlift","aerialway":"t-bar","osm":"way/810834059"},"geometry":{"type":"LineString","coordinates":[[13.20983,47.34905],[13.22077,47.34405]]}}]}