{"type":"FeatureCollection","features":[{"type":"Feature","properties":{"kind":"lift","difficulty":null,"name":null,"aerialway":"drag_lift","osm":"way/110195057"},"geometry":{"type":"LineString","coordinates":[[13.10466,47.31119],[13.10428,47.31165]]}},{"type":"Feature","properties":{"kind":"lift","difficulty":null,"name":"Goldegger Schilifte II","aerialway":"t-bar","osm":"way/110312575"},"geometry":{"type":"LineString","coordinates":[[13.07482,47.31016],[13.06072,47.30809]]}},{"type":"Feature","properties":{"kind":"lift","difficulty":null,"name":"Goldegger Schilifte I","aerialway":"t-bar","osm":"way/110312636"},"geometry":{"type":"LineString","coordinates":[[13.08498,47.31411],[13.07002,47.30972]]}},{"type":"Feature","properties":{"kind":"piste","difficulty":"easy","name":"Goldegger Schilifte II","aerialway":null,"osm":"way/111001830"},"geometry":{"type":"LineString","coordinates":[[13.06176,47.30825],[13.06185,47.30842]]}},{"type":"Feature","properties":{"kind":"piste","difficulty":"easy","name":"Goldegger Schilifte I","aerialway":null,"osm":"way/111001831"},"geometry":{"type":"LineString","coordinates":[[13.07056,47.30988],[13.07159,47.30992],[13.07226,47.31023],[13.07385,47.31056],[13.07461,47.31038],[13.07685,47.31112],[13.07895,47.31156],[13.08129,47.31245],[13.0824,47.31307],[13.08392,47.31364],[13.08481,47.31382],[13.08498,47.31411]]}},{"type":"Feature","properties":{"kind":"piste","difficulty":"easy","name":"Familienabfahrt","aerialway":null,"osm":"way/111001834"},"geometry":{"type":"LineString","coordinates":[[13.07056,47.30988],[13.07081,47.31073],[13.07106,47.311],[13.07158,47.31123],[13.07284,47.31136],[13.0731,47.31152],[13.0731,47.31179],[13.07251,47.31206],[13.0724,47.31233],[13.0752,47.31329],[13.07591,47.31378],[13.07951,47.3153],[13.08053,47.31554],[13.08402,47.3153],[13.0843,47.31504],[13.08404,47.31393],[13.08426,47.31373]]}},{"type":"Feature","properties":{"kind":"piste","difficulty":"easy","name":"Goldegger Schilifte II","aerialway":null,"osm":"way/111001844"},"geometry":{"type":"LineString","coordinates":[[13.06185,47.30842],[13.06211,47.30855],[13.06468,47.30878],[13.06759,47.30936],[13.07049,47.30963],[13.07159,47.30992],[13.07245,47.30996],[13.07461,47.31038],[13.07477,47.31035],[13.07482,47.31016]]}},{"type":"Feature","properties":{"kind":"lift","difficulty":null,"name":"Übungs- Babylift Goldegg","aerialway":"rope_tow","osm":"way/144380209"},"geometry":{"type":"LineString","coordinates":[[13.08342,47.31557],[13.08108,47.31563]]}},{"type":"Feature","properties":{"kind":"piste","difficulty":"easy","name":"Übungs-Babylift","aerialway":null,"osm":"way/144380217"},"geometry":{"type":"LineString","coordinates":[[13.08053,47.31554],[13.0812,47.31576],[13.0819,47.31578],[13.08337,47.31567],[13.08342,47.31557]]}},{"type":"Feature","properties":{"kind":"piste","difficulty":"easy","name":"Familienabfahrt","aerialway":null,"osm":"way/449553229"},"geometry":{"type":"LineString","coordinates":[[13.08337,47.31567],[13.08371,47.31536]]}},{"type":"Feature","properties":{"kind":"piste","difficulty":"easy","name":"Familienabfahrt","aerialway":null,"osm":"way/558293297"},"geometry":{"type":"LineString","coordinates":[[13.06759,47.30936],[13.06879,47.31003],[13.06957,47.31063],[13.07007,47.31086],[13.07106,47.311]]}},{"type":"Feature","properties":{"kind":"piste","difficulty":"easy","name":"Übungs-Babylift","aerialway":null,"osm":"way/558293298"},"geometry":{"type":"LineString","coordinates":[[13.08108,47.31563],[13.0812,47.31576]]}}]}