{"type":"FeatureCollection","features":[{"type":"Feature","properties":{"kind":"piste","difficulty":"easy","name":"11 \"Rote 8er\" Talabfahrt","aerialway":null,"osm":"way/23660082"},"geometry":{"type":"LineString","coordinates":[[13.34447,47.35391],[13.34416,47.3541],[13.3436,47.35418],[13.34192,47.3542],[13.34196,47.35433],[13.34221,47.35441],[13.34582,47.35496],[13.34579,47.35514],[13.34564,47.35519],[13.34453,47.35534],[13.34233,47.3553],[13.34226,47.35544],[13.34354,47.35568]]}},{"type":"Feature","properties":{"kind":"piste","difficulty":"intermediate","name":"starjet 3","aerialway":null,"osm":"way/23660087"},"geometry":{"type":"LineString","coordinates":[[13.35555,47.33139],[13.35595,47.33261],[13.35654,47.33352],[13.35872,47.3337],[13.35931,47.33333]]}},{"type":"Feature","properties":{"kind":"piste","difficulty":"easy","name":"starjet 2","aerialway":null,"osm":"way/23660089"},"geometry":{"type":"LineString","coordinates":[[13.35808,47.33482],[13.35786,47.33465]]}},{"type":"Feature","properties":{"kind":"piste","difficulty":"intermediate","name":"spacejet 1","aerialway":null,"osm":"way/23660092"},"geometry":{"type":"LineString","coordinates":[[13.37246,47.34928],[13.37279,47.34922],[13.3732,47.34934],[13.37398,47.34989],[13.37472,47.351],[13.37573,47.35201],[13.37855,47.35277],[13.38026,47.35514],[13.3817,47.35761],[13.38272,47.35857],[13.38302,47.3591],[13.38279,47.35922]]}},{"type":"Feature","properties":{"kind":"piste","difficulty":"easy","name":"starjet 2","aerialway":null,"osm":"way/23660094"},"geometry":{"type":"LineString","coordinates":[[13.35424,47.33381],[13.35335,47.33421]]}},{"type":"Feature","properties":{"kind":"piste","difficulty":"intermediate","name":"Zeitmessstrecke","aerialway":null,"osm":"way/23660102"},"geometry":{"type":"LineString","coordinates":[[13.37549,47.35102],[13.37687,47.35105],[13.37752,47.35217],[13.37855,47.35277],[13.38,47.35311],[13.38319,47.35438],[13.38404,47.35507],[13.38433,47.35511],[13.385,47.35475]]}},{"type":"Feature","properties":{"kind":"piste","difficulty":"intermediate","name":"achterjet","aerialway":null,"osm":"way/23660103"},"geometry":{"type":"LineString","coordinates":[[13.35783,47.33535],[13.35969,47.33555],[13.36101,47.33586],[13.36158,47.33626],[13.36183,47.33677],[13.36249,47.33751],[13.36406,47.3387],[13.36728,47.34016],[13.36904,47.34111],[13.36969,47.34111],[13.37078,47.34147],[13.371,47.34186],[13.37051,47.34191]]}},{"type":"Feature","properties":{"kind":"piste","difficulty":"intermediate","name":"11 \"Rote 8er\" Talabfahrt","aerialway":null,"osm":"way/28848602"},"geometry":{"type":"LineString","coordinates":[[13.34447,47.35391],[13.34531,47.35421],[13.34574,47.35454],[13.34596,47.35483],[13.34611,47.35561],[13.34585,47.35589],[13.34532,47.35609],[13.34402,47.3561]]}},{"type":"Feature","properties":{"kind":"piste","difficulty":"intermediate","name":"Hermann Maier Weltcupstrecke","aerialway":null,"osm":"way/30754014"},"geometry":{"type":"LineString","coordinates":[[13.37006,47.34057],[13.37078,47.34147],[13.37289,47.34231],[13.37438,47.34229],[13.37563,47.34208],[13.37664,47.3411],[13.38076,47.341],[13.38569,47.34156],[13.38943,47.34367],[13.38934,47.34384],[13.38913,47.34383]]}},{"type":"Feature","properties":{"kind":"piste","difficulty":"easy","name":"zur Weltcupstrecke","aerialway":null,"osm":"way/30754016"},"geometry":{"type":"LineString","coordinates":[[13.37051,47.34191],[13.37066,47.34235],[13.37052,47.34265],[13.37067,47.34288],[13.37198,47.34268],[13.37289,47.34231]]}},{"type":"Feature","properties":{"kind":"piste","difficulty":"intermediate","name":"spacejet 1","aerialway":null,"osm":"way/151643490"},"geometry":{"type":"LineString","coordinates":[[13.37398,47.34989],[13.37584,47.35037]]}},{"type":"Feature","properties":{"kind":"piste","difficulty":"easy","name":"Skiweg \"Rote 8er\"","aerialway":null,"osm":"way/151643563"},"geometry":{"type":"LineString","coordinates":[[13.35266,47.33385],[13.35238,47.33404],[13.35116,47.33431],[13.34959,47.33431],[13.34751,47.33462]]}},{"type":"Feature","properties":{"kind":"piste","difficulty":"easy","name":"ÜL bingojet","aerialway":null,"osm":"way/151643606"},"geometry":{"type":"LineString","coordinates":[[13.38278,47.35777],[13.38301,47.35836],[13.3835,47.35867],[13.38429,47.35895],[13.38452,47.35878]]}},{"type":"Feature","properties":{"kind":"piste","difficulty":"easy","name":"starjet 2","aerialway":null,"osm":"way/170002016"},"geometry":{"type":"LineString","coordinates":[[13.36407,47.34492],[13.36566,47.34494],[13.36719,47.34517]]}},{"type":"Feature","properties":{"kind":"piste","difficulty":"easy","name":"ÜL dinojet","aerialway":null,"osm":"way/199079433"},"geometry":{"type":"LineString","coordinates":[[13.37914,47.35767],[13.37982,47.35788],[13.38212,47.35906],[13.38219,47.35963]]}},{"type":"Feature","properties":{"kind":"piste","difficulty":"easy","name":"starjet 2","aerialway":null,"osm":"way/199093035"},"geometry":{"type":"LineString","coordinates":[[13.35335,47.33421],[13.35432,47.33431]]}},{"type":"Feature","properties":{"kind":"piste","difficulty":"easy","name":null,"aerialway":null,"osm":"way/199093037"},"geometry":{"type":"LineString","coordinates":[[13.34586,47.35504],[13.34601,47.35504]]}},{"type":"Feature","properties":{"kind":"piste","difficulty":"easy","name":"Übungshang Edelweiss","aerialway":null,"osm":"way/199093044"},"geometry":{"type":"LineString","coordinates":[[13.33219,47.34791],[13.33199,47.34775],[13.3321,47.34764],[13.33261,47.34756],[13.33324,47.34786],[13.33346,47.34813]]}},{"type":"Feature","properties":{"kind":"piste","difficulty":"easy","name":"WAGRAINI's Winterwelt","aerialway":null,"osm":"way/199093046"},"geometry":{"type":"LineString","coordinates":[[13.33473,47.34791],[13.33337,47.34749]]}},{"type":"Feature","properties":{"kind":"piste","difficulty":"easy","name":"zur Weltcupstrecke","aerialway":null,"osm":"way/199093049"},"geometry":{"type":"LineString","coordinates":[[13.36979,47.34304],[13.37067,47.34288]]}},{"type":"Feature","properties":{"kind":"piste","difficulty":"intermediate","name":"12 Abfahrt \"Rote 8er\"","aerialway":null,"osm":"way/199093072"},"geometry":{"type":"LineString","coordinates":[[13.34658,47.3284],[13.3463,47.32847],[13.34607,47.32873],[13.34585,47.32959],[13.34669,47.33177],[13.3467,47.3335],[13.34751,47.33462],[13.34749,47.33514],[13.34617,47.33687],[13.34601,47.33735],[13.34601,47.33881],[13.34569,47.33927],[13.34514,47.33971],[13.34471,47.341],[13.34467,47.34169],[13.34445,47.34233],[13.34417,47.34265],[13.34256,47.34334],[13.34201,47.34375],[13.33982,47.34464],[13.33891,47.34556],[13.3381,47.34677],[13.33704,47.34778]]}},{"type":"Feature","properties":{"kind":"piste","difficulty":"intermediate","name":"spacejet 3","aerialway":null,"osm":"way/199093075"},"geometry":{"type":"LineString","coordinates":[[13.35705,47.33993],[13.35954,47.33982]]}},{"type":"Feature","properties":{"kind":"piste","difficulty":"easy","name":"Übungshang Edelweiss","aerialway":null,"osm":"way/199093079"},"geometry":{"type":"LineString","coordinates":[[13.33346,47.34813],[13.33504,47.34827]]}},{"type":"Feature","properties":{"kind":"piste","difficulty":"easy","name":"Verbindungs starjet - spacejet","aerialway":null,"osm":"way/199093083"},"geometry":{"type":"LineString","coordinates":[[13.37289,47.34231],[13.37326,47.34344],[13.37328,47.34401],[13.37305,47.34466],[13.37301,47.34536],[13.37267,47.34625]]}},{"type":"Feature","properties":{"kind":"piste","difficulty":"intermediate","name":"achterjet","aerialway":null,"osm":"way/199103993"},"geometry":{"type":"LineString","coordinates":[[13.37335,47.3482],[13.37316,47.34853],[13.37326,47.3491]]}},{"type":"Feature","properties":{"kind":"piste","difficulty":"easy","name":"Übungshang Edelweiss","aerialway":null,"osm":"way/325933627"},"geometry":{"type":"LineString","coordinates":[[13.33504,47.34827],[13.33562,47.34822]]}},{"type":"Feature","properties":{"kind":"piste","difficulty":"easy","name":"WAGRAINI's Winterwelt","aerialway":null,"osm":"way/325933628"},"geometry":{"type":"LineString","coordinates":[[13.33219,47.34791],[13.33167,47.34762],[13.33182,47.34742],[13.33295,47.34735],[13.33337,47.34749]]}},{"type":"Feature","properties":{"kind":"piste","difficulty":"easy","name":"WAGRAINI's Winterwelt","aerialway":null,"osm":"way/325933629"},"geometry":{"type":"LineString","coordinates":[[13.33562,47.34822],[13.33739,47.34839]]}},{"type":"Feature","properties":{"kind":"piste","difficulty":"easy","name":"ÜL bingojet","aerialway":null,"osm":"way/445856987"},"geometry":{"type":"LineString","coordinates":[[13.38302,47.3591],[13.38325,47.35892],[13.38331,47.35855]]}},{"type":"Feature","properties":{"kind":"piste","difficulty":"easy","name":"ÜL Hofleiten","aerialway":null,"osm":"way/445858216"},"geometry":{"type":"LineString","coordinates":[[13.38512,47.34611],[13.38663,47.34569],[13.38714,47.34572],[13.38723,47.34583]]}},{"type":"Feature","properties":{"kind":"piste","difficulty":"easy","name":"starjet 2","aerialway":null,"osm":"way/449531832"},"geometry":{"type":"LineString","coordinates":[[13.35437,47.33394],[13.35424,47.33381]]}},{"type":"Feature","properties":{"kind":"piste","difficulty":"intermediate","name":null,"aerialway":null,"osm":"way/449533029"},"geometry":{"type":"LineString","coordinates":[[13.36407,47.34492],[13.36383,47.3448]]}},{"type":"Feature","properties":{"kind":"piste","difficulty":"easy","name":"WAGRAINIs Winterwelt","aerialway":null,"osm":"way/449537945"},"geometry":{"type":"LineString","coordinates":[[13.33295,47.34735],[13.33308,47.34733]]}},{"type":"Feature","properties":{"kind":"piste","difficulty":"easy","name":"WAGRAINIs Winterwelt","aerialway":null,"osm":"way/449537946"},"geometry":{"type":"LineString","coordinates":[[13.33491,47.34788],[13.33473,47.34791]]}},{"type":"Feature","properties":{"kind":"piste","difficulty":"easy","name":"WAGRAINI's Winterwelt","aerialway":null,"osm":"way/449539133"},"geometry":{"type":"LineString","coordinates":[[13.33621,47.34834],[13.33645,47.34858]]}},{"type":"Feature","properties":{"kind":"piste","difficulty":"easy","name":"WAGRAINI's Winterwelt","aerialway":null,"osm":"way/449693188"},"geometry":{"type":"LineString","coordinates":[[13.33473,47.34791],[13.33562,47.34822]]}},{"type":"Feature","properties":{"kind":"piste","difficulty":"intermediate","name":"spacejet 3","aerialway":null,"osm":"way/449700655"},"geometry":{"type":"LineString","coordinates":[[13.34774,47.32843],[13.34786,47.32939],[13.34839,47.32969],[13.34948,47.33091],[13.35206,47.33341],[13.35335,47.33421],[13.35398,47.33561],[13.35522,47.33694],[13.35623,47.3378],[13.3571,47.33796],[13.35713,47.33867],[13.35693,47.3396],[13.35705,47.33993],[13.3576,47.34037],[13.35776,47.34068],[13.35788,47.3417],[13.35819,47.34221],[13.35871,47.34269],[13.36304,47.34493],[13.36364,47.34501],[13.36407,47.34492]]}},{"type":"Feature","properties":{"kind":"piste","difficulty":"intermediate","name":"spacejet 3","aerialway":null,"osm":"way/449710951"},"geometry":{"type":"LineString","coordinates":[[13.34839,47.32969],[13.34994,47.32956],[13.35084,47.33053],[13.35363,47.33276],[13.35335,47.33421],[13.35453,47.33503],[13.35531,47.33606],[13.35716,47.33755],[13.3571,47.33796],[13.35831,47.33881],[13.35987,47.34018],[13.36078,47.34075],[13.36235,47.34129],[13.36346,47.34192],[13.36415,47.34254],[13.36708,47.34394],[13.36407,47.34492]]}},{"type":"Feature","properties":{"kind":"piste","difficulty":"intermediate","name":"spacejet 2","aerialway":null,"osm":"way/449713483"},"geometry":{"type":"LineString","coordinates":[[13.35424,47.33381],[13.35479,47.33379],[13.35577,47.33398],[13.35841,47.33713],[13.35888,47.33755],[13.35981,47.3377],[13.36046,47.33819],[13.36122,47.33944],[13.36243,47.34043],[13.36726,47.34274],[13.36708,47.34394],[13.36741,47.34446],[13.3687,47.34551],[13.37045,47.34609],[13.37111,47.34672],[13.37245,47.34837],[13.37326,47.3491],[13.37351,47.34969],[13.37326,47.34974]]}},{"type":"Feature","properties":{"kind":"piste","difficulty":"easy","name":"starjet 2","aerialway":null,"osm":"way/449713484"},"geometry":{"type":"LineString","coordinates":[[13.35341,47.33069],[13.3533,47.3323],[13.35363,47.33276],[13.35654,47.33352],[13.35786,47.33465],[13.3581,47.33431],[13.35891,47.33429],[13.35963,47.33399],[13.35977,47.33365],[13.35931,47.33333],[13.36078,47.33338],[13.36163,47.33355],[13.36263,47.33412],[13.36269,47.33441],[13.36257,47.33498],[13.36167,47.33713]]}},{"type":"Feature","properties":{"kind":"piste","difficulty":"intermediate","name":"achterjet","aerialway":null,"osm":"way/449713485"},"geometry":{"type":"LineString","coordinates":[[13.35786,47.33465],[13.35721,47.33467],[13.35719,47.33488],[13.3575,47.33522],[13.35783,47.33535]]}},{"type":"Feature","properties":{"kind":"piste","difficulty":"easy","name":null,"aerialway":null,"osm":"way/449718423"},"geometry":{"type":"LineString","coordinates":[[13.36929,47.34217],[13.36991,47.34218],[13.37045,47.34205],[13.37051,47.34191]]}},{"type":"Feature","properties":{"kind":"piste","difficulty":"intermediate","name":"achterjet","aerialway":null,"osm":"way/449721275"},"geometry":{"type":"LineString","coordinates":[[13.35719,47.33488],[13.35749,47.33595],[13.3591,47.33714],[13.36136,47.33814],[13.36415,47.3396],[13.36537,47.33992],[13.36673,47.3405],[13.36929,47.34217],[13.36979,47.34304],[13.37062,47.34369],[13.3717,47.3453],[13.37267,47.34625],[13.37318,47.34721],[13.37335,47.3482],[13.37477,47.34918],[13.37584,47.35037],[13.37687,47.35105],[13.38475,47.3526],[13.38581,47.35323],[13.38592,47.35334],[13.38579,47.35348],[13.38562,47.35343]]}},{"type":"Feature","properties":{"kind":"piste","difficulty":"easy","name":"ÜL dinojet","aerialway":null,"osm":"way/452448959"},"geometry":{"type":"LineString","coordinates":[[13.38279,47.35922],[13.38212,47.35906]]}},{"type":"Feature","properties":{"kind":"piste","difficulty":"easy","name":"starjet 2","aerialway":null,"osm":"way/456994231"},"geometry":{"type":"LineString","coordinates":[[13.35977,47.33365],[13.36013,47.33339]]}},{"type":"Feature","properties":{"kind":"piste","difficulty":"easy","name":"11 \"Rote 8er\" Talabfahrt","aerialway":null,"osm":"way/675267279"},"geometry":{"type":"LineString","coordinates":[[13.33704,47.34778],[13.33773,47.34888],[13.33781,47.35053],[13.3381,47.35092],[13.33995,47.35194],[13.34076,47.35278],[13.34427,47.35374],[13.34447,47.35391]]}},{"type":"Feature","properties":{"kind":"piste","difficulty":"easy","name":"\"Rote 8er\" Talabfahrt","aerialway":null,"osm":"way/675267280"},"geometry":{"type":"LineString","coordinates":[[13.33641,47.34777],[13.33704,47.34778]]}},{"type":"Feature","properties":{"kind":"piste","difficulty":"easy","name":"starjet 2","aerialway":null,"osm":"way/729217790"},"geometry":{"type":"LineString","coordinates":[[13.35712,47.33459],[13.35761,47.33453],[13.35786,47.33465]]}},{"type":"Feature","properties":{"kind":"piste","difficulty":"easy","name":"starjet 2","aerialway":null,"osm":"way/729217791"},"geometry":{"type":"LineString","coordinates":[[13.35432,47.33431],[13.35626,47.33464],[13.35712,47.33459]]}},{"type":"Feature","properties":{"kind":"piste","difficulty":"easy","name":"11 \"Rote 8er\" Talabfahrt","aerialway":null,"osm":"way/729220626"},"geometry":{"type":"LineString","coordinates":[[13.34354,47.35568],[13.34437,47.35579]]}},{"type":"Feature","properties":{"kind":"piste","difficulty":"easy","name":"11 \"Rote 8er\" Talabfahrt","aerialway":null,"osm":"way/729220627"},"geometry":{"type":"LineString","coordinates":[[13.34437,47.35579],[13.34447,47.35594],[13.3444,47.35611]]}},{"type":"Feature","properties":{"kind":"piste","difficulty":"easy","name":"ul piggyjet","aerialway":null,"osm":"way/1067628039"},"geometry":{"type":"LineString","coordinates":[[13.38843,47.3426],[13.3885,47.34278],[13.38914,47.34319],[13.38937,47.34321]]}},{"type":"Feature","properties":{"kind":"piste","difficulty":"easy","name":null,"aerialway":null,"osm":"way/1469066971"},"geometry":{"type":"LineString","coordinates":[[13.38092,47.36846],[13.38155,47.37059],[13.38181,47.37098],[13.38331,47.37166],[13.38445,47.37191],[13.38521,47.37191]]}},{"type":"Feature","properties":{"kind":"lift","difficulty":null,"name":"Rote 8er I","aerialway":"gondola","osm":"way/23149620"},"geometry":{"type":"LineString","coordinates":[[13.34402,47.3561],[13.33641,47.34777]]}},{"type":"Feature","properties":{"kind":"lift","difficulty":null,"name":"Spacejet 3","aerialway":"chair_lift","osm":"way/23149642"},"geometry":{"type":"LineString","coordinates":[[13.36383,47.3448],[13.34814,47.32811]]}},{"type":"Feature","properties":{"kind":"lift","difficulty":null,"name":"spacejet 2","aerialway":"chair_lift","osm":"way/23149649"},"geometry":{"type":"LineString","coordinates":[[13.37326,47.34974],[13.35437,47.33394]]}},{"type":"Feature","properties":{"kind":"lift","difficulty":null,"name":"starjet 2","aerialway":"chair_lift","osm":"way/23149659"},"geometry":{"type":"LineString","coordinates":[[13.37051,47.34191],[13.35287,47.33021]]}},{"type":"Feature","properties":{"kind":"lift","difficulty":null,"name":"achterjet","aerialway":"gondola","osm":"way/23149679"},"geometry":{"type":"LineString","coordinates":[[13.38562,47.35343],[13.35808,47.33482]]}},{"type":"Feature","properties":{"kind":"lift","difficulty":null,"name":"spacejet 1","aerialway":"chair_lift","osm":"way/23149709"},"geometry":{"type":"LineString","coordinates":[[13.38279,47.35922],[13.37246,47.34928]]}},{"type":"Feature","properties":{"kind":"lift","difficulty":null,"name":"starjet 1","aerialway":"chair_lift","osm":"way/30745873"},"geometry":{"type":"LineString","coordinates":[[13.38913,47.34383],[13.37006,47.34057]]}},{"type":"Feature","properties":{"kind":"lift","difficulty":null,"name":"Lacknerlift","aerialway":"t-bar","osm":"way/151643497"},"geometry":{"type":"LineString","coordinates":[[13.385,47.35475],[13.37549,47.35102]]}},{"type":"Feature","properties":{"kind":"lift","difficulty":null,"name":"dinojet","aerialway":"platter","osm":"way/151643500"},"geometry":{"type":"LineString","coordinates":[[13.38219,47.35963],[13.37914,47.35767]]}},{"type":"Feature","properties":{"kind":"lift","difficulty":null,"name":"bingojet","aerialway":"rope_tow","osm":"way/151643577"},"geometry":{"type":"LineString","coordinates":[[13.38452,47.35878],[13.38278,47.35777]]}},{"type":"Feature","properties":{"kind":"lift","difficulty":null,"name":null,"aerialway":"drag_lift","osm":"way/170144615"},"geometry":{"type":"LineString","coordinates":[[13.38515,47.35588],[13.37986,47.35334],[13.38011,47.35332]]}},{"type":"Feature","properties":{"kind":"lift","difficulty":null,"name":"WAGRAINI's Zauberteppich","aerialway":"magic_carpet","osm":"way/199093052"},"geometry":{"type":"LineString","coordinates":[[13.33346,47.34813],[13.33219,47.34791]]}},{"type":"Feature","properties":{"kind":"lift","difficulty":null,"name":"Rote 8er II","aerialway":"gondola","osm":"way/199103990"},"geometry":{"type":"LineString","coordinates":[[13.33641,47.34777],[13.34675,47.32855]]}},{"type":"Feature","properties":{"kind":"lift","difficulty":null,"name":null,"aerialway":"magic_carpet","osm":"way/256678210"},"geometry":{"type":"LineString","coordinates":[[13.33521,47.34789],[13.33551,47.34779]]}},{"type":"Feature","properties":{"kind":"lift","difficulty":null,"name":"WAGRAINi's Übungslift","aerialway":"rope_tow","osm":"way/325933625"},"geometry":{"type":"LineString","coordinates":[[13.33308,47.34733],[13.33491,47.34788]]}},{"type":"Feature","properties":{"kind":"lift","difficulty":null,"name":"Übungslift Edelweissalm","aerialway":"rope_tow","osm":"way/325933626"},"geometry":{"type":"LineString","coordinates":[[13.33645,47.34858],[13.335,47.34833]]}},{"type":"Feature","properties":{"kind":"lift","difficulty":null,"name":"speedyjet","aerialway":"platter","osm":"way/437944263"},"geometry":{"type":"LineString","coordinates":[[13.38092,47.36846],[13.38521,47.37191]]}},{"type":"Feature","properties":{"kind":"lift","difficulty":null,"name":"hofleitenjet","aerialway":"rope_tow","osm":"way/445855262"},"geometry":{"type":"LineString","coordinates":[[13.38723,47.34583],[13.38512,47.34611]]}},{"type":"Feature","properties":{"kind":"lift","difficulty":null,"name":"piggyjet","aerialway":"rope_tow","osm":"way/445855330"},"geometry":{"type":"LineString","coordinates":[[13.38937,47.34321],[13.38843,47.3426]]}},{"type":"Feature","properties":{"kind":"lift","difficulty":null,"name":"Rodelbahn Jet","aerialway":"platter","osm":"way/1077895653"},"geometry":{"type":"LineString","coordinates":[[13.3854,47.35588],[13.38301,47.35466]]}}]}