{"type":"FeatureCollection","features":[{"type":"Feature","properties":{"kind":"piste","difficulty":"easy","name":null,"aerialway":null,"osm":"way/29462251"},"geometry":{"type":"LineString","coordinates":[[10.496,47.0226],[10.4962,47.0225]]}},{"type":"Feature","properties":{"kind":"piste","difficulty":"intermediate","name":null,"aerialway":null,"osm":"way/29462252"},"geometry":{"type":"LineString","coordinates":[[10.496,47.0226],[10.49418,47.02252],[10.49365,47.02236],[10.49333,47.0221],[10.49311,47.02101],[10.49339,47.02039],[10.49345,47.01964],[10.49315,47.01805]]}},{"type":"Feature","properties":{"kind":"piste","difficulty":"intermediate","name":null,"aerialway":null,"osm":"way/29462290"},"geometry":{"type":"LineString","coordinates":[[10.49285,47.0175],[10.49246,47.01648],[10.49176,47.01542],[10.49186,47.01475]]}},{"type":"Feature","properties":{"kind":"piste","difficulty":"intermediate","name":null,"aerialway":null,"osm":"way/33630094"},"geometry":{"type":"LineString","coordinates":[[10.50093,47.02037],[10.49663,47.01958],[10.49513,47.01916],[10.4944,47.01893],[10.49315,47.01805],[10.49285,47.0175],[10.49333,47.01594],[10.49327,47.01517],[10.49259,47.01412]]}},{"type":"Feature","properties":{"kind":"piste","difficulty":"intermediate","name":null,"aerialway":null,"osm":"way/33630096"},"geometry":{"type":"LineString","coordinates":[[10.49116,47.01496],[10.49186,47.01475],[10.49226,47.01447],[10.49273,47.01386],[10.49298,47.01396]]}},{"type":"Feature","properties":{"kind":"piste","difficulty":"easy","name":"Almwiese","aerialway":null,"osm":"way/51844515"},"geometry":{"type":"LineString","coordinates":[[10.49209,47.0687],[10.48911,47.06948],[10.48802,47.06989]]}},{"type":"Feature","properties":{"kind":"piste","difficulty":"easy","name":"Gratabfahrt","aerialway":null,"osm":"way/51844702"},"geometry":{"type":"LineString","coordinates":[[10.49571,47.06358],[10.49587,47.06368],[10.49517,47.06425],[10.49383,47.06709]]}},{"type":"Feature","properties":{"kind":"piste","difficulty":"advanced","name":"Panoramaabfahrt","aerialway":null,"osm":"way/51849349"},"geometry":{"type":"LineString","coordinates":[[10.4863,47.07097],[10.48257,47.07196],[10.47738,47.07312]]}},{"type":"Feature","properties":{"kind":"piste","difficulty":"intermediate","name":"Medrigalmabfahrt","aerialway":null,"osm":"way/51849791"},"geometry":{"type":"LineString","coordinates":[[10.49345,47.06824],[10.4927,47.06786],[10.49154,47.06821],[10.48926,47.06635],[10.48867,47.06554]]}},{"type":"Feature","properties":{"kind":"piste","difficulty":"intermediate","name":"Kanonenrohr","aerialway":null,"osm":"way/51849974"},"geometry":{"type":"LineString","coordinates":[[10.49561,47.06507],[10.49535,47.06714],[10.49498,47.06783],[10.49373,47.06887]]}},{"type":"Feature","properties":{"kind":"piste","difficulty":"novice","name":"Übungswiese","aerialway":null,"osm":"way/51851363"},"geometry":{"type":"LineString","coordinates":[[10.47983,47.07545],[10.47963,47.07544],[10.47771,47.07392]]}},{"type":"Feature","properties":{"kind":"piste","difficulty":"advanced","name":"Buckelpiste","aerialway":null,"osm":"way/51852520"},"geometry":{"type":"LineString","coordinates":[[10.49517,47.06425],[10.49265,47.06536],[10.48926,47.06635],[10.48809,47.06635],[10.48668,47.06659],[10.48543,47.06699],[10.48298,47.06805]]}},{"type":"Feature","properties":{"kind":"piste","difficulty":"advanced","name":"Adrenalin","aerialway":null,"osm":"way/51852521"},"geometry":{"type":"LineString","coordinates":[[10.49555,47.06482],[10.49624,47.065],[10.4974,47.06565],[10.49839,47.06604]]}},{"type":"Feature","properties":{"kind":"piste","difficulty":"advanced","name":null,"aerialway":null,"osm":"way/52890268"},"geometry":{"type":"LineString","coordinates":[[10.49725,47.02218],[10.49656,47.02095],[10.4944,47.01893]]}},{"type":"Feature","properties":{"kind":"piste","difficulty":"intermediate","name":"Familien-Talabfahrt","aerialway":null,"osm":"way/137166099"},"geometry":{"type":"LineString","coordinates":[[10.44863,47.06853],[10.45023,47.06956],[10.45127,47.06982],[10.45237,47.07034],[10.45349,47.07047],[10.45401,47.0709],[10.45566,47.07143],[10.45655,47.07187],[10.45722,47.07276],[10.45751,47.0729],[10.4601,47.07328],[10.46064,47.07325],[10.46144,47.07345],[10.4624,47.07338],[10.45916,47.07423],[10.45824,47.07433],[10.45755,47.07431],[10.4556,47.0739],[10.45749,47.07492],[10.4601,47.07546],[10.46084,47.07557],[10.46189,47.07525],[10.46311,47.0753],[10.46319,47.07534],[10.46308,47.07539],[10.46255,47.0754],[10.46176,47.07582]]}},{"type":"Feature","properties":{"kind":"piste","difficulty":"intermediate","name":"Talabfahrt","aerialway":null,"osm":"way/137171230"},"geometry":{"type":"LineString","coordinates":[[10.46,47.07672],[10.4621,47.07629],[10.46247,47.07633]]}},{"type":"Feature","properties":{"kind":"piste","difficulty":"intermediate","name":null,"aerialway":null,"osm":"way/148619063"},"geometry":{"type":"LineString","coordinates":[[10.48507,47.016],[10.48727,47.01596]]}},{"type":"Feature","properties":{"kind":"piste","difficulty":"intermediate","name":null,"aerialway":null,"osm":"way/148619064"},"geometry":{"type":"LineString","coordinates":[[10.48727,47.01596],[10.48869,47.01573],[10.48963,47.01543]]}},{"type":"Feature","properties":{"kind":"piste","difficulty":"intermediate","name":null,"aerialway":null,"osm":"way/148619065"},"geometry":{"type":"LineString","coordinates":[[10.47316,47.01272],[10.47302,47.01295],[10.47259,47.01307],[10.47094,47.01299],[10.47052,47.01285],[10.47035,47.01265],[10.47127,47.01188],[10.47164,47.01126],[10.47323,47.01047],[10.47362,47.01035],[10.4741,47.01045],[10.47495,47.01085],[10.47619,47.01175],[10.4779,47.01219],[10.48084,47.01353],[10.48199,47.01447],[10.48264,47.0153],[10.4832,47.01559],[10.48507,47.016]]}},{"type":"Feature","properties":{"kind":"piste","difficulty":"intermediate","name":null,"aerialway":null,"osm":"way/203296461"},"geometry":{"type":"LineString","coordinates":[[10.47094,47.01299],[10.47017,47.01399],[10.47035,47.0144],[10.4709,47.01479],[10.47373,47.0158],[10.47582,47.01623],[10.47758,47.01709],[10.47955,47.01827],[10.48266,47.01963],[10.48361,47.01959],[10.48481,47.01924],[10.48885,47.01779]]}},{"type":"Feature","properties":{"kind":"piste","difficulty":"advanced","name":null,"aerialway":null,"osm":"way/203296463"},"geometry":{"type":"LineString","coordinates":[[10.47291,47.01351],[10.4753,47.01425],[10.47832,47.01431],[10.47889,47.01444],[10.48012,47.01513],[10.48105,47.01537],[10.4832,47.01559]]}},{"type":"Feature","properties":{"kind":"piste","difficulty":"intermediate","name":null,"aerialway":null,"osm":"way/203296464"},"geometry":{"type":"LineString","coordinates":[[10.47873,47.0126],[10.48264,47.0153]]}},{"type":"Feature","properties":{"kind":"piste","difficulty":"intermediate","name":null,"aerialway":null,"osm":"way/203296465"},"geometry":{"type":"LineString","coordinates":[[10.47362,47.01035],[10.47533,47.00992],[10.47597,47.00997],[10.47673,47.01021],[10.48454,47.01392],[10.48571,47.01519],[10.48645,47.01565],[10.48727,47.01596]]}},{"type":"Feature","properties":{"kind":"piste","difficulty":"advanced","name":null,"aerialway":null,"osm":"way/203520184"},"geometry":{"type":"LineString","coordinates":[[10.49534,47.02258],[10.49339,47.02039]]}},{"type":"Feature","properties":{"kind":"piste","difficulty":"intermediate","name":null,"aerialway":null,"osm":"way/209272362"},"geometry":{"type":"LineString","coordinates":[[10.4962,47.0225],[10.49669,47.02227],[10.49843,47.02205],[10.49953,47.02149],[10.50005,47.02081]]}},{"type":"Feature","properties":{"kind":"piste","difficulty":"intermediate","name":null,"aerialway":null,"osm":"way/209272368"},"geometry":{"type":"LineString","coordinates":[[10.50005,47.02081],[10.50093,47.02037]]}},{"type":"Feature","properties":{"kind":"piste","difficulty":"intermediate","name":"Rossmooswaldabfahrt","aerialway":null,"osm":"way/254661883"},"geometry":{"type":"LineString","coordinates":[[10.47738,47.07312],[10.47687,47.07323]]}},{"type":"Feature","properties":{"kind":"piste","difficulty":"easy","name":null,"aerialway":null,"osm":"way/254661884"},"geometry":{"type":"LineString","coordinates":[[10.47671,47.07336],[10.47687,47.07323]]}},{"type":"Feature","properties":{"kind":"piste","difficulty":"easy","name":null,"aerialway":null,"osm":"way/254661886"},"geometry":{"type":"LineString","coordinates":[[10.49301,47.06926],[10.49324,47.0692]]}},{"type":"Feature","properties":{"kind":"piste","difficulty":"easy","name":"Rossmooswaldabfahrt","aerialway":null,"osm":"way/254661887"},"geometry":{"type":"LineString","coordinates":[[10.47687,47.07323],[10.47664,47.07289]]}},{"type":"Feature","properties":{"kind":"piste","difficulty":"easy","name":"Almwiese","aerialway":null,"osm":"way/254661888"},"geometry":{"type":"LineString","coordinates":[[10.48802,47.06989],[10.48795,47.07006]]}},{"type":"Feature","properties":{"kind":"piste","difficulty":"intermediate","name":"Versingabfahrt","aerialway":null,"osm":"way/254661890"},"geometry":{"type":"LineString","coordinates":[[10.49535,47.06714],[10.4976,47.06705]]}},{"type":"Feature","properties":{"kind":"piste","difficulty":"intermediate","name":"Jägerabfahrt","aerialway":null,"osm":"way/254661892"},"geometry":{"type":"LineString","coordinates":[[10.48802,47.06989],[10.48668,47.07036],[10.48551,47.0704],[10.48521,47.07005],[10.48523,47.06942],[10.48562,47.06891],[10.48559,47.06873],[10.48421,47.06881],[10.48415,47.06822],[10.48399,47.06809],[10.48298,47.06805],[10.48252,47.06786],[10.48253,47.06774]]}},{"type":"Feature","properties":{"kind":"piste","difficulty":"intermediate","name":"Talabfahrt","aerialway":null,"osm":"way/254661893"},"geometry":{"type":"LineString","coordinates":[[10.46247,47.07633],[10.4626,47.07639]]}},{"type":"Feature","properties":{"kind":"piste","difficulty":"intermediate","name":"Rossmooswaldabfahrt","aerialway":null,"osm":"way/254661896"},"geometry":{"type":"LineString","coordinates":[[10.47947,47.07028],[10.47821,47.07127],[10.47741,47.07212],[10.47738,47.07312]]}},{"type":"Feature","properties":{"kind":"piste","difficulty":"intermediate","name":"Rossmoosabfahrt","aerialway":null,"osm":"way/254661897"},"geometry":{"type":"LineString","coordinates":[[10.49571,47.06358],[10.49576,47.06346],[10.49493,47.06355],[10.48867,47.06554],[10.48468,47.0659],[10.48413,47.06612],[10.4838,47.0664],[10.48326,47.06712]]}},{"type":"Feature","properties":{"kind":"piste","difficulty":"easy","name":null,"aerialway":null,"osm":"way/254663679"},"geometry":{"type":"LineString","coordinates":[[10.47771,47.07392],[10.47758,47.07365]]}},{"type":"Feature","properties":{"kind":"piste","difficulty":"easy","name":null,"aerialway":null,"osm":"way/275112851"},"geometry":{"type":"LineString","coordinates":[[10.48861,47.07036],[10.48796,47.06999]]}},{"type":"Feature","properties":{"kind":"piste","difficulty":"freeride","name":null,"aerialway":null,"osm":"way/362845551"},"geometry":{"type":"LineString","coordinates":[[10.47613,47.0618],[10.47598,47.06231],[10.47495,47.06342],[10.47465,47.06399],[10.4742,47.06414],[10.47345,47.06545]]}},{"type":"Feature","properties":{"kind":"piste","difficulty":"intermediate","name":"Ascherhütteabfahrt","aerialway":null,"osm":"way/378888575"},"geometry":{"type":"LineString","coordinates":[[10.51953,47.06185],[10.5196,47.06171],[10.51909,47.06164],[10.51718,47.0618],[10.51458,47.06282],[10.51347,47.06298],[10.51036,47.063],[10.50965,47.06315],[10.50866,47.06357],[10.50797,47.06432],[10.50638,47.06564],[10.50572,47.06714],[10.50505,47.06794],[10.50433,47.06824],[10.50285,47.06935],[10.49718,47.07265],[10.4959,47.07248]]}},{"type":"Feature","properties":{"kind":"piste","difficulty":"intermediate","name":"Ascherhütteabfahrt","aerialway":null,"osm":"way/391941281"},"geometry":{"type":"LineString","coordinates":[[10.5076,47.06457],[10.50612,47.06504],[10.50526,47.0655],[10.5051,47.06578],[10.50595,47.06645]]}},{"type":"Feature","properties":{"kind":"piste","difficulty":"intermediate","name":null,"aerialway":null,"osm":"way/406217974"},"geometry":{"type":"LineString","coordinates":[[10.49953,47.02149],[10.49798,47.0198]]}},{"type":"Feature","properties":{"kind":"piste","difficulty":"intermediate","name":"Hexenseeabfahrt","aerialway":null,"osm":"way/406217979"},"geometry":{"type":"LineString","coordinates":[[10.47285,47.01305],[10.47275,47.01545]]}},{"type":"Feature","properties":{"kind":"piste","difficulty":"freeride","name":null,"aerialway":null,"osm":"way/977858457"},"geometry":{"type":"LineString","coordinates":[[10.47824,47.05872],[10.47814,47.05868]]}},{"type":"Feature","properties":{"kind":"piste","difficulty":"freeride","name":null,"aerialway":null,"osm":"way/994918452"},"geometry":{"type":"LineString","coordinates":[[10.47797,47.05862],[10.47789,47.05898],[10.47769,47.05916],[10.4776,47.05967],[10.47725,47.06007],[10.47726,47.06034],[10.47677,47.06057],[10.47646,47.06137],[10.47613,47.0618]]}},{"type":"Feature","properties":{"kind":"piste","difficulty":"easy","name":null,"aerialway":null,"osm":"way/1016257856"},"geometry":{"type":"LineString","coordinates":[[10.49117,47.01715],[10.49151,47.01665],[10.49222,47.01664],[10.49246,47.01648]]}},{"type":"Feature","properties":{"kind":"piste","difficulty":"intermediate","name":null,"aerialway":null,"osm":"way/1016257857"},"geometry":{"type":"LineString","coordinates":[[10.48885,47.01779],[10.48966,47.01696],[10.49014,47.01595],[10.49116,47.01496]]}},{"type":"Feature","properties":{"kind":"piste","difficulty":"easy","name":null,"aerialway":null,"osm":"way/1016257858"},"geometry":{"type":"LineString","coordinates":[[10.48885,47.01779],[10.49068,47.01761],[10.49117,47.01715]]}},{"type":"Feature","properties":{"kind":"piste","difficulty":"easy","name":"Familienabfahrt","aerialway":null,"osm":"way/1016649547"},"geometry":{"type":"LineString","coordinates":[[10.49324,47.0692],[10.49228,47.06884],[10.49154,47.06821],[10.48826,47.06947],[10.48802,47.06989]]}},{"type":"Feature","properties":{"kind":"piste","difficulty":"intermediate","name":"Bodenroute","aerialway":null,"osm":"way/1016649551"},"geometry":{"type":"LineString","coordinates":[[10.51854,47.06166],[10.51794,47.06194],[10.51781,47.06287],[10.51798,47.06444],[10.51694,47.06612],[10.51523,47.06783],[10.51374,47.06863],[10.51088,47.06978],[10.50223,47.07146],[10.50045,47.07138],[10.49983,47.07104]]}},{"type":"Feature","properties":{"kind":"piste","difficulty":"intermediate","name":"Versingabfahrt","aerialway":null,"osm":"way/1016649552"},"geometry":{"type":"LineString","coordinates":[[10.49753,47.07076],[10.49811,47.07208]]}},{"type":"Feature","properties":{"kind":"piste","difficulty":"intermediate","name":"Hinterkopfroute","aerialway":null,"osm":"way/1016649553"},"geometry":{"type":"LineString","coordinates":[[10.51368,47.06295],[10.51202,47.06393],[10.51023,47.06571],[10.50957,47.067],[10.50689,47.06867],[10.50311,47.07005],[10.50145,47.07014]]}},{"type":"Feature","properties":{"kind":"piste","difficulty":"intermediate","name":"Medrigalmabfahrt","aerialway":null,"osm":"way/1016649554"},"geometry":{"type":"LineString","coordinates":[[10.48326,47.06712],[10.48261,47.06746],[10.48248,47.06761],[10.48253,47.06774]]}},{"type":"Feature","properties":{"kind":"piste","difficulty":"intermediate","name":"Rossmooswaldabfahrt","aerialway":null,"osm":"way/1016649555"},"geometry":{"type":"LineString","coordinates":[[10.48326,47.06712],[10.48315,47.06791],[10.48258,47.06841],[10.48121,47.06933],[10.47981,47.06995],[10.47947,47.07028]]}},{"type":"Feature","properties":{"kind":"piste","difficulty":"intermediate","name":"Rossmooswaldabfahrt","aerialway":null,"osm":"way/1016649557"},"geometry":{"type":"LineString","coordinates":[[10.47741,47.07212],[10.47691,47.07252],[10.47657,47.07252]]}},{"type":"Feature","properties":{"kind":"piste","difficulty":"intermediate","name":null,"aerialway":null,"osm":"way/1017161607"},"geometry":{"type":"LineString","coordinates":[[10.48963,47.01543],[10.49116,47.01496]]}},{"type":"Feature","properties":{"kind":"piste","difficulty":"intermediate","name":"Pfaffenhofenabfahrt","aerialway":null,"osm":"way/1025564865"},"geometry":{"type":"LineString","coordinates":[[10.50526,47.0655],[10.50484,47.06545],[10.50514,47.06479],[10.50412,47.06449],[10.50081,47.06534],[10.49978,47.06613]]}},{"type":"Feature","properties":{"kind":"piste","difficulty":"easy","name":"Zeiniswaldabfahrt","aerialway":null,"osm":"way/1025564868"},"geometry":{"type":"LineString","coordinates":[[10.48802,47.06989],[10.48782,47.07],[10.48765,47.07053],[10.4863,47.07097]]}},{"type":"Feature","properties":{"kind":"piste","difficulty":"intermediate","name":null,"aerialway":null,"osm":"way/1025564870"},"geometry":{"type":"LineString","coordinates":[[10.48199,47.07531],[10.48141,47.07543]]}},{"type":"Feature","properties":{"kind":"piste","difficulty":"easy","name":null,"aerialway":null,"osm":"way/1025564881"},"geometry":{"type":"LineString","coordinates":[[10.48134,47.07628],[10.48074,47.07599]]}},{"type":"Feature","properties":{"kind":"piste","difficulty":"easy","name":"Furglerblick","aerialway":null,"osm":"way/1066914739"},"geometry":{"type":"LineString","coordinates":[[10.50447,47.05685],[10.50323,47.05677],[10.50218,47.05737],[10.49681,47.05863],[10.49546,47.05944],[10.49484,47.06004],[10.4941,47.061],[10.49401,47.0613],[10.49471,47.06279],[10.49493,47.06355]]}},{"type":"Feature","properties":{"kind":"piste","difficulty":"intermediate","name":"Talabfahrt","aerialway":null,"osm":"way/1075286175"},"geometry":{"type":"LineString","coordinates":[[10.46176,47.07582],[10.46,47.07672]]}},{"type":"Feature","properties":{"kind":"piste","difficulty":"intermediate","name":null,"aerialway":null,"osm":"way/1101395245"},"geometry":{"type":"LineString","coordinates":[[10.49957,47.06611],[10.49978,47.06613]]}},{"type":"Feature","properties":{"kind":"piste","difficulty":"intermediate","name":"Ascherhüttenabfahrt Zugang Versingbahn","aerialway":null,"osm":"way/1102844546"},"geometry":{"type":"LineString","coordinates":[[10.49718,47.07265],[10.49718,47.07247]]}},{"type":"Feature","properties":{"kind":"piste","difficulty":"easy","name":"Gratabfahrt Umfahrung Bergstation Rossmoos","aerialway":null,"osm":"way/1102844547"},"geometry":{"type":"LineString","coordinates":[[10.49493,47.06355],[10.49517,47.06425]]}},{"type":"Feature","properties":{"kind":"piste","difficulty":"intermediate","name":"Piste 31 - Ascherhüttenabfahrt","aerialway":null,"osm":"way/1103081772"},"geometry":{"type":"LineString","coordinates":[[10.51965,47.06186],[10.51988,47.06178],[10.52004,47.06152],[10.51886,47.06142],[10.51785,47.06153],[10.51698,47.06167],[10.51513,47.06268],[10.51273,47.06292],[10.51067,47.0628],[10.50865,47.06335],[10.50795,47.0638],[10.50748,47.0644],[10.50602,47.06558],[10.50574,47.06601],[10.50559,47.06691],[10.50509,47.0677],[10.50311,47.06831],[10.50284,47.06869],[10.50299,47.06883],[10.5029,47.06909],[10.50268,47.06927],[10.49895,47.07125],[10.4982,47.0719],[10.49708,47.0726],[10.49732,47.07285],[10.49865,47.07223],[10.50032,47.07117],[10.50072,47.07068],[10.50403,47.06895],[10.50423,47.06864],[10.50537,47.06807],[10.50606,47.06716],[10.50629,47.06605],[10.50738,47.06479],[10.50832,47.06437],[10.50863,47.0638],[10.50901,47.06361],[10.51066,47.06315],[10.51279,47.06317],[10.51482,47.06296],[10.51732,47.06186],[10.51903,47.06169],[10.51939,47.0617],[10.51965,47.06186]]}},{"type":"Feature","properties":{"kind":"piste","difficulty":"easy","name":"Talabfahrt","aerialway":null,"osm":"way/1103831913"},"geometry":{"type":"LineString","coordinates":[[10.46199,47.07955],[10.4617,47.07957],[10.46152,47.07978],[10.46311,47.08104],[10.46384,47.08223],[10.46391,47.08203],[10.46328,47.08093],[10.46177,47.07963],[10.46199,47.07955]]}},{"type":"Feature","properties":{"kind":"piste","difficulty":"intermediate","name":"Talabfahrt","aerialway":null,"osm":"way/1103835531"},"geometry":{"type":"LineString","coordinates":[[10.45985,47.07481],[10.46002,47.07497],[10.45999,47.07521],[10.45959,47.0758],[10.45959,47.07598],[10.46017,47.07612],[10.46005,47.07605],[10.46009,47.0757],[10.46039,47.07515],[10.46024,47.07482],[10.45985,47.07481]]}},{"type":"Feature","properties":{"kind":"piste","difficulty":"intermediate","name":"Talabfahrt","aerialway":null,"osm":"way/1103835532"},"geometry":{"type":"LineString","coordinates":[[10.45755,47.07431],[10.45732,47.07409],[10.45747,47.07388],[10.45844,47.0734],[10.45853,47.07306],[10.45921,47.07317],[10.45755,47.07431]]}},{"type":"Feature","properties":{"kind":"piste","difficulty":"intermediate","name":"Talabfahrt","aerialway":null,"osm":"way/1103835533"},"geometry":{"type":"LineString","coordinates":[[10.45742,47.07278],[10.45781,47.07239],[10.45906,47.0719],[10.45871,47.07143],[10.45887,47.07125],[10.46131,47.07017],[10.46307,47.06924],[10.46328,47.06899],[10.46309,47.06897],[10.45879,47.07097],[10.45845,47.0712],[10.45833,47.07147],[10.45855,47.07175],[10.45847,47.07183],[10.4571,47.07246],[10.457,47.07262],[10.45711,47.07276],[10.4573,47.07288],[10.45761,47.07286],[10.45742,47.07278]]}},{"type":"Feature","properties":{"kind":"piste","difficulty":"intermediate","name":"Talabfahrt","aerialway":null,"osm":"way/1103835534"},"geometry":{"type":"LineString","coordinates":[[10.47345,47.06778],[10.47389,47.06819],[10.4741,47.06824],[10.47477,47.06819],[10.47563,47.06774],[10.47586,47.06784],[10.47504,47.06825],[10.47393,47.06852],[10.47352,47.06833],[10.47345,47.06778]]}},{"type":"Feature","properties":{"kind":"piste","difficulty":"advanced","name":"Panoramaabfahrt","aerialway":null,"osm":"way/1103835535"},"geometry":{"type":"LineString","coordinates":[[10.48592,47.07113],[10.48575,47.07146],[10.48555,47.07155],[10.48147,47.07237],[10.47873,47.07318],[10.47754,47.07335],[10.47744,47.07313],[10.47749,47.07273],[10.48596,47.07086],[10.48592,47.07113]]}},{"type":"Feature","properties":{"kind":"piste","difficulty":"intermediate","name":"Rossmoosabfahrt","aerialway":null,"osm":"way/1103839113"},"geometry":{"type":"LineString","coordinates":[[10.49338,47.06392],[10.49516,47.06336],[10.49569,47.06338],[10.49589,47.06352],[10.48851,47.06581],[10.4865,47.06587],[10.48502,47.06632],[10.48406,47.06643],[10.48373,47.06677],[10.48356,47.06738],[10.48246,47.0677],[10.48226,47.06752],[10.48257,47.0672],[10.48322,47.06707],[10.48388,47.06583],[10.48422,47.06562],[10.48526,47.06541],[10.48805,47.06547],[10.48885,47.06536],[10.49338,47.06392]]}},{"type":"Feature","properties":{"kind":"piste","difficulty":"intermediate","name":"Rossmooswaldabfahrt","aerialway":null,"osm":"way/1103839114"},"geometry":{"type":"LineString","coordinates":[[10.48356,47.06738],[10.4834,47.0678],[10.48301,47.06809],[10.48299,47.06856],[10.48221,47.06888],[10.48176,47.06926],[10.48106,47.06959],[10.48012,47.06987],[10.47939,47.07035],[10.47958,47.06992],[10.47982,47.06971],[10.48135,47.06903],[10.4824,47.06828],[10.48257,47.06809],[10.48232,47.06763],[10.48269,47.06788],[10.48293,47.06789],[10.4829,47.06769],[10.48308,47.06753],[10.48356,47.06738]]}},{"type":"Feature","properties":{"kind":"piste","difficulty":"intermediate","name":"Kanonenrohr","aerialway":null,"osm":"way/1103860703"},"geometry":{"type":"LineString","coordinates":[[10.49555,47.0642],[10.49524,47.06458],[10.49546,47.06544],[10.49509,47.06751],[10.49461,47.06819],[10.49507,47.06773],[10.49566,47.06643],[10.49585,47.06538],[10.49555,47.0642]]}},{"type":"Feature","properties":{"kind":"piste","difficulty":"intermediate","name":"Versingabfahrt","aerialway":null,"osm":"way/1103860704"},"geometry":{"type":"LineString","coordinates":[[10.49552,47.06691],[10.4959,47.06708],[10.49734,47.06696],[10.49843,47.06591],[10.49881,47.06573],[10.49935,47.06577],[10.49982,47.06597],[10.4991,47.06671],[10.49902,47.06713],[10.49929,47.06855],[10.49871,47.06929],[10.49799,47.07062],[10.49706,47.07179],[10.49606,47.07246],[10.49585,47.07233],[10.49657,47.07181],[10.4971,47.07115],[10.49904,47.06828],[10.49875,47.06734],[10.49837,47.06686],[10.49748,47.06738],[10.49531,47.06729],[10.49552,47.06691]]}},{"type":"Feature","properties":{"kind":"piste","difficulty":"intermediate","name":null,"aerialway":null,"osm":"way/1103860705"},"geometry":{"type":"LineString","coordinates":[[10.49978,47.06613],[10.5001,47.06632],[10.50081,47.06631]]}},{"type":"Feature","properties":{"kind":"piste","difficulty":"intermediate","name":"Kanonenrohr","aerialway":null,"osm":"way/1103860706"},"geometry":{"type":"LineString","coordinates":[[10.49517,47.06425],[10.49561,47.06507]]}},{"type":"Feature","properties":{"kind":"piste","difficulty":"advanced","name":"Adrenalin","aerialway":null,"osm":"way/1103860707"},"geometry":{"type":"LineString","coordinates":[[10.49816,47.06621],[10.49775,47.06588],[10.49577,47.06489],[10.49563,47.06449],[10.4976,47.06559],[10.49843,47.06591],[10.49816,47.06621]]}},{"type":"Feature","properties":{"kind":"piste","difficulty":"easy","name":"Gratabfahrt","aerialway":null,"osm":"way/1103860708"},"geometry":{"type":"LineString","coordinates":[[10.49589,47.06352],[10.49555,47.0642],[10.49496,47.06483],[10.49436,47.06658],[10.49388,47.06731],[10.49364,47.06818],[10.49391,47.0687],[10.4937,47.06888],[10.49341,47.06833],[10.49355,47.0675],[10.49484,47.0648],[10.49492,47.0642],[10.49511,47.06402],[10.49514,47.06373],[10.49571,47.06371],[10.49589,47.06352]]}},{"type":"Feature","properties":{"kind":"piste","difficulty":"easy","name":"Almwiese","aerialway":null,"osm":"way/1103860709"},"geometry":{"type":"LineString","coordinates":[[10.49247,47.06902],[10.49189,47.06868],[10.48783,47.06988],[10.48806,47.07005],[10.49247,47.06902]]}},{"type":"Feature","properties":{"kind":"piste","difficulty":"easy","name":"Gratabfahrt","aerialway":null,"osm":"way/1103860710"},"geometry":{"type":"LineString","coordinates":[[10.49383,47.06709],[10.49345,47.06824],[10.49373,47.06887],[10.49332,47.06928]]}},{"type":"Feature","properties":{"kind":"piste","difficulty":"easy","name":"Familienabfahrt","aerialway":null,"osm":"way/1103860711"},"geometry":{"type":"LineString","coordinates":[[10.49347,47.06842],[10.49276,47.06796],[10.49222,47.06827],[10.49211,47.06865],[10.48783,47.06988],[10.48769,47.06953],[10.4881,47.0691],[10.48907,47.06863],[10.4912,47.06814],[10.49133,47.06825],[10.49263,47.06781],[10.49344,47.06815],[10.49347,47.06842]]}},{"type":"Feature","properties":{"kind":"piste","difficulty":"intermediate","name":"Jägerabfahrt","aerialway":null,"osm":"way/1103860712"},"geometry":{"type":"LineString","coordinates":[[10.48769,47.06953],[10.4867,47.06982],[10.4855,47.06988],[10.48533,47.06963],[10.48534,47.06932],[10.48565,47.06913],[10.48583,47.06863],[10.48573,47.06842],[10.48528,47.06846],[10.48482,47.06876],[10.48447,47.06879],[10.48427,47.06843],[10.48441,47.0682],[10.48436,47.06795],[10.48346,47.06797],[10.4834,47.0678],[10.48301,47.06809],[10.48299,47.06856],[10.48404,47.06821],[10.48396,47.06901],[10.48406,47.0691],[10.48554,47.0689],[10.48516,47.06948],[10.48516,47.07005],[10.48527,47.07035],[10.48546,47.07046],[10.48639,47.07049],[10.48771,47.07015],[10.48769,47.06953]]}},{"type":"Feature","properties":{"kind":"piste","difficulty":"intermediate","name":"Zeiniseck","aerialway":null,"osm":"way/1103860716"},"geometry":{"type":"LineString","coordinates":[[10.48934,47.07064],[10.48919,47.07115],[10.48821,47.07143],[10.4868,47.07216],[10.48601,47.07306],[10.48582,47.07286],[10.48615,47.07234],[10.48887,47.07078],[10.48934,47.07064]]}},{"type":"Feature","properties":{"kind":"piste","difficulty":"intermediate","name":"Zeinisabfahrt","aerialway":null,"osm":"way/1103860717"},"geometry":{"type":"LineString","coordinates":[[10.48521,47.07292],[10.48421,47.07263],[10.48391,47.07237],[10.48314,47.07252],[10.48275,47.07287],[10.48355,47.0732],[10.48379,47.07305],[10.48412,47.07309],[10.48487,47.0734],[10.48537,47.07339],[10.48521,47.07292]]}},{"type":"Feature","properties":{"kind":"piste","difficulty":"intermediate","name":"Versingabfahrt","aerialway":null,"osm":"way/1103860718"},"geometry":{"type":"LineString","coordinates":[[10.49799,47.07062],[10.49823,47.07169],[10.4982,47.0719],[10.4978,47.07212],[10.49751,47.07122],[10.49799,47.07062]]}},{"type":"Feature","properties":{"kind":"piste","difficulty":"intermediate","name":"Zeinisabfahrt","aerialway":null,"osm":"way/1103860719"},"geometry":{"type":"LineString","coordinates":[[10.48347,47.07321],[10.48285,47.07432],[10.48254,47.07525],[10.48196,47.07592],[10.48146,47.07533],[10.48171,47.07511],[10.48187,47.07454],[10.48237,47.07369],[10.48227,47.07322],[10.48267,47.07294],[10.48347,47.07321]]}},{"type":"Feature","properties":{"kind":"piste","difficulty":"easy","name":"Zeinisabfahrt","aerialway":null,"osm":"way/1103860720"},"geometry":{"type":"LineString","coordinates":[[10.48196,47.07592],[10.48124,47.07629],[10.48087,47.07613],[10.48045,47.07582],[10.481,47.07563],[10.48114,47.07537],[10.48052,47.07496],[10.47763,47.07365],[10.47804,47.07357],[10.47868,47.07404],[10.48055,47.07481],[10.48146,47.07533],[10.48196,47.07592]]}},{"type":"Feature","properties":{"kind":"piste","difficulty":"intermediate","name":null,"aerialway":null,"osm":"way/1114846859"},"geometry":{"type":"LineString","coordinates":[[10.49708,47.0726],[10.49606,47.07246],[10.49585,47.07233],[10.4956,47.07246],[10.49732,47.07285],[10.49708,47.0726]]}},{"type":"Feature","properties":{"kind":"piste","difficulty":"easy","name":null,"aerialway":null,"osm":"way/1114846860"},"geometry":{"type":"LineString","coordinates":[[10.47804,47.07357],[10.47754,47.07335],[10.47744,47.07313],[10.47749,47.07273],[10.47661,47.07302],[10.47763,47.07365],[10.47804,47.07357]]}},{"type":"Feature","properties":{"kind":"piste","difficulty":"intermediate","name":"Familien-Talabfahrt","aerialway":null,"osm":"way/1202274732"},"geometry":{"type":"LineString","coordinates":[[10.46376,47.06882],[10.46223,47.06907],[10.46132,47.06901],[10.45974,47.0687],[10.45874,47.06835],[10.45794,47.06861],[10.45754,47.06893],[10.45681,47.06899],[10.45578,47.06881],[10.45468,47.06809],[10.45378,47.06871],[10.45207,47.06931],[10.45014,47.06873],[10.44936,47.06873],[10.44863,47.06853]]}},{"type":"Feature","properties":{"kind":"piste","difficulty":"freeride","name":null,"aerialway":null,"osm":"way/1243563688"},"geometry":{"type":"LineString","coordinates":[[10.49427,47.06078],[10.48745,47.05882],[10.48023,47.05729],[10.47921,47.05784],[10.47824,47.05872]]}},{"type":"Feature","properties":{"kind":"piste","difficulty":"freeride","name":null,"aerialway":null,"osm":"way/1243563689"},"geometry":{"type":"LineString","coordinates":[[10.47814,47.05868],[10.47797,47.05862]]}},{"type":"Feature","properties":{"kind":"piste","difficulty":"advanced","name":"Steinbockroute","aerialway":null,"osm":"way/1365819697"},"geometry":{"type":"LineString","coordinates":[[10.50447,47.05685],[10.5047,47.05685],[10.50713,47.05852],[10.50818,47.06061],[10.50881,47.06088],[10.51004,47.06101],[10.5108,47.06165],[10.51082,47.06205],[10.51061,47.06233],[10.50965,47.06315]]}},{"type":"Feature","properties":{"kind":"piste","difficulty":"easy","name":null,"aerialway":null,"osm":"way/1421306774"},"geometry":{"type":"LineString","coordinates":[[10.47682,47.07327],[10.4773,47.07358]]}},{"type":"Feature","properties":{"kind":"piste","difficulty":"easy","name":null,"aerialway":null,"osm":"way/1421306775"},"geometry":{"type":"LineString","coordinates":[[10.47753,47.07399],[10.47762,47.07413]]}},{"type":"Feature","properties":{"kind":"piste","difficulty":"easy","name":null,"aerialway":null,"osm":"way/1421306776"},"geometry":{"type":"LineString","coordinates":[[10.47776,47.07426],[10.47784,47.07432]]}},{"type":"Feature","properties":{"kind":"piste","difficulty":"easy","name":null,"aerialway":null,"osm":"way/1421306777"},"geometry":{"type":"LineString","coordinates":[[10.4783,47.07466],[10.47814,47.07426]]}},{"type":"Feature","properties":{"kind":"piste","difficulty":"intermediate","name":null,"aerialway":null,"osm":"way/1421306778"},"geometry":{"type":"LineString","coordinates":[[10.47667,47.07255],[10.47664,47.07289]]}},{"type":"Feature","properties":{"kind":"piste","difficulty":"intermediate","name":null,"aerialway":null,"osm":"way/1486155674"},"geometry":{"type":"LineString","coordinates":[[10.48783,47.0182],[10.48825,47.0188],[10.48866,47.01889],[10.49019,47.01772]]}},{"type":"Feature","properties":{"kind":"piste","difficulty":"advanced","name":null,"aerialway":null,"osm":"way/1486155675"},"geometry":{"type":"LineString","coordinates":[[10.48783,47.01814],[10.48792,47.01825],[10.48898,47.01784],[10.4888,47.01773],[10.48783,47.01814]]}},{"type":"Feature","properties":{"kind":"piste","difficulty":"intermediate","name":null,"aerialway":null,"osm":"way/1486155677"},"geometry":{"type":"LineString","coordinates":[[10.47967,47.01287],[10.48093,47.01348],[10.48141,47.01384],[10.48229,47.0146],[10.48273,47.01523],[10.48238,47.01504],[10.4809,47.01366],[10.47899,47.01291],[10.47967,47.01287]]}},{"type":"Feature","properties":{"kind":"piste","difficulty":"intermediate","name":null,"aerialway":null,"osm":"way/1486155678"},"geometry":{"type":"LineString","coordinates":[[10.48238,47.01504],[10.48265,47.01561],[10.48478,47.01604],[10.48718,47.01615],[10.48664,47.01592],[10.48491,47.01581],[10.48351,47.0155],[10.48297,47.01537],[10.48238,47.01504]]}},{"type":"Feature","properties":{"kind":"piste","difficulty":"intermediate","name":null,"aerialway":null,"osm":"way/1486155679"},"geometry":{"type":"LineString","coordinates":[[10.47368,47.01016],[10.47524,47.00985],[10.47648,47.01003],[10.47698,47.01023],[10.47879,47.01122],[10.48006,47.01166],[10.48432,47.01366],[10.48475,47.01394],[10.48598,47.01516],[10.48705,47.01578],[10.48664,47.01592],[10.48607,47.01553],[10.48526,47.01493],[10.48449,47.01399],[10.47648,47.01026],[10.47497,47.01012],[10.47409,47.01037],[10.47368,47.01016]]}},{"type":"Feature","properties":{"kind":"piste","difficulty":"intermediate","name":null,"aerialway":null,"osm":"way/1486155680"},"geometry":{"type":"LineString","coordinates":[[10.48705,47.01578],[10.4884,47.01559],[10.49164,47.01468],[10.4913,47.0152],[10.4886,47.01604],[10.48718,47.01615],[10.48664,47.01592],[10.48705,47.01578]]}},{"type":"Feature","properties":{"kind":"piste","difficulty":"intermediate","name":null,"aerialway":null,"osm":"way/1486155681"},"geometry":{"type":"LineString","coordinates":[[10.49151,47.01665],[10.49176,47.01613],[10.49176,47.01542]]}},{"type":"Feature","properties":{"kind":"piste","difficulty":"intermediate","name":null,"aerialway":null,"osm":"way/1486155682"},"geometry":{"type":"LineString","coordinates":[[10.49164,47.01468],[10.4924,47.01411],[10.49256,47.01392],[10.49248,47.01373],[10.49292,47.01377],[10.49304,47.01392],[10.49283,47.01399],[10.49293,47.01434],[10.49262,47.0144],[10.49222,47.01479],[10.4913,47.0152],[10.49164,47.01468]]}},{"type":"Feature","properties":{"kind":"piste","difficulty":"intermediate","name":null,"aerialway":null,"osm":"way/1486155683"},"geometry":{"type":"LineString","coordinates":[[10.4913,47.0152],[10.49162,47.01592],[10.4923,47.0165],[10.49237,47.01683],[10.49283,47.01698],[10.49258,47.01637],[10.49187,47.01553],[10.49182,47.01521],[10.49222,47.01479],[10.4913,47.0152]]}},{"type":"Feature","properties":{"kind":"piste","difficulty":"intermediate","name":null,"aerialway":null,"osm":"way/1486155684"},"geometry":{"type":"LineString","coordinates":[[10.49262,47.0144],[10.4931,47.01519],[10.49317,47.01554],[10.49303,47.0166],[10.49283,47.01698],[10.49313,47.01731],[10.49354,47.01529],[10.4935,47.01496],[10.49293,47.01434],[10.49262,47.0144]]}},{"type":"Feature","properties":{"kind":"piste","difficulty":"intermediate","name":null,"aerialway":null,"osm":"way/1486155685"},"geometry":{"type":"LineString","coordinates":[[10.49237,47.01683],[10.49218,47.0174],[10.49295,47.01831],[10.49346,47.01848],[10.4937,47.01823],[10.49321,47.01771],[10.49313,47.01731],[10.49283,47.01698],[10.49237,47.01683]]}},{"type":"Feature","properties":{"kind":"piste","difficulty":"intermediate","name":null,"aerialway":null,"osm":"way/1486155686"},"geometry":{"type":"LineString","coordinates":[[10.49295,47.01831],[10.49322,47.01995],[10.49287,47.02151],[10.49306,47.02193],[10.49343,47.02241],[10.49504,47.02268],[10.49535,47.02263],[10.49377,47.02233],[10.49325,47.02155],[10.49329,47.02077],[10.49355,47.02037],[10.49368,47.01984],[10.49346,47.01848],[10.49295,47.01831]]}},{"type":"Feature","properties":{"kind":"piste","difficulty":"advanced","name":null,"aerialway":null,"osm":"way/1486155687"},"geometry":{"type":"LineString","coordinates":[[10.49524,47.02256],[10.49339,47.02062],[10.49355,47.02037],[10.49544,47.02253],[10.49524,47.02256]]}},{"type":"Feature","properties":{"kind":"piste","difficulty":"intermediate","name":null,"aerialway":null,"osm":"way/1486155688"},"geometry":{"type":"LineString","coordinates":[[10.49524,47.02256],[10.49604,47.02246],[10.49587,47.02261],[10.49524,47.02256]]}},{"type":"Feature","properties":{"kind":"piste","difficulty":"intermediate","name":null,"aerialway":null,"osm":"way/1486155689"},"geometry":{"type":"LineString","coordinates":[[10.4937,47.01823],[10.49502,47.01898],[10.49869,47.01965],[10.49799,47.01991],[10.49683,47.0199],[10.49514,47.01945],[10.49443,47.01946],[10.49346,47.01848],[10.4937,47.01823]]}},{"type":"Feature","properties":{"kind":"piste","difficulty":"advanced","name":null,"aerialway":null,"osm":"way/1486155690"},"geometry":{"type":"LineString","coordinates":[[10.49443,47.01946],[10.49622,47.02081],[10.49665,47.02133],[10.49705,47.02216],[10.4973,47.02212],[10.49694,47.02123],[10.49659,47.02077],[10.49504,47.01945],[10.49443,47.01946]]}},{"type":"Feature","properties":{"kind":"piste","difficulty":"intermediate","name":null,"aerialway":null,"osm":"way/1486155691"},"geometry":{"type":"LineString","coordinates":[[10.49799,47.01991],[10.49934,47.02148],[10.49957,47.02131],[10.49839,47.01995],[10.49799,47.01991]]}},{"type":"Feature","properties":{"kind":"piste","difficulty":"intermediate","name":null,"aerialway":null,"osm":"way/1486155692"},"geometry":{"type":"LineString","coordinates":[[10.49799,47.01991],[10.49869,47.01965],[10.50001,47.01982],[10.5009,47.02008],[10.50075,47.0204],[10.49799,47.01991]]}},{"type":"Feature","properties":{"kind":"piste","difficulty":"easy","name":null,"aerialway":null,"osm":"way/1486155693"},"geometry":{"type":"LineString","coordinates":[[10.49617,47.02246],[10.49587,47.02261],[10.49588,47.02272],[10.49621,47.02257],[10.49617,47.02246]]}},{"type":"Feature","properties":{"kind":"piste","difficulty":"intermediate","name":null,"aerialway":null,"osm":"way/1552014278"},"geometry":{"type":"LineString","coordinates":[[10.49398,47.06677],[10.4927,47.06786]]}},{"type":"Feature","properties":{"kind":"piste","difficulty":"unknown","name":"Zeiniseck","aerialway":null,"osm":"relation/13732867"},"geometry":{"type":"MultiLineString","coordinates":[[[10.49208,47.06968],[10.49174,47.07009],[10.4894,47.07072],[10.48895,47.07107],[10.48668,47.07212],[10.48584,47.07296],[10.48557,47.07305]],[[10.48557,47.07305],[10.48575,47.07391],[10.48538,47.07411]],[[10.48538,47.07411],[10.48502,47.07414],[10.48429,47.0739],[10.48364,47.07347],[10.48347,47.07321],[10.4831,47.07305]],[[10.4831,47.07305],[10.48223,47.07478]],[[10.48223,47.07478],[10.48134,47.07447],[10.48085,47.07398]],[[10.48085,47.07398],[10.48109,47.07499],[10.48141,47.07543]],[[10.48141,47.07543],[10.48163,47.07579]],[[10.48163,47.07579],[10.48271,47.07631]],[[10.48271,47.07631],[10.48229,47.07641],[10.48134,47.07628]]]}},{"type":"Feature","properties":{"kind":"piste","difficulty":"unknown","name":"Zeinisabfahrt","aerialway":null,"osm":"relation/13732868"},"geometry":{"type":"MultiLineString","coordinates":[[[10.48223,47.07478],[10.48184,47.0756],[10.48152,47.07589],[10.48125,47.07601],[10.48074,47.07599]],[[10.4831,47.07305],[10.48223,47.07478]],[[10.48557,47.07305],[10.48493,47.07314],[10.48366,47.07273],[10.4831,47.07305]],[[10.4863,47.07097],[10.48597,47.07164],[10.48549,47.0722],[10.48544,47.07274],[10.48557,47.07305]],[[10.49332,47.06928],[10.49314,47.06943],[10.48961,47.07013],[10.4863,47.07097]],[[10.48074,47.07599],[10.47758,47.07365]],[[10.47758,47.07365],[10.47687,47.07323]]]}},{"type":"Feature","properties":{"kind":"piste","difficulty":"easy","name":"Zeiniswaldabfahrt","aerialway":null,"osm":"relation/13732869"},"geometry":{"type":"MultiLineString","coordinates":[[[10.48141,47.07543],[10.4778,47.07354],[10.47715,47.0734]],[[10.48085,47.07398],[10.48109,47.07499],[10.48141,47.07543]],[[10.4831,47.07305],[10.48261,47.07285],[10.48255,47.07105],[10.48267,47.07079],[10.48246,47.07081],[10.48237,47.071],[10.48152,47.07155],[10.48141,47.07186],[10.48063,47.07267],[10.4805,47.07313],[10.48085,47.07398]],[[10.48538,47.07411],[10.48502,47.07414],[10.48429,47.0739],[10.48364,47.07347],[10.48347,47.07321],[10.4831,47.07305]],[[10.48557,47.07305],[10.48575,47.07391],[10.48538,47.07411]],[[10.4863,47.07097],[10.48597,47.07164],[10.48549,47.0722],[10.48544,47.07274],[10.48557,47.07305]],[[10.49332,47.06928],[10.49314,47.06943],[10.48961,47.07013],[10.4863,47.07097]]]}},{"type":"Feature","properties":{"kind":"piste","difficulty":"intermediate","name":"Versingabfahrt","aerialway":null,"osm":"relation/13732870"},"geometry":{"type":"MultiLineString","coordinates":[[[10.48393,47.07639],[10.48214,47.0765],[10.48134,47.07628]],[[10.49486,47.07274],[10.49287,47.07353],[10.492,47.07377],[10.49094,47.07388],[10.48946,47.0744],[10.48559,47.0763],[10.48393,47.07639]],[[10.4959,47.07248],[10.49486,47.07274]],[[10.49324,47.0692],[10.49347,47.0693],[10.4939,47.06916],[10.49744,47.06735],[10.49788,47.06659],[10.49857,47.06593],[10.49917,47.06587],[10.49947,47.06595],[10.49957,47.06611]],[[10.49957,47.06611],[10.49893,47.06664],[10.49885,47.06695],[10.49914,47.06833],[10.4984,47.06968],[10.49667,47.0721],[10.4959,47.07248]]]}},{"type":"Feature","properties":{"kind":"piste","difficulty":"unknown","name":"Talabfahrt","aerialway":null,"osm":"relation/14220988"},"geometry":{"type":"MultiLineString","coordinates":[[[10.4626,47.07639],[10.46278,47.07655],[10.46268,47.07708],[10.46218,47.07737]],[[10.46218,47.07737],[10.46193,47.07763]],[[10.46193,47.07763],[10.46176,47.07791],[10.46179,47.07891],[10.46227,47.07945],[10.46171,47.07973],[10.46318,47.08098],[10.46388,47.08208],[10.46369,47.08238],[10.46383,47.0824]],[[10.47687,47.07323],[10.47642,47.07292],[10.47657,47.07252],[10.47652,47.07207],[10.47744,47.0708],[10.47681,47.06972],[10.47684,47.06916],[10.47664,47.06822],[10.47628,47.06801]],[[10.47628,47.06801],[10.47573,47.06779]],[[10.47573,47.06779],[10.47493,47.06824],[10.47424,47.06843],[10.47348,47.06811]],[[10.47348,47.06811],[10.47348,47.06714],[10.47378,47.06629],[10.47358,47.06552],[10.47341,47.06545],[10.47309,47.06576],[10.47139,47.06659],[10.46861,47.06755],[10.46799,47.06806],[10.46744,47.06819],[10.46702,47.06855],[10.46599,47.06863],[10.46507,47.0689],[10.46376,47.06882]],[[10.46376,47.06882],[10.46306,47.06906],[10.45897,47.07109],[10.45864,47.07129],[10.45865,47.07197],[10.45736,47.07257],[10.45742,47.07278],[10.45785,47.07297],[10.4588,47.07308],[10.45883,47.07336],[10.45766,47.07404],[10.45755,47.07431],[10.45793,47.07456],[10.45865,47.07474],[10.46027,47.07489],[10.46032,47.07522],[10.4601,47.07546],[10.46001,47.07587],[10.46002,47.07606],[10.46021,47.07614],[10.46176,47.07582]],[[10.46176,47.07582],[10.46197,47.07586],[10.46247,47.07633]]]}},{"type":"Feature","properties":{"kind":"piste","difficulty":"easy","name":"Zeiniswaldabfahrt","aerialway":null,"osm":"relation/14695591"},"geometry":{"type":"MultiLineString","coordinates":[[[10.48665,47.07118],[10.48604,47.07168],[10.48559,47.07228],[10.48558,47.0726],[10.48601,47.07306],[10.48598,47.07398],[10.48577,47.07416],[10.48484,47.07419],[10.48388,47.07379],[10.48337,47.07322],[10.48267,47.07294],[10.48249,47.0727],[10.48256,47.0726],[10.48275,47.07287],[10.48339,47.07307],[10.48396,47.07358],[10.485,47.07406],[10.48547,47.074],[10.48552,47.07382],[10.48521,47.07292],[10.4852,47.07246],[10.48564,47.07176],[10.48596,47.07086],[10.48619,47.07088]],[[10.48619,47.07088],[10.48657,47.07077],[10.48706,47.07033],[10.48771,47.07015],[10.48769,47.06953],[10.48791,47.07018],[10.49286,47.06911],[10.49299,47.06915],[10.49269,47.06926],[10.49275,47.06937],[10.4934,47.06932],[10.49285,47.0696],[10.49239,47.06957],[10.49208,47.06978],[10.48798,47.07062],[10.48749,47.07098],[10.48665,47.07118]]]}},{"type":"Feature","properties":{"kind":"lift","difficulty":null,"name":"Arrezjochbahn","aerialway":"chair_lift","osm":"way/22329138"},"geometry":{"type":"LineString","coordinates":[[10.49298,47.01396],[10.4958,47.02269]]}},{"type":"Feature","properties":{"kind":"lift","difficulty":null,"name":"Medrigjochbahn","aerialway":"gondola","osm":"way/51842448"},"geometry":{"type":"LineString","coordinates":[[10.46383,47.0824],[10.47671,47.07336]]}},{"type":"Feature","properties":{"kind":"lift","difficulty":null,"name":"Zeinisbahn","aerialway":"chair_lift","osm":"way/51842454"},"geometry":{"type":"LineString","coordinates":[[10.47664,47.07289],[10.49301,47.06926]]}},{"type":"Feature","properties":{"kind":"lift","difficulty":null,"name":"Familienglück","aerialway":"chair_lift","osm":"way/51844039"},"geometry":{"type":"LineString","coordinates":[[10.48749,47.06993],[10.49571,47.06358]]}},{"type":"Feature","properties":{"kind":"lift","difficulty":null,"name":"Tellerlift","aerialway":"platter","osm":"way/51851372"},"geometry":{"type":"LineString","coordinates":[[10.47772,47.07384],[10.47997,47.07556]]}},{"type":"Feature","properties":{"kind":"lift","difficulty":null,"name":"Versingbahn","aerialway":"gondola","osm":"way/302156628"},"geometry":{"type":"LineString","coordinates":[[10.49718,47.07247],[10.51953,47.06185]]}},{"type":"Feature","properties":{"kind":"lift","difficulty":null,"name":"Förderband III","aerialway":"magic_carpet","osm":"way/349336977"},"geometry":{"type":"LineString","coordinates":[[10.47784,47.07432],[10.4783,47.07466]]}},{"type":"Feature","properties":{"kind":"lift","difficulty":null,"name":"Förderband II","aerialway":"magic_carpet","osm":"way/349336978"},"geometry":{"type":"LineString","coordinates":[[10.47762,47.07413],[10.47776,47.07426]]}},{"type":"Feature","properties":{"kind":"lift","difficulty":null,"name":"Förderband I","aerialway":"magic_carpet","osm":"way/1016649546"},"geometry":{"type":"LineString","coordinates":[[10.4773,47.07358],[10.47753,47.07399]]}},{"type":"Feature","properties":{"kind":"lift","difficulty":null,"name":"Furglerblick","aerialway":"gondola","osm":"way/1016649548"},"geometry":{"type":"LineString","coordinates":[[10.50081,47.06631],[10.50447,47.05685]]}}]}