{"type":"FeatureCollection","features":[{"type":"Feature","properties":{"kind":"lift","difficulty":null,"name":"Spechtenseelift","aerialway":"t-bar","osm":"way/231808732"},"geometry":{"type":"LineString","coordinates":[[14.08324,47.56145],[14.082,47.56778]]}},{"type":"Feature","properties":{"kind":"piste","difficulty":"intermediate","name":"Spechtenseelift","aerialway":null,"osm":"way/1031326161"},"geometry":{"type":"LineString","coordinates":[[14.08313,47.56541],[14.08299,47.56448]]}},{"type":"Feature","properties":{"kind":"piste","difficulty":"intermediate","name":"Spechtenseelift","aerialway":null,"osm":"way/1031326162"},"geometry":{"type":"LineString","coordinates":[[14.08225,47.56444],[14.08263,47.56361],[14.08301,47.56151],[14.08324,47.56149]]}},{"type":"Feature","properties":{"kind":"piste","difficulty":"intermediate","name":"Spechtenseelift","aerialway":null,"osm":"way/1031326163"},"geometry":{"type":"LineString","coordinates":[[14.08225,47.56444],[14.08265,47.5646],[14.08299,47.56448]]}},{"type":"Feature","properties":{"kind":"piste","difficulty":"advanced","name":"Spechtenseelift","aerialway":null,"osm":"way/1031326164"},"geometry":{"type":"LineString","coordinates":[[14.08297,47.56704],[14.08331,47.56633],[14.08313,47.56541]]}},{"type":"Feature","properties":{"kind":"piste","difficulty":"intermediate","name":"Spechtenseelift","aerialway":null,"osm":"way/1031326165"},"geometry":{"type":"LineString","coordinates":[[14.08326,47.56546],[14.08313,47.56541]]}},{"type":"Feature","properties":{"kind":"piste","difficulty":"intermediate","name":null,"aerialway":null,"osm":"way/1031326167"},"geometry":{"type":"LineString","coordinates":[[14.08297,47.56704],[14.08312,47.56697]]}},{"type":"Feature","properties":{"kind":"piste","difficulty":"intermediate","name":null,"aerialway":null,"osm":"way/1031326168"},"geometry":{"type":"LineString","coordinates":[[14.08312,47.56697],[14.08371,47.56672],[14.08441,47.56666],[14.08415,47.56611],[14.08326,47.56546]]}},{"type":"Feature","properties":{"kind":"piste","difficulty":"intermediate","name":"Spechtenseelift","aerialway":null,"osm":"way/1031326169"},"geometry":{"type":"LineString","coordinates":[[14.08209,47.5673],[14.08297,47.56704]]}},{"type":"Feature","properties":{"kind":"piste","difficulty":"intermediate","name":"Spechtenseelift","aerialway":null,"osm":"way/1031326170"},"geometry":{"type":"LineString","coordinates":[[14.08299,47.56448],[14.08343,47.5614],[14.08323,47.56129],[14.08312,47.56143]]}},{"type":"Feature","properties":{"kind":"piste","difficulty":"intermediate","name":"Spechtenseelift","aerialway":null,"osm":"way/1031326171"},"geometry":{"type":"LineString","coordinates":[[14.08209,47.5673],[14.08179,47.56716],[14.08167,47.5667],[14.0802,47.5661],[14.08018,47.56595],[14.0804,47.56558],[14.08091,47.56525],[14.0811,47.56484],[14.08225,47.56444]]}}]}