{"type":"FeatureCollection","features":[{"type":"Feature","properties":{"kind":"piste","difficulty":"intermediate","name":null,"aerialway":null,"osm":"way/86125508"},"geometry":{"type":"LineString","coordinates":[[10.86797,46.95777],[10.86843,46.95915],[10.86831,46.95946],[10.86841,46.96049],[10.86862,46.96084],[10.86871,46.96365],[10.86819,46.96514],[10.86857,46.96606],[10.8688,46.96726]]}},{"type":"Feature","properties":{"kind":"piste","difficulty":"easy","name":null,"aerialway":null,"osm":"way/94755378"},"geometry":{"type":"LineString","coordinates":[[10.8734,46.97133],[10.87263,46.97103],[10.87078,46.97067],[10.86985,46.97061],[10.8695,46.97078]]}},{"type":"Feature","properties":{"kind":"piste","difficulty":"easy","name":null,"aerialway":null,"osm":"way/133135169"},"geometry":{"type":"LineString","coordinates":[[10.86663,46.95632],[10.86716,46.95656],[10.86769,46.95723]]}},{"type":"Feature","properties":{"kind":"piste","difficulty":"intermediate","name":"Rifflsee Talabfahrt","aerialway":null,"osm":"way/156106241"},"geometry":{"type":"LineString","coordinates":[[10.86925,46.95859],[10.86958,46.9597],[10.86942,46.96024],[10.86942,46.96085],[10.86971,46.9641],[10.86959,46.96586],[10.86868,46.96826]]}},{"type":"Feature","properties":{"kind":"piste","difficulty":"easy","name":"Schiweg Gletscherbahn-Rifflseebahn","aerialway":null,"osm":"way/576503507"},"geometry":{"type":"LineString","coordinates":[[10.87559,46.95781],[10.87554,46.95812],[10.87482,46.95872],[10.87373,46.95932],[10.8727,46.96019],[10.87262,46.96082],[10.87184,46.96185],[10.87201,46.96309],[10.87116,46.96522],[10.87083,46.96649],[10.86956,46.96758],[10.86921,46.96833]]}},{"type":"Feature","properties":{"kind":"piste","difficulty":"intermediate","name":"Rifflsee Talabfahrt","aerialway":null,"osm":"way/712552152"},"geometry":{"type":"LineString","coordinates":[[10.8549,46.95857],[10.85565,46.95803],[10.85538,46.95778],[10.8556,46.95722],[10.85589,46.9569],[10.85677,46.9566],[10.85691,46.95602],[10.85647,46.95543],[10.85646,46.9545],[10.85679,46.95415],[10.85735,46.95404],[10.85818,46.95419],[10.85918,46.9546],[10.86076,46.95448],[10.86207,46.95478],[10.8637,46.95555],[10.86529,46.95591],[10.86714,46.95651],[10.86761,46.95704],[10.86845,46.9574],[10.8694,46.95869],[10.87013,46.95868],[10.8707,46.95884],[10.87114,46.95859]]}},{"type":"Feature","properties":{"kind":"piste","difficulty":"intermediate","name":null,"aerialway":null,"osm":"way/1160853526"},"geometry":{"type":"LineString","coordinates":[[10.86769,46.95723],[10.86797,46.95777]]}},{"type":"Feature","properties":{"kind":"piste","difficulty":"intermediate","name":null,"aerialway":null,"osm":"way/1160853527"},"geometry":{"type":"LineString","coordinates":[[10.8688,46.96726],[10.86868,46.96826]]}},{"type":"Feature","properties":{"kind":"piste","difficulty":"intermediate","name":"Notwegabfahrt","aerialway":null,"osm":"way/1235253819"},"geometry":{"type":"LineString","coordinates":[[10.87559,46.95781],[10.87507,46.95809],[10.87376,46.95818],[10.87152,46.95882]]}},{"type":"Feature","properties":{"kind":"piste","difficulty":"intermediate","name":null,"aerialway":null,"osm":"way/1235253820"},"geometry":{"type":"LineString","coordinates":[[10.87587,46.95743],[10.87582,46.95764],[10.87559,46.95781]]}},{"type":"Feature","properties":{"kind":"piste","difficulty":"intermediate","name":"Rifflsee Talabfahrt","aerialway":null,"osm":"way/1546251905"},"geometry":{"type":"LineString","coordinates":[[10.86868,46.96826],[10.86992,46.96848],[10.86985,46.96861]]}},{"type":"Feature","properties":{"kind":"lift","difficulty":null,"name":"Rifflseebahn","aerialway":"gondola","osm":"way/29006418"},"geometry":{"type":"LineString","coordinates":[[10.86985,46.96861],[10.85384,46.96731]]}},{"type":"Feature","properties":{"kind":"lift","difficulty":null,"name":"Übungslift Mandarfen","aerialway":"platter","osm":"way/133135170"},"geometry":{"type":"LineString","coordinates":[[10.8695,46.97078],[10.87369,46.97137]]}}]}