{"type":"FeatureCollection","features":[{"type":"Feature","properties":{"kind":"piste","difficulty":"easy","name":"Schneegrube Abfahrt","aerialway":null,"osm":"way/383949266"},"geometry":{"type":"LineString","coordinates":[[15.08079,47.85922],[15.08085,47.85972],[15.08107,47.86009],[15.08019,47.86073],[15.08005,47.86127],[15.07965,47.86192],[15.07786,47.86289],[15.07762,47.8629],[15.07735,47.86249],[15.07456,47.86189],[15.07401,47.86193],[15.07384,47.86205],[15.07174,47.86217],[15.06936,47.86298],[15.06862,47.86312],[15.06864,47.863]]}},{"type":"Feature","properties":{"kind":"piste","difficulty":"easy","name":null,"aerialway":null,"osm":"way/383949399"},"geometry":{"type":"LineString","coordinates":[[15.07354,47.8607],[15.07321,47.86109],[15.07204,47.86173],[15.07043,47.86236],[15.06936,47.86298]]}},{"type":"Feature","properties":{"kind":"piste","difficulty":"intermediate","name":null,"aerialway":null,"osm":"way/383949707"},"geometry":{"type":"LineString","coordinates":[[15.08079,47.85922],[15.08056,47.8599],[15.08021,47.86029],[15.07882,47.86102],[15.0769,47.86133],[15.07443,47.86121],[15.07326,47.86159],[15.07204,47.86173]]}},{"type":"Feature","properties":{"kind":"piste","difficulty":"intermediate","name":null,"aerialway":null,"osm":"way/383949799"},"geometry":{"type":"LineString","coordinates":[[15.07971,47.86058],[15.07971,47.86088],[15.07925,47.86125],[15.07791,47.86188],[15.07652,47.86199],[15.07326,47.86159]]}},{"type":"Feature","properties":{"kind":"piste","difficulty":"easy","name":null,"aerialway":null,"osm":"way/383949824"},"geometry":{"type":"LineString","coordinates":[[15.07349,47.86067],[15.0727,47.8607],[15.06877,47.86269],[15.06842,47.86297],[15.06859,47.86297]]}},{"type":"Feature","properties":{"kind":"piste","difficulty":"advanced","name":"Steilhang","aerialway":null,"osm":"way/383950031"},"geometry":{"type":"LineString","coordinates":[[15.08036,47.85744],[15.07845,47.85775],[15.07534,47.85885],[15.07458,47.85925],[15.07356,47.86018],[15.07282,47.86046],[15.07239,47.86088]]}},{"type":"Feature","properties":{"kind":"piste","difficulty":"easy","name":null,"aerialway":null,"osm":"way/916237154"},"geometry":{"type":"LineString","coordinates":[[15.08056,47.8574],[15.08079,47.85922]]}},{"type":"Feature","properties":{"kind":"lift","difficulty":null,"name":"Zauberteppich","aerialway":"magic_carpet","osm":"way/916237155"},"geometry":{"type":"LineString","coordinates":[[15.06976,47.86321],[15.07033,47.86298]]}},{"type":"Feature","properties":{"kind":"piste","difficulty":"unknown","name":null,"aerialway":null,"osm":"way/916237156"},"geometry":{"type":"LineString","coordinates":[[15.07033,47.86298],[15.07028,47.86312],[15.06987,47.86328],[15.06976,47.86321]]}},{"type":"Feature","properties":{"kind":"piste","difficulty":"unknown","name":null,"aerialway":null,"osm":"way/916237157"},"geometry":{"type":"LineString","coordinates":[[15.07033,47.86298],[15.06978,47.86308],[15.06976,47.86321]]}},{"type":"Feature","properties":{"kind":"lift","difficulty":null,"name":"Maiszinkenlift I","aerialway":"t-bar","osm":"way/1112702715"},"geometry":{"type":"LineString","coordinates":[[15.06855,47.86305],[15.08096,47.85722]]}},{"type":"Feature","properties":{"kind":"lift","difficulty":null,"name":"Maiszinkenlift II","aerialway":"t-bar","osm":"way/1112702716"},"geometry":{"type":"LineString","coordinates":[[15.06851,47.86301],[15.08092,47.85717]]}},{"type":"Feature","properties":{"kind":"piste","difficulty":"advanced","name":"Steilhang","aerialway":null,"osm":"way/1112702717"},"geometry":{"type":"LineString","coordinates":[[15.08018,47.85747],[15.08051,47.85755]]}}]}