{"type":"FeatureCollection","features":[{"type":"Feature","properties":{"kind":"piste","difficulty":"intermediate","name":"Talabfahrt Gosau","aerialway":null,"osm":"way/29228735"},"geometry":{"type":"LineString","coordinates":[[13.47872,47.5679],[13.47875,47.56825],[13.47903,47.56846]]}},{"type":"Feature","properties":{"kind":"piste","difficulty":"intermediate","name":"Talabfahrt Rußbach","aerialway":null,"osm":"way/29255419"},"geometry":{"type":"LineString","coordinates":[[13.47903,47.56846],[13.47942,47.56869],[13.47963,47.56932],[13.4773,47.57422],[13.47718,47.57465],[13.47727,47.57514],[13.47693,47.57639],[13.47624,47.5774],[13.47564,47.57798],[13.47303,47.57925],[13.47118,47.58105],[13.47049,47.58154],[13.46788,47.58464],[13.46766,47.5862],[13.4671,47.58684],[13.46487,47.58823],[13.46274,47.58864]]}},{"type":"Feature","properties":{"kind":"piste","difficulty":"intermediate","name":"Familienabfahrt Hornspitz","aerialway":null,"osm":"way/29255457"},"geometry":{"type":"LineString","coordinates":[[13.48202,47.5676],[13.48361,47.56603],[13.48398,47.56584],[13.48512,47.56581],[13.48764,47.56647],[13.48875,47.56658]]}},{"type":"Feature","properties":{"kind":"piste","difficulty":"intermediate","name":"Talabfahrt Rußbach","aerialway":null,"osm":"way/29255599"},"geometry":{"type":"LineString","coordinates":[[13.47391,47.57879],[13.4722,47.57905],[13.47101,47.57949],[13.46984,47.58014],[13.46968,47.58036],[13.46975,47.58059],[13.47068,47.58081],[13.47102,47.58116]]}},{"type":"Feature","properties":{"kind":"piste","difficulty":"intermediate","name":"Triebenegg","aerialway":null,"osm":"way/29255881"},"geometry":{"type":"LineString","coordinates":[[13.46968,47.58036],[13.46746,47.5806],[13.46565,47.58177],[13.4652,47.58192],[13.46159,47.58237],[13.46122,47.58255],[13.46105,47.58281],[13.46106,47.58335],[13.46079,47.58381],[13.46182,47.58602],[13.46178,47.58692]]}},{"type":"Feature","properties":{"kind":"piste","difficulty":"intermediate","name":"Hochköglabfahrt","aerialway":null,"osm":"way/29256112"},"geometry":{"type":"LineString","coordinates":[[13.48291,47.55091],[13.48262,47.55072],[13.48252,47.55046],[13.48241,47.54906],[13.48259,47.54828],[13.48334,47.54735],[13.48356,47.54676],[13.48458,47.54581],[13.48497,47.54483],[13.48507,47.54387],[13.48537,47.54348],[13.48515,47.54294]]}},{"type":"Feature","properties":{"kind":"piste","difficulty":"intermediate","name":"Falmbergabfahrt","aerialway":null,"osm":"way/35441781"},"geometry":{"type":"LineString","coordinates":[[13.48197,47.56516],[13.48246,47.56536],[13.48303,47.5652],[13.48329,47.56537],[13.48332,47.56557],[13.48398,47.56584]]}},{"type":"Feature","properties":{"kind":"piste","difficulty":"intermediate","name":"Edtalm","aerialway":null,"osm":"way/35441782"},"geometry":{"type":"LineString","coordinates":[[13.48385,47.55859],[13.483,47.55947],[13.4815,47.55961],[13.48113,47.55991],[13.48084,47.55976],[13.48032,47.55905],[13.4804,47.55814],[13.48004,47.55776],[13.47989,47.55727],[13.48049,47.55613],[13.48051,47.55566],[13.48031,47.55504],[13.47994,47.55452]]}},{"type":"Feature","properties":{"kind":"piste","difficulty":"easy","name":"Ochsenkopf","aerialway":null,"osm":"way/35441783"},"geometry":{"type":"LineString","coordinates":[[13.48113,47.55991],[13.48132,47.56104],[13.48106,47.5616],[13.48094,47.56234]]}},{"type":"Feature","properties":{"kind":"piste","difficulty":"intermediate","name":"Skiroute Edtalm","aerialway":null,"osm":"way/35441784"},"geometry":{"type":"LineString","coordinates":[[13.48385,47.55859],[13.48386,47.55849],[13.48352,47.5584],[13.48285,47.55763],[13.48248,47.55621],[13.48199,47.55572]]}},{"type":"Feature","properties":{"kind":"piste","difficulty":"intermediate","name":"Skiroute Edtalm","aerialway":null,"osm":"way/35441785"},"geometry":{"type":"LineString","coordinates":[[13.48369,47.55405],[13.48275,47.55465],[13.48252,47.55535],[13.48199,47.55572],[13.48051,47.55566]]}},{"type":"Feature","properties":{"kind":"piste","difficulty":"intermediate","name":"Astauwinkelabfahrt","aerialway":null,"osm":"way/42465079"},"geometry":{"type":"LineString","coordinates":[[13.44483,47.512],[13.4444,47.51183]]}},{"type":"Feature","properties":{"kind":"piste","difficulty":"easy","name":"Familienabfahrt Zwieselalm","aerialway":null,"osm":"way/44286399"},"geometry":{"type":"LineString","coordinates":[[13.47735,47.5384],[13.47707,47.53844],[13.47645,47.5389],[13.47557,47.53908],[13.47415,47.53959],[13.46958,47.54153],[13.46854,47.54205],[13.46767,47.54267],[13.46718,47.54279],[13.467,47.54322],[13.46624,47.54393],[13.46879,47.54431],[13.47211,47.54516],[13.4765,47.54456],[13.48023,47.54366],[13.48258,47.54362],[13.48304,47.54381]]}},{"type":"Feature","properties":{"kind":"piste","difficulty":"intermediate","name":"Hängleiten","aerialway":null,"osm":"way/44286400"},"geometry":{"type":"LineString","coordinates":[[13.4754,47.54325],[13.47616,47.54358],[13.47669,47.54365],[13.47899,47.54337],[13.48034,47.54335],[13.48345,47.54248],[13.48429,47.5426],[13.48515,47.54294]]}},{"type":"Feature","properties":{"kind":"piste","difficulty":"intermediate","name":"Astauwinkelabfahrt","aerialway":null,"osm":"way/47912547"},"geometry":{"type":"LineString","coordinates":[[13.44962,47.51849],[13.44988,47.51869],[13.44978,47.5189],[13.44934,47.5192]]}},{"type":"Feature","properties":{"kind":"piste","difficulty":"intermediate","name":"Talabfahrt Astauwinkel","aerialway":null,"osm":"way/47912571"},"geometry":{"type":"LineString","coordinates":[[13.46206,47.53313],[13.46206,47.53274],[13.46224,47.53255],[13.46384,47.53235],[13.46458,47.532]]}},{"type":"Feature","properties":{"kind":"piste","difficulty":"intermediate","name":"Talabfahrt Astauwinkel","aerialway":null,"osm":"way/47912582"},"geometry":{"type":"LineString","coordinates":[[13.46597,47.52943],[13.46654,47.52909],[13.46787,47.52786],[13.46798,47.52748],[13.46788,47.5262],[13.46726,47.52535],[13.46677,47.52502],[13.46588,47.52506],[13.46553,47.52458],[13.46562,47.5241],[13.46632,47.52376],[13.46663,47.52295],[13.46702,47.52238],[13.46565,47.52339],[13.46472,47.52365],[13.46423,47.52418],[13.46393,47.52386],[13.46408,47.52355],[13.46459,47.52326],[13.46498,47.52274],[13.46533,47.52204],[13.46524,47.52185],[13.4643,47.52176],[13.46144,47.52189],[13.45954,47.5216],[13.45907,47.52163],[13.45483,47.52087],[13.45375,47.52064],[13.45213,47.51981],[13.45015,47.51902],[13.44922,47.51928],[13.4489,47.51965],[13.44879,47.52003]]}},{"type":"Feature","properties":{"kind":"piste","difficulty":"intermediate","name":"Angerabfahrt","aerialway":null,"osm":"way/47912601"},"geometry":{"type":"LineString","coordinates":[[13.4613,47.53451],[13.46114,47.53497],[13.46146,47.5354],[13.46229,47.53595],[13.46306,47.53621],[13.46381,47.53683]]}},{"type":"Feature","properties":{"kind":"piste","difficulty":"intermediate","name":"Angerabfahrt","aerialway":null,"osm":"way/47912615"},"geometry":{"type":"LineString","coordinates":[[13.46381,47.53683],[13.46453,47.53868],[13.46424,47.53874]]}},{"type":"Feature","properties":{"kind":"piste","difficulty":"easy","name":"Rottenhofpiste","aerialway":null,"osm":"way/47912624"},"geometry":{"type":"LineString","coordinates":[[13.46334,47.53265],[13.46365,47.53277],[13.46379,47.53314],[13.46374,47.53389],[13.46411,47.53576],[13.46381,47.53683]]}},{"type":"Feature","properties":{"kind":"piste","difficulty":"intermediate","name":"Hochköglabfahrt","aerialway":null,"osm":"way/47912634"},"geometry":{"type":"LineString","coordinates":[[13.48394,47.54988],[13.48363,47.5489],[13.48344,47.54862],[13.48287,47.54829],[13.4828,47.54802]]}},{"type":"Feature","properties":{"kind":"piste","difficulty":"intermediate","name":"Törleckabfahrt","aerialway":null,"osm":"way/47912663"},"geometry":{"type":"LineString","coordinates":[[13.47647,47.53219],[13.47628,47.53232],[13.47628,47.53428],[13.4759,47.53472],[13.47517,47.53514]]}},{"type":"Feature","properties":{"kind":"piste","difficulty":"intermediate","name":"Astauwinkelabfahrt","aerialway":null,"osm":"way/47915114"},"geometry":{"type":"LineString","coordinates":[[13.4444,47.51183],[13.44458,47.5122],[13.4444,47.51354],[13.44449,47.51461],[13.44501,47.51534],[13.44723,47.51694],[13.44779,47.51783],[13.44833,47.51831],[13.44929,47.51832]]}},{"type":"Feature","properties":{"kind":"piste","difficulty":"intermediate","name":"Kopfbergabfahrt","aerialway":null,"osm":"way/47915116"},"geometry":{"type":"LineString","coordinates":[[13.44484,47.51149],[13.44486,47.5116],[13.4444,47.51183]]}},{"type":"Feature","properties":{"kind":"piste","difficulty":"intermediate","name":"Astauwinkelabfahrt","aerialway":null,"osm":"way/47915117"},"geometry":{"type":"LineString","coordinates":[[13.44929,47.51832],[13.44962,47.51849]]}},{"type":"Feature","properties":{"kind":"piste","difficulty":"intermediate","name":"Angerabfahrt","aerialway":null,"osm":"way/47915122"},"geometry":{"type":"LineString","coordinates":[[13.4624,47.53276],[13.46241,47.53292],[13.46184,47.53317],[13.4613,47.53451]]}},{"type":"Feature","properties":{"kind":"piste","difficulty":"intermediate","name":"Riedlkarabfahrt II","aerialway":null,"osm":"way/47915127"},"geometry":{"type":"LineString","coordinates":[[13.47688,47.53646],[13.47677,47.53585],[13.47517,47.53514],[13.4714,47.5357],[13.47065,47.53587],[13.46911,47.53658],[13.46767,47.53772],[13.46712,47.53799]]}},{"type":"Feature","properties":{"kind":"piste","difficulty":"easy","name":"Ochsenkopf","aerialway":null,"osm":"way/47919002"},"geometry":{"type":"LineString","coordinates":[[13.48094,47.56234],[13.48003,47.56475],[13.47951,47.56538]]}},{"type":"Feature","properties":{"kind":"piste","difficulty":"advanced","name":"Kanonenrohr","aerialway":null,"osm":"way/48125919"},"geometry":{"type":"LineString","coordinates":[[13.47415,47.53959],[13.4742,47.54021],[13.47375,47.54141],[13.47378,47.54168],[13.47471,47.54275],[13.4754,47.54325],[13.47566,47.54368],[13.47569,47.54441],[13.47583,47.54458]]}},{"type":"Feature","properties":{"kind":"piste","difficulty":"intermediate","name":"Riedlkarabfahrt I","aerialway":null,"osm":"way/48125920"},"geometry":{"type":"LineString","coordinates":[[13.47688,47.53646],[13.4735,47.5375],[13.46933,47.53799],[13.46712,47.53799]]}},{"type":"Feature","properties":{"kind":"piste","difficulty":"intermediate","name":"Schwarzreiter","aerialway":null,"osm":"way/48125921"},"geometry":{"type":"LineString","coordinates":[[13.47628,47.53232],[13.47513,47.53354],[13.47415,47.53413],[13.47188,47.53514],[13.4714,47.5357]]}},{"type":"Feature","properties":{"kind":"piste","difficulty":"advanced","name":"Donnergroll","aerialway":null,"osm":"way/48125922"},"geometry":{"type":"LineString","coordinates":[[13.47647,47.53219],[13.4767,47.53209],[13.4791,47.53277]]}},{"type":"Feature","properties":{"kind":"piste","difficulty":"advanced","name":"Donnergroll","aerialway":null,"osm":"way/48125923"},"geometry":{"type":"LineString","coordinates":[[13.4791,47.53277],[13.48067,47.53279],[13.48086,47.53297],[13.48092,47.53329],[13.48056,47.53411],[13.48082,47.53429]]}},{"type":"Feature","properties":{"kind":"piste","difficulty":"advanced","name":"Bockleit'n","aerialway":null,"osm":"way/52563196"},"geometry":{"type":"LineString","coordinates":[[13.48369,47.55405],[13.47994,47.55452]]}},{"type":"Feature","properties":{"kind":"piste","difficulty":"intermediate","name":"Skiweg Gletscherblick","aerialway":null,"osm":"way/53087868"},"geometry":{"type":"LineString","coordinates":[[13.48218,47.55079],[13.48075,47.55012],[13.48024,47.54975],[13.47931,47.54965],[13.47837,47.54989]]}},{"type":"Feature","properties":{"kind":"piste","difficulty":"intermediate","name":"Skiweg Gletscherblick","aerialway":null,"osm":"way/53087869"},"geometry":{"type":"LineString","coordinates":[[13.47795,47.54875],[13.47483,47.54968],[13.47483,47.54985]]}},{"type":"Feature","properties":{"kind":"piste","difficulty":"intermediate","name":"Talabfahrt Astauwinkel","aerialway":null,"osm":"way/53127275"},"geometry":{"type":"LineString","coordinates":[[13.44879,47.52003],[13.44865,47.51993]]}},{"type":"Feature","properties":{"kind":"piste","difficulty":"intermediate","name":"Riedlkarabfahrt II","aerialway":null,"osm":"way/53127278"},"geometry":{"type":"LineString","coordinates":[[13.47664,47.53857],[13.47688,47.53844]]}},{"type":"Feature","properties":{"kind":"piste","difficulty":"intermediate","name":"Talabfahrt Hornspitz II","aerialway":null,"osm":"way/53127284"},"geometry":{"type":"LineString","coordinates":[[13.47872,47.5679],[13.47922,47.56773],[13.48255,47.5676],[13.48655,47.56721],[13.48971,47.56639],[13.49177,47.56555],[13.49262,47.56543],[13.49376,47.56546],[13.49509,47.56567],[13.49646,47.56627],[13.49744,47.56645]]}},{"type":"Feature","properties":{"kind":"piste","difficulty":"intermediate","name":"Höhbühel","aerialway":null,"osm":"way/53127288"},"geometry":{"type":"LineString","coordinates":[[13.48394,47.54988],[13.4838,47.55027],[13.48291,47.55091]]}},{"type":"Feature","properties":{"kind":"piste","difficulty":"easy","name":"Gipfellift","aerialway":null,"osm":"way/53127297"},"geometry":{"type":"LineString","coordinates":[[13.47872,47.5679],[13.4791,47.5675],[13.47936,47.56574]]}},{"type":"Feature","properties":{"kind":"piste","difficulty":"easy","name":null,"aerialway":null,"osm":"way/53127299"},"geometry":{"type":"LineString","coordinates":[[13.47951,47.56538],[13.47936,47.56574]]}},{"type":"Feature","properties":{"kind":"piste","difficulty":"easy","name":null,"aerialway":null,"osm":"way/53128878"},"geometry":{"type":"LineString","coordinates":[[13.47854,47.56726],[13.4791,47.5675],[13.47922,47.56773]]}},{"type":"Feature","properties":{"kind":"piste","difficulty":"easy","name":"Ötscher Abfahrt","aerialway":null,"osm":"way/81692582"},"geometry":{"type":"LineString","coordinates":[[13.51351,47.56679],[13.51361,47.56694],[13.51478,47.56708],[13.51567,47.56768],[13.51743,47.56823]]}},{"type":"Feature","properties":{"kind":"piste","difficulty":"intermediate","name":"Edtalm","aerialway":null,"osm":"way/142772847"},"geometry":{"type":"LineString","coordinates":[[13.47673,47.55432],[13.4756,47.55529],[13.47527,47.55543],[13.47348,47.55551],[13.47344,47.55559],[13.47376,47.5557]]}},{"type":"Feature","properties":{"kind":"piste","difficulty":"intermediate","name":"Talabfahrt Hornspitz I","aerialway":null,"osm":"way/154563774"},"geometry":{"type":"LineString","coordinates":[[13.49744,47.56645],[13.49961,47.56635],[13.50143,47.56657],[13.50439,47.56885],[13.50573,47.56888],[13.50812,47.56956],[13.50908,47.56956],[13.51263,47.56893],[13.51397,47.56855],[13.51743,47.56823]]}},{"type":"Feature","properties":{"kind":"piste","difficulty":"intermediate","name":"Höhbühel","aerialway":null,"osm":"way/154563781"},"geometry":{"type":"LineString","coordinates":[[13.48394,47.55373],[13.48399,47.55322],[13.48428,47.55267],[13.48429,47.55229],[13.48391,47.55116],[13.48218,47.55079],[13.48177,47.55087],[13.47972,47.5523]]}},{"type":"Feature","properties":{"kind":"piste","difficulty":"easy","name":"Talabfahrt Rußbach","aerialway":null,"osm":"way/154563963"},"geometry":{"type":"LineString","coordinates":[[13.47963,47.56932],[13.48159,47.57079],[13.48007,47.57112],[13.47826,47.57233]]}},{"type":"Feature","properties":{"kind":"piste","difficulty":"easy","name":"Talabfahrt Zwieselalm","aerialway":null,"osm":"way/154566721"},"geometry":{"type":"LineString","coordinates":[[13.49053,47.54232],[13.49144,47.54236],[13.49206,47.54274],[13.49285,47.54439],[13.49367,47.54474],[13.49458,47.54491],[13.49568,47.54555],[13.49611,47.54563],[13.49671,47.54555],[13.4971,47.54531],[13.498,47.54317],[13.49867,47.54297],[13.49941,47.54306],[13.50131,47.54375],[13.50229,47.54436],[13.50279,47.54453],[13.50358,47.54509]]}},{"type":"Feature","properties":{"kind":"piste","difficulty":"intermediate","name":"Talabfahrt Astauwinkel","aerialway":null,"osm":"way/154578970"},"geometry":{"type":"LineString","coordinates":[[13.46458,47.532],[13.46478,47.53185],[13.46566,47.52974],[13.46597,47.52943]]}},{"type":"Feature","properties":{"kind":"piste","difficulty":"intermediate","name":"Rock'n Roll","aerialway":null,"osm":"way/154579326"},"geometry":{"type":"LineString","coordinates":[[13.48394,47.55361],[13.47999,47.55324],[13.47953,47.55333],[13.47909,47.55388],[13.47768,47.55452]]}},{"type":"Feature","properties":{"kind":"piste","difficulty":"intermediate","name":"Edtalm","aerialway":null,"osm":"way/154579328"},"geometry":{"type":"LineString","coordinates":[[13.47768,47.55452],[13.47647,47.55487],[13.4756,47.55529]]}},{"type":"Feature","properties":{"kind":"piste","difficulty":"intermediate","name":null,"aerialway":null,"osm":"way/165380341"},"geometry":{"type":"LineString","coordinates":[[13.47483,47.54985],[13.47392,47.55144],[13.47323,47.55228]]}},{"type":"Feature","properties":{"kind":"piste","difficulty":"easy","name":"Hornbaby","aerialway":null,"osm":"way/184121402"},"geometry":{"type":"LineString","coordinates":[[13.46112,47.58666],[13.46136,47.58699],[13.4629,47.58795],[13.46325,47.58802]]}},{"type":"Feature","properties":{"kind":"piste","difficulty":"easy","name":null,"aerialway":null,"osm":"way/201279537"},"geometry":{"type":"LineString","coordinates":[[13.49744,47.54462],[13.49807,47.54501],[13.49813,47.54401],[13.49709,47.54249],[13.49857,47.54267]]}},{"type":"Feature","properties":{"kind":"piste","difficulty":"easy","name":"Talabfahrt Zwieselalm","aerialway":null,"osm":"way/201279539"},"geometry":{"type":"LineString","coordinates":[[13.49857,47.54267],[13.49867,47.54297]]}},{"type":"Feature","properties":{"kind":"piste","difficulty":"intermediate","name":null,"aerialway":null,"osm":"way/337135355"},"geometry":{"type":"LineString","coordinates":[[13.47205,47.55355],[13.47199,47.55377],[13.4722,47.55457],[13.47267,47.55469],[13.47311,47.55531]]}},{"type":"Feature","properties":{"kind":"piste","difficulty":"intermediate","name":"Skiweg Gletscherblick","aerialway":null,"osm":"way/368578102"},"geometry":{"type":"LineString","coordinates":[[13.47323,47.55228],[13.47205,47.55355]]}},{"type":"Feature","properties":{"kind":"piste","difficulty":"intermediate","name":"Rennstrecke Hornspitz","aerialway":null,"osm":"way/377114419"},"geometry":{"type":"LineString","coordinates":[[13.4788,47.56868],[13.47903,47.56846],[13.48009,47.56857],[13.4855,47.56782],[13.48674,47.56746],[13.48721,47.56704]]}},{"type":"Feature","properties":{"kind":"piste","difficulty":"intermediate","name":null,"aerialway":null,"osm":"way/452123810"},"geometry":{"type":"LineString","coordinates":[[13.47837,47.54989],[13.47815,47.54987],[13.47793,47.54967],[13.47838,47.54896]]}},{"type":"Feature","properties":{"kind":"piste","difficulty":"easy","name":"Harreit leicht","aerialway":null,"osm":"way/467753952"},"geometry":{"type":"LineString","coordinates":[[13.44207,47.51086],[13.44096,47.51063],[13.44073,47.51038],[13.44072,47.50997],[13.44013,47.51082],[13.43973,47.51113]]}},{"type":"Feature","properties":{"kind":"piste","difficulty":"easy","name":"Übungswiese","aerialway":null,"osm":"way/545441802"},"geometry":{"type":"LineString","coordinates":[[13.45641,47.52116],[13.45085,47.51889],[13.45067,47.51869],[13.45088,47.51844]]}},{"type":"Feature","properties":{"kind":"piste","difficulty":"intermediate","name":"Talabfahrt Astauwinkel","aerialway":null,"osm":"way/545441806"},"geometry":{"type":"LineString","coordinates":[[13.4509,47.51932],[13.45085,47.51889]]}},{"type":"Feature","properties":{"kind":"piste","difficulty":"intermediate","name":"Törleckabfahrt","aerialway":null,"osm":"way/548835228"},"geometry":{"type":"LineString","coordinates":[[13.47632,47.53322],[13.47684,47.53347],[13.47826,47.53355],[13.47884,47.53344],[13.48082,47.53429]]}},{"type":"Feature","properties":{"kind":"piste","difficulty":"intermediate","name":"Edtalm","aerialway":null,"osm":"way/1145357323"},"geometry":{"type":"LineString","coordinates":[[13.4824,47.55955],[13.48177,47.55933],[13.4804,47.55814]]}},{"type":"Feature","properties":{"kind":"piste","difficulty":"easy","name":"Talabfahrt Zwieselalm","aerialway":null,"osm":"way/1145435300"},"geometry":{"type":"LineString","coordinates":[[13.4912,47.54195],[13.49144,47.54236]]}},{"type":"Feature","properties":{"kind":"piste","difficulty":"intermediate","name":"Skiweg Gletscherblick","aerialway":null,"osm":"way/1145439190"},"geometry":{"type":"LineString","coordinates":[[13.47838,47.54896],[13.47795,47.54875]]}},{"type":"Feature","properties":{"kind":"piste","difficulty":"intermediate","name":"Höhbühel","aerialway":null,"osm":"way/1145441702"},"geometry":{"type":"LineString","coordinates":[[13.47726,47.55389],[13.47673,47.55432],[13.47691,47.55442],[13.4777,47.55429]]}},{"type":"Feature","properties":{"kind":"piste","difficulty":"intermediate","name":null,"aerialway":null,"osm":"way/1145441704"},"geometry":{"type":"LineString","coordinates":[[13.47972,47.5523],[13.47898,47.5527],[13.47854,47.55317],[13.47796,47.55338],[13.47726,47.55389]]}},{"type":"Feature","properties":{"kind":"piste","difficulty":"unknown","name":null,"aerialway":null,"osm":"way/1145442909"},"geometry":{"type":"LineString","coordinates":[[13.48394,47.55373],[13.48369,47.55405]]}},{"type":"Feature","properties":{"kind":"piste","difficulty":"intermediate","name":"Falmbergabfahrt","aerialway":null,"osm":"way/1145448032"},"geometry":{"type":"LineString","coordinates":[[13.48094,47.56234],[13.48102,47.5633]]}},{"type":"Feature","properties":{"kind":"piste","difficulty":"intermediate","name":null,"aerialway":null,"osm":"way/1145448034"},"geometry":{"type":"LineString","coordinates":[[13.48102,47.5633],[13.48211,47.5641],[13.48197,47.56516]]}},{"type":"Feature","properties":{"kind":"piste","difficulty":"easy","name":null,"aerialway":null,"osm":"way/1361190819"},"geometry":{"type":"LineString","coordinates":[[13.48304,47.54381],[13.484,47.54398],[13.48471,47.54396],[13.4857,47.54354]]}},{"type":"Feature","properties":{"kind":"piste","difficulty":"intermediate","name":"Hängleiten","aerialway":null,"osm":"way/1361194797"},"geometry":{"type":"LineString","coordinates":[[13.49053,47.54232],[13.4912,47.54195]]}},{"type":"Feature","properties":{"kind":"piste","difficulty":"easy","name":"Hornbaby","aerialway":null,"osm":"way/1362013061"},"geometry":{"type":"LineString","coordinates":[[13.46112,47.58666],[13.46178,47.58692],[13.46311,47.58779],[13.46325,47.58802]]}},{"type":"Feature","properties":{"kind":"piste","difficulty":"easy","name":null,"aerialway":null,"osm":"way/1362014517"},"geometry":{"type":"LineString","coordinates":[[13.46325,47.58802],[13.46274,47.58864],[13.46249,47.5887]]}},{"type":"Feature","properties":{"kind":"piste","difficulty":"intermediate","name":"Falmbergabfahrt","aerialway":null,"osm":"way/1363847395"},"geometry":{"type":"LineString","coordinates":[[13.48332,47.56557],[13.48338,47.56624]]}},{"type":"Feature","properties":{"kind":"piste","difficulty":"intermediate","name":null,"aerialway":null,"osm":"way/1363849846"},"geometry":{"type":"LineString","coordinates":[[13.51351,47.56679],[13.51376,47.56666],[13.51854,47.56674],[13.51863,47.56695]]}},{"type":"Feature","properties":{"kind":"piste","difficulty":"intermediate","name":"Höhbühel","aerialway":null,"osm":"way/1408218884"},"geometry":{"type":"LineString","coordinates":[[13.47994,47.55452],[13.47768,47.55452],[13.4777,47.55429]]}},{"type":"Feature","properties":{"kind":"piste","difficulty":"intermediate","name":"Skiweg Gletscherblick","aerialway":null,"osm":"way/1408218885"},"geometry":{"type":"LineString","coordinates":[[13.47311,47.55531],[13.47344,47.55559]]}},{"type":"Feature","properties":{"kind":"piste","difficulty":"intermediate","name":"Riedlkarabfahrt I & II","aerialway":null,"osm":"way/1413532450"},"geometry":{"type":"LineString","coordinates":[[13.46453,47.53868],[13.46433,47.53881]]}},{"type":"Feature","properties":{"kind":"piste","difficulty":"intermediate","name":"Hängleiten","aerialway":null,"osm":"way/1452651402"},"geometry":{"type":"LineString","coordinates":[[13.48515,47.54294],[13.4862,47.54207],[13.48745,47.54181],[13.48933,47.54242],[13.49053,47.54232]]}},{"type":"Feature","properties":{"kind":"piste","difficulty":"intermediate","name":null,"aerialway":null,"osm":"way/1452651403"},"geometry":{"type":"LineString","coordinates":[[13.4791,47.53277],[13.47937,47.53308],[13.47884,47.53344]]}},{"type":"Feature","properties":{"kind":"piste","difficulty":"intermediate","name":"Riedlkarabfahrt I & II","aerialway":null,"osm":"way/1452651404"},"geometry":{"type":"LineString","coordinates":[[13.46654,47.5383],[13.46573,47.53862],[13.46453,47.53868]]}},{"type":"Feature","properties":{"kind":"piste","difficulty":"intermediate","name":"Buckelpiste Rodeo","aerialway":null,"osm":"way/1452651405"},"geometry":{"type":"LineString","coordinates":[[13.4616,47.53375],[13.46269,47.53518],[13.46306,47.53621]]}},{"type":"Feature","properties":{"kind":"piste","difficulty":"intermediate","name":"Freier Fall","aerialway":null,"osm":"way/1452651406"},"geometry":{"type":"LineString","coordinates":[[13.46244,47.53286],[13.46401,47.53503]]}},{"type":"Feature","properties":{"kind":"piste","difficulty":"intermediate","name":"Wilde Hilde","aerialway":null,"osm":"way/1452653979"},"geometry":{"type":"LineString","coordinates":[[13.4799,47.5571],[13.47867,47.55665],[13.47815,47.55632],[13.478,47.55602],[13.47811,47.55481],[13.47768,47.55452]]}},{"type":"Feature","properties":{"kind":"piste","difficulty":"intermediate","name":"Angerabfahrt","aerialway":null,"osm":"way/1489068476"},"geometry":{"type":"LineString","coordinates":[[13.46206,47.53313],[13.46186,47.53314]]}},{"type":"Feature","properties":{"kind":"piste","difficulty":"easy","name":"Rottenhofpiste","aerialway":null,"osm":"way/1489068477"},"geometry":{"type":"LineString","coordinates":[[13.46206,47.53313],[13.46334,47.53265]]}},{"type":"Feature","properties":{"kind":"piste","difficulty":"intermediate","name":"Talabfahrt Astauwinkel","aerialway":null,"osm":"way/1489068478"},"geometry":{"type":"LineString","coordinates":[[13.46334,47.53265],[13.46386,47.53234]]}},{"type":"Feature","properties":{"kind":"piste","difficulty":"intermediate","name":null,"aerialway":null,"osm":"way/1489070219"},"geometry":{"type":"LineString","coordinates":[[13.4787,47.53272],[13.47863,47.53322],[13.47792,47.53388],[13.4759,47.53472]]}},{"type":"Feature","properties":{"kind":"piste","difficulty":"intermediate","name":"Aussichtsabfahrt","aerialway":null,"osm":"way/1489121210"},"geometry":{"type":"LineString","coordinates":[[13.47707,47.53844],[13.47688,47.53844]]}},{"type":"Feature","properties":{"kind":"piste","difficulty":"intermediate","name":"Talabfahrt Hornspitz I","aerialway":null,"osm":"way/1489121211"},"geometry":{"type":"LineString","coordinates":[[13.51743,47.56823],[13.51786,47.56812],[13.51839,47.56768],[13.51863,47.56695],[13.51846,47.56687]]}},{"type":"Feature","properties":{"kind":"piste","difficulty":"easy","name":"Rottenhofpiste","aerialway":null,"osm":"way/1489121583"},"geometry":{"type":"LineString","coordinates":[[13.46381,47.53683],[13.46408,47.53706]]}},{"type":"Feature","properties":{"kind":"piste","difficulty":"intermediate","name":"Riedlkarabfahrt I & II","aerialway":null,"osm":"way/1489121585"},"geometry":{"type":"LineString","coordinates":[[13.46712,47.53799],[13.46654,47.5383]]}},{"type":"Feature","properties":{"kind":"piste","difficulty":"easy","name":null,"aerialway":null,"osm":"way/1489121586"},"geometry":{"type":"LineString","coordinates":[[13.46408,47.53706],[13.46476,47.53762],[13.46532,47.53787],[13.46628,47.53764],[13.46677,47.53767],[13.46682,47.53789],[13.46654,47.5383]]}},{"type":"Feature","properties":{"kind":"piste","difficulty":"intermediate","name":"Aussichtsabfahrt","aerialway":null,"osm":"relation/15479219"},"geometry":{"type":"MultiLineString","coordinates":[[[13.47688,47.53844],[13.47688,47.53646]],[[13.47688,47.53646],[13.47977,47.53461],[13.48082,47.53429],[13.48094,47.53412]]]}},{"type":"Feature","properties":{"kind":"piste","difficulty":"easy","name":"Familienabfahrt Zwieselalm","aerialway":null,"osm":"relation/15479271"},"geometry":{"type":"MultiLineString","coordinates":[[[13.4857,47.54354],[13.48578,47.54359]],[[13.48578,47.54359],[13.48579,47.54366]],[[13.47664,47.53857],[13.47687,47.53863]]]}},{"type":"Feature","properties":{"kind":"lift","difficulty":null,"name":"Hornbahn","aerialway":"gondola","osm":"way/5817585"},"geometry":{"type":"LineString","coordinates":[[13.46249,47.5887],[13.4788,47.56868]]}},{"type":"Feature","properties":{"kind":"lift","difficulty":null,"name":"Hornspitz Express I","aerialway":"chair_lift","osm":"way/29210056"},"geometry":{"type":"LineString","coordinates":[[13.51846,47.56687],[13.4975,47.5662]]}},{"type":"Feature","properties":{"kind":"lift","difficulty":null,"name":"Hornspitz Express II","aerialway":"chair_lift","osm":"way/29223512"},"geometry":{"type":"LineString","coordinates":[[13.49733,47.56658],[13.47897,47.56797]]}},{"type":"Feature","properties":{"kind":"lift","difficulty":null,"name":"Panorama Jet Zwieselalm","aerialway":"gondola","osm":"way/29223729"},"geometry":{"type":"LineString","coordinates":[[13.50358,47.54509],[13.47735,47.5384]]}},{"type":"Feature","properties":{"kind":"lift","difficulty":null,"name":"Törleckbahn","aerialway":"chair_lift","osm":"way/29223743"},"geometry":{"type":"LineString","coordinates":[[13.48094,47.53412],[13.47647,47.53219]]}},{"type":"Feature","properties":{"kind":"lift","difficulty":null,"name":"Hochkögllift","aerialway":"t-bar","osm":"way/29223821"},"geometry":{"type":"LineString","coordinates":[[13.48579,47.54366],[13.48393,47.55038]]}},{"type":"Feature","properties":{"kind":"lift","difficulty":null,"name":"Angeralmbahn","aerialway":"chair_lift","osm":"way/29224389"},"geometry":{"type":"LineString","coordinates":[[13.46424,47.53874],[13.46206,47.53313]]}},{"type":"Feature","properties":{"kind":"lift","difficulty":null,"name":"Astauwinkel","aerialway":"chair_lift","osm":"way/29225973"},"geometry":{"type":"LineString","coordinates":[[13.44865,47.51993],[13.44483,47.512]]}},{"type":"Feature","properties":{"kind":"lift","difficulty":null,"name":"Höhbühelbahn","aerialway":"chair_lift","osm":"way/29226490"},"geometry":{"type":"LineString","coordinates":[[13.4777,47.55429],[13.48383,47.55371]]}},{"type":"Feature","properties":{"kind":"lift","difficulty":null,"name":"Gipfellift","aerialway":"platter","osm":"way/29226965"},"geometry":{"type":"LineString","coordinates":[[13.47936,47.56574],[13.47836,47.56761]]}},{"type":"Feature","properties":{"kind":"lift","difficulty":null,"name":"Ochsenkoplift","aerialway":"t-bar","osm":"way/29228556"},"geometry":{"type":"LineString","coordinates":[[13.47951,47.56538],[13.48126,47.55937]]}},{"type":"Feature","properties":{"kind":"lift","difficulty":null,"name":"Gosaukammbahn","aerialway":"cable_car","osm":"way/37050056"},"geometry":{"type":"LineString","coordinates":[[13.49645,47.53311],[13.48359,47.53253]]}},{"type":"Feature","properties":{"kind":"lift","difficulty":null,"name":"Edtalmbahn","aerialway":"chair_lift","osm":"way/47915129"},"geometry":{"type":"LineString","coordinates":[[13.47376,47.5557],[13.48385,47.55859]]}},{"type":"Feature","properties":{"kind":"lift","difficulty":null,"name":"Ötscherlift","aerialway":"drag_lift","osm":"way/81692578"},"geometry":{"type":"LineString","coordinates":[[13.51853,47.56696],[13.51296,47.56677]]}},{"type":"Feature","properties":{"kind":"lift","difficulty":null,"name":"Hornbabylift","aerialway":"platter","osm":"way/84129187"},"geometry":{"type":"LineString","coordinates":[[13.46325,47.58802],[13.46112,47.58666]]}},{"type":"Feature","properties":{"kind":"lift","difficulty":null,"name":"Seilbahn","aerialway":"zip_line","osm":"way/138704552"},"geometry":{"type":"LineString","coordinates":[[13.53648,47.58075],[13.53615,47.58069]]}},{"type":"Feature","properties":{"kind":"lift","difficulty":null,"name":"Donnerkogelbahn","aerialway":"gondola","osm":"way/310410207"},"geometry":{"type":"LineString","coordinates":[[13.45088,47.51844],[13.4585,47.52205],[13.4624,47.53276]]}},{"type":"Feature","properties":{"kind":"lift","difficulty":null,"name":null,"aerialway":"magic_carpet","osm":"way/545441803"},"geometry":{"type":"LineString","coordinates":[[13.45126,47.51896],[13.45156,47.51912]]}},{"type":"Feature","properties":{"kind":"lift","difficulty":null,"name":null,"aerialway":"magic_carpet","osm":"way/545441804"},"geometry":{"type":"LineString","coordinates":[[13.45123,47.51909],[13.45146,47.51921]]}},{"type":"Feature","properties":{"kind":"lift","difficulty":null,"name":null,"aerialway":"magic_carpet","osm":"way/545441805"},"geometry":{"type":"LineString","coordinates":[[13.45098,47.51874],[13.45113,47.51884]]}},{"type":"Feature","properties":{"kind":"lift","difficulty":null,"name":null,"aerialway":"magic_carpet","osm":"way/635178913"},"geometry":{"type":"LineString","coordinates":[[13.50359,47.54476],[13.50325,47.54465]]}},{"type":"Feature","properties":{"kind":"lift","difficulty":null,"name":null,"aerialway":"magic_carpet","osm":"way/635178915"},"geometry":{"type":"LineString","coordinates":[[13.50224,47.54401],[13.50113,47.54355]]}},{"type":"Feature","properties":{"kind":"lift","difficulty":null,"name":null,"aerialway":"magic_carpet","osm":"way/635178917"},"geometry":{"type":"LineString","coordinates":[[13.50336,47.54455],[13.50215,47.54375]]}},{"type":"Feature","properties":{"kind":"lift","difficulty":null,"name":null,"aerialway":"magic_carpet","osm":"way/940668318"},"geometry":{"type":"LineString","coordinates":[[13.50371,47.5447],[13.50356,47.54462]]}},{"type":"Feature","properties":{"kind":"lift","difficulty":null,"name":"Aussichtsbergbahn","aerialway":"chair_lift","osm":"way/1408218883"},"geometry":{"type":"LineString","coordinates":[[13.46433,47.53881],[13.47664,47.53857]]}},{"type":"Feature","properties":{"kind":"lift","difficulty":null,"name":"Seilbahn","aerialway":"zip_line","osm":"way/1537308652"},"geometry":{"type":"LineString","coordinates":[[13.47775,47.56824],[13.47744,47.56818]]}}]}