{"type":"FeatureCollection","features":[{"type":"Feature","properties":{"kind":"lift","difficulty":null,"name":"Krippensteinbahn 1","aerialway":"cable_car","osm":"way/3996208"},"geometry":{"type":"LineString","coordinates":[[13.70536,47.54799],[13.71537,47.53571]]}},{"type":"Feature","properties":{"kind":"lift","difficulty":null,"name":"Krippensteinbahn 2","aerialway":"cable_car","osm":"way/25732351"},"geometry":{"type":"LineString","coordinates":[[13.71535,47.53554],[13.69349,47.52316]]}},{"type":"Feature","properties":{"kind":"lift","difficulty":null,"name":"Krippensteinbahn 3","aerialway":"cable_car","osm":"way/25732352"},"geometry":{"type":"LineString","coordinates":[[13.67446,47.51537],[13.69311,47.52316]]}},{"type":"Feature","properties":{"kind":"lift","difficulty":null,"name":"Sessellift Krippenstein","aerialway":"chair_lift","osm":"way/85485481"},"geometry":{"type":"LineString","coordinates":[[13.69703,47.52064],[13.69313,47.52253]]}},{"type":"Feature","properties":{"kind":"piste","difficulty":"intermediate","name":null,"aerialway":null,"osm":"way/131467738"},"geometry":{"type":"LineString","coordinates":[[13.65962,47.51556],[13.66066,47.51557],[13.66109,47.51576],[13.66249,47.516],[13.66267,47.51591],[13.66422,47.51596],[13.66437,47.51575],[13.66538,47.51621],[13.66583,47.51625],[13.66707,47.51704],[13.66709,47.51723],[13.66649,47.51772],[13.66659,47.51796],[13.66684,47.51809],[13.66711,47.51809],[13.66746,47.51784],[13.66806,47.51767],[13.66852,47.51787],[13.66895,47.5176],[13.66944,47.51778],[13.66998,47.51771]]}},{"type":"Feature","properties":{"kind":"lift","difficulty":null,"name":"Gjaidalm","aerialway":"rope_tow","osm":"way/131467739"},"geometry":{"type":"LineString","coordinates":[[13.67015,47.51755],[13.67139,47.51701]]}},{"type":"Feature","properties":{"kind":"piste","difficulty":"easy","name":"Abfahrt Sessellift","aerialway":null,"osm":"way/452854265"},"geometry":{"type":"LineString","coordinates":[[13.69308,47.52254],[13.693,47.52221],[13.69325,47.52173],[13.69316,47.52145],[13.69268,47.52098],[13.69444,47.51961],[13.69526,47.51937],[13.69589,47.5195],[13.69676,47.5202],[13.69703,47.52064]]}},{"type":"Feature","properties":{"kind":"piste","difficulty":"easy","name":"Skiabfahrt Krippenstein - Gjaidalm","aerialway":null,"osm":"way/452854267"},"geometry":{"type":"LineString","coordinates":[[13.69268,47.52098],[13.69173,47.52059],[13.69073,47.52043],[13.69038,47.52047],[13.68882,47.52114],[13.6859,47.52087],[13.68508,47.52005],[13.68433,47.51973],[13.68424,47.51938],[13.68397,47.51906],[13.68168,47.51781],[13.68067,47.51671],[13.67987,47.51612],[13.67866,47.51567],[13.67815,47.51588],[13.67662,47.51587],[13.67452,47.51512],[13.67444,47.51519]]}},{"type":"Feature","properties":{"kind":"piste","difficulty":"intermediate","name":"Skiabfahrt Krippenbrunn - Talstation","aerialway":null,"osm":"way/452854268"},"geometry":{"type":"LineString","coordinates":[[13.68497,47.53128],[13.68545,47.53161],[13.68574,47.532],[13.68717,47.53256],[13.68731,47.53363],[13.68713,47.53414],[13.68579,47.53565],[13.6858,47.53596],[13.6861,47.53635],[13.68679,47.53648],[13.6877,47.53633],[13.68824,47.53647],[13.68854,47.53675],[13.68891,47.53755],[13.6889,47.53784],[13.68782,47.53885],[13.68803,47.53923],[13.68843,47.53933],[13.68899,47.53927],[13.692,47.5387],[13.69214,47.53879],[13.69138,47.53921],[13.69133,47.53944],[13.69258,47.53938],[13.69359,47.53913],[13.69513,47.53954],[13.69531,47.53965],[13.69536,47.53986],[13.69517,47.54064],[13.69444,47.54078],[13.69415,47.541],[13.69407,47.54125],[13.6944,47.54194],[13.69405,47.54335],[13.69418,47.54371],[13.69457,47.54379],[13.69589,47.5433],[13.69626,47.54337],[13.69702,47.54449],[13.6963,47.54543],[13.69632,47.54561],[13.69766,47.54561],[13.69951,47.54521],[13.69983,47.54473],[13.69985,47.54443],[13.69962,47.54391],[13.6999,47.54356],[13.70053,47.54347],[13.70131,47.54394],[13.70299,47.54462],[13.70455,47.5446],[13.7057,47.54502],[13.70623,47.54555],[13.70718,47.54615],[13.70731,47.54636],[13.70724,47.5465],[13.70657,47.5469],[13.7062,47.54744],[13.7055,47.5481],[13.70536,47.54799]]}},{"type":"Feature","properties":{"kind":"piste","difficulty":"easy","name":null,"aerialway":null,"osm":"way/452854648"},"geometry":{"type":"LineString","coordinates":[[13.67139,47.51701],[13.67047,47.51751],[13.67015,47.51755]]}},{"type":"Feature","properties":{"kind":"lift","difficulty":null,"name":"Gjaidstationslift","aerialway":"rope_tow","osm":"way/466163282"},"geometry":{"type":"LineString","coordinates":[[13.67563,47.51547],[13.67447,47.51508]]}},{"type":"Feature","properties":{"kind":"piste","difficulty":"intermediate","name":"Skitour Dachsteinüberquerung","aerialway":null,"osm":"way/610049172"},"geometry":{"type":"LineString","coordinates":[[13.66998,47.51771],[13.6702,47.5176]]}},{"type":"Feature","properties":{"kind":"piste","difficulty":"easy","name":null,"aerialway":null,"osm":"way/639917971"},"geometry":{"type":"LineString","coordinates":[[13.67139,47.51701],[13.67338,47.51659],[13.67399,47.51609],[13.67461,47.51592],[13.6755,47.51609],[13.67558,47.51676],[13.67624,47.51681]]}},{"type":"Feature","properties":{"kind":"lift","difficulty":null,"name":null,"aerialway":"drag_lift","osm":"way/840618660"},"geometry":{"type":"LineString","coordinates":[[13.69679,47.52011],[13.69543,47.51874]]}},{"type":"Feature","properties":{"kind":"piste","difficulty":"easy","name":null,"aerialway":null,"osm":"way/1078586372"},"geometry":{"type":"LineString","coordinates":[[13.69564,47.51895],[13.69568,47.51925],[13.69589,47.5195]]}},{"type":"Feature","properties":{"kind":"piste","difficulty":"easy","name":null,"aerialway":null,"osm":"way/1078586373"},"geometry":{"type":"LineString","coordinates":[[13.69661,47.52008],[13.69679,47.52011]]}},{"type":"Feature","properties":{"kind":"piste","difficulty":"intermediate","name":null,"aerialway":null,"osm":"way/1078586374"},"geometry":{"type":"LineString","coordinates":[[13.67559,47.51548],[13.67563,47.51547]]}},{"type":"Feature","properties":{"kind":"piste","difficulty":"intermediate","name":null,"aerialway":null,"osm":"way/1078586375"},"geometry":{"type":"LineString","coordinates":[[13.67454,47.51511],[13.67452,47.51512]]}},{"type":"Feature","properties":{"kind":"piste","difficulty":"easy","name":null,"aerialway":null,"osm":"way/1427372130"},"geometry":{"type":"LineString","coordinates":[[13.67401,47.51609],[13.67409,47.51562],[13.67444,47.51519]]}},{"type":"Feature","properties":{"kind":"piste","difficulty":"easy","name":null,"aerialway":null,"osm":"way/1427372318"},"geometry":{"type":"LineString","coordinates":[[13.6931,47.5231],[13.69308,47.52254]]}},{"type":"Feature","properties":{"kind":"lift","difficulty":null,"name":null,"aerialway":"drag_lift","osm":"way/1427375420"},"geometry":{"type":"LineString","coordinates":[[13.70635,47.54759],[13.70708,47.547]]}},{"type":"Feature","properties":{"kind":"piste","difficulty":"easy","name":null,"aerialway":null,"osm":"way/1427375421"},"geometry":{"type":"LineString","coordinates":[[13.70708,47.547],[13.70623,47.54739],[13.70635,47.54759]]}},{"type":"Feature","properties":{"kind":"lift","difficulty":null,"name":null,"aerialway":"magic_carpet","osm":"way/1427375422"},"geometry":{"type":"LineString","coordinates":[[13.70643,47.54747],[13.70656,47.54736]]}},{"type":"Feature","properties":{"kind":"piste","difficulty":"easy","name":null,"aerialway":null,"osm":"way/1427375423"},"geometry":{"type":"LineString","coordinates":[[13.70674,47.5471],[13.70634,47.54757]]}},{"type":"Feature","properties":{"kind":"piste","difficulty":"easy","name":null,"aerialway":null,"osm":"way/1427375424"},"geometry":{"type":"LineString","coordinates":[[13.70632,47.54739],[13.70639,47.54744]]}},{"type":"Feature","properties":{"kind":"piste","difficulty":"easy","name":null,"aerialway":null,"osm":"way/1488700493"},"geometry":{"type":"LineString","coordinates":[[13.67444,47.51519],[13.67446,47.51537]]}},{"type":"Feature","properties":{"kind":"piste","difficulty":"intermediate","name":"Skiabfahrt Gjaidalm - Krippenbrunn","aerialway":null,"osm":"way/1488700495"},"geometry":{"type":"LineString","coordinates":[[13.67704,47.51594],[13.67644,47.51633],[13.67628,47.51661],[13.67628,47.51702],[13.67646,47.51741],[13.67691,47.51806],[13.67958,47.52045],[13.67989,47.52116],[13.68132,47.52347],[13.68147,47.52411],[13.68149,47.5259],[13.68165,47.52635],[13.68254,47.52789],[13.68394,47.52974],[13.68455,47.53085],[13.68497,47.53128]]}},{"type":"Feature","properties":{"kind":"piste","difficulty":"easy","name":null,"aerialway":null,"osm":"way/1488700496"},"geometry":{"type":"LineString","coordinates":[[13.70656,47.54736],[13.70647,47.54737]]}}]}