{"type":"FeatureCollection","features":[{"type":"Feature","properties":{"kind":"lift","difficulty":null,"name":"Übungslift Knittel I","aerialway":"rope_tow","osm":"way/62249267"},"geometry":{"type":"LineString","coordinates":[[10.42469,47.2857],[10.42243,47.285]]}},{"type":"Feature","properties":{"kind":"lift","difficulty":null,"name":"Sonnenlift","aerialway":"t-bar","osm":"way/62249268"},"geometry":{"type":"LineString","coordinates":[[10.42477,47.28491],[10.41555,47.28462]]}},{"type":"Feature","properties":{"kind":"lift","difficulty":null,"name":"Übungslift Knittel II","aerialway":"rope_tow","osm":"way/62249269"},"geometry":{"type":"LineString","coordinates":[[10.42465,47.28576],[10.42254,47.28542]]}},{"type":"Feature","properties":{"kind":"piste","difficulty":"easy","name":null,"aerialway":null,"osm":"way/103399852"},"geometry":{"type":"LineString","coordinates":[[10.41632,47.28468],[10.41593,47.28466],[10.41549,47.28438],[10.41544,47.28397],[10.41613,47.28367],[10.41742,47.28348],[10.4201,47.28408],[10.42208,47.28395],[10.42331,47.28475]]}},{"type":"Feature","properties":{"kind":"piste","difficulty":"intermediate","name":null,"aerialway":null,"osm":"way/554842246"},"geometry":{"type":"LineString","coordinates":[[10.41632,47.28465],[10.4167,47.2848],[10.41848,47.2845],[10.42134,47.28453],[10.42331,47.28475]]}},{"type":"Feature","properties":{"kind":"piste","difficulty":"easy","name":null,"aerialway":null,"osm":"way/1425813211"},"geometry":{"type":"LineString","coordinates":[[10.41631,47.28473],[10.41584,47.28466],[10.4154,47.28433],[10.41528,47.28411],[10.41533,47.28389],[10.41604,47.28359],[10.41724,47.28342],[10.41946,47.28377],[10.4202,47.28404],[10.42217,47.28393],[10.42323,47.28459],[10.42445,47.28459],[10.42476,47.28475],[10.42477,47.28491],[10.42304,47.28479],[10.42215,47.284],[10.41993,47.28413],[10.41732,47.28353],[10.41558,47.28399],[10.41549,47.28434],[10.41631,47.28473]]}},{"type":"Feature","properties":{"kind":"piste","difficulty":"intermediate","name":null,"aerialway":null,"osm":"way/1425813212"},"geometry":{"type":"LineString","coordinates":[[10.42041,47.28438],[10.41989,47.28412],[10.41941,47.28405],[10.41995,47.2844],[10.41962,47.2845],[10.41854,47.28439],[10.41672,47.28477],[10.41627,47.28469],[10.41674,47.28483],[10.41903,47.28458],[10.42325,47.28484],[10.42273,47.28455],[10.42198,47.28442],[10.42041,47.28438]]}},{"type":"Feature","properties":{"kind":"piste","difficulty":"intermediate","name":null,"aerialway":null,"osm":"way/1425823072"},"geometry":{"type":"LineString","coordinates":[[10.41942,47.28392],[10.42009,47.28438],[10.42055,47.28454]]}},{"type":"Feature","properties":{"kind":"piste","difficulty":"easy","name":null,"aerialway":null,"osm":"way/1426216553"},"geometry":{"type":"LineString","coordinates":[[10.42331,47.28475],[10.42446,47.28478],[10.42477,47.28491]]}}]}