{"type":"FeatureCollection","features":[{"type":"Feature","properties":{"kind":"lift","difficulty":null,"name":"Pirstingerkogellift","aerialway":"t-bar","osm":"way/30837137"},"geometry":{"type":"LineString","coordinates":[[15.54168,47.34513],[15.53756,47.34333]]}},{"type":"Feature","properties":{"kind":"piste","difficulty":"unknown","name":null,"aerialway":null,"osm":"way/30837138"},"geometry":{"type":"LineString","coordinates":[[15.53756,47.34333],[15.53688,47.34369],[15.53849,47.34447],[15.54168,47.34513]]}},{"type":"Feature","properties":{"kind":"piste","difficulty":"unknown","name":null,"aerialway":null,"osm":"way/30837139"},"geometry":{"type":"LineString","coordinates":[[15.53756,47.34333],[15.53764,47.34268],[15.53889,47.34196],[15.53933,47.34225],[15.53917,47.34276],[15.54168,47.34513]]}},{"type":"Feature","properties":{"kind":"piste","difficulty":"unknown","name":null,"aerialway":null,"osm":"way/30837140"},"geometry":{"type":"LineString","coordinates":[[15.53764,47.34268],[15.54032,47.34378]]}}]}