{"type":"FeatureCollection","features":[{"type":"Feature","properties":{"kind":"lift","difficulty":null,"name":"Gläserbodenlift","aerialway":"t-bar","osm":"way/30025679"},"geometry":{"type":"LineString","coordinates":[[14.20028,47.40268],[14.20295,47.39144]]}},{"type":"Feature","properties":{"kind":"lift","difficulty":null,"name":"Plannereckbahn","aerialway":"chair_lift","osm":"way/30186247"},"geometry":{"type":"LineString","coordinates":[[14.20092,47.40585],[14.21468,47.40452]]}},{"type":"Feature","properties":{"kind":"piste","difficulty":"intermediate","name":"Panorama Piste","aerialway":null,"osm":"way/30213057"},"geometry":{"type":"LineString","coordinates":[[14.20988,47.40094],[14.20814,47.40029],[14.20787,47.39991],[14.20781,47.39903],[14.20753,47.39862],[14.2067,47.39809],[14.20622,47.39797],[14.20568,47.3982],[14.20523,47.39847],[14.20485,47.3989],[14.20475,47.3992]]}},{"type":"Feature","properties":{"kind":"lift","difficulty":null,"name":"Kleiner Rotbühellift","aerialway":"drag_lift","osm":"way/30213058"},"geometry":{"type":"LineString","coordinates":[[14.20177,47.40554],[14.20729,47.40387]]}},{"type":"Feature","properties":{"kind":"piste","difficulty":"advanced","name":null,"aerialway":null,"osm":"way/30213186"},"geometry":{"type":"LineString","coordinates":[[14.20285,47.39187],[14.20291,47.39185]]}},{"type":"Feature","properties":{"kind":"piste","difficulty":"advanced","name":"Gläser Leitn","aerialway":null,"osm":"way/30213187"},"geometry":{"type":"LineString","coordinates":[[14.20291,47.39185],[14.20443,47.3926],[14.20478,47.39297],[14.20379,47.39317],[14.20241,47.39373]]}},{"type":"Feature","properties":{"kind":"piste","difficulty":"intermediate","name":"Gläserboden Piste","aerialway":null,"osm":"way/30213189"},"geometry":{"type":"LineString","coordinates":[[14.20241,47.39373],[14.20295,47.39408],[14.20309,47.39452],[14.20295,47.39515],[14.20321,47.39601],[14.20289,47.39638],[14.20217,47.39833],[14.2016,47.40115],[14.20105,47.40299],[14.20069,47.40303],[14.20043,47.40291],[14.2003,47.4026]]}},{"type":"Feature","properties":{"kind":"piste","difficulty":"intermediate","name":"Rotbühel Piste","aerialway":null,"osm":"way/30213536"},"geometry":{"type":"LineString","coordinates":[[14.20992,47.40096],[14.20959,47.4014],[14.20898,47.40325],[14.20827,47.40375],[14.2071,47.40363],[14.20658,47.40378]]}},{"type":"Feature","properties":{"kind":"piste","difficulty":"intermediate","name":null,"aerialway":null,"osm":"way/30213537"},"geometry":{"type":"LineString","coordinates":[[14.2025,47.4048],[14.20168,47.40482],[14.20153,47.40464],[14.20121,47.4046]]}},{"type":"Feature","properties":{"kind":"piste","difficulty":"easy","name":"Rotbühelpiste","aerialway":null,"osm":"way/30213538"},"geometry":{"type":"LineString","coordinates":[[14.20658,47.40378],[14.20487,47.40426],[14.20376,47.4044],[14.20315,47.40469],[14.2025,47.4048],[14.20087,47.40549],[14.20077,47.4057],[14.20092,47.40585]]}},{"type":"Feature","properties":{"kind":"piste","difficulty":"intermediate","name":null,"aerialway":null,"osm":"way/30213541"},"geometry":{"type":"LineString","coordinates":[[14.2099,47.40608],[14.20987,47.40578]]}},{"type":"Feature","properties":{"kind":"piste","difficulty":"intermediate","name":null,"aerialway":null,"osm":"way/30213544"},"geometry":{"type":"LineString","coordinates":[[14.2099,47.40608],[14.20988,47.40649]]}},{"type":"Feature","properties":{"kind":"piste","difficulty":"advanced","name":"Eck Leitn","aerialway":null,"osm":"way/30214224"},"geometry":{"type":"LineString","coordinates":[[14.21432,47.40436],[14.21382,47.40442],[14.21305,47.4053],[14.21212,47.406]]}},{"type":"Feature","properties":{"kind":"piste","difficulty":"intermediate","name":"Plannereck Piste","aerialway":null,"osm":"way/30214225"},"geometry":{"type":"LineString","coordinates":[[14.21212,47.406],[14.20958,47.40576],[14.20712,47.40571],[14.20534,47.40509],[14.20177,47.40566],[14.20125,47.40565],[14.20087,47.40549]]}},{"type":"Feature","properties":{"kind":"piste","difficulty":"intermediate","name":null,"aerialway":null,"osm":"way/30214226"},"geometry":{"type":"LineString","coordinates":[[14.2034,47.40599],[14.20284,47.40556]]}},{"type":"Feature","properties":{"kind":"piste","difficulty":"easy","name":null,"aerialway":null,"osm":"way/30214228"},"geometry":{"type":"LineString","coordinates":[[14.20534,47.40509],[14.20376,47.4044]]}},{"type":"Feature","properties":{"kind":"piste","difficulty":"intermediate","name":null,"aerialway":null,"osm":"way/30214229"},"geometry":{"type":"LineString","coordinates":[[14.20105,47.40299],[14.20109,47.40338],[14.20152,47.40426],[14.20152,47.40455],[14.20043,47.40448],[14.20002,47.4042]]}},{"type":"Feature","properties":{"kind":"piste","difficulty":"advanced","name":"Die Versteckte","aerialway":null,"osm":"way/30565320"},"geometry":{"type":"LineString","coordinates":[[14.20285,47.39187],[14.20224,47.39198],[14.20116,47.39276],[14.20183,47.39287],[14.20219,47.39308],[14.2024,47.39329],[14.20241,47.39373],[14.20228,47.3938],[14.2021,47.39461],[14.20178,47.39485],[14.20119,47.39569],[14.20066,47.39714],[14.19989,47.39807],[14.19958,47.39877],[14.19959,47.39919],[14.19986,47.39996],[14.19983,47.40163],[14.20023,47.40275],[14.20041,47.40286]]}},{"type":"Feature","properties":{"kind":"piste","difficulty":"intermediate","name":null,"aerialway":null,"osm":"way/30565325"},"geometry":{"type":"LineString","coordinates":[[14.20658,47.40378],[14.20548,47.40274]]}},{"type":"Feature","properties":{"kind":"piste","difficulty":"advanced","name":"Jet Leitn","aerialway":null,"osm":"way/30565330"},"geometry":{"type":"LineString","coordinates":[[14.20959,47.4014],[14.20775,47.40224],[14.20548,47.40274],[14.20452,47.40281],[14.20231,47.40369],[14.20188,47.40389],[14.20187,47.40401]]}},{"type":"Feature","properties":{"kind":"piste","difficulty":"intermediate","name":"Gstemmer Schleife","aerialway":null,"osm":"way/30738176"},"geometry":{"type":"LineString","coordinates":[[14.2141,47.40609],[14.21434,47.40666],[14.21434,47.40693],[14.21412,47.40724],[14.21207,47.40862],[14.21071,47.40908],[14.20873,47.40886],[14.2084,47.40904],[14.20763,47.4091],[14.20674,47.40892],[14.20558,47.40841],[14.20395,47.408],[14.20281,47.40728],[14.20256,47.40687],[14.20258,47.40651],[14.20231,47.40625]]}},{"type":"Feature","properties":{"kind":"lift","difficulty":null,"name":"Übungslift","aerialway":"magic_carpet","osm":"way/30738177"},"geometry":{"type":"LineString","coordinates":[[14.19916,47.40244],[14.19911,47.40232]]}},{"type":"Feature","properties":{"kind":"piste","difficulty":"intermediate","name":null,"aerialway":null,"osm":"way/30738178"},"geometry":{"type":"LineString","coordinates":[[14.21308,47.40628],[14.21212,47.406]]}},{"type":"Feature","properties":{"kind":"piste","difficulty":"intermediate","name":"Seekar Piste","aerialway":null,"osm":"way/30738179"},"geometry":{"type":"LineString","coordinates":[[14.21468,47.40452],[14.21476,47.4044],[14.21467,47.40434],[14.21432,47.40436],[14.21395,47.40488],[14.21448,47.40546],[14.21442,47.40577],[14.2141,47.40609],[14.21285,47.40635],[14.21184,47.40693],[14.20988,47.40649],[14.20849,47.40647],[14.20426,47.40593],[14.2034,47.40599],[14.20231,47.40625],[14.20156,47.40605],[14.20149,47.40579],[14.20125,47.40565]]}},{"type":"Feature","properties":{"kind":"piste","difficulty":"easy","name":"Kleine Rotbühelpiste","aerialway":null,"osm":"way/30738185"},"geometry":{"type":"LineString","coordinates":[[14.2068,47.40402],[14.20658,47.40378],[14.20628,47.40369],[14.20308,47.40383],[14.20187,47.40401],[14.20152,47.40426],[14.20165,47.40444],[14.20163,47.4052],[14.20191,47.4055]]}},{"type":"Feature","properties":{"kind":"lift","difficulty":null,"name":"Rotbühelbahn (Planner-Jet)","aerialway":"chair_lift","osm":"way/124355168"},"geometry":{"type":"LineString","coordinates":[[14.19983,47.40402],[14.21008,47.4005]]}},{"type":"Feature","properties":{"kind":"lift","difficulty":null,"name":"Übungslift","aerialway":"rope_tow","osm":"way/124355182"},"geometry":{"type":"LineString","coordinates":[[14.19961,47.40256],[14.19895,47.40182]]}},{"type":"Feature","properties":{"kind":"piste","difficulty":"intermediate","name":null,"aerialway":null,"osm":"way/124355185"},"geometry":{"type":"LineString","coordinates":[[14.20321,47.39601],[14.20359,47.39654],[14.20383,47.39714],[14.20376,47.39734],[14.20252,47.39753]]}},{"type":"Feature","properties":{"kind":"lift","difficulty":null,"name":"Übungslift","aerialway":"magic_carpet","osm":"way/190868109"},"geometry":{"type":"LineString","coordinates":[[14.19975,47.40242],[14.19968,47.4022]]}},{"type":"Feature","properties":{"kind":"piste","difficulty":"intermediate","name":"Panorama Swing","aerialway":null,"osm":"way/661047693"},"geometry":{"type":"LineString","coordinates":[[14.21467,47.40434],[14.21333,47.40363],[14.21241,47.40297],[14.21178,47.40277],[14.21111,47.40222],[14.21033,47.40116],[14.20992,47.40096]]}},{"type":"Feature","properties":{"kind":"piste","difficulty":"intermediate","name":null,"aerialway":null,"osm":"way/1162829505"},"geometry":{"type":"LineString","coordinates":[[14.20359,47.39654],[14.20452,47.3972],[14.2059,47.39748],[14.20622,47.39797]]}},{"type":"Feature","properties":{"kind":"piste","difficulty":"easy","name":null,"aerialway":null,"osm":"way/1162829507"},"geometry":{"type":"LineString","coordinates":[[14.20958,47.40576],[14.20921,47.40535],[14.20844,47.40514],[14.20616,47.40414],[14.20576,47.40369]]}},{"type":"Feature","properties":{"kind":"piste","difficulty":"intermediate","name":null,"aerialway":null,"osm":"way/1162829508"},"geometry":{"type":"LineString","coordinates":[[14.21231,47.40845],[14.21038,47.40745],[14.20994,47.40699],[14.20988,47.40649]]}},{"type":"Feature","properties":{"kind":"piste","difficulty":"intermediate","name":"Panorama Piste","aerialway":null,"osm":"way/1181253453"},"geometry":{"type":"LineString","coordinates":[[14.2045,47.39964],[14.20326,47.40089],[14.20181,47.40173],[14.20146,47.40207],[14.20082,47.40347],[14.19971,47.40398],[14.20002,47.4042],[14.19983,47.40402]]}},{"type":"Feature","properties":{"kind":"piste","difficulty":"intermediate","name":"Panorama Piste","aerialway":null,"osm":"way/1181253454"},"geometry":{"type":"LineString","coordinates":[[14.20475,47.3992],[14.20449,47.39939],[14.2045,47.39964]]}},{"type":"Feature","properties":{"kind":"piste","difficulty":"intermediate","name":"Rotbühel Piste","aerialway":null,"osm":"way/1181253463"},"geometry":{"type":"LineString","coordinates":[[14.21008,47.4005],[14.21029,47.40057],[14.21035,47.40078],[14.2102,47.40094],[14.20988,47.40094]]}},{"type":"Feature","properties":{"kind":"piste","difficulty":"easy","name":"Kid's Rodeo","aerialway":null,"osm":"way/1250886180"},"geometry":{"type":"LineString","coordinates":[[14.2045,47.39964],[14.20461,47.40014],[14.20432,47.40061],[14.20479,47.4017],[14.20287,47.40125],[14.20271,47.40131],[14.20248,47.40169],[14.20255,47.40186],[14.20298,47.40205],[14.20314,47.40225],[14.20313,47.40249],[14.20219,47.40265],[14.20128,47.40246],[14.20166,47.4036],[14.20156,47.40414]]}},{"type":"Feature","properties":{"kind":"piste","difficulty":"easy","name":null,"aerialway":null,"osm":"way/1250886655"},"geometry":{"type":"LineString","coordinates":[[14.20917,47.40274],[14.20952,47.40354],[14.20949,47.40478],[14.20921,47.40535]]}},{"type":"Feature","properties":{"kind":"piste","difficulty":"easy","name":null,"aerialway":null,"osm":"way/1250886656"},"geometry":{"type":"LineString","coordinates":[[14.20679,47.4044],[14.20534,47.40509]]}}]}