{"type":"FeatureCollection","features":[{"type":"Feature","properties":{"kind":"lift","difficulty":null,"name":"Polster Quattro","aerialway":"chair_lift","osm":"way/23095328"},"geometry":{"type":"LineString","coordinates":[[14.96176,47.5169],[14.9601,47.52779]]}},{"type":"Feature","properties":{"kind":"lift","difficulty":null,"name":"Grübl Quattro","aerialway":"chair_lift","osm":"way/23095330"},"geometry":{"type":"LineString","coordinates":[[14.96104,47.51663],[14.9451,47.51289]]}},{"type":"Feature","properties":{"kind":"piste","difficulty":"intermediate","name":"Panorama","aerialway":null,"osm":"way/23095333"},"geometry":{"type":"LineString","coordinates":[[14.9601,47.52779],[14.96038,47.52779],[14.96056,47.52708],[14.96117,47.52591],[14.96348,47.52408],[14.96525,47.52289],[14.96637,47.52234],[14.96638,47.52212],[14.96515,47.52173],[14.9652,47.52145],[14.96562,47.52097],[14.96646,47.52027],[14.96717,47.51999],[14.968,47.51992],[14.96817,47.51959]]}},{"type":"Feature","properties":{"kind":"piste","difficulty":"freeride","name":"Polsterdreieck","aerialway":null,"osm":"way/23095334"},"geometry":{"type":"LineString","coordinates":[[14.95948,47.53126],[14.96098,47.53059],[14.96158,47.52984],[14.9624,47.52914],[14.96179,47.52833],[14.96254,47.52655],[14.96271,47.52549],[14.96233,47.52503],[14.96177,47.52466],[14.96077,47.52484],[14.9593,47.52538],[14.95796,47.52563],[14.9565,47.52624],[14.95495,47.5259],[14.9542,47.52469],[14.95254,47.5225],[14.95304,47.52224],[14.95389,47.52221],[14.95417,47.52244]]}},{"type":"Feature","properties":{"kind":"piste","difficulty":"intermediate","name":"Seitensprung","aerialway":null,"osm":"way/23095335"},"geometry":{"type":"LineString","coordinates":[[14.96583,47.52264],[14.96585,47.52371],[14.96625,47.52414],[14.96778,47.52338],[14.96879,47.52253],[14.96886,47.52188],[14.96823,47.5205],[14.96817,47.51959]]}},{"type":"Feature","properties":{"kind":"piste","difficulty":"intermediate","name":null,"aerialway":null,"osm":"way/23095336"},"geometry":{"type":"LineString","coordinates":[[14.96233,47.52503],[14.96275,47.52505],[14.96362,47.5246],[14.96427,47.524],[14.96456,47.52336]]}},{"type":"Feature","properties":{"kind":"piste","difficulty":"easy","name":"Mittel-Abfahrt","aerialway":null,"osm":"way/98308303"},"geometry":{"type":"LineString","coordinates":[[14.94467,47.51347],[14.94781,47.51461],[14.94955,47.51464],[14.9511,47.51508],[14.95171,47.51511],[14.95307,47.51568],[14.9549,47.51549],[14.9553,47.51556],[14.9563,47.51583],[14.95771,47.51674],[14.96125,47.51686]]}},{"type":"Feature","properties":{"kind":"lift","difficulty":null,"name":"Weidtallift","aerialway":"t-bar","osm":"way/98308369"},"geometry":{"type":"LineString","coordinates":[[14.96735,47.51384],[14.96206,47.50975]]}},{"type":"Feature","properties":{"kind":"piste","difficulty":"intermediate","name":"Panorama","aerialway":null,"osm":"way/98325974"},"geometry":{"type":"LineString","coordinates":[[14.96249,47.5178],[14.96149,47.51763],[14.96137,47.51753],[14.96142,47.51718],[14.96125,47.51686]]}},{"type":"Feature","properties":{"kind":"piste","difficulty":"intermediate","name":"Panorama","aerialway":null,"osm":"way/98325975"},"geometry":{"type":"LineString","coordinates":[[14.96817,47.51959],[14.96803,47.51935]]}},{"type":"Feature","properties":{"kind":"piste","difficulty":"intermediate","name":"Panorama","aerialway":null,"osm":"way/98325990"},"geometry":{"type":"LineString","coordinates":[[14.96803,47.51935],[14.96559,47.51887],[14.96406,47.51804],[14.96288,47.51802]]}},{"type":"Feature","properties":{"kind":"piste","difficulty":"intermediate","name":"Panorama","aerialway":null,"osm":"way/98325998"},"geometry":{"type":"LineString","coordinates":[[14.96288,47.51802],[14.96249,47.5178]]}},{"type":"Feature","properties":{"kind":"lift","difficulty":null,"name":"Polster Classic","aerialway":"chair_lift","osm":"way/99839328"},"geometry":{"type":"LineString","coordinates":[[14.95417,47.52244],[14.95948,47.53126]]}},{"type":"Feature","properties":{"kind":"lift","difficulty":null,"name":"Übungslift","aerialway":"j-bar","osm":"way/204913875"},"geometry":{"type":"LineString","coordinates":[[14.96085,47.51755],[14.95869,47.5182]]}},{"type":"Feature","properties":{"kind":"lift","difficulty":null,"name":"Arenalift","aerialway":"t-bar","osm":"way/204913877"},"geometry":{"type":"LineString","coordinates":[[14.96079,47.51718],[14.95147,47.51934]]}},{"type":"Feature","properties":{"kind":"piste","difficulty":"intermediate","name":"Laugensack-Abfahrt","aerialway":null,"osm":"way/321464201"},"geometry":{"type":"LineString","coordinates":[[14.96261,47.51018],[14.96238,47.5103],[14.96232,47.51049],[14.96258,47.5111],[14.96259,47.51145],[14.9615,47.51156],[14.96127,47.51172],[14.96138,47.51209],[14.96291,47.51307],[14.96384,47.51348],[14.96523,47.51327],[14.96618,47.51328],[14.9668,47.51369],[14.96735,47.51384]]}},{"type":"Feature","properties":{"kind":"piste","difficulty":"intermediate","name":"Weidtal-Abfahrt","aerialway":null,"osm":"way/321464202"},"geometry":{"type":"LineString","coordinates":[[14.96261,47.51018],[14.9634,47.50972],[14.96425,47.50974],[14.96554,47.5104],[14.96615,47.51108],[14.96707,47.51175],[14.96803,47.51207],[14.96882,47.51251],[14.96895,47.51301],[14.96817,47.51372],[14.96735,47.51384]]}},{"type":"Feature","properties":{"kind":"piste","difficulty":"intermediate","name":"Weidtal-Abfahrt","aerialway":null,"osm":"way/321464203"},"geometry":{"type":"LineString","coordinates":[[14.96615,47.51108],[14.96615,47.51148],[14.96635,47.5118],[14.9658,47.51217],[14.96605,47.51252],[14.96817,47.51372]]}},{"type":"Feature","properties":{"kind":"lift","difficulty":null,"name":null,"aerialway":"magic_carpet","osm":"way/321469145"},"geometry":{"type":"LineString","coordinates":[[14.96093,47.51728],[14.96072,47.51744]]}},{"type":"Feature","properties":{"kind":"piste","difficulty":"easy","name":"Mühlenwald-Abfahrt","aerialway":null,"osm":"way/321469146"},"geometry":{"type":"LineString","coordinates":[[14.96127,47.51172],[14.96104,47.5118],[14.9609,47.51241],[14.96042,47.51324],[14.96002,47.51354],[14.95946,47.51426],[14.9585,47.5147],[14.96041,47.51425],[14.96161,47.51421],[14.96439,47.51448],[14.9655,47.51436],[14.96703,47.51439],[14.96753,47.51422],[14.96725,47.51391],[14.96735,47.51384]]}},{"type":"Feature","properties":{"kind":"piste","difficulty":"intermediate","name":"Schlumperwald","aerialway":null,"osm":"way/321469668"},"geometry":{"type":"LineString","coordinates":[[14.95244,47.51892],[14.95318,47.51909],[14.95398,47.51904],[14.95477,47.51888],[14.95508,47.51866],[14.95671,47.51855],[14.95764,47.51809],[14.95857,47.51781],[14.95885,47.51799]]}},{"type":"Feature","properties":{"kind":"piste","difficulty":"easy","name":"Skischul-Abfahrt","aerialway":null,"osm":"way/321469669"},"geometry":{"type":"LineString","coordinates":[[14.95206,47.5192],[14.95212,47.51908],[14.95304,47.51871],[14.95484,47.51826],[14.95578,47.51781],[14.95658,47.51762],[14.96053,47.51705],[14.96089,47.51712],[14.96079,47.51718]]}},{"type":"Feature","properties":{"kind":"piste","difficulty":"easy","name":"Purzelwiese","aerialway":null,"osm":"way/321469670"},"geometry":{"type":"LineString","coordinates":[[14.95869,47.5182],[14.95885,47.51799],[14.96058,47.51752],[14.96085,47.51755]]}},{"type":"Feature","properties":{"kind":"piste","difficulty":"freeride","name":"Polsterrinne","aerialway":null,"osm":"way/321471538"},"geometry":{"type":"LineString","coordinates":[[14.95948,47.53126],[14.9588,47.53112],[14.9579,47.53031],[14.95672,47.52964],[14.95361,47.52671],[14.95384,47.52638],[14.95495,47.5259]]}},{"type":"Feature","properties":{"kind":"piste","difficulty":"freeride","name":"Zellerhang","aerialway":null,"osm":"way/321471539"},"geometry":{"type":"LineString","coordinates":[[14.96233,47.52503],[14.96167,47.52392],[14.96121,47.52274],[14.96115,47.52222],[14.96165,47.52011],[14.96173,47.51913],[14.96442,47.51825],[14.96403,47.51811],[14.96288,47.51802]]}},{"type":"Feature","properties":{"kind":"piste","difficulty":"easy","name":"Purzelwiese","aerialway":null,"osm":"way/336963056"},"geometry":{"type":"LineString","coordinates":[[14.96058,47.51752],[14.96089,47.51712]]}},{"type":"Feature","properties":{"kind":"piste","difficulty":"intermediate","name":"Fis-Piste","aerialway":null,"osm":"way/383945586"},"geometry":{"type":"LineString","coordinates":[[14.94497,47.51296],[14.94684,47.51344],[14.94945,47.51329],[14.95215,47.5138],[14.95358,47.51384],[14.95473,47.51356],[14.95667,47.51387],[14.95779,47.5142],[14.95886,47.51493],[14.95987,47.51496],[14.96028,47.51515],[14.96112,47.51585],[14.96125,47.51686]]}},{"type":"Feature","properties":{"kind":"piste","difficulty":"intermediate","name":"Fis-Piste","aerialway":null,"osm":"way/383945695"},"geometry":{"type":"LineString","coordinates":[[14.95507,47.51359],[14.95548,47.51385],[14.95795,47.51477],[14.9587,47.51483]]}},{"type":"Feature","properties":{"kind":"piste","difficulty":"intermediate","name":null,"aerialway":null,"osm":"way/383946146"},"geometry":{"type":"LineString","coordinates":[[14.94508,47.5129],[14.94511,47.51278],[14.94563,47.51293],[14.94596,47.51337],[14.94601,47.51361],[14.94587,47.51389],[14.94596,47.51401],[14.94565,47.51451]]}},{"type":"Feature","properties":{"kind":"piste","difficulty":"intermediate","name":null,"aerialway":null,"osm":"way/383946513"},"geometry":{"type":"LineString","coordinates":[[14.9484,47.51611],[14.94842,47.51672],[14.94934,47.51754],[14.94955,47.51789],[14.95042,47.51759]]}},{"type":"Feature","properties":{"kind":"piste","difficulty":"easy","name":null,"aerialway":null,"osm":"way/463485026"},"geometry":{"type":"LineString","coordinates":[[14.94804,47.51462],[14.94858,47.51507],[14.94865,47.51531],[14.94861,47.51555],[14.94833,47.51578],[14.9484,47.51618]]}},{"type":"Feature","properties":{"kind":"lift","difficulty":null,"name":"Zauberteppich","aerialway":"magic_carpet","osm":"way/463486824"},"geometry":{"type":"LineString","coordinates":[[14.96114,47.51655],[14.96091,47.5165]]}},{"type":"Feature","properties":{"kind":"piste","difficulty":"novice","name":null,"aerialway":null,"osm":"way/463486825"},"geometry":{"type":"LineString","coordinates":[[14.96072,47.51744],[14.96089,47.51742],[14.96093,47.51728]]}},{"type":"Feature","properties":{"kind":"piste","difficulty":"novice","name":null,"aerialway":null,"osm":"way/463486826"},"geometry":{"type":"LineString","coordinates":[[14.96091,47.5165],[14.96114,47.51655]]}},{"type":"Feature","properties":{"kind":"piste","difficulty":"intermediate","name":"Die Wilde","aerialway":null,"osm":"way/561693696"},"geometry":{"type":"LineString","coordinates":[[14.94841,47.51337],[14.94969,47.51395],[14.9509,47.5143],[14.95488,47.51521],[14.9553,47.51556]]}},{"type":"Feature","properties":{"kind":"piste","difficulty":"unknown","name":null,"aerialway":null,"osm":"way/893972086"},"geometry":{"type":"LineString","coordinates":[[14.96125,47.51686],[14.96173,47.5168],[14.96176,47.5169]]}},{"type":"Feature","properties":{"kind":"piste","difficulty":"unknown","name":null,"aerialway":null,"osm":"way/893972903"},"geometry":{"type":"LineString","coordinates":[[14.96125,47.51686],[14.96104,47.51663]]}},{"type":"Feature","properties":{"kind":"piste","difficulty":"easy","name":"Purzelwiese","aerialway":null,"osm":"way/893975203"},"geometry":{"type":"LineString","coordinates":[[14.96089,47.51712],[14.96125,47.51686]]}},{"type":"Feature","properties":{"kind":"piste","difficulty":"intermediate","name":null,"aerialway":null,"osm":"way/898039381"},"geometry":{"type":"LineString","coordinates":[[14.96009,47.52783],[14.95963,47.52783],[14.95859,47.5284],[14.95741,47.52876],[14.95854,47.52818],[14.95911,47.5277],[14.95955,47.5271],[14.96061,47.52699]]}},{"type":"Feature","properties":{"kind":"piste","difficulty":"intermediate","name":"Stockhang-Abfahrt","aerialway":null,"osm":"way/898040233"},"geometry":{"type":"LineString","coordinates":[[14.9451,47.51289],[14.94465,47.5132],[14.94472,47.51395],[14.948,47.51597],[14.9484,47.51611],[14.94955,47.51732],[14.95042,47.51759],[14.95215,47.51765],[14.95309,47.51833],[14.95412,47.51846]]}},{"type":"Feature","properties":{"kind":"piste","difficulty":"unknown","name":null,"aerialway":null,"osm":"way/899814776"},"geometry":{"type":"LineString","coordinates":[[14.96117,47.51667],[14.96114,47.51655]]}},{"type":"Feature","properties":{"kind":"piste","difficulty":"unknown","name":null,"aerialway":null,"osm":"way/899814777"},"geometry":{"type":"LineString","coordinates":[[14.96089,47.51712],[14.96093,47.51728]]}},{"type":"Feature","properties":{"kind":"piste","difficulty":"unknown","name":null,"aerialway":null,"osm":"way/899814778"},"geometry":{"type":"LineString","coordinates":[[14.96072,47.51744],[14.96078,47.51754]]}},{"type":"Feature","properties":{"kind":"piste","difficulty":"unknown","name":null,"aerialway":null,"osm":"way/899815404"},"geometry":{"type":"LineString","coordinates":[[14.96113,47.51651],[14.96125,47.51668]]}},{"type":"Feature","properties":{"kind":"piste","difficulty":"intermediate","name":null,"aerialway":null,"osm":"way/1017362424"},"geometry":{"type":"LineString","coordinates":[[14.9553,47.51556],[14.95575,47.51536],[14.95637,47.51541],[14.95785,47.51512],[14.95825,47.51482]]}},{"type":"Feature","properties":{"kind":"piste","difficulty":"unknown","name":null,"aerialway":null,"osm":"way/1123663258"},"geometry":{"type":"LineString","coordinates":[[14.95742,47.52879],[14.95645,47.52939]]}}]}