{"type":"FeatureCollection","features":[{"type":"Feature","properties":{"kind":"lift","difficulty":null,"name":"Salamander Schlepplift","aerialway":"drag_lift","osm":"way/76022437"},"geometry":{"type":"LineString","coordinates":[[15.84041,47.79081],[15.83307,47.78882]]}},{"type":"Feature","properties":{"kind":"lift","difficulty":null,"name":"Schneeberg 4er Sesselbahn","aerialway":"chair_lift","osm":"way/122403053"},"geometry":{"type":"LineString","coordinates":[[15.83044,47.79152],[15.81622,47.79209]]}},{"type":"Feature","properties":{"kind":"piste","difficulty":"intermediate","name":"Piste 1","aerialway":null,"osm":"way/237601982"},"geometry":{"type":"LineString","coordinates":[[15.83346,47.78884],[15.83472,47.78805],[15.83531,47.78829],[15.83687,47.78847],[15.83705,47.78864],[15.83696,47.78882],[15.83813,47.78953],[15.8385,47.78996]]}},{"type":"Feature","properties":{"kind":"piste","difficulty":"advanced","name":"Piste 4","aerialway":null,"osm":"way/237601985"},"geometry":{"type":"LineString","coordinates":[[15.8334,47.78899],[15.8347,47.78956],[15.83456,47.7898],[15.83467,47.79009],[15.83551,47.7906]]}},{"type":"Feature","properties":{"kind":"piste","difficulty":"intermediate","name":"Piste Brennerwiese","aerialway":null,"osm":"way/237601986"},"geometry":{"type":"LineString","coordinates":[[15.8347,47.78956],[15.83627,47.78954],[15.8385,47.78996],[15.8401,47.79045],[15.84043,47.79067]]}},{"type":"Feature","properties":{"kind":"piste","difficulty":"easy","name":"Piste","aerialway":null,"osm":"way/237601987"},"geometry":{"type":"LineString","coordinates":[[15.83627,47.78954],[15.83721,47.78899]]}},{"type":"Feature","properties":{"kind":"piste","difficulty":"easy","name":"Umfahrung Steilhang Lahning-Abfahrt","aerialway":null,"osm":"way/237602562"},"geometry":{"type":"LineString","coordinates":[[15.81622,47.79209],[15.81609,47.79208],[15.81614,47.79215],[15.817,47.79265],[15.81717,47.79244],[15.81711,47.79192],[15.81671,47.79161],[15.81628,47.79099],[15.81648,47.79049],[15.81717,47.79014],[15.81737,47.78991],[15.8176,47.78988],[15.81754,47.79036],[15.81769,47.79044],[15.81809,47.79015],[15.81829,47.79016],[15.81858,47.79064]]}},{"type":"Feature","properties":{"kind":"piste","difficulty":"intermediate","name":"Langwies-Abfahrt","aerialway":null,"osm":"way/237602617"},"geometry":{"type":"LineString","coordinates":[[15.81654,47.79141],[15.81825,47.79209],[15.81888,47.79211],[15.81961,47.7927],[15.81986,47.79257],[15.82016,47.79263],[15.8207,47.7925],[15.82151,47.79306],[15.82213,47.79313],[15.82248,47.79295],[15.82282,47.79302],[15.82474,47.7939],[15.82819,47.79348],[15.82885,47.79311],[15.82935,47.79204]]}},{"type":"Feature","properties":{"kind":"piste","difficulty":"intermediate","name":"Langwies-Abfahrt","aerialway":null,"osm":"way/237602619"},"geometry":{"type":"LineString","coordinates":[[15.81825,47.79209],[15.81873,47.79273],[15.81961,47.7927]]}},{"type":"Feature","properties":{"kind":"piste","difficulty":"intermediate","name":"Lahning-Abfahrt","aerialway":null,"osm":"way/237602666"},"geometry":{"type":"LineString","coordinates":[[15.81654,47.79141],[15.81652,47.79098],[15.81663,47.7908],[15.81754,47.79062],[15.81858,47.79064],[15.81965,47.79083],[15.82159,47.79149],[15.82345,47.79157],[15.82525,47.79218],[15.82836,47.79201],[15.82899,47.79178],[15.83051,47.79162]]}},{"type":"Feature","properties":{"kind":"piste","difficulty":"intermediate","name":"Lahning-Abfahrt","aerialway":null,"osm":"way/237602667"},"geometry":{"type":"LineString","coordinates":[[15.82117,47.79127],[15.82259,47.79118],[15.82345,47.79157]]}},{"type":"Feature","properties":{"kind":"piste","difficulty":"easy","name":"Verbindungs-Piste","aerialway":null,"osm":"way/237602726"},"geometry":{"type":"LineString","coordinates":[[15.82899,47.79178],[15.83052,47.7913],[15.83288,47.7912],[15.83354,47.79131]]}},{"type":"Feature","properties":{"kind":"piste","difficulty":"intermediate","name":"Piste 3","aerialway":null,"osm":"way/237655631"},"geometry":{"type":"LineString","coordinates":[[15.83252,47.7896],[15.83281,47.78967],[15.8335,47.79032],[15.8341,47.7905],[15.8347,47.79048],[15.83591,47.79075],[15.83654,47.79066],[15.83793,47.79101],[15.83972,47.79083]]}},{"type":"Feature","properties":{"kind":"piste","difficulty":"easy","name":"Piste 2","aerialway":null,"osm":"way/237655632"},"geometry":{"type":"LineString","coordinates":[[15.83235,47.79039],[15.83241,47.79065],[15.83264,47.79087],[15.83354,47.79131],[15.83534,47.7914],[15.83594,47.79154],[15.83762,47.7914],[15.83962,47.79088],[15.84007,47.79047],[15.84043,47.79067]]}},{"type":"Feature","properties":{"kind":"piste","difficulty":"easy","name":"Piste 2","aerialway":null,"osm":"way/237655746"},"geometry":{"type":"LineString","coordinates":[[15.8332,47.78888],[15.83254,47.78945],[15.83242,47.79028],[15.83221,47.79058],[15.83108,47.79068],[15.83086,47.79145]]}},{"type":"Feature","properties":{"kind":"piste","difficulty":"intermediate","name":"Piste 3","aerialway":null,"osm":"way/378431339"},"geometry":{"type":"LineString","coordinates":[[15.8334,47.78899],[15.83316,47.78931],[15.83253,47.7895]]}},{"type":"Feature","properties":{"kind":"piste","difficulty":"intermediate","name":"Langwies-Abfahrt","aerialway":null,"osm":"way/682504733"},"geometry":{"type":"LineString","coordinates":[[15.82935,47.79204],[15.83051,47.79162]]}}]}