{"type":"FeatureCollection","features":[{"type":"Feature","properties":{"kind":"lift","difficulty":null,"name":"Skilift Pusterwald","aerialway":"drag_lift","osm":"way/1465133515"},"geometry":{"type":"LineString","coordinates":[[14.372,47.30801],[14.36989,47.30562]]}},{"type":"Feature","properties":{"kind":"piste","difficulty":"easy","name":null,"aerialway":null,"osm":"way/1465133516"},"geometry":{"type":"LineString","coordinates":[[14.36989,47.30562],[14.37051,47.30554],[14.37225,47.30788],[14.37221,47.30807],[14.372,47.30801]]}}]}