{"type":"FeatureCollection","features":[{"type":"Feature","properties":{"kind":"lift","difficulty":null,"name":"Rittisbergbahn","aerialway":"mixed_lift","osm":"way/35552713"},"geometry":{"type":"LineString","coordinates":[[13.62367,47.4224],[13.61361,47.41977]]}},{"type":"Feature","properties":{"kind":"lift","difficulty":null,"name":"Rittislift","aerialway":"t-bar","osm":"way/37599769"},"geometry":{"type":"LineString","coordinates":[[13.62784,47.41514],[13.61987,47.41929]]}},{"type":"Feature","properties":{"kind":"piste","difficulty":"advanced","name":null,"aerialway":null,"osm":"way/47190699"},"geometry":{"type":"LineString","coordinates":[[13.62205,47.41849],[13.62307,47.4191],[13.62447,47.41967],[13.62513,47.41979],[13.62563,47.4197]]}},{"type":"Feature","properties":{"kind":"lift","difficulty":null,"name":"Zauberlift","aerialway":"t-bar","osm":"way/54932089"},"geometry":{"type":"LineString","coordinates":[[13.62163,47.42683],[13.62679,47.43395]]}},{"type":"Feature","properties":{"kind":"piste","difficulty":"easy","name":null,"aerialway":null,"osm":"way/54932157"},"geometry":{"type":"LineString","coordinates":[[13.62673,47.43388],[13.62686,47.43376],[13.62211,47.42699],[13.62186,47.42675],[13.62163,47.42675],[13.62166,47.42687]]}},{"type":"Feature","properties":{"kind":"piste","difficulty":"freeride","name":null,"aerialway":null,"osm":"way/78448425"},"geometry":{"type":"LineString","coordinates":[[13.61864,47.44968],[13.61906,47.44934],[13.61942,47.44877],[13.61981,47.44858],[13.62065,47.44877],[13.6222,47.44945],[13.62311,47.44942],[13.62493,47.44964],[13.62518,47.44954],[13.62587,47.44969],[13.6266,47.44957],[13.6268,47.44973],[13.62765,47.44987],[13.62968,47.44965],[13.63037,47.44979]]}},{"type":"Feature","properties":{"kind":"piste","difficulty":"easy","name":null,"aerialway":null,"osm":"way/88853385"},"geometry":{"type":"LineString","coordinates":[[13.61558,47.42002],[13.61585,47.41959],[13.61547,47.41878],[13.61432,47.41809],[13.61277,47.41744],[13.61051,47.41574]]}},{"type":"Feature","properties":{"kind":"lift","difficulty":null,"name":"Drachenlift I","aerialway":"t-bar","osm":"way/94172466"},"geometry":{"type":"LineString","coordinates":[[13.63686,47.41062],[13.64058,47.41197]]}},{"type":"Feature","properties":{"kind":"lift","difficulty":null,"name":"Drachenlift II","aerialway":"t-bar","osm":"way/94172471"},"geometry":{"type":"LineString","coordinates":[[13.63656,47.40846],[13.63883,47.41014]]}},{"type":"Feature","properties":{"kind":"piste","difficulty":"easy","name":null,"aerialway":null,"osm":"way/95788081"},"geometry":{"type":"LineString","coordinates":[[13.64058,47.41197],[13.6392,47.4109],[13.63796,47.41065],[13.63686,47.41062]]}},{"type":"Feature","properties":{"kind":"lift","difficulty":null,"name":"Schneemandl Lift","aerialway":"t-bar","osm":"way/179370389"},"geometry":{"type":"LineString","coordinates":[[13.67691,47.42695],[13.67367,47.43095]]}},{"type":"Feature","properties":{"kind":"piste","difficulty":"easy","name":null,"aerialway":null,"osm":"way/194525976"},"geometry":{"type":"LineString","coordinates":[[13.62394,47.42248],[13.62367,47.4224]]}},{"type":"Feature","properties":{"kind":"piste","difficulty":"unknown","name":null,"aerialway":null,"osm":"way/233482013"},"geometry":{"type":"LineString","coordinates":[[13.62766,47.43439],[13.62677,47.43403]]}},{"type":"Feature","properties":{"kind":"piste","difficulty":"intermediate","name":null,"aerialway":null,"osm":"way/266819687"},"geometry":{"type":"LineString","coordinates":[[13.62037,47.41903],[13.62065,47.41956]]}},{"type":"Feature","properties":{"kind":"lift","difficulty":null,"name":"Bergkristalllift","aerialway":"t-bar","osm":"way/463150876"},"geometry":{"type":"LineString","coordinates":[[13.6505,47.42571],[13.64992,47.43224]]}},{"type":"Feature","properties":{"kind":"piste","difficulty":"easy","name":null,"aerialway":null,"osm":"way/463589903"},"geometry":{"type":"LineString","coordinates":[[13.62136,47.43265],[13.62643,47.43394],[13.62449,47.43273],[13.62465,47.43267],[13.62545,47.43287],[13.62558,47.43275]]}},{"type":"Feature","properties":{"kind":"piste","difficulty":"easy","name":null,"aerialway":null,"osm":"way/668544166"},"geometry":{"type":"LineString","coordinates":[[13.67399,47.43055],[13.67384,47.43025],[13.67454,47.42845],[13.67638,47.42706],[13.67691,47.42695]]}},{"type":"Feature","properties":{"kind":"piste","difficulty":"easy","name":null,"aerialway":null,"osm":"way/668544168"},"geometry":{"type":"LineString","coordinates":[[13.64995,47.43183],[13.65062,47.43148],[13.65114,47.43034],[13.65124,47.42917],[13.64991,47.4284],[13.64972,47.42766],[13.64996,47.42647],[13.6505,47.42571]]}},{"type":"Feature","properties":{"kind":"piste","difficulty":"easy","name":null,"aerialway":null,"osm":"way/668544170"},"geometry":{"type":"LineString","coordinates":[[13.63883,47.41014],[13.63882,47.40956],[13.63835,47.40898],[13.6377,47.40861],[13.63656,47.40846]]}},{"type":"Feature","properties":{"kind":"piste","difficulty":"easy","name":null,"aerialway":null,"osm":"way/681152877"},"geometry":{"type":"LineString","coordinates":[[13.62558,47.43275],[13.62532,47.43209],[13.62153,47.42688],[13.62163,47.42675]]}},{"type":"Feature","properties":{"kind":"lift","difficulty":null,"name":"Kalilift","aerialway":"rope_tow","osm":"way/681152880"},"geometry":{"type":"LineString","coordinates":[[13.6244,47.42403],[13.62485,47.42519]]}},{"type":"Feature","properties":{"kind":"piste","difficulty":"easy","name":null,"aerialway":null,"osm":"way/681152882"},"geometry":{"type":"LineString","coordinates":[[13.62485,47.42519],[13.62469,47.42516],[13.62437,47.42437],[13.6244,47.42403]]}},{"type":"Feature","properties":{"kind":"piste","difficulty":"easy","name":null,"aerialway":null,"osm":"way/681152883"},"geometry":{"type":"LineString","coordinates":[[13.62485,47.42519],[13.62297,47.4262],[13.62216,47.42637],[13.62367,47.42481],[13.62406,47.42471],[13.62421,47.42423],[13.6244,47.42403]]}},{"type":"Feature","properties":{"kind":"piste","difficulty":"easy","name":null,"aerialway":null,"osm":"way/681152886"},"geometry":{"type":"LineString","coordinates":[[13.62394,47.42248],[13.6238,47.42284],[13.62422,47.42349],[13.6244,47.42403]]}},{"type":"Feature","properties":{"kind":"piste","difficulty":"easy","name":null,"aerialway":null,"osm":"way/681152887"},"geometry":{"type":"LineString","coordinates":[[13.62736,47.43377],[13.62891,47.4334],[13.63068,47.43251]]}},{"type":"Feature","properties":{"kind":"piste","difficulty":"easy","name":null,"aerialway":null,"osm":"way/800303590"},"geometry":{"type":"LineString","coordinates":[[13.64779,47.42601],[13.65047,47.42576]]}},{"type":"Feature","properties":{"kind":"piste","difficulty":"freeride","name":"Edelgrießkar-Ramsau","aerialway":null,"osm":"way/800674740"},"geometry":{"type":"LineString","coordinates":[[13.63298,47.45126],[13.63369,47.45056],[13.63416,47.44903],[13.635,47.4473],[13.63503,47.44684],[13.6327,47.44578],[13.63142,47.44311],[13.63146,47.44214],[13.63118,47.4413],[13.63162,47.44099],[13.63208,47.44034],[13.63236,47.43945],[13.63243,47.43884],[13.63205,47.43801],[13.63162,47.43743],[13.63169,47.43656],[13.63212,47.43484],[13.63312,47.43326],[13.6328,47.43224],[13.63308,47.43137]]}},{"type":"Feature","properties":{"kind":"lift","difficulty":null,"name":null,"aerialway":"zip_line","osm":"way/837433804"},"geometry":{"type":"LineString","coordinates":[[13.62313,47.42385],[13.6223,47.42293]]}},{"type":"Feature","properties":{"kind":"lift","difficulty":null,"name":null,"aerialway":"zip_line","osm":"way/837433805"},"geometry":{"type":"LineString","coordinates":[[13.62206,47.42448],[13.62313,47.42385]]}},{"type":"Feature","properties":{"kind":"lift","difficulty":null,"name":null,"aerialway":"zip_line","osm":"way/837433806"},"geometry":{"type":"LineString","coordinates":[[13.62206,47.42298],[13.62206,47.42448]]}},{"type":"Feature","properties":{"kind":"piste","difficulty":"easy","name":null,"aerialway":null,"osm":"way/896225985"},"geometry":{"type":"LineString","coordinates":[[13.64028,47.41164],[13.63923,47.40992],[13.63882,47.40956]]}},{"type":"Feature","properties":{"kind":"lift","difficulty":null,"name":null,"aerialway":"chair_lift","osm":"way/990281932"},"geometry":{"type":"LineString","coordinates":[[13.65512,47.41755],[13.65439,47.41527]]}},{"type":"Feature","properties":{"kind":"piste","difficulty":"unknown","name":null,"aerialway":null,"osm":"way/1015248615"},"geometry":{"type":"LineString","coordinates":[[13.62677,47.43403],[13.62736,47.43377]]}},{"type":"Feature","properties":{"kind":"piste","difficulty":"unknown","name":null,"aerialway":null,"osm":"way/1015248616"},"geometry":{"type":"LineString","coordinates":[[13.62644,47.43394],[13.62677,47.43403]]}},{"type":"Feature","properties":{"kind":"piste","difficulty":"easy","name":"Märchenpiste","aerialway":null,"osm":"way/1021664249"},"geometry":{"type":"LineString","coordinates":[[13.62408,47.42231],[13.62394,47.42248]]}},{"type":"Feature","properties":{"kind":"lift","difficulty":null,"name":null,"aerialway":"drag_lift","osm":"way/1339581972"},"geometry":{"type":"LineString","coordinates":[[13.6237,47.4249],[13.62398,47.42546]]}},{"type":"Feature","properties":{"kind":"lift","difficulty":null,"name":null,"aerialway":"magic_carpet","osm":"way/1339581973"},"geometry":{"type":"LineString","coordinates":[[13.62201,47.4259],[13.62216,47.42637]]}},{"type":"Feature","properties":{"kind":"piste","difficulty":"easy","name":null,"aerialway":null,"osm":"way/1427366467"},"geometry":{"type":"LineString","coordinates":[[13.63883,47.41014],[13.63833,47.41041],[13.63728,47.41063]]}},{"type":"Feature","properties":{"kind":"piste","difficulty":"easy","name":null,"aerialway":null,"osm":"way/1427367489"},"geometry":{"type":"LineString","coordinates":[[13.62263,47.42628],[13.62201,47.4259]]}},{"type":"Feature","properties":{"kind":"piste","difficulty":"easy","name":null,"aerialway":null,"osm":"way/1427367490"},"geometry":{"type":"LineString","coordinates":[[13.62398,47.42546],[13.62401,47.42515],[13.6237,47.4249]]}},{"type":"Feature","properties":{"kind":"piste","difficulty":"easy","name":null,"aerialway":null,"osm":"way/1427367491"},"geometry":{"type":"LineString","coordinates":[[13.6237,47.4249],[13.62365,47.42483]]}},{"type":"Feature","properties":{"kind":"piste","difficulty":"easy","name":null,"aerialway":null,"osm":"way/1427367492"},"geometry":{"type":"LineString","coordinates":[[13.6505,47.42576],[13.65399,47.42518],[13.65455,47.42458],[13.65504,47.42364],[13.65482,47.42269],[13.65547,47.42232],[13.65533,47.42207]]}},{"type":"Feature","properties":{"kind":"piste","difficulty":"easy","name":null,"aerialway":null,"osm":"way/1427369738"},"geometry":{"type":"LineString","coordinates":[[13.65115,47.42911],[13.65126,47.42751],[13.65089,47.4258],[13.6505,47.42576]]}},{"type":"Feature","properties":{"kind":"piste","difficulty":"easy","name":null,"aerialway":null,"osm":"way/1427369739"},"geometry":{"type":"LineString","coordinates":[[13.65118,47.42863],[13.65225,47.42772],[13.65365,47.4271],[13.65392,47.42677],[13.65438,47.4262],[13.65479,47.42496],[13.65471,47.42428]]}},{"type":"Feature","properties":{"kind":"piste","difficulty":"easy","name":null,"aerialway":null,"osm":"way/1427369740"},"geometry":{"type":"LineString","coordinates":[[13.65785,47.43023],[13.65811,47.4294],[13.6578,47.42812],[13.65764,47.42651],[13.65714,47.42502],[13.65557,47.42278],[13.65485,47.4226]]}},{"type":"Feature","properties":{"kind":"piste","difficulty":"easy","name":null,"aerialway":null,"osm":"way/1427369741"},"geometry":{"type":"LineString","coordinates":[[13.65777,47.42782],[13.65694,47.42691],[13.65595,47.4268],[13.65491,47.42698],[13.65089,47.4258]]}},{"type":"Feature","properties":{"kind":"piste","difficulty":"intermediate","name":"Rittisbahn","aerialway":null,"osm":"relation/13679632"},"geometry":{"type":"MultiLineString","coordinates":[[[13.61361,47.41977],[13.61336,47.41967],[13.61344,47.41962],[13.61558,47.42002],[13.61613,47.42002],[13.62029,47.41944]],[[13.62029,47.41944],[13.62615,47.41627],[13.62793,47.41512]]]}},{"type":"Feature","properties":{"kind":"piste","difficulty":"easy","name":"Märchenabfahrt","aerialway":null,"osm":"relation/13679634"},"geometry":{"type":"MultiLineString","coordinates":[[[13.61361,47.41977],[13.61287,47.41946],[13.612,47.41928]],[[13.612,47.41928],[13.61133,47.41895],[13.61086,47.41821],[13.60935,47.4169],[13.60776,47.41613],[13.60714,47.41568],[13.60714,47.41546],[13.60747,47.41525]],[[13.61101,47.41412],[13.60992,47.41398],[13.61075,47.41463],[13.61043,47.41499],[13.61052,47.41574],[13.60747,47.41525]],[[13.61498,47.41573],[13.61413,47.41538],[13.61313,47.41521],[13.6128,47.41505],[13.61257,47.41472],[13.61101,47.41412]],[[13.61802,47.41641],[13.61498,47.41573]],[[13.62553,47.42084],[13.62571,47.42037],[13.6256,47.41959],[13.62455,47.41888],[13.6242,47.41831],[13.62356,47.41783],[13.62275,47.4174],[13.62216,47.4174],[13.62071,47.41682],[13.61802,47.41641]],[[13.62544,47.42097],[13.62553,47.42084]],[[13.62412,47.42235],[13.62544,47.42097]],[[13.62394,47.42248],[13.62412,47.42235]],[[13.62377,47.42263],[13.62394,47.42248]],[[13.62369,47.42279],[13.62377,47.42263]]]}},{"type":"Feature","properties":{"kind":"piste","difficulty":"intermediate","name":"Rittislift","aerialway":null,"osm":"relation/13679660"},"geometry":{"type":"MultiLineString","coordinates":[[[13.61361,47.41977],[13.61287,47.41946],[13.612,47.41928]],[[13.612,47.41928],[13.6117,47.41908],[13.61142,47.41861],[13.61147,47.41803],[13.61179,47.41748],[13.61226,47.41698],[13.61379,47.41594],[13.61498,47.41573]],[[13.61802,47.41641],[13.61498,47.41573]],[[13.61802,47.41641],[13.61901,47.41578],[13.62063,47.41514],[13.62187,47.41487],[13.62493,47.41468],[13.62639,47.41499],[13.62791,47.41501],[13.62793,47.41512]],[[13.62793,47.41512],[13.62778,47.41517]]]}},{"type":"Feature","properties":{"kind":"piste","difficulty":"advanced","name":"Rittisberg Nordabfahrt","aerialway":null,"osm":"relation/13679661"},"geometry":{"type":"LineString","coordinates":[[13.62029,47.41944],[13.62141,47.41991],[13.62272,47.42085],[13.62391,47.42192],[13.62408,47.42231]]}}]}