{"type":"FeatureCollection","features":[{"type":"Feature","properties":{"kind":"piste","difficulty":"easy","name":null,"aerialway":null,"osm":"way/215775134"},"geometry":{"type":"LineString","coordinates":[[16.24504,47.41079],[16.24471,47.41086]]}},{"type":"Feature","properties":{"kind":"lift","difficulty":null,"name":null,"aerialway":"drag_lift","osm":"way/215775135"},"geometry":{"type":"LineString","coordinates":[[16.2419,47.41021],[16.24463,47.41073]]}},{"type":"Feature","properties":{"kind":"piste","difficulty":"easy","name":null,"aerialway":null,"osm":"way/215775138"},"geometry":{"type":"LineString","coordinates":[[16.24538,47.4118],[16.24557,47.41164],[16.24504,47.41079],[16.24475,47.41057],[16.24195,47.40976],[16.2419,47.41021]]}},{"type":"Feature","properties":{"kind":"lift","difficulty":null,"name":null,"aerialway":"drag_lift","osm":"way/215775139"},"geometry":{"type":"LineString","coordinates":[[16.24471,47.41086],[16.24538,47.4118]]}},{"type":"Feature","properties":{"kind":"piste","difficulty":"easy","name":null,"aerialway":null,"osm":"way/215775146"},"geometry":{"type":"LineString","coordinates":[[16.24463,47.41073],[16.24486,47.41066]]}}]}