{"type":"FeatureCollection","features":[{"type":"Feature","properties":{"kind":"piste","difficulty":"intermediate","name":"Krispenleit´n","aerialway":null,"osm":"way/31717598"},"geometry":{"type":"LineString","coordinates":[[14.09603,47.36694],[14.09643,47.36682],[14.09828,47.36711],[14.09976,47.36763],[14.10003,47.36835],[14.10061,47.36833]]}},{"type":"Feature","properties":{"kind":"piste","difficulty":"advanced","name":"Die Bucklige","aerialway":null,"osm":"way/100071733"},"geometry":{"type":"LineString","coordinates":[[14.09174,47.3682],[14.09382,47.36872],[14.09941,47.36894],[14.09972,47.3688],[14.10063,47.36873]]}},{"type":"Feature","properties":{"kind":"piste","difficulty":"easy","name":"Gratpiste","aerialway":null,"osm":"way/100071734"},"geometry":{"type":"LineString","coordinates":[[14.09472,47.37399],[14.09604,47.37545],[14.09637,47.37566]]}},{"type":"Feature","properties":{"kind":"piste","difficulty":"easy","name":"6er Schwung","aerialway":null,"osm":"way/100071735"},"geometry":{"type":"LineString","coordinates":[[14.10108,47.38298],[14.09847,47.38431],[14.0979,47.38485],[14.09802,47.38507],[14.09795,47.38528]]}},{"type":"Feature","properties":{"kind":"piste","difficulty":"intermediate","name":"Die Schneidige","aerialway":null,"osm":"way/100071736"},"geometry":{"type":"LineString","coordinates":[[14.09693,47.38321],[14.09622,47.38322]]}},{"type":"Feature","properties":{"kind":"piste","difficulty":"intermediate","name":"Familienschuss","aerialway":null,"osm":"way/100071738"},"geometry":{"type":"LineString","coordinates":[[14.10119,47.36842],[14.10099,47.36833],[14.10063,47.36873],[14.10065,47.3693],[14.10096,47.37011],[14.10144,47.37048],[14.10214,47.3706],[14.10254,47.37017],[14.10316,47.36993],[14.10347,47.37],[14.10369,47.3704],[14.10393,47.37052],[14.10576,47.37057],[14.10648,47.37079],[14.10675,47.37117],[14.10711,47.37134],[14.10842,47.37161],[14.1088,47.37181],[14.10908,47.37207],[14.10925,47.37261],[14.10919,47.37316],[14.10954,47.3735],[14.1101,47.37346],[14.11099,47.37292],[14.1119,47.3726],[14.11327,47.37278],[14.11495,47.37215],[14.11498,47.37227],[14.11455,47.37261],[14.11395,47.37339],[14.11247,47.37381],[14.11234,47.37401],[14.11287,47.37451],[14.11387,47.37492],[14.11546,47.37533],[14.11562,47.37548],[14.11545,47.37588],[14.11555,47.3763],[14.11601,47.37695],[14.11633,47.37707]]}},{"type":"Feature","properties":{"kind":"piste","difficulty":"intermediate","name":"Sonnige West","aerialway":null,"osm":"way/100071740"},"geometry":{"type":"LineString","coordinates":[[14.1012,47.37934],[14.10347,47.38127],[14.10361,47.38165]]}},{"type":"Feature","properties":{"kind":"piste","difficulty":"advanced","name":"Europacup-Hang","aerialway":null,"osm":"way/100071741"},"geometry":{"type":"LineString","coordinates":[[14.10065,47.3693],[14.10021,47.37026],[14.10172,47.37227],[14.1021,47.37249],[14.10479,47.37308],[14.10796,47.37472],[14.11214,47.3757],[14.1139,47.37663],[14.11583,47.37728]]}},{"type":"Feature","properties":{"kind":"piste","difficulty":"intermediate","name":"Die Sonnige","aerialway":null,"osm":"way/100071742"},"geometry":{"type":"LineString","coordinates":[[14.09637,47.37566],[14.09943,47.37781],[14.1012,47.37934],[14.10229,47.37928],[14.10393,47.3797],[14.1045,47.3795],[14.10534,47.37806],[14.10581,47.37793],[14.10654,47.37814],[14.10775,47.37803],[14.10894,47.3781],[14.10973,47.3786],[14.11013,47.37915],[14.1103,47.37988],[14.11143,47.38094],[14.11188,47.38195]]}},{"type":"Feature","properties":{"kind":"piste","difficulty":"intermediate","name":"5*****","aerialway":null,"osm":"way/100071743"},"geometry":{"type":"LineString","coordinates":[[14.09383,47.37476],[14.09372,47.37539],[14.09101,47.37913],[14.09063,47.3801],[14.09107,47.38086],[14.09162,47.38135],[14.09393,47.38227],[14.09443,47.38236],[14.09622,47.38322],[14.09703,47.38533],[14.09746,47.38537]]}},{"type":"Feature","properties":{"kind":"piste","difficulty":"easy","name":"Panoramaabfahrt","aerialway":null,"osm":"way/100071744"},"geometry":{"type":"LineString","coordinates":[[14.09608,47.37624],[14.09705,47.37798],[14.09668,47.37892],[14.09729,47.38049],[14.09787,47.38069],[14.09939,47.38067],[14.10015,47.38087],[14.10088,47.38123],[14.10361,47.38165],[14.10346,47.38211],[14.10317,47.38232],[14.10108,47.38298],[14.10247,47.38353],[14.10239,47.38364],[14.10103,47.38394],[14.10096,47.38411],[14.10254,47.38475],[14.10353,47.38493],[14.10582,47.38487],[14.10722,47.38427],[14.10889,47.38412],[14.11039,47.38377],[14.11015,47.38309],[14.11041,47.38297],[14.11109,47.38313],[14.11148,47.38307],[14.11176,47.38279],[14.11188,47.38195],[14.11338,47.38093],[14.11346,47.3807],[14.11328,47.38037],[14.1138,47.37976],[14.11393,47.37942],[14.11364,47.37887],[14.11368,47.37837],[14.11455,47.37754],[14.11633,47.37707]]}},{"type":"Feature","properties":{"kind":"piste","difficulty":"intermediate","name":"Die Schneidige","aerialway":null,"osm":"way/100071746"},"geometry":{"type":"LineString","coordinates":[[14.09729,47.38049],[14.09678,47.38226],[14.09693,47.38321],[14.09803,47.3852],[14.09746,47.38537]]}},{"type":"Feature","properties":{"kind":"piste","difficulty":"easy","name":"Talfahrt","aerialway":null,"osm":"way/152057901"},"geometry":{"type":"LineString","coordinates":[[14.09703,47.38533],[14.09699,47.3854],[14.09729,47.38547],[14.09865,47.38534],[14.09921,47.38521],[14.09987,47.38487],[14.10081,47.38483],[14.10268,47.38517],[14.10467,47.38496]]}},{"type":"Feature","properties":{"kind":"piste","difficulty":"easy","name":"Kinderstrecke","aerialway":null,"osm":"way/201390937"},"geometry":{"type":"LineString","coordinates":[[14.11495,47.37788],[14.11483,47.37775],[14.11507,47.37777],[14.1173,47.37979],[14.11727,47.38007]]}},{"type":"Feature","properties":{"kind":"piste","difficulty":"easy","name":null,"aerialway":null,"osm":"way/201390938"},"geometry":{"type":"LineString","coordinates":[[14.1155,47.37736],[14.11483,47.37775]]}},{"type":"Feature","properties":{"kind":"piste","difficulty":"easy","name":null,"aerialway":null,"osm":"way/336971364"},"geometry":{"type":"LineString","coordinates":[[14.11553,47.37749],[14.11564,47.37774],[14.1164,47.37812],[14.11651,47.37835]]}},{"type":"Feature","properties":{"kind":"piste","difficulty":"novice","name":null,"aerialway":null,"osm":"way/336971365"},"geometry":{"type":"LineString","coordinates":[[14.11665,47.37753],[14.11685,47.37778],[14.11651,47.37835],[14.11711,47.37907],[14.11744,47.37928],[14.11768,47.37968],[14.11761,47.37974]]}},{"type":"Feature","properties":{"kind":"piste","difficulty":"novice","name":null,"aerialway":null,"osm":"way/336971370"},"geometry":{"type":"LineString","coordinates":[[14.11846,47.37668],[14.11888,47.37697],[14.11916,47.37746]]}},{"type":"Feature","properties":{"kind":"piste","difficulty":"novice","name":null,"aerialway":null,"osm":"way/336971372"},"geometry":{"type":"LineString","coordinates":[[14.11783,47.38004],[14.11784,47.38022]]}},{"type":"Feature","properties":{"kind":"piste","difficulty":"novice","name":null,"aerialway":null,"osm":"way/336971373"},"geometry":{"type":"LineString","coordinates":[[14.11746,47.37989],[14.11727,47.38007]]}},{"type":"Feature","properties":{"kind":"piste","difficulty":"novice","name":null,"aerialway":null,"osm":"way/336971374"},"geometry":{"type":"LineString","coordinates":[[14.11524,47.37759],[14.11632,47.37735],[14.11681,47.37748]]}},{"type":"Feature","properties":{"kind":"piste","difficulty":"novice","name":null,"aerialway":null,"osm":"way/336971375"},"geometry":{"type":"LineString","coordinates":[[14.11769,47.37984],[14.118,47.3799],[14.11802,47.38009]]}},{"type":"Feature","properties":{"kind":"piste","difficulty":"novice","name":null,"aerialway":null,"osm":"way/336971377"},"geometry":{"type":"LineString","coordinates":[[14.11681,47.37748],[14.11716,47.37729],[14.11757,47.37727],[14.11916,47.37746]]}},{"type":"Feature","properties":{"kind":"piste","difficulty":"novice","name":null,"aerialway":null,"osm":"way/336971378"},"geometry":{"type":"LineString","coordinates":[[14.11761,47.37974],[14.1177,47.37993],[14.11802,47.38009]]}},{"type":"Feature","properties":{"kind":"piste","difficulty":"novice","name":null,"aerialway":null,"osm":"way/336971379"},"geometry":{"type":"LineString","coordinates":[[14.11681,47.37748],[14.11665,47.37753],[14.11713,47.37765],[14.11801,47.37774],[14.11887,47.37762],[14.11916,47.37746]]}},{"type":"Feature","properties":{"kind":"piste","difficulty":"novice","name":null,"aerialway":null,"osm":"way/336971381"},"geometry":{"type":"LineString","coordinates":[[14.1176,47.3801],[14.11784,47.38022],[14.11802,47.38009]]}},{"type":"Feature","properties":{"kind":"piste","difficulty":"intermediate","name":"Die neue Rennstrecke","aerialway":null,"osm":"way/336985418"},"geometry":{"type":"LineString","coordinates":[[14.09668,47.37892],[14.09629,47.3798],[14.09569,47.38019],[14.09555,47.38077],[14.09611,47.38242],[14.09622,47.38322]]}},{"type":"Feature","properties":{"kind":"piste","difficulty":"intermediate","name":"Ski cross track","aerialway":null,"osm":"way/398009944"},"geometry":{"type":"LineString","coordinates":[[14.09383,47.37476],[14.09443,47.37582],[14.09413,47.3764],[14.09458,47.37669],[14.09434,47.37705],[14.09471,47.37726],[14.09446,47.37748],[14.09477,47.37764],[14.095,47.37853]]}},{"type":"Feature","properties":{"kind":"piste","difficulty":"intermediate","name":"Krispenleit´n","aerialway":null,"osm":"way/838298917"},"geometry":{"type":"LineString","coordinates":[[14.0914,47.3686],[14.09159,47.36856],[14.09174,47.3682],[14.09202,47.36795]]}},{"type":"Feature","properties":{"kind":"piste","difficulty":"intermediate","name":"Krispenleit´n","aerialway":null,"osm":"way/838298920"},"geometry":{"type":"LineString","coordinates":[[14.09579,47.36637],[14.09593,47.36651],[14.09584,47.36689],[14.09603,47.36694]]}},{"type":"Feature","properties":{"kind":"piste","difficulty":"intermediate","name":"Krispenleit´n","aerialway":null,"osm":"way/838298921"},"geometry":{"type":"LineString","coordinates":[[14.09202,47.36795],[14.09238,47.36776],[14.09297,47.36806],[14.09324,47.36744],[14.0936,47.36714],[14.09579,47.36637]]}},{"type":"Feature","properties":{"kind":"piste","difficulty":"easy","name":null,"aerialway":null,"osm":"way/838298922"},"geometry":{"type":"LineString","coordinates":[[14.10061,47.36833],[14.10077,47.36855]]}},{"type":"Feature","properties":{"kind":"piste","difficulty":"easy","name":"Panoramaabfahrt","aerialway":null,"osm":"way/907503499"},"geometry":{"type":"LineString","coordinates":[[14.09185,47.36853],[14.09159,47.36856],[14.09207,47.369],[14.09238,47.37039],[14.09246,47.3715],[14.09222,47.37209],[14.0928,47.37281],[14.09472,47.37399],[14.09348,47.37393],[14.09336,47.37403],[14.09351,47.37451],[14.0947,47.37534],[14.09553,47.37614],[14.09608,47.37624]]}},{"type":"Feature","properties":{"kind":"piste","difficulty":"easy","name":null,"aerialway":null,"osm":"way/922010940"},"geometry":{"type":"LineString","coordinates":[[14.09701,47.37809],[14.09549,47.37851],[14.09355,47.37853],[14.09729,47.38049]]}},{"type":"Feature","properties":{"kind":"piste","difficulty":"advanced","name":null,"aerialway":null,"osm":"way/922012296"},"geometry":{"type":"LineString","coordinates":[[14.09345,47.37323],[14.09336,47.37403]]}},{"type":"Feature","properties":{"kind":"piste","difficulty":"unknown","name":null,"aerialway":null,"osm":"way/922224009"},"geometry":{"type":"LineString","coordinates":[[14.10316,47.36993],[14.10386,47.36983]]}},{"type":"Feature","properties":{"kind":"piste","difficulty":"unknown","name":null,"aerialway":null,"osm":"way/922224010"},"geometry":{"type":"LineString","coordinates":[[14.11527,47.37523],[14.11552,47.37513]]}},{"type":"Feature","properties":{"kind":"piste","difficulty":"novice","name":null,"aerialway":null,"osm":"way/922228700"},"geometry":{"type":"LineString","coordinates":[[14.11761,47.37974],[14.11746,47.37989]]}},{"type":"Feature","properties":{"kind":"piste","difficulty":"novice","name":null,"aerialway":null,"osm":"way/922228701"},"geometry":{"type":"LineString","coordinates":[[14.1173,47.37979],[14.11746,47.37989]]}},{"type":"Feature","properties":{"kind":"piste","difficulty":"novice","name":null,"aerialway":null,"osm":"way/922228702"},"geometry":{"type":"LineString","coordinates":[[14.11746,47.37989],[14.1176,47.3801]]}},{"type":"Feature","properties":{"kind":"piste","difficulty":"easy","name":"Panoramaabfahrt","aerialway":null,"osm":"way/929263640"},"geometry":{"type":"LineString","coordinates":[[14.09637,47.37566],[14.09608,47.37624]]}},{"type":"Feature","properties":{"kind":"piste","difficulty":"easy","name":"Waldabfahrt","aerialway":null,"osm":"way/1001110051"},"geometry":{"type":"LineString","coordinates":[[14.11633,47.37707],[14.11741,47.37679],[14.11828,47.3768],[14.11929,47.37568],[14.11919,47.37559]]}},{"type":"Feature","properties":{"kind":"piste","difficulty":"intermediate","name":"Krispenleit´n","aerialway":null,"osm":"way/1108109613"},"geometry":{"type":"LineString","coordinates":[[14.10061,47.36833],[14.10063,47.36873],[14.10046,47.36895],[14.09996,47.36892]]}},{"type":"Feature","properties":{"kind":"piste","difficulty":"intermediate","name":"Gratpiste","aerialway":null,"osm":"way/1311583820"},"geometry":{"type":"LineString","coordinates":[[14.09223,47.36978],[14.09276,47.37017],[14.09307,47.37069],[14.0933,47.37226],[14.09361,47.37269],[14.0943,47.37323],[14.09472,47.37399]]}},{"type":"Feature","properties":{"kind":"piste","difficulty":"novice","name":null,"aerialway":null,"osm":"way/1561662297"},"geometry":{"type":"LineString","coordinates":[[14.11685,47.37778],[14.11809,47.37842],[14.11857,47.37836]]}},{"type":"Feature","properties":{"kind":"piste","difficulty":"novice","name":null,"aerialway":null,"osm":"way/1561662298"},"geometry":{"type":"LineString","coordinates":[[14.11695,47.37889],[14.11733,47.37879],[14.1177,47.37851],[14.11832,47.37845]]}},{"type":"Feature","properties":{"kind":"piste","difficulty":"easy","name":"Waldabfahrt","aerialway":null,"osm":"relation/13401092"},"geometry":{"type":"MultiLineString","coordinates":[[[14.10077,47.36855],[14.10114,47.36864],[14.10216,47.36842],[14.10278,47.36847],[14.10325,47.36808],[14.10498,47.36753],[14.10531,47.36722],[14.10757,47.3668],[14.10766,47.36685],[14.10758,47.36692],[14.10686,47.36719],[14.10656,47.36757],[14.10559,47.36812],[14.10491,47.36891],[14.10432,47.36936],[14.10431,47.36963],[14.10387,47.36976],[14.10394,47.36987],[14.10443,47.36983],[14.10462,47.36961],[14.10549,47.36935],[14.10618,47.36895],[14.10724,47.36919],[14.10794,47.36898],[14.11076,47.369],[14.11105,47.36895],[14.11163,47.3685],[14.11251,47.36831],[14.11138,47.36953],[14.11054,47.36999],[14.1094,47.37031],[14.10876,47.3708],[14.10837,47.3718],[14.10767,47.37222],[14.10765,47.37232],[14.10787,47.37235],[14.10872,47.37223],[14.1101,47.3714],[14.11133,47.37124],[14.11195,47.37137],[14.11324,47.37108],[14.11412,47.37068],[14.11499,47.3701],[14.11556,47.36957],[14.11612,47.36876],[14.11572,47.37076],[14.11498,47.37227],[14.11448,47.37269],[14.11419,47.37318],[14.11346,47.37358],[14.11243,47.37376],[14.11234,47.37389],[14.11363,47.37405],[14.11456,47.37385],[14.11712,47.37225],[14.11614,47.37349],[14.1158,47.37447],[14.11577,47.37492],[14.11552,47.3751],[14.11564,47.37517],[14.11623,47.37492],[14.11754,47.37405],[14.11779,47.37358],[14.11792,47.37352],[14.11798,47.37364],[14.11684,47.37571],[14.11606,47.37632],[14.11633,47.37707]],[[14.11619,47.37666],[14.11633,47.37707]]]}},{"type":"Feature","properties":{"kind":"lift","difficulty":null,"name":"Riesnerbahn","aerialway":"chair_lift","osm":"way/51103776"},"geometry":{"type":"LineString","coordinates":[[14.11919,47.37559],[14.10119,47.36842]]}},{"type":"Feature","properties":{"kind":"lift","difficulty":null,"name":"Krispenbahn","aerialway":"chair_lift","osm":"way/51103777"},"geometry":{"type":"LineString","coordinates":[[14.09996,47.36892],[14.09185,47.36853]]}},{"type":"Feature","properties":{"kind":"lift","difficulty":null,"name":"Panorama-6er","aerialway":"chair_lift","osm":"way/100071732"},"geometry":{"type":"LineString","coordinates":[[14.0974,47.38527],[14.0914,47.3686]]}},{"type":"Feature","properties":{"kind":"lift","difficulty":null,"name":"Krispini Express","aerialway":"magic_carpet","osm":"way/152057909"},"geometry":{"type":"LineString","coordinates":[[14.11916,47.37746],[14.11681,47.37748]]}},{"type":"Feature","properties":{"kind":"lift","difficulty":null,"name":"Tellerblitz","aerialway":"platter","osm":"way/152057914"},"geometry":{"type":"LineString","coordinates":[[14.11727,47.38007],[14.11448,47.37743]]}},{"type":"Feature","properties":{"kind":"lift","difficulty":null,"name":null,"aerialway":"magic_carpet","osm":"way/336971367"},"geometry":{"type":"LineString","coordinates":[[14.11784,47.38022],[14.1176,47.3801]]}},{"type":"Feature","properties":{"kind":"lift","difficulty":null,"name":null,"aerialway":"magic_carpet","osm":"way/336971368"},"geometry":{"type":"LineString","coordinates":[[14.11802,47.38009],[14.11769,47.37984]]}},{"type":"Feature","properties":{"kind":"lift","difficulty":null,"name":null,"aerialway":"yes","osm":"way/667665608"},"geometry":{"type":"LineString","coordinates":[[14.11902,47.37556],[14.11925,47.37559],[14.11902,47.37556]]}},{"type":"Feature","properties":{"kind":"lift","difficulty":null,"name":"KISI-JET","aerialway":"magic_carpet","osm":"way/1561662296"},"geometry":{"type":"LineString","coordinates":[[14.11857,47.37836],[14.11671,47.37759]]}}]}