{"type":"FeatureCollection","features":[{"type":"Feature","properties":{"kind":"lift","difficulty":null,"name":"Stadtwaldlift","aerialway":"drag_lift","osm":"way/25224602"},"geometry":{"type":"LineString","coordinates":[[14.36431,47.51706],[14.36434,47.51222]]}},{"type":"Feature","properties":{"kind":"piste","difficulty":"unknown","name":"Stadtwald-Lift","aerialway":null,"osm":"way/164656401"},"geometry":{"type":"LineString","coordinates":[[14.36438,47.51739],[14.36487,47.51679],[14.36497,47.5163],[14.3657,47.51596],[14.36515,47.51488],[14.36517,47.51348],[14.36478,47.5125],[14.36476,47.51206],[14.3641,47.51216],[14.36399,47.51623],[14.36364,47.51718],[14.36391,47.51739],[14.36438,47.51739]]}}]}