{"type":"FeatureCollection","features":[{"type":"Feature","properties":{"kind":"lift","difficulty":null,"name":null,"aerialway":"drag_lift","osm":"way/94218590"},"geometry":{"type":"LineString","coordinates":[[15.59402,47.45785],[15.5975,47.46063]]}},{"type":"Feature","properties":{"kind":"piste","difficulty":"unknown","name":null,"aerialway":null,"osm":"way/904486716"},"geometry":{"type":"LineString","coordinates":[[15.59728,47.46045],[15.59706,47.46047],[15.59387,47.45812],[15.59408,47.4579]]}}]}