{"type":"FeatureCollection","features":[{"type":"Feature","properties":{"kind":"lift","difficulty":null,"name":"Négyüléses felvonó","aerialway":"chair_lift","osm":"way/97944638"},"geometry":{"type":"LineString","coordinates":[[17.93133,47.2131],[17.93234,47.20641]]}},{"type":"Feature","properties":{"kind":"piste","difficulty":"easy","name":"4-es","aerialway":null,"osm":"way/148462042"},"geometry":{"type":"LineString","coordinates":[[17.93205,47.20648],[17.93368,47.20854]]}},{"type":"Feature","properties":{"kind":"piste","difficulty":"easy","name":null,"aerialway":null,"osm":"way/148462044"},"geometry":{"type":"LineString","coordinates":[[17.93187,47.20629],[17.93205,47.20648]]}},{"type":"Feature","properties":{"kind":"piste","difficulty":"novice","name":"Tanuló 3","aerialway":null,"osm":"way/148462047"},"geometry":{"type":"LineString","coordinates":[[17.93203,47.21295],[17.93424,47.21255]]}},{"type":"Feature","properties":{"kind":"piste","difficulty":"easy","name":"3-as","aerialway":null,"osm":"way/148462051"},"geometry":{"type":"LineString","coordinates":[[17.93237,47.20911],[17.93241,47.20959],[17.93204,47.21025],[17.93039,47.21178]]}},{"type":"Feature","properties":{"kind":"piste","difficulty":"advanced","name":"4-es","aerialway":null,"osm":"way/148462052"},"geometry":{"type":"LineString","coordinates":[[17.93368,47.20854],[17.93469,47.21002],[17.93443,47.21115]]}},{"type":"Feature","properties":{"kind":"lift","difficulty":null,"name":"3-as csákányos felvonó","aerialway":"t-bar","osm":"way/148462055"},"geometry":{"type":"LineString","coordinates":[[17.93401,47.21255],[17.93451,47.21048],[17.93451,47.20998],[17.93218,47.20677]]}},{"type":"Feature","properties":{"kind":"piste","difficulty":"easy","name":"7-es","aerialway":null,"osm":"way/181389256"},"geometry":{"type":"LineString","coordinates":[[17.93173,47.20645],[17.93171,47.20632],[17.93145,47.20636],[17.93109,47.20673],[17.9232,47.21211]]}},{"type":"Feature","properties":{"kind":"piste","difficulty":"intermediate","name":"1B","aerialway":null,"osm":"way/260210007"},"geometry":{"type":"LineString","coordinates":[[17.92715,47.20955],[17.92846,47.21101]]}},{"type":"Feature","properties":{"kind":"lift","difficulty":null,"name":"1-es csákányos felvonó","aerialway":"t-bar","osm":"way/260210008"},"geometry":{"type":"LineString","coordinates":[[17.93008,47.2131],[17.92684,47.20931]]}},{"type":"Feature","properties":{"kind":"lift","difficulty":null,"name":"2-es csákányos felvonó","aerialway":"t-bar","osm":"way/260210265"},"geometry":{"type":"LineString","coordinates":[[17.92688,47.20926],[17.9315,47.20623]]}},{"type":"Feature","properties":{"kind":"piste","difficulty":"easy","name":"4B","aerialway":null,"osm":"way/260211261"},"geometry":{"type":"LineString","coordinates":[[17.93368,47.20854],[17.93237,47.20911]]}},{"type":"Feature","properties":{"kind":"piste","difficulty":"easy","name":"1-es","aerialway":null,"osm":"way/260211262"},"geometry":{"type":"LineString","coordinates":[[17.93205,47.20648],[17.93039,47.20863],[17.92897,47.20975],[17.92846,47.21101],[17.92983,47.21282],[17.93023,47.21315],[17.93125,47.21313]]}},{"type":"Feature","properties":{"kind":"piste","difficulty":"easy","name":"6-os","aerialway":null,"osm":"way/260211264"},"geometry":{"type":"LineString","coordinates":[[17.92719,47.20944],[17.92716,47.20977],[17.92838,47.2113],[17.92924,47.21267],[17.92913,47.21302],[17.92942,47.21292],[17.9293,47.21326],[17.92958,47.21308],[17.92956,47.2133],[17.93023,47.21315]]}},{"type":"Feature","properties":{"kind":"piste","difficulty":"easy","name":"2-es","aerialway":null,"osm":"way/260211266"},"geometry":{"type":"LineString","coordinates":[[17.93196,47.20657],[17.93217,47.20689],[17.93231,47.20774],[17.93237,47.20911],[17.93028,47.21001],[17.92953,47.20958],[17.92927,47.2096]]}},{"type":"Feature","properties":{"kind":"lift","difficulty":null,"name":"1-es tanuló","aerialway":"drag_lift","osm":"way/260211269"},"geometry":{"type":"LineString","coordinates":[[17.93098,47.21309],[17.93027,47.21303]]}},{"type":"Feature","properties":{"kind":"piste","difficulty":"advanced","name":"2B","aerialway":null,"osm":"way/475385524"},"geometry":{"type":"LineString","coordinates":[[17.93016,47.21002],[17.92858,47.21062]]}},{"type":"Feature","properties":{"kind":"lift","difficulty":null,"name":"Kétüléses felvonó","aerialway":"chair_lift","osm":"way/546360858"},"geometry":{"type":"LineString","coordinates":[[17.92316,47.21222],[17.93173,47.20645]]}},{"type":"Feature","properties":{"kind":"lift","difficulty":null,"name":"2-es tanuló","aerialway":"drag_lift","osm":"way/560659933"},"geometry":{"type":"LineString","coordinates":[[17.92315,47.21229],[17.92413,47.21162]]}},{"type":"Feature","properties":{"kind":"lift","difficulty":null,"name":"4-es tányéros felvonó","aerialway":"platter","osm":"way/897471817"},"geometry":{"type":"LineString","coordinates":[[17.92422,47.21155],[17.92678,47.20982]]}},{"type":"Feature","properties":{"kind":"piste","difficulty":"intermediate","name":"4-es","aerialway":null,"osm":"way/1469958254"},"geometry":{"type":"LineString","coordinates":[[17.93443,47.21115],[17.93424,47.21255]]}},{"type":"Feature","properties":{"kind":"piste","difficulty":"novice","name":"Tanuló 1","aerialway":null,"osm":"way/1469958255"},"geometry":{"type":"LineString","coordinates":[[17.93027,47.21304],[17.93098,47.2131]]}},{"type":"Feature","properties":{"kind":"piste","difficulty":"advanced","name":"3-as","aerialway":null,"osm":"way/1469958256"},"geometry":{"type":"LineString","coordinates":[[17.93039,47.21178],[17.92983,47.21282]]}}]}