{"type":"FeatureCollection","features":[{"type":"Feature","properties":{"kind":"lift","difficulty":null,"name":"Hammerbodenlift","aerialway":"drag_lift","osm":"way/279408816"},"geometry":{"type":"LineString","coordinates":[[13.24281,46.68178],[13.22965,46.6862]]}},{"type":"Feature","properties":{"kind":"lift","difficulty":null,"name":"Enzianbodenlift","aerialway":"drag_lift","osm":"way/279408817"},"geometry":{"type":"LineString","coordinates":[[13.24476,46.6813],[13.24403,46.67368]]}},{"type":"Feature","properties":{"kind":"lift","difficulty":null,"name":"Grabischlift","aerialway":"drag_lift","osm":"way/1244579769"},"geometry":{"type":"LineString","coordinates":[[13.24521,46.67949],[13.24718,46.68135]]}},{"type":"Feature","properties":{"kind":"piste","difficulty":"intermediate","name":"Enzianbodenabfahrt","aerialway":null,"osm":"way/1362264685"},"geometry":{"type":"LineString","coordinates":[[13.24376,46.67363],[13.243,46.67414],[13.24188,46.67536],[13.24155,46.67606],[13.24162,46.67701],[13.24176,46.67731],[13.243,46.678],[13.24422,46.67905],[13.2444,46.68091],[13.24446,46.68119],[13.24463,46.68128]]}},{"type":"Feature","properties":{"kind":"piste","difficulty":"intermediate","name":"Hammerbodenabfahrt","aerialway":null,"osm":"way/1362264783"},"geometry":{"type":"LineString","coordinates":[[13.22967,46.68629],[13.22976,46.68641],[13.24058,46.68278],[13.24288,46.68189]]}},{"type":"Feature","properties":{"kind":"piste","difficulty":"easy","name":"Grabischabfahrt 1","aerialway":null,"osm":"way/1362266150"},"geometry":{"type":"LineString","coordinates":[[13.24499,46.67956],[13.24558,46.68043],[13.247,46.68134]]}},{"type":"Feature","properties":{"kind":"piste","difficulty":"easy","name":"Grabischabfahrt 2","aerialway":null,"osm":"way/1362266151"},"geometry":{"type":"LineString","coordinates":[[13.24542,46.67941],[13.24733,46.68118],[13.24718,46.68135]]}},{"type":"Feature","properties":{"kind":"piste","difficulty":"novice","name":"Skischulgelände (Zauberteppich)","aerialway":null,"osm":"way/1362266152"},"geometry":{"type":"LineString","coordinates":[[13.24485,46.68111],[13.24479,46.6804],[13.24517,46.68042],[13.24542,46.68113],[13.24503,46.6812],[13.24485,46.68111]]}},{"type":"Feature","properties":{"kind":"piste","difficulty":"easy","name":null,"aerialway":null,"osm":"way/1362266153"},"geometry":{"type":"LineString","coordinates":[[13.24567,46.68049],[13.24557,46.68121],[13.24688,46.68129]]}},{"type":"Feature","properties":{"kind":"piste","difficulty":"easy","name":"Überfahrt Enzianboden","aerialway":null,"osm":"way/1362266154"},"geometry":{"type":"LineString","coordinates":[[13.24536,46.68013],[13.24438,46.68042]]}}]}