{"type":"FeatureCollection","features":[{"type":"Feature","properties":{"kind":"lift","difficulty":null,"name":"Schneeberglift","aerialway":"t-bar","osm":"way/139985170"},"geometry":{"type":"LineString","coordinates":[[12.09385,47.58749],[12.09256,47.57727]]}},{"type":"Feature","properties":{"kind":"lift","difficulty":null,"name":"Hagerlift","aerialway":"platter","osm":"way/140096074"},"geometry":{"type":"LineString","coordinates":[[12.09135,47.58719],[12.09266,47.58373]]}},{"type":"Feature","properties":{"kind":"piste","difficulty":"intermediate","name":null,"aerialway":null,"osm":"way/699211387"},"geometry":{"type":"LineString","coordinates":[[12.09256,47.57727],[12.09222,47.57757],[12.09214,47.5778],[12.09255,47.57881],[12.09264,47.57935],[12.09269,47.58151],[12.09312,47.5839],[12.09336,47.58745],[12.09385,47.58749]]}},{"type":"Feature","properties":{"kind":"piste","difficulty":"easy","name":null,"aerialway":null,"osm":"way/699211388"},"geometry":{"type":"LineString","coordinates":[[12.09266,47.58373],[12.09285,47.58385],[12.09283,47.58431],[12.09201,47.58727],[12.09135,47.58719]]}}]}