{"type":"FeatureCollection","features":[{"type":"Feature","properties":{"kind":"lift","difficulty":null,"name":"Waldrast","aerialway":"drag_lift","osm":"way/29995519"},"geometry":{"type":"LineString","coordinates":[[10.71859,47.47136],[10.71913,47.46752]]}},{"type":"Feature","properties":{"kind":"piste","difficulty":"intermediate","name":null,"aerialway":null,"osm":"way/84692719"},"geometry":{"type":"LineString","coordinates":[[10.71995,47.46815],[10.71966,47.46935],[10.71939,47.46964],[10.71916,47.47089]]}},{"type":"Feature","properties":{"kind":"piste","difficulty":"intermediate","name":null,"aerialway":null,"osm":"way/84693253"},"geometry":{"type":"LineString","coordinates":[[10.71907,47.46796],[10.72165,47.46839],[10.72249,47.46895],[10.72189,47.46983],[10.72143,47.47101],[10.72124,47.47113],[10.71937,47.47081],[10.71916,47.47089],[10.71878,47.47144],[10.7186,47.47129]]}},{"type":"Feature","properties":{"kind":"piste","difficulty":"intermediate","name":null,"aerialway":null,"osm":"way/84693318"},"geometry":{"type":"LineString","coordinates":[[10.71939,47.46964],[10.71821,47.46976],[10.71733,47.46958],[10.71654,47.46984],[10.71656,47.47049],[10.71763,47.47097],[10.71872,47.47122],[10.71882,47.47135]]}},{"type":"Feature","properties":{"kind":"lift","difficulty":null,"name":"Sindenbichllift","aerialway":"t-bar","osm":"way/330067871"},"geometry":{"type":"LineString","coordinates":[[10.73111,47.48481],[10.73371,47.48341]]}},{"type":"Feature","properties":{"kind":"lift","difficulty":null,"name":"Übungslift Schischule","aerialway":"platter","osm":"way/345664786"},"geometry":{"type":"LineString","coordinates":[[10.72194,47.47251],[10.72262,47.47215]]}},{"type":"Feature","properties":{"kind":"piste","difficulty":"easy","name":null,"aerialway":null,"osm":"way/348332695"},"geometry":{"type":"LineString","coordinates":[[10.73371,47.48341],[10.73356,47.48335],[10.73235,47.48444],[10.73156,47.48482],[10.73118,47.48478]]}},{"type":"Feature","properties":{"kind":"piste","difficulty":"intermediate","name":null,"aerialway":null,"osm":"way/918369582"},"geometry":{"type":"LineString","coordinates":[[10.71966,47.46935],[10.7207,47.46982],[10.72178,47.4701]]}},{"type":"Feature","properties":{"kind":"lift","difficulty":null,"name":"DragonFly","aerialway":"zip_line","osm":"way/1094076743"},"geometry":{"type":"LineString","coordinates":[[10.71578,47.4643],[10.71527,47.45921]]}}]}