{"type":"FeatureCollection","features":[{"type":"Feature","properties":{"kind":"lift","difficulty":null,"name":"Schlepplift Grünberg","aerialway":"t-bar","osm":"way/144461099"},"geometry":{"type":"LineString","coordinates":[[10.91437,47.29284],[10.91302,47.29005]]}},{"type":"Feature","properties":{"kind":"lift","difficulty":null,"name":null,"aerialway":"magic_carpet","osm":"way/154523228"},"geometry":{"type":"LineString","coordinates":[[10.91557,47.29255],[10.91551,47.29232]]}},{"type":"Feature","properties":{"kind":"lift","difficulty":null,"name":null,"aerialway":"magic_carpet","osm":"way/447581736"},"geometry":{"type":"LineString","coordinates":[[10.91586,47.29249],[10.91551,47.29057]]}},{"type":"Feature","properties":{"kind":"piste","difficulty":"easy","name":null,"aerialway":null,"osm":"way/665204383"},"geometry":{"type":"LineString","coordinates":[[10.91416,47.28995],[10.91484,47.29039],[10.91553,47.29056],[10.91595,47.29263],[10.9143,47.29289],[10.91294,47.28994],[10.91416,47.28995]]}},{"type":"Feature","properties":{"kind":"lift","difficulty":null,"name":null,"aerialway":"magic_carpet","osm":"way/1347624550"},"geometry":{"type":"LineString","coordinates":[[10.91528,47.29238],[10.91523,47.29188]]}}]}