{"type":"FeatureCollection","features":[{"type":"Feature","properties":{"kind":"lift","difficulty":null,"name":"Holzmeisterlift","aerialway":"drag_lift","osm":"way/128077736"},"geometry":{"type":"LineString","coordinates":[[15.51845,47.35164],[15.51662,47.35802]]}},{"type":"Feature","properties":{"kind":"piste","difficulty":"unknown","name":null,"aerialway":null,"osm":"way/888440203"},"geometry":{"type":"LineString","coordinates":[[15.51678,47.35748],[15.51657,47.3574],[15.51809,47.3517],[15.51845,47.35164]]}},{"type":"Feature","properties":{"kind":"lift","difficulty":null,"name":null,"aerialway":"drag_lift","osm":"way/892435041"},"geometry":{"type":"LineString","coordinates":[[15.51854,47.35165],[15.51668,47.35804]]}},{"type":"Feature","properties":{"kind":"piste","difficulty":"unknown","name":null,"aerialway":null,"osm":"way/892435042"},"geometry":{"type":"LineString","coordinates":[[15.51684,47.35749],[15.51702,47.35745],[15.51873,47.35178],[15.51854,47.35165]]}}]}