{"type":"FeatureCollection","features":[{"type":"Feature","properties":{"kind":"piste","difficulty":"easy","name":null,"aerialway":null,"osm":"way/132809663"},"geometry":{"type":"LineString","coordinates":[[15.78157,47.48035],[15.78183,47.48091],[15.7821,47.48102],[15.78288,47.48093],[15.78421,47.48118],[15.7869,47.48091],[15.7881,47.48042],[15.78842,47.48013],[15.78857,47.47976],[15.78843,47.47866],[15.78866,47.47811],[15.78852,47.47753]]}},{"type":"Feature","properties":{"kind":"piste","difficulty":"intermediate","name":null,"aerialway":null,"osm":"way/132809665"},"geometry":{"type":"LineString","coordinates":[[15.78332,47.47857],[15.78436,47.47862],[15.78621,47.47781],[15.78681,47.47765],[15.78722,47.47778]]}},{"type":"Feature","properties":{"kind":"lift","difficulty":null,"name":"Ochsenkopflift","aerialway":"drag_lift","osm":"way/132809666"},"geometry":{"type":"LineString","coordinates":[[15.78849,47.47745],[15.78269,47.4805]]}},{"type":"Feature","properties":{"kind":"piste","difficulty":"easy","name":null,"aerialway":null,"osm":"way/132809667"},"geometry":{"type":"LineString","coordinates":[[15.78143,47.48025],[15.78122,47.48018],[15.781,47.47974],[15.78277,47.47883]]}},{"type":"Feature","properties":{"kind":"lift","difficulty":null,"name":"Leitenlift","aerialway":"drag_lift","osm":"way/132809668"},"geometry":{"type":"LineString","coordinates":[[15.78726,47.47783],[15.78152,47.48029]]}},{"type":"Feature","properties":{"kind":"piste","difficulty":"intermediate","name":null,"aerialway":null,"osm":"way/132809669"},"geometry":{"type":"LineString","coordinates":[[15.78271,47.48044],[15.78286,47.48025],[15.7824,47.47915],[15.78277,47.47883],[15.7843,47.47812],[15.786,47.47757],[15.78832,47.47744]]}},{"type":"Feature","properties":{"kind":"piste","difficulty":"intermediate","name":null,"aerialway":null,"osm":"way/335632905"},"geometry":{"type":"LineString","coordinates":[[15.78552,47.48101],[15.78649,47.48052],[15.78695,47.4801],[15.78728,47.47955],[15.78843,47.47866]]}},{"type":"Feature","properties":{"kind":"lift","difficulty":null,"name":"Übungslift","aerialway":"platter","osm":"way/1010204252"},"geometry":{"type":"LineString","coordinates":[[15.78699,47.47693],[15.7849,47.47706]]}},{"type":"Feature","properties":{"kind":"piste","difficulty":"easy","name":null,"aerialway":null,"osm":"way/1010204253"},"geometry":{"type":"LineString","coordinates":[[15.78536,47.47703],[15.78601,47.47681],[15.78697,47.47681],[15.78697,47.47694]]}}]}