{"type":"FeatureCollection","features":[{"type":"Feature","properties":{"kind":"lift","difficulty":null,"name":"Zipline Seil 1","aerialway":"zip_line","osm":"way/234955048"},"geometry":{"type":"LineString","coordinates":[[13.84386,47.44588],[13.85635,47.4449]]}},{"type":"Feature","properties":{"kind":"lift","difficulty":null,"name":"Zipline Seil 1","aerialway":"zip_line","osm":"way/234955049"},"geometry":{"type":"LineString","coordinates":[[13.82857,47.45395],[13.84379,47.4459]]}},{"type":"Feature","properties":{"kind":"lift","difficulty":null,"name":"Zipline Seil 2","aerialway":"zip_line","osm":"way/499442328"},"geometry":{"type":"LineString","coordinates":[[13.82861,47.45398],[13.84381,47.44593]]}},{"type":"Feature","properties":{"kind":"lift","difficulty":null,"name":"Zipline Seil 3","aerialway":"zip_line","osm":"way/499442329"},"geometry":{"type":"LineString","coordinates":[[13.82864,47.45401],[13.84384,47.44597]]}},{"type":"Feature","properties":{"kind":"lift","difficulty":null,"name":"Zipline Seil 4","aerialway":"zip_line","osm":"way/499442330"},"geometry":{"type":"LineString","coordinates":[[13.82867,47.45403],[13.84385,47.446]]}},{"type":"Feature","properties":{"kind":"lift","difficulty":null,"name":"Zipline Seil 2","aerialway":"zip_line","osm":"way/499442336"},"geometry":{"type":"LineString","coordinates":[[13.84388,47.44591],[13.85636,47.44493]]}},{"type":"Feature","properties":{"kind":"lift","difficulty":null,"name":"Zipline Seil 3","aerialway":"zip_line","osm":"way/499442337"},"geometry":{"type":"LineString","coordinates":[[13.8439,47.44595],[13.85637,47.44497]]}},{"type":"Feature","properties":{"kind":"lift","difficulty":null,"name":"Zipline Seil 4","aerialway":"zip_line","osm":"way/499442338"},"geometry":{"type":"LineString","coordinates":[[13.84392,47.44598],[13.85637,47.445]]}}]}