{"type":"FeatureCollection","features":[{"type":"Feature","properties":{"kind":"lift","difficulty":null,"name":"Frauengrabenlift","aerialway":"drag_lift","osm":"way/132519861"},"geometry":{"type":"LineString","coordinates":[[15.70408,47.44089],[15.70323,47.43267]]}},{"type":"Feature","properties":{"kind":"piste","difficulty":"easy","name":"Panoramaabfahrt","aerialway":null,"osm":"way/132519862"},"geometry":{"type":"LineString","coordinates":[[15.7026,47.43496],[15.70282,47.43482],[15.70303,47.43428],[15.70325,47.4314]]}},{"type":"Feature","properties":{"kind":"piste","difficulty":"intermediate","name":"Frauengrabenabfahrt","aerialway":null,"osm":"way/132519863"},"geometry":{"type":"LineString","coordinates":[[15.70338,47.43276],[15.7041,47.43431],[15.70483,47.43486],[15.70603,47.43545],[15.70666,47.436],[15.70676,47.43654],[15.7048,47.43761],[15.7044,47.43827],[15.70419,47.4409]]}},{"type":"Feature","properties":{"kind":"lift","difficulty":null,"name":"Panoramalift","aerialway":"drag_lift","osm":"way/132519864"},"geometry":{"type":"LineString","coordinates":[[15.70249,47.43495],[15.70319,47.43137]]}}]}