{"type":"FeatureCollection","features":[{"type":"Feature","properties":{"kind":"piste","difficulty":"freeride","name":"Ötztal","aerialway":null,"osm":"way/411503401"},"geometry":{"type":"LineString","coordinates":[[11.12122,46.97152],[11.12109,46.97093],[11.12148,46.97024],[11.12335,46.96911],[11.12385,46.96829],[11.12388,46.96719],[11.12352,46.96585],[11.12316,46.96536],[11.12061,46.96375],[11.11849,46.96194],[11.11765,46.96059],[11.11684,46.95987],[11.1164,46.95816],[11.1161,46.95758],[11.11472,46.95653],[11.11057,46.95467],[11.10523,46.95431],[11.10353,46.95447],[11.10328,46.95439],[11.10316,46.95414],[11.10295,46.95404],[11.10263,46.95406],[11.10096,46.95506],[11.09991,46.95528],[11.09948,46.9552],[11.09685,46.95686],[11.09488,46.9584],[11.09347,46.95897],[11.09008,46.95916],[11.08713,46.95971],[11.08381,46.95946],[11.08163,46.95943],[11.07997,46.95895],[11.07877,46.95891],[11.07775,46.95915],[11.07674,46.95922],[11.07257,46.95918],[11.07201,46.95934],[11.07171,46.9596],[11.06952,46.95944],[11.06708,46.95967],[11.06504,46.95954],[11.06296,46.95913],[11.06188,46.95907],[11.05862,46.95959],[11.0557,46.96031],[11.0545,46.9603],[11.04772,46.96123],[11.0445,46.96151],[11.04187,46.96088],[11.0398,46.96019],[11.03785,46.96028],[11.02887,46.95994],[11.02757,46.95976],[11.0255,46.96064],[11.02404,46.96066],[11.02242,46.96102],[11.02019,46.96118],[11.01677,46.96175],[11.01409,46.96194],[11.01309,46.9617],[11.01278,46.96123],[11.01268,46.96056],[11.01143,46.96037],[11.01065,46.95993]]}},{"type":"Feature","properties":{"kind":"piste","difficulty":"easy","name":"Zufahrt Fernau","aerialway":null,"osm":"way/28620875"},"geometry":{"type":"LineString","coordinates":[[11.12792,46.9854],[11.12946,46.98803],[11.13003,46.9895]]}},{"type":"Feature","properties":{"kind":"piste","difficulty":"easy","name":"Daunenhang","aerialway":null,"osm":"way/28620943"},"geometry":{"type":"LineString","coordinates":[[11.10435,46.98059],[11.10435,46.98082],[11.10354,46.98097],[11.10288,46.98186],[11.10295,46.98229],[11.10372,46.98325]]}},{"type":"Feature","properties":{"kind":"piste","difficulty":"easy","name":"Fernauferner","aerialway":null,"osm":"way/28621001"},"geometry":{"type":"LineString","coordinates":[[11.12605,46.97215],[11.12736,46.97233],[11.1289,46.97205],[11.12908,46.97284],[11.12923,46.97437],[11.12918,46.9767],[11.12861,46.97812],[11.1268,46.98049],[11.12653,46.98122],[11.12685,46.98303],[11.12792,46.9854]]}},{"type":"Feature","properties":{"kind":"piste","difficulty":"easy","name":"Daunferner","aerialway":null,"osm":"way/28621729"},"geometry":{"type":"LineString","coordinates":[[11.10367,46.98444],[11.10458,46.98497],[11.10513,46.98594],[11.10534,46.98682],[11.10532,46.98771],[11.10466,46.99157],[11.10408,46.9937],[11.10404,46.99449],[11.10434,46.99553],[11.10508,46.99608],[11.10616,46.99653],[11.1096,46.99705],[11.11078,46.99737],[11.11436,46.99716],[11.11655,46.99732],[11.11788,46.99683],[11.11824,46.99654],[11.11822,46.99622]]}},{"type":"Feature","properties":{"kind":"piste","difficulty":"easy","name":"Falwesuna","aerialway":null,"osm":"way/28871848"},"geometry":{"type":"LineString","coordinates":[[11.13003,46.9895],[11.13174,46.98946],[11.13295,46.98982],[11.1342,46.98998],[11.13451,46.99031],[11.13475,46.99183],[11.13502,46.99238],[11.1366,46.99401],[11.13753,46.99571],[11.13822,46.99629],[11.13978,46.99698],[11.14066,46.99705]]}},{"type":"Feature","properties":{"kind":"piste","difficulty":"intermediate","name":"Silberschneid","aerialway":null,"osm":"way/28872248"},"geometry":{"type":"LineString","coordinates":[[11.1161,46.98543],[11.11804,46.98594],[11.119,46.98636],[11.12068,46.98788],[11.1211,46.98861],[11.12236,46.98971],[11.12324,46.98996],[11.12516,46.98991]]}},{"type":"Feature","properties":{"kind":"piste","difficulty":"easy","name":"Windachferner","aerialway":null,"osm":"way/28872250"},"geometry":{"type":"LineString","coordinates":[[11.10916,46.97535],[11.10869,46.97523]]}},{"type":"Feature","properties":{"kind":"piste","difficulty":"easy","name":"Schaufelschuss","aerialway":null,"osm":"way/28872252"},"geometry":{"type":"LineString","coordinates":[[11.10845,46.97844],[11.10978,46.9788],[11.11203,46.98213],[11.11423,46.98644]]}},{"type":"Feature","properties":{"kind":"piste","difficulty":"freeride","name":"Gamsgartenschuss","aerialway":null,"osm":"way/28872253"},"geometry":{"type":"LineString","coordinates":[[11.11027,46.97954],[11.11295,46.98121],[11.11498,46.98351],[11.11567,46.98404],[11.11634,46.98435],[11.11693,46.98442],[11.11785,46.9843],[11.11872,46.98437],[11.1199,46.9848]]}},{"type":"Feature","properties":{"kind":"piste","difficulty":"intermediate","name":"Daunfernerschuss","aerialway":null,"osm":"way/28872254"},"geometry":{"type":"LineString","coordinates":[[11.10404,46.99449],[11.10607,46.99526],[11.10792,46.99567],[11.1086,46.99559],[11.10975,46.99493],[11.11017,46.99488],[11.11216,46.99521],[11.11337,46.99587],[11.11389,46.99593],[11.11445,46.99582],[11.11504,46.99545],[11.11739,46.99542]]}},{"type":"Feature","properties":{"kind":"piste","difficulty":"easy","name":"Gamsgarten","aerialway":null,"osm":"way/29184414"},"geometry":{"type":"LineString","coordinates":[[11.12291,46.99731],[11.12355,46.99757],[11.12353,46.99819],[11.1237,46.99833],[11.12521,46.99809],[11.12677,46.9981],[11.12826,46.99835],[11.13057,46.99852],[11.13288,46.99803],[11.13717,46.99827],[11.13978,46.99698]]}},{"type":"Feature","properties":{"kind":"piste","difficulty":"easy","name":"Grubenschuss","aerialway":null,"osm":"way/29184445"},"geometry":{"type":"LineString","coordinates":[[11.11628,46.99795],[11.11655,46.99732],[11.1206,46.99691],[11.12256,46.99719]]}},{"type":"Feature","properties":{"kind":"piste","difficulty":"intermediate","name":"Skiroute Wilde Grub'n","aerialway":null,"osm":"way/29184483"},"geometry":{"type":"LineString","coordinates":[[11.11655,46.99732],[11.11705,46.99775],[11.11914,46.9984],[11.11997,46.99897],[11.11934,46.99958],[11.11929,46.99988],[11.12066,46.99986],[11.12278,47.0003],[11.12313,47.00028],[11.12357,47.00002],[11.12515,47.00068],[11.12636,47.00136],[11.1282,47.00342],[11.12722,47.0035],[11.12668,47.00396],[11.12684,47.00435],[11.12666,47.0052],[11.12644,47.00554],[11.12598,47.00699],[11.12644,47.00756],[11.12844,47.00891],[11.12978,47.0094],[11.13188,47.0091],[11.13277,47.0091],[11.13545,47.00962],[11.13708,47.01038],[11.13782,47.01059],[11.13884,47.01122],[11.14275,47.01253],[11.14578,47.01252],[11.14974,47.01176],[11.15154,47.0111],[11.15264,47.01114],[11.15272,47.01102],[11.15199,47.00983],[11.15199,47.00944],[11.15228,47.00931],[11.15256,47.00936],[11.15308,47.0098],[11.15385,47.00996],[11.15417,47.01022],[11.15487,47.01027],[11.15531,47.01065]]}},{"type":"Feature","properties":{"kind":"piste","difficulty":"intermediate","name":"Eisjochzunge","aerialway":null,"osm":"way/29188443"},"geometry":{"type":"LineString","coordinates":[[11.11423,46.98644],[11.11303,46.98614],[11.11212,46.98609]]}},{"type":"Feature","properties":{"kind":"piste","difficulty":"freeride","name":null,"aerialway":null,"osm":"way/29208557"},"geometry":{"type":"LineString","coordinates":[[11.13004,46.99184],[11.13162,46.99328],[11.13218,46.99395],[11.13271,46.99418],[11.13322,46.9941]]}},{"type":"Feature","properties":{"kind":"piste","difficulty":"intermediate","name":"Skiroute Wilde Grub'n","aerialway":null,"osm":"way/29208625"},"geometry":{"type":"LineString","coordinates":[[11.12357,47.00002],[11.12519,46.99982],[11.1252,46.99994],[11.12465,47.00046],[11.12466,47.00098],[11.1249,47.00115],[11.12546,47.00091]]}},{"type":"Feature","properties":{"kind":"piste","difficulty":"intermediate","name":"Skiroute Wilde Grub'n","aerialway":null,"osm":"way/29208711"},"geometry":{"type":"LineString","coordinates":[[11.1263,47.00737],[11.13057,47.00784],[11.13141,47.00781],[11.13203,47.00753],[11.13216,47.00757],[11.13203,47.00816],[11.1331,47.00805],[11.13562,47.0092],[11.13632,47.00986],[11.13782,47.01059]]}},{"type":"Feature","properties":{"kind":"piste","difficulty":"intermediate","name":"Silberschneid","aerialway":null,"osm":"way/29208953"},"geometry":{"type":"LineString","coordinates":[[11.13003,46.9895],[11.1298,46.99019],[11.12985,46.99041],[11.13036,46.9909],[11.13108,46.99127],[11.13152,46.99187]]}},{"type":"Feature","properties":{"kind":"piste","difficulty":"intermediate","name":"Pfaffenschneid","aerialway":null,"osm":"way/29235960"},"geometry":{"type":"LineString","coordinates":[[11.1289,46.97205],[11.12935,46.97219],[11.13081,46.9743],[11.13197,46.97662],[11.13348,46.98022],[11.1348,46.98438],[11.1347,46.98517],[11.13437,46.98561],[11.13409,46.98589],[11.13207,46.98659],[11.13139,46.98733],[11.13116,46.98781],[11.1304,46.98852],[11.13003,46.9895]]}},{"type":"Feature","properties":{"kind":"piste","difficulty":"easy","name":null,"aerialway":null,"osm":"way/29236025"},"geometry":{"type":"LineString","coordinates":[[11.10655,46.98694],[11.10592,46.98703],[11.10307,46.98875]]}},{"type":"Feature","properties":{"kind":"piste","difficulty":"intermediate","name":"Schartenschuss","aerialway":null,"osm":"way/29236047"},"geometry":{"type":"LineString","coordinates":[[11.09199,46.99034],[11.09234,46.99021],[11.09249,46.99027],[11.09273,46.99093],[11.09299,46.99108],[11.10031,46.99242],[11.10253,46.99367]]}},{"type":"Feature","properties":{"kind":"piste","difficulty":"intermediate","name":"Skiroute - Wilde Grub'n","aerialway":null,"osm":"way/29380332"},"geometry":{"type":"LineString","coordinates":[[11.10434,46.99553],[11.10455,46.99613],[11.10629,46.99755],[11.10781,46.99847],[11.10885,46.99892],[11.11107,46.99932],[11.11421,46.99941]]}},{"type":"Feature","properties":{"kind":"piste","difficulty":"intermediate","name":"Fernau-Mauer","aerialway":null,"osm":"way/29380425"},"geometry":{"type":"LineString","coordinates":[[11.12941,46.97227],[11.13042,46.97272],[11.1315,46.97352],[11.13439,46.97791],[11.13516,46.97968],[11.1375,46.9867],[11.13722,46.98854],[11.13693,46.9891],[11.13689,46.9898],[11.13575,46.99056],[11.13508,46.99068],[11.13479,46.99087],[11.13465,46.99126]]}},{"type":"Feature","properties":{"kind":"piste","difficulty":"intermediate","name":"Gaches Eck","aerialway":null,"osm":"way/29380522"},"geometry":{"type":"LineString","coordinates":[[11.10466,46.99157],[11.10574,46.99198],[11.10803,46.99241],[11.10931,46.99248],[11.11185,46.99371],[11.11465,46.99372],[11.11547,46.99469],[11.11597,46.99479],[11.11662,46.99547]]}},{"type":"Feature","properties":{"kind":"piste","difficulty":"easy","name":"Skiweg Eisnase","aerialway":null,"osm":"way/29380690"},"geometry":{"type":"LineString","coordinates":[[11.10655,46.98694],[11.10698,46.9861],[11.10747,46.98578],[11.1078,46.98534],[11.10775,46.98427],[11.10798,46.98387],[11.1091,46.98366],[11.11087,46.98367]]}},{"type":"Feature","properties":{"kind":"piste","difficulty":"novice","name":null,"aerialway":null,"osm":"way/29380929"},"geometry":{"type":"LineString","coordinates":[[11.1223,46.99563],[11.12125,46.99609],[11.12191,46.99657],[11.12255,46.9968],[11.12394,46.99705],[11.1223,46.99563]]}},{"type":"Feature","properties":{"kind":"piste","difficulty":"intermediate","name":"Eisnase","aerialway":null,"osm":"way/29422684"},"geometry":{"type":"LineString","coordinates":[[11.10698,46.9861],[11.10777,46.98628],[11.10937,46.98639],[11.11072,46.98671],[11.11123,46.98708]]}},{"type":"Feature","properties":{"kind":"piste","difficulty":"intermediate","name":"Kanonenrohr","aerialway":null,"osm":"way/29422802"},"geometry":{"type":"LineString","coordinates":[[11.13233,46.98966],[11.13285,46.99034],[11.13363,46.99204],[11.13442,46.99328],[11.13533,46.99414],[11.13722,46.99518]]}},{"type":"Feature","properties":{"kind":"piste","difficulty":"easy","name":"Grubenschuss","aerialway":null,"osm":"way/29978146"},"geometry":{"type":"LineString","coordinates":[[11.11633,46.99805],[11.11628,46.99795],[11.11639,46.99788],[11.11705,46.99775],[11.12232,46.99719],[11.12291,46.99731],[11.12299,46.99745],[11.12285,46.99748]]}},{"type":"Feature","properties":{"kind":"piste","difficulty":"intermediate","name":"Steile Zunge","aerialway":null,"osm":"way/41756859"},"geometry":{"type":"LineString","coordinates":[[11.10426,46.99284],[11.10454,46.9931],[11.10606,46.99368],[11.10855,46.99403],[11.11085,46.99464],[11.11209,46.99484],[11.11249,46.99531]]}},{"type":"Feature","properties":{"kind":"piste","difficulty":"easy","name":"Schaufelschuss","aerialway":null,"osm":"way/42734204"},"geometry":{"type":"LineString","coordinates":[[11.10818,46.97758],[11.10934,46.97818],[11.10978,46.9788]]}},{"type":"Feature","properties":{"kind":"piste","difficulty":"easy","name":"Daunenhang","aerialway":null,"osm":"way/150276157"},"geometry":{"type":"LineString","coordinates":[[11.10367,46.98444],[11.10253,46.99367],[11.10291,46.9941],[11.10404,46.99449]]}},{"type":"Feature","properties":{"kind":"piste","difficulty":"intermediate","name":"Kogelferner","aerialway":null,"osm":"way/150276158"},"geometry":{"type":"LineString","coordinates":[[11.09199,46.99034],[11.09213,46.99014],[11.09241,46.99008],[11.10117,46.99174]]}},{"type":"Feature","properties":{"kind":"piste","difficulty":"advanced","name":"Daunhill","aerialway":null,"osm":"way/200813088"},"geometry":{"type":"LineString","coordinates":[[11.10094,47.00179],[11.10057,47.0018],[11.10048,47.00169],[11.10108,47.00147],[11.10215,47.00166],[11.10324,47.00152],[11.10718,47.00142],[11.10745,47.00131],[11.10699,47.00092],[11.1069,47.00066],[11.10707,47.00056],[11.10965,47.00056],[11.11494,47.00008],[11.11516,46.9994],[11.11586,46.99922],[11.11598,46.99934],[11.11577,46.99941]]}},{"type":"Feature","properties":{"kind":"piste","difficulty":"intermediate","name":"Gaißkarferner Süd","aerialway":null,"osm":"way/200813089"},"geometry":{"type":"LineString","coordinates":[[11.12122,46.97152],[11.12067,46.97151]]}},{"type":"Feature","properties":{"kind":"piste","difficulty":"intermediate","name":"Skiroute Wilde Grub'n","aerialway":null,"osm":"way/200813091"},"geometry":{"type":"LineString","coordinates":[[11.11421,46.99941],[11.11511,46.99948],[11.11601,46.99989],[11.11696,47.00009],[11.11788,47.00014],[11.11929,46.99988]]}},{"type":"Feature","properties":{"kind":"piste","difficulty":"advanced","name":null,"aerialway":null,"osm":"way/237438618"},"geometry":{"type":"LineString","coordinates":[[11.13978,46.99698],[11.13984,46.99761],[11.14105,46.99764],[11.14152,46.99791],[11.14184,46.99837],[11.14348,46.99852]]}},{"type":"Feature","properties":{"kind":"piste","difficulty":"intermediate","name":"Windachferner","aerialway":null,"osm":"way/407240426"},"geometry":{"type":"LineString","coordinates":[[11.10869,46.97523],[11.10835,46.97514],[11.10412,46.97723]]}},{"type":"Feature","properties":{"kind":"piste","difficulty":"intermediate","name":"Windachferner","aerialway":null,"osm":"way/407248382"},"geometry":{"type":"LineString","coordinates":[[11.10828,46.97682],[11.10765,46.9768],[11.10412,46.97723],[11.10266,46.97761]]}},{"type":"Feature","properties":{"kind":"piste","difficulty":"intermediate","name":"Sonnenhang","aerialway":null,"osm":"way/407273251"},"geometry":{"type":"LineString","coordinates":[[11.12456,46.97272],[11.12348,46.97317],[11.12178,46.97355],[11.12082,46.97393],[11.11967,46.97411],[11.11863,46.97378],[11.11816,46.97329],[11.11829,46.97291],[11.11851,46.97273]]}},{"type":"Feature","properties":{"kind":"piste","difficulty":"easy","name":null,"aerialway":null,"osm":"way/407273256"},"geometry":{"type":"LineString","coordinates":[[11.10525,46.98627],[11.10655,46.98694]]}},{"type":"Feature","properties":{"kind":"piste","difficulty":"easy","name":"Grubenschuss","aerialway":null,"osm":"way/407293018"},"geometry":{"type":"LineString","coordinates":[[11.11739,46.99542],[11.12065,46.99614],[11.12256,46.99719]]}},{"type":"Feature","properties":{"kind":"piste","difficulty":"intermediate","name":"Skiroute Wilde Grub'n","aerialway":null,"osm":"way/408695289"},"geometry":{"type":"LineString","coordinates":[[11.15544,47.01079],[11.15523,47.01086],[11.15491,47.01076]]}},{"type":"Feature","properties":{"kind":"piste","difficulty":"easy","name":"Skiweg Mutterberg","aerialway":null,"osm":"way/408695290"},"geometry":{"type":"LineString","coordinates":[[11.15558,47.01092],[11.15664,47.01145],[11.15784,47.0118]]}},{"type":"Feature","properties":{"kind":"piste","difficulty":"intermediate","name":"Skiroute Wilde Grub'n","aerialway":null,"osm":"way/408700703"},"geometry":{"type":"LineString","coordinates":[[11.12682,47.00423],[11.12772,47.00453],[11.12817,47.00544],[11.12762,47.00605],[11.12671,47.0065],[11.12639,47.00694],[11.1263,47.00737]]}},{"type":"Feature","properties":{"kind":"piste","difficulty":"easy","name":"Skiweg Murmele","aerialway":null,"osm":"way/431834923"},"geometry":{"type":"LineString","coordinates":[[11.11595,46.99925],[11.11724,46.99949],[11.11777,46.99911],[11.11852,46.99918],[11.12032,46.99886],[11.12188,46.998],[11.12285,46.99783],[11.12305,46.99762],[11.12291,46.99731]]}},{"type":"Feature","properties":{"kind":"piste","difficulty":"intermediate","name":"Skiweg Daunferner","aerialway":null,"osm":"way/431836697"},"geometry":{"type":"LineString","coordinates":[[11.10696,47.0006],[11.10668,46.99955],[11.10659,46.99817],[11.10679,46.99662]]}},{"type":"Feature","properties":{"kind":"piste","difficulty":"advanced","name":null,"aerialway":null,"osm":"way/448339717"},"geometry":{"type":"LineString","coordinates":[[11.14578,47.00102],[11.1459,47.00113]]}},{"type":"Feature","properties":{"kind":"piste","difficulty":"advanced","name":null,"aerialway":null,"osm":"way/448339720"},"geometry":{"type":"LineString","coordinates":[[11.1444,46.99889],[11.14532,46.9992],[11.1449,46.99925],[11.14437,46.99964],[11.14449,46.99973],[11.14522,46.99962],[11.14438,47.00043],[11.14403,47.00059],[11.14393,47.00112],[11.14491,47.00079],[11.14547,47.00084],[11.14578,47.00102]]}},{"type":"Feature","properties":{"kind":"piste","difficulty":"advanced","name":null,"aerialway":null,"osm":"way/448339722"},"geometry":{"type":"LineString","coordinates":[[11.1459,47.00113],[11.14652,47.00182],[11.1465,47.00243],[11.14672,47.00253],[11.14736,47.00242],[11.14691,47.00309],[11.14915,47.00257],[11.15035,47.00281],[11.15072,47.00336],[11.14998,47.00323],[11.14949,47.00337],[11.14898,47.0037],[11.14961,47.00396],[11.15099,47.00555],[11.15235,47.00674],[11.15327,47.00737],[11.15325,47.00751],[11.15241,47.00775],[11.15334,47.00875],[11.15325,47.00898],[11.15275,47.00915],[11.1529,47.00958]]}},{"type":"Feature","properties":{"kind":"piste","difficulty":"easy","name":"Skiweg Mutterberg","aerialway":null,"osm":"way/462751119"},"geometry":{"type":"LineString","coordinates":[[11.15784,47.0118],[11.15824,47.01188]]}},{"type":"Feature","properties":{"kind":"piste","difficulty":"easy","name":"Skiweg Mutterberg","aerialway":null,"osm":"way/462751120"},"geometry":{"type":"LineString","coordinates":[[11.15824,47.01188],[11.16079,47.01254],[11.16228,47.01252],[11.16424,47.01334]]}},{"type":"Feature","properties":{"kind":"piste","difficulty":"advanced","name":"Tunnel Schiweg/Zufahrt Fernau","aerialway":null,"osm":"way/466354531"},"geometry":{"type":"LineString","coordinates":[[11.14348,46.99852],[11.1444,46.99889]]}},{"type":"Feature","properties":{"kind":"piste","difficulty":"easy","name":null,"aerialway":null,"osm":"way/476063670"},"geometry":{"type":"LineString","coordinates":[[11.14047,46.99717],[11.14097,46.99698]]}},{"type":"Feature","properties":{"kind":"piste","difficulty":"easy","name":"Zufahrt Fernau","aerialway":null,"osm":"way/476063673"},"geometry":{"type":"LineString","coordinates":[[11.12536,46.98457],[11.12585,46.98533],[11.12595,46.98609],[11.12578,46.98738],[11.126,46.98793],[11.12693,46.98882],[11.12782,46.98942],[11.12815,46.98952],[11.13003,46.9895]]}},{"type":"Feature","properties":{"kind":"piste","difficulty":"intermediate","name":"Sonnenhang","aerialway":null,"osm":"way/476063675"},"geometry":{"type":"LineString","coordinates":[[11.12456,46.97272],[11.12503,46.97245],[11.12605,46.97215]]}},{"type":"Feature","properties":{"kind":"piste","difficulty":"easy","name":"Sonnenhang","aerialway":null,"osm":"way/476063679"},"geometry":{"type":"LineString","coordinates":[[11.12679,46.97185],[11.12605,46.97215]]}},{"type":"Feature","properties":{"kind":"piste","difficulty":"easy","name":"Zufahrt Fernau","aerialway":null,"osm":"way/476063680"},"geometry":{"type":"LineString","coordinates":[[11.11423,46.98644],[11.1161,46.98543],[11.11878,46.98484],[11.12094,46.98491],[11.12236,46.98534],[11.12294,46.98539],[11.12336,46.98532],[11.12492,46.98463],[11.12663,46.98447],[11.12792,46.9854]]}},{"type":"Feature","properties":{"kind":"piste","difficulty":"intermediate","name":"Kogelferner","aerialway":null,"osm":"way/476080411"},"geometry":{"type":"LineString","coordinates":[[11.10117,46.99174],[11.10128,46.99198],[11.10105,46.99216]]}},{"type":"Feature","properties":{"kind":"piste","difficulty":"easy","name":"Daunferner","aerialway":null,"osm":"way/476080415"},"geometry":{"type":"LineString","coordinates":[[11.10414,46.99331],[11.10362,46.99372],[11.10332,46.99374],[11.10321,46.99353]]}},{"type":"Feature","properties":{"kind":"piste","difficulty":"intermediate","name":"Eisjochzunge","aerialway":null,"osm":"way/476080416"},"geometry":{"type":"LineString","coordinates":[[11.11151,46.98496],[11.1161,46.98543]]}},{"type":"Feature","properties":{"kind":"piste","difficulty":"easy","name":"Eisjochferner","aerialway":null,"osm":"way/476080423"},"geometry":{"type":"LineString","coordinates":[[11.10807,46.97561],[11.10828,46.97682],[11.10809,46.9773],[11.10845,46.97844],[11.10998,46.98188],[11.11212,46.98609]]}},{"type":"Feature","properties":{"kind":"piste","difficulty":"intermediate","name":"Silberschneid","aerialway":null,"osm":"way/476080425"},"geometry":{"type":"LineString","coordinates":[[11.13152,46.99187],[11.1322,46.99297],[11.13322,46.9941],[11.13681,46.99628],[11.13741,46.99644],[11.13822,46.99629]]}},{"type":"Feature","properties":{"kind":"piste","difficulty":"easy","name":"Eisjochferner","aerialway":null,"osm":"way/476080429"},"geometry":{"type":"LineString","coordinates":[[11.10832,46.97725],[11.1081,46.97712]]}},{"type":"Feature","properties":{"kind":"piste","difficulty":"intermediate","name":"Silberschneid","aerialway":null,"osm":"way/566773864"},"geometry":{"type":"LineString","coordinates":[[11.12516,46.98991],[11.12815,46.98952]]}},{"type":"Feature","properties":{"kind":"piste","difficulty":"intermediate","name":"Gaiskarferner","aerialway":null,"osm":"way/572154993"},"geometry":{"type":"LineString","coordinates":[[11.10933,46.97554],[11.11029,46.97601],[11.11056,46.976],[11.11081,46.9759],[11.11119,46.97527],[11.11174,46.97481],[11.11475,46.97392],[11.11528,46.97354],[11.11668,46.97299]]}},{"type":"Feature","properties":{"kind":"piste","difficulty":"novice","name":"Kitz","aerialway":null,"osm":"way/759976749"},"geometry":{"type":"LineString","coordinates":[[11.12235,46.99555],[11.12237,46.99609],[11.12281,46.99655],[11.12402,46.99708]]}},{"type":"Feature","properties":{"kind":"piste","difficulty":"novice","name":"Big Family Slopestyle","aerialway":null,"osm":"way/759976754"},"geometry":{"type":"LineString","coordinates":[[11.11834,46.9936],[11.11822,46.9938],[11.11833,46.99422],[11.11859,46.99477],[11.11883,46.99496]]}},{"type":"Feature","properties":{"kind":"piste","difficulty":"intermediate","name":"Bildstöckljoch","aerialway":null,"osm":"way/771082304"},"geometry":{"type":"LineString","coordinates":[[11.10435,46.98059],[11.10486,46.98032],[11.10516,46.97987],[11.10513,46.97968],[11.10469,46.97922],[11.1047,46.97884],[11.10495,46.97855],[11.10579,46.97834],[11.10633,46.97859],[11.10685,46.97831],[11.10764,46.97822],[11.10828,46.97796]]}},{"type":"Feature","properties":{"kind":"piste","difficulty":"intermediate","name":"Skiroute Wilde Grub'n","aerialway":null,"osm":"way/792183363"},"geometry":{"type":"LineString","coordinates":[[11.11628,46.99799],[11.11533,46.99789],[11.115,46.99796],[11.11491,46.99813],[11.11622,46.99912],[11.11624,46.99927]]}},{"type":"Feature","properties":{"kind":"piste","difficulty":"intermediate","name":null,"aerialway":null,"osm":"way/792183364"},"geometry":{"type":"LineString","coordinates":[[11.15142,47.01114],[11.1515,47.01087],[11.15141,47.0106],[11.15259,47.01122],[11.15282,47.01114],[11.15262,47.01087]]}},{"type":"Feature","properties":{"kind":"piste","difficulty":"intermediate","name":null,"aerialway":null,"osm":"way/851944043"},"geometry":{"type":"LineString","coordinates":[[11.13053,46.9901],[11.13027,46.99025],[11.1302,46.99075]]}},{"type":"Feature","properties":{"kind":"piste","difficulty":"easy","name":"Zufahrt Fernau","aerialway":null,"osm":"way/851944044"},"geometry":{"type":"LineString","coordinates":[[11.13003,46.9895],[11.13093,46.98995],[11.13109,46.98988]]}},{"type":"Feature","properties":{"kind":"piste","difficulty":"easy","name":null,"aerialway":null,"osm":"way/851944045"},"geometry":{"type":"LineString","coordinates":[[11.13053,46.9901],[11.13083,46.98991]]}},{"type":"Feature","properties":{"kind":"piste","difficulty":"easy","name":null,"aerialway":null,"osm":"way/851944046"},"geometry":{"type":"LineString","coordinates":[[11.13776,46.99595],[11.13771,46.9962],[11.13738,46.99631]]}},{"type":"Feature","properties":{"kind":"piste","difficulty":"intermediate","name":null,"aerialway":null,"osm":"way/851944047"},"geometry":{"type":"LineString","coordinates":[[11.13741,46.99644],[11.13749,46.99637],[11.13738,46.99631]]}},{"type":"Feature","properties":{"kind":"piste","difficulty":"easy","name":"Fernaufernerschuss","aerialway":null,"osm":"way/861301329"},"geometry":{"type":"LineString","coordinates":[[11.12897,46.97242],[11.12798,46.97375],[11.12724,46.97448],[11.12696,46.97552],[11.12736,46.97708],[11.12737,46.97779],[11.1268,46.98049]]}},{"type":"Feature","properties":{"kind":"piste","difficulty":"easy","name":null,"aerialway":null,"osm":"way/862760017"},"geometry":{"type":"LineString","coordinates":[[11.11423,46.98644],[11.11497,46.98716]]}},{"type":"Feature","properties":{"kind":"piste","difficulty":"easy","name":null,"aerialway":null,"osm":"way/862760018"},"geometry":{"type":"LineString","coordinates":[[11.11454,46.98706],[11.11478,46.98708]]}},{"type":"Feature","properties":{"kind":"piste","difficulty":"easy","name":"Eisjochferner","aerialway":null,"osm":"way/862760019"},"geometry":{"type":"LineString","coordinates":[[11.11341,46.99036],[11.11404,46.99167],[11.11822,46.99622]]}},{"type":"Feature","properties":{"kind":"piste","difficulty":"intermediate","name":"Skiroute Wilde Grub'n","aerialway":null,"osm":"way/904819831"},"geometry":{"type":"LineString","coordinates":[[11.13623,47.01],[11.13663,47.01001]]}},{"type":"Feature","properties":{"kind":"piste","difficulty":"intermediate","name":"Skiroute Wilde Grub'n","aerialway":null,"osm":"way/904819833"},"geometry":{"type":"LineString","coordinates":[[11.15531,47.01065],[11.15544,47.01079]]}},{"type":"Feature","properties":{"kind":"piste","difficulty":"easy","name":"Skiweg Mutterberg","aerialway":null,"osm":"way/904819834"},"geometry":{"type":"LineString","coordinates":[[11.15544,47.01079],[11.15558,47.01092]]}},{"type":"Feature","properties":{"kind":"piste","difficulty":"easy","name":null,"aerialway":null,"osm":"way/1021523789"},"geometry":{"type":"LineString","coordinates":[[11.15614,47.01118],[11.15561,47.01115]]}},{"type":"Feature","properties":{"kind":"piste","difficulty":"easy","name":null,"aerialway":null,"osm":"way/1021523791"},"geometry":{"type":"LineString","coordinates":[[11.15749,47.01175],[11.15702,47.01174]]}},{"type":"Feature","properties":{"kind":"piste","difficulty":"easy","name":null,"aerialway":null,"osm":"way/1037396959"},"geometry":{"type":"LineString","coordinates":[[11.10689,46.9873],[11.10655,46.98694]]}},{"type":"Feature","properties":{"kind":"piste","difficulty":"intermediate","name":"Kogelferner","aerialway":null,"osm":"way/1037396960"},"geometry":{"type":"LineString","coordinates":[[11.10117,46.99174],[11.10267,46.99209],[11.10426,46.99284]]}},{"type":"Feature","properties":{"kind":"piste","difficulty":"easy","name":null,"aerialway":null,"osm":"way/1037396961"},"geometry":{"type":"LineString","coordinates":[[11.11795,46.99632],[11.11869,46.99606],[11.11943,46.99658]]}},{"type":"Feature","properties":{"kind":"piste","difficulty":"advanced","name":"Skiroute Fernau","aerialway":null,"osm":"way/1041796047"},"geometry":{"type":"LineString","coordinates":[[11.14066,46.99705],[11.14108,46.99731],[11.14122,46.99772]]}},{"type":"Feature","properties":{"kind":"piste","difficulty":"easy","name":"Windachferner","aerialway":null,"osm":"way/1173386654"},"geometry":{"type":"LineString","coordinates":[[11.10869,46.97523],[11.10807,46.97561]]}},{"type":"Feature","properties":{"kind":"piste","difficulty":"intermediate","name":"Gaiskarferner","aerialway":null,"osm":"way/1173386655"},"geometry":{"type":"LineString","coordinates":[[11.11098,46.97705],[11.11113,46.97731],[11.11172,46.97737],[11.1128,46.97675],[11.11292,46.97655],[11.11274,46.97631],[11.11118,46.97592],[11.11107,46.9756]]}},{"type":"Feature","properties":{"kind":"piste","difficulty":"intermediate","name":"Eisjochzunge","aerialway":null,"osm":"way/1206007031"},"geometry":{"type":"LineString","coordinates":[[11.11249,46.98765],[11.11251,46.98854],[11.11341,46.99036]]}},{"type":"Feature","properties":{"kind":"piste","difficulty":"easy","name":null,"aerialway":null,"osm":"way/1206008452"},"geometry":{"type":"LineString","coordinates":[[11.1021,46.99094],[11.10327,46.98289],[11.10276,46.98208],[11.10345,46.98097],[11.1038,46.98084],[11.10301,46.98192],[11.10371,46.98298],[11.10421,46.9832],[11.10309,46.99386],[11.10514,46.99408],[11.10497,46.99542],[11.10709,46.99626],[11.10913,46.99689],[11.11098,46.99725],[11.11412,46.99707],[11.11639,46.99725],[11.11636,46.99749],[11.11408,46.99733],[11.11138,46.99757],[11.10955,46.99717],[11.10592,46.99662],[11.10391,46.99605],[11.10192,46.99346],[11.10187,46.99281],[11.1021,46.99094]]}},{"type":"Feature","properties":{"kind":"piste","difficulty":"intermediate","name":null,"aerialway":null,"osm":"way/1206008453"},"geometry":{"type":"LineString","coordinates":[[11.0934,46.98983],[11.10206,46.99131],[11.10191,46.99252],[11.10142,46.99208],[11.09193,46.99015],[11.0924,46.98963],[11.0934,46.98983]]}},{"type":"Feature","properties":{"kind":"piste","difficulty":"easy","name":null,"aerialway":null,"osm":"way/1206008454"},"geometry":{"type":"LineString","coordinates":[[11.10616,46.98678],[11.10625,46.98702],[11.10589,46.98726],[11.10565,46.98893],[11.10502,46.99072],[11.10486,46.99254],[11.10514,46.99408],[11.10346,46.9939],[11.10441,46.98796],[11.10452,46.98656],[11.10451,46.98506],[11.10404,46.98488],[11.10407,46.98454],[11.10495,46.98501],[11.10555,46.98558],[11.10616,46.98678]]}},{"type":"Feature","properties":{"kind":"piste","difficulty":"easy","name":"Eisjochzunge","aerialway":null,"osm":"way/1285776188"},"geometry":{"type":"LineString","coordinates":[[11.11223,46.98658],[11.111,46.98721],[11.11116,46.98809]]}},{"type":"Feature","properties":{"kind":"piste","difficulty":"easy","name":"Eisjochferner","aerialway":null,"osm":"way/1285776189"},"geometry":{"type":"LineString","coordinates":[[11.11249,46.98765],[11.11156,46.98785],[11.11116,46.98809],[11.11205,46.98966],[11.11341,46.99036]]}},{"type":"Feature","properties":{"kind":"piste","difficulty":"intermediate","name":"Eisjochzunge","aerialway":null,"osm":"way/1285776190"},"geometry":{"type":"LineString","coordinates":[[11.11212,46.98609],[11.11245,46.98741]]}},{"type":"Feature","properties":{"kind":"piste","difficulty":"easy","name":"Eisjochferner","aerialway":null,"osm":"way/1285776191"},"geometry":{"type":"LineString","coordinates":[[11.11245,46.98741],[11.11249,46.98765]]}},{"type":"Feature","properties":{"kind":"piste","difficulty":"easy","name":"Gaiskarferner Süd","aerialway":null,"osm":"way/1285776195"},"geometry":{"type":"LineString","coordinates":[[11.10933,46.97554],[11.10916,46.97535]]}},{"type":"Feature","properties":{"kind":"piste","difficulty":"easy","name":"Daunferner","aerialway":null,"osm":"way/1316998105"},"geometry":{"type":"LineString","coordinates":[[11.10424,46.99292],[11.10347,46.99286]]}},{"type":"Feature","properties":{"kind":"piste","difficulty":"intermediate","name":"Gaiskarferner","aerialway":null,"osm":"way/1335037975"},"geometry":{"type":"LineString","coordinates":[[11.11475,46.97392],[11.11725,46.97331],[11.11984,46.97203],[11.12122,46.97152],[11.1218,46.97088],[11.122,46.97087]]}},{"type":"Feature","properties":{"kind":"piste","difficulty":"advanced","name":"Skiroute 26 Fernau","aerialway":null,"osm":"way/1363955136"},"geometry":{"type":"LineString","coordinates":[[11.13978,46.99698],[11.14007,46.99673],[11.14094,46.99672],[11.14147,46.99715],[11.14134,46.99778]]}},{"type":"Feature","properties":{"kind":"piste","difficulty":"easy","name":null,"aerialway":null,"osm":"way/1424999644"},"geometry":{"type":"LineString","coordinates":[[11.16079,47.01254],[11.16086,47.01271]]}},{"type":"Feature","properties":{"kind":"piste","difficulty":"easy","name":null,"aerialway":null,"osm":"way/1424999645"},"geometry":{"type":"LineString","coordinates":[[11.11943,46.99658],[11.12005,46.99665]]}},{"type":"Feature","properties":{"kind":"piste","difficulty":"easy","name":null,"aerialway":null,"osm":"way/1424999646"},"geometry":{"type":"LineString","coordinates":[[11.11973,46.99661],[11.11972,46.99696]]}},{"type":"Feature","properties":{"kind":"piste","difficulty":"easy","name":null,"aerialway":null,"osm":"way/1424999647"},"geometry":{"type":"LineString","coordinates":[[11.1188,46.99613],[11.11895,46.99596],[11.11883,46.99496]]}},{"type":"Feature","properties":{"kind":"piste","difficulty":"intermediate","name":null,"aerialway":null,"osm":"way/1425000302"},"geometry":{"type":"LineString","coordinates":[[11.10919,46.97529],[11.10969,46.97452],[11.11049,46.97426],[11.11327,46.97367],[11.11528,46.97354]]}},{"type":"Feature","properties":{"kind":"piste","difficulty":"novice","name":null,"aerialway":null,"osm":"way/1425000303"},"geometry":{"type":"LineString","coordinates":[[11.12074,46.99618],[11.12132,46.99599]]}},{"type":"Feature","properties":{"kind":"piste","difficulty":"novice","name":null,"aerialway":null,"osm":"way/1425000304"},"geometry":{"type":"LineString","coordinates":[[11.12212,46.99573],[11.12232,46.99577]]}},{"type":"Feature","properties":{"kind":"piste","difficulty":"novice","name":null,"aerialway":null,"osm":"way/1425000585"},"geometry":{"type":"LineString","coordinates":[[11.12231,46.99573],[11.12175,46.99595],[11.12027,46.99606]]}},{"type":"Feature","properties":{"kind":"piste","difficulty":"novice","name":null,"aerialway":null,"osm":"way/1425000586"},"geometry":{"type":"LineString","coordinates":[[11.12212,46.99573],[11.12105,46.99561]]}},{"type":"Feature","properties":{"kind":"piste","difficulty":"novice","name":null,"aerialway":null,"osm":"way/1425000587"},"geometry":{"type":"LineString","coordinates":[[11.12188,46.99538],[11.12132,46.99599]]}},{"type":"Feature","properties":{"kind":"piste","difficulty":"novice","name":null,"aerialway":null,"osm":"way/1425000588"},"geometry":{"type":"LineString","coordinates":[[11.12136,46.99532],[11.1213,46.99565]]}},{"type":"Feature","properties":{"kind":"piste","difficulty":"novice","name":null,"aerialway":null,"osm":"way/1425000589"},"geometry":{"type":"LineString","coordinates":[[11.12188,46.99538],[11.12078,46.99522]]}},{"type":"Feature","properties":{"kind":"piste","difficulty":"novice","name":null,"aerialway":null,"osm":"way/1425000590"},"geometry":{"type":"LineString","coordinates":[[11.12109,46.99514],[11.12105,46.99561]]}},{"type":"Feature","properties":{"kind":"piste","difficulty":"intermediate","name":"Silberschneid","aerialway":null,"osm":"way/1490170364"},"geometry":{"type":"LineString","coordinates":[[11.12516,46.98991],[11.12681,46.99033],[11.12891,46.99151],[11.13004,46.99184]]}},{"type":"Feature","properties":{"kind":"piste","difficulty":"intermediate","name":"Silberschneid","aerialway":null,"osm":"way/1490170365"},"geometry":{"type":"LineString","coordinates":[[11.13004,46.99184],[11.13152,46.99187]]}},{"type":"Feature","properties":{"kind":"piste","difficulty":"easy","name":"Daunenhang","aerialway":null,"osm":"way/1490177482"},"geometry":{"type":"LineString","coordinates":[[11.10372,46.98325],[11.10367,46.98444]]}},{"type":"Feature","properties":{"kind":"piste","difficulty":"easy","name":"Daunenhang","aerialway":null,"osm":"way/1490177483"},"geometry":{"type":"LineString","coordinates":[[11.10461,46.98293],[11.10389,46.98296],[11.10372,46.98325]]}},{"type":"Feature","properties":{"kind":"piste","difficulty":"intermediate","name":null,"aerialway":null,"osm":"way/1554224660"},"geometry":{"type":"LineString","coordinates":[[11.10973,46.97184],[11.10956,46.97198],[11.11007,46.97225],[11.11249,46.97278],[11.11319,46.97264],[11.11333,46.97238]]}},{"type":"Feature","properties":{"kind":"piste","difficulty":"intermediate","name":null,"aerialway":null,"osm":"way/1554224661"},"geometry":{"type":"LineString","coordinates":[[11.11333,46.97238],[11.11335,46.97274],[11.11425,46.97346],[11.11528,46.97354]]}},{"type":"Feature","properties":{"kind":"lift","difficulty":null,"name":"Schaufeljochbahn","aerialway":"gondola","osm":"way/26531292"},"geometry":{"type":"LineString","coordinates":[[11.11454,46.98706],[11.11081,46.97716]]}},{"type":"Feature","properties":{"kind":"lift","difficulty":null,"name":"Schlepplift Gaiskarferner","aerialway":"t-bar","osm":"way/27174762"},"geometry":{"type":"LineString","coordinates":[[11.12139,46.97126],[11.10877,46.97574]]}},{"type":"Feature","properties":{"kind":"lift","difficulty":null,"name":"Doppelsesselbahn Pfaffengrat","aerialway":"chair_lift","osm":"way/27174763"},"geometry":{"type":"LineString","coordinates":[[11.122,46.97087],[11.12456,46.97272]]}},{"type":"Feature","properties":{"kind":"lift","difficulty":null,"name":"6er Sesselbahn Fernau","aerialway":"chair_lift","osm":"way/27174764"},"geometry":{"type":"LineString","coordinates":[[11.13109,46.98988],[11.12679,46.97185]]}},{"type":"Feature","properties":{"kind":"lift","difficulty":null,"name":"6er Sessellift Murmelebahn","aerialway":"chair_lift","osm":"way/27174766"},"geometry":{"type":"LineString","coordinates":[[11.12285,46.99748],[11.11633,46.99805]]}},{"type":"Feature","properties":{"kind":"lift","difficulty":null,"name":"8er Sesselbahn Rotadl","aerialway":"chair_lift","osm":"way/27174767"},"geometry":{"type":"LineString","coordinates":[[11.11795,46.99632],[11.10689,46.9873]]}},{"type":"Feature","properties":{"kind":"lift","difficulty":null,"name":"6er Sesselbahn Eisjoch","aerialway":"chair_lift","osm":"way/27174768"},"geometry":{"type":"LineString","coordinates":[[11.11869,46.99606],[11.10832,46.97725]]}},{"type":"Feature","properties":{"kind":"lift","difficulty":null,"name":"Schlepplift Daunferner I","aerialway":"t-bar","osm":"way/28620915"},"geometry":{"type":"LineString","coordinates":[[11.10345,46.99307],[11.10484,46.9809]]}},{"type":"Feature","properties":{"kind":"lift","difficulty":null,"name":"Gamsgartenbahn I","aerialway":"gondola","osm":"way/28825649"},"geometry":{"type":"LineString","coordinates":[[11.15491,47.01076],[11.14047,46.99717]]}},{"type":"Feature","properties":{"kind":"lift","difficulty":null,"name":"Doppelsesselbahn Wildspitz","aerialway":"chair_lift","osm":"way/28825688"},"geometry":{"type":"LineString","coordinates":[[11.10266,46.97761],[11.10435,46.98059]]}},{"type":"Feature","properties":{"kind":"lift","difficulty":null,"name":"Schlepplift Daunscharte","aerialway":"t-bar","osm":"way/29208380"},"geometry":{"type":"LineString","coordinates":[[11.10129,46.99221],[11.09109,46.99016]]}},{"type":"Feature","properties":{"kind":"lift","difficulty":null,"name":"Kitzlift","aerialway":"platter","osm":"way/29380801"},"geometry":{"type":"LineString","coordinates":[[11.12416,46.9972],[11.12183,46.99508]]}},{"type":"Feature","properties":{"kind":"lift","difficulty":null,"name":"Schlepplift Fernau","aerialway":"t-bar","osm":"way/29422773"},"geometry":{"type":"LineString","coordinates":[[11.13789,46.99677],[11.13009,46.9897]]}},{"type":"Feature","properties":{"kind":"lift","difficulty":null,"name":"Schlepplift Daunferner II","aerialway":"t-bar","osm":"way/33263761"},"geometry":{"type":"LineString","coordinates":[[11.10319,46.99377],[11.10467,46.98086]]}},{"type":"Feature","properties":{"kind":"lift","difficulty":null,"name":"4er Sesselbahn Daunjoch","aerialway":"chair_lift","osm":"way/200813092"},"geometry":{"type":"LineString","coordinates":[[11.11577,46.99941],[11.10094,47.00179]]}},{"type":"Feature","properties":{"kind":"lift","difficulty":null,"name":"Eisgratbahn 1","aerialway":"gondola","osm":"way/407273253"},"geometry":{"type":"LineString","coordinates":[[11.16218,47.01327],[11.14097,46.99698]]}},{"type":"Feature","properties":{"kind":"lift","difficulty":null,"name":"Übungslift Gamsgarten","aerialway":"platter","osm":"way/407293015"},"geometry":{"type":"LineString","coordinates":[[11.11883,46.99496],[11.11834,46.9936]]}},{"type":"Feature","properties":{"kind":"lift","difficulty":null,"name":"Gamsgarten 2","aerialway":"gondola","osm":"way/446323854"},"geometry":{"type":"LineString","coordinates":[[11.14047,46.99717],[11.12005,46.99665]]}},{"type":"Feature","properties":{"kind":"lift","difficulty":null,"name":"Eisgratbahn 2","aerialway":"gondola","osm":"way/447819757"},"geometry":{"type":"LineString","coordinates":[[11.14097,46.99698],[11.11497,46.98716]]}},{"type":"Feature","properties":{"kind":"lift","difficulty":null,"name":null,"aerialway":"magic_carpet","osm":"way/759976750"},"geometry":{"type":"LineString","coordinates":[[11.12132,46.99599],[11.12212,46.99573]]}},{"type":"Feature","properties":{"kind":"lift","difficulty":null,"name":null,"aerialway":"magic_carpet","osm":"way/759976751"},"geometry":{"type":"LineString","coordinates":[[11.1213,46.99565],[11.12188,46.99538]]}},{"type":"Feature","properties":{"kind":"lift","difficulty":null,"name":null,"aerialway":"magic_carpet","osm":"way/759976752"},"geometry":{"type":"LineString","coordinates":[[11.12105,46.99561],[11.12136,46.99532]]}},{"type":"Feature","properties":{"kind":"lift","difficulty":null,"name":null,"aerialway":"magic_carpet","osm":"way/759976753"},"geometry":{"type":"LineString","coordinates":[[11.12078,46.99522],[11.12109,46.99514]]}},{"type":"Feature","properties":{"kind":"lift","difficulty":null,"name":"ZOO-Shuttle","aerialway":"rope_tow","osm":"way/1554224659"},"geometry":{"type":"LineString","coordinates":[[11.11333,46.97238],[11.10973,46.97184]]}}]}