{"type":"FeatureCollection","features":[{"type":"Feature","properties":{"kind":"lift","difficulty":null,"name":"Aibllift","aerialway":"t-bar","osm":"way/30845592"},"geometry":{"type":"LineString","coordinates":[[15.45974,47.35015],[15.45139,47.34457]]}},{"type":"Feature","properties":{"kind":"lift","difficulty":null,"name":"Familienlift","aerialway":"t-bar","osm":"way/30845593"},"geometry":{"type":"LineString","coordinates":[[15.45968,47.35019],[15.45462,47.3468]]}},{"type":"Feature","properties":{"kind":"piste","difficulty":"easy","name":"Verbindung Wiese-Ost","aerialway":null,"osm":"way/30845594"},"geometry":{"type":"LineString","coordinates":[[15.45139,47.34457],[15.45374,47.34383],[15.45636,47.34355],[15.45843,47.34466]]}},{"type":"Feature","properties":{"kind":"piste","difficulty":"intermediate","name":"Waldeckumfahrung","aerialway":null,"osm":"way/30845597"},"geometry":{"type":"LineString","coordinates":[[15.45332,47.34415],[15.45356,47.34524],[15.4546,47.34625],[15.45494,47.34678]]}},{"type":"Feature","properties":{"kind":"piste","difficulty":"easy","name":null,"aerialway":null,"osm":"way/30845598"},"geometry":{"type":"LineString","coordinates":[[15.45494,47.34678],[15.45551,47.34691],[15.45939,47.34964],[15.45974,47.35015]]}},{"type":"Feature","properties":{"kind":"piste","difficulty":"intermediate","name":"Standard","aerialway":null,"osm":"way/30845599"},"geometry":{"type":"LineString","coordinates":[[15.45139,47.34457],[15.45332,47.34415],[15.45534,47.3446],[15.45542,47.34563],[15.45494,47.34678]]}},{"type":"Feature","properties":{"kind":"piste","difficulty":"easy","name":"Familienabfahrt","aerialway":null,"osm":"way/30845601"},"geometry":{"type":"LineString","coordinates":[[15.45462,47.3468],[15.4553,47.34786],[15.45901,47.35008],[15.45968,47.35019]]}},{"type":"Feature","properties":{"kind":"piste","difficulty":"intermediate","name":"Wiese Aibl","aerialway":null,"osm":"way/30845602"},"geometry":{"type":"LineString","coordinates":[[15.45534,47.3446],[15.45696,47.34529],[15.45799,47.3466]]}},{"type":"Feature","properties":{"kind":"piste","difficulty":"intermediate","name":"Wiese Ost","aerialway":null,"osm":"way/30845603"},"geometry":{"type":"LineString","coordinates":[[15.45843,47.34466],[15.45827,47.34491],[15.45804,47.34613],[15.45942,47.3478],[15.45929,47.34877]]}},{"type":"Feature","properties":{"kind":"piste","difficulty":"intermediate","name":null,"aerialway":null,"osm":"way/30845604"},"geometry":{"type":"LineString","coordinates":[[15.45799,47.3466],[15.45929,47.34877],[15.45974,47.35015]]}},{"type":"Feature","properties":{"kind":"lift","difficulty":null,"name":null,"aerialway":"magic_carpet","osm":"way/889292935"},"geometry":{"type":"LineString","coordinates":[[15.45827,47.34978],[15.45749,47.34939]]}},{"type":"Feature","properties":{"kind":"piste","difficulty":"unknown","name":null,"aerialway":null,"osm":"way/1001822053"},"geometry":{"type":"LineString","coordinates":[[15.45971,47.35008],[15.45978,47.35017],[15.4596,47.3502]]}},{"type":"Feature","properties":{"kind":"piste","difficulty":"advanced","name":"Express","aerialway":null,"osm":"way/1181501499"},"geometry":{"type":"LineString","coordinates":[[15.45441,47.3464],[15.45494,47.34678]]}},{"type":"Feature","properties":{"kind":"piste","difficulty":"advanced","name":"Express","aerialway":null,"osm":"way/1181501500"},"geometry":{"type":"LineString","coordinates":[[15.45144,47.34462],[15.45213,47.34473],[15.45441,47.3464]]}},{"type":"Feature","properties":{"kind":"lift","difficulty":null,"name":null,"aerialway":"magic_carpet","osm":"way/1181501501"},"geometry":{"type":"LineString","coordinates":[[15.45893,47.35033],[15.45817,47.34984]]}}]}