{"type":"FeatureCollection","features":[{"type":"Feature","properties":{"kind":"lift","difficulty":null,"name":"Tonnerhütte Lift","aerialway":"drag_lift","osm":"way/320191145"},"geometry":{"type":"LineString","coordinates":[[14.53117,47.05146],[14.5391,47.05511]]}},{"type":"Feature","properties":{"kind":"piste","difficulty":"unknown","name":null,"aerialway":null,"osm":"way/1117225215"},"geometry":{"type":"LineString","coordinates":[[14.53673,47.0531],[14.53611,47.05268],[14.53569,47.05268]]}},{"type":"Feature","properties":{"kind":"piste","difficulty":"easy","name":null,"aerialway":null,"osm":"relation/14936207"},"geometry":{"type":"MultiLineString","coordinates":[[[14.53381,47.05122],[14.5328,47.05117],[14.53121,47.05148]],[[14.53381,47.05122],[14.53366,47.05145]],[[14.53366,47.05145],[14.53279,47.05272],[14.53274,47.05305],[14.5331,47.05361]],[[14.5331,47.05361],[14.53481,47.0549],[14.53545,47.05576],[14.5357,47.05651]],[[14.5357,47.05651],[14.53586,47.05682],[14.53586,47.05753],[14.53592,47.05765],[14.53616,47.05768]],[[14.53616,47.05768],[14.53635,47.05747],[14.53696,47.05729]],[[14.53866,47.05494],[14.53866,47.05518],[14.538,47.05566],[14.53721,47.05669],[14.53696,47.05729]]]}},{"type":"Feature","properties":{"kind":"piste","difficulty":"easy","name":null,"aerialway":null,"osm":"relation/14936208"},"geometry":{"type":"MultiLineString","coordinates":[[[14.5331,47.05361],[14.53407,47.05321],[14.53453,47.05328]],[[14.53366,47.05145],[14.53279,47.05272],[14.53274,47.05305],[14.5331,47.05361]],[[14.53381,47.05122],[14.53366,47.05145]],[[14.53381,47.05122],[14.5328,47.05117],[14.53121,47.05148]],[[14.53629,47.05346],[14.5353,47.05346]],[[14.5353,47.05346],[14.53453,47.05328]],[[14.53866,47.05494],[14.53895,47.05475],[14.53889,47.05465],[14.5374,47.05423],[14.53671,47.05394],[14.53648,47.05365]],[[14.53648,47.05365],[14.53629,47.05346]]]}},{"type":"Feature","properties":{"kind":"piste","difficulty":"intermediate","name":null,"aerialway":null,"osm":"relation/14936209"},"geometry":{"type":"MultiLineString","coordinates":[[[14.53629,47.05346],[14.53569,47.05268]],[[14.53569,47.05268],[14.53423,47.05191],[14.53366,47.05145]]]}},{"type":"Feature","properties":{"kind":"piste","difficulty":"easy","name":null,"aerialway":null,"osm":"relation/14936210"},"geometry":{"type":"MultiLineString","coordinates":[[[14.53866,47.05494],[14.53895,47.05475],[14.53889,47.05465],[14.5374,47.05423],[14.53671,47.05394],[14.53648,47.05365]],[[14.53648,47.05365],[14.53673,47.0531]],[[14.53673,47.0531],[14.53696,47.05271],[14.53677,47.05224],[14.53624,47.05178],[14.53471,47.05116],[14.53381,47.05122]],[[14.53381,47.05122],[14.5328,47.05117],[14.53121,47.05148]]]}}]}