{"type":"FeatureCollection","features":[{"type":"Feature","properties":{"kind":"lift","difficulty":null,"name":"Babylift","aerialway":"platter","osm":"way/144398470"},"geometry":{"type":"LineString","coordinates":[[15.28575,47.90896],[15.28765,47.9103]]}},{"type":"Feature","properties":{"kind":"lift","difficulty":null,"name":"Turmkogellift II","aerialway":"t-bar","osm":"way/144398477"},"geometry":{"type":"LineString","coordinates":[[15.28075,47.91868],[15.28424,47.90978]]}},{"type":"Feature","properties":{"kind":"piste","difficulty":"easy","name":null,"aerialway":null,"osm":"way/144398479"},"geometry":{"type":"LineString","coordinates":[[15.28408,47.91019],[15.28357,47.91066],[15.28224,47.9124],[15.28134,47.91319],[15.27885,47.91635],[15.2788,47.91659],[15.28006,47.9174],[15.28034,47.91852],[15.28075,47.91868]]}},{"type":"Feature","properties":{"kind":"piste","difficulty":"easy","name":null,"aerialway":null,"osm":"way/144398480"},"geometry":{"type":"LineString","coordinates":[[15.28408,47.91019],[15.28443,47.91054],[15.28402,47.91328],[15.28568,47.91425],[15.28575,47.91499],[15.28507,47.91607],[15.28328,47.91701],[15.28205,47.91843],[15.28163,47.91861],[15.28075,47.91868]]}},{"type":"Feature","properties":{"kind":"lift","difficulty":null,"name":null,"aerialway":"magic_carpet","osm":"way/144398481"},"geometry":{"type":"LineString","coordinates":[[15.28553,47.90926],[15.28536,47.90904]]}},{"type":"Feature","properties":{"kind":"piste","difficulty":"easy","name":null,"aerialway":null,"osm":"way/144398482"},"geometry":{"type":"LineString","coordinates":[[15.27627,47.91704],[15.27748,47.91641],[15.27797,47.91643],[15.27856,47.91653],[15.27979,47.91734],[15.28002,47.91771],[15.28039,47.91918],[15.2804,47.92044],[15.2811,47.92083],[15.28109,47.9211],[15.28043,47.92144],[15.28016,47.92293],[15.27986,47.92333],[15.27929,47.92361],[15.27762,47.92404],[15.27612,47.92513],[15.27586,47.92515]]}},{"type":"Feature","properties":{"kind":"piste","difficulty":"easy","name":null,"aerialway":null,"osm":"way/144398488"},"geometry":{"type":"LineString","coordinates":[[15.28765,47.9103],[15.28745,47.91032],[15.28603,47.90943],[15.28575,47.90896]]}}]}