{"type":"FeatureCollection","features":[{"type":"Feature","properties":{"kind":"lift","difficulty":null,"name":"Schwabenberglift 2","aerialway":"t-bar","osm":"way/251846392"},"geometry":{"type":"LineString","coordinates":[[15.34963,47.55217],[15.35747,47.54946]]}},{"type":"Feature","properties":{"kind":"lift","difficulty":null,"name":"Schwabenberglift 1","aerialway":"t-bar","osm":"way/251846394"},"geometry":{"type":"LineString","coordinates":[[15.34376,47.55509],[15.35002,47.5515]]}},{"type":"Feature","properties":{"kind":"lift","difficulty":null,"name":"Kohlwiesenlift","aerialway":"platter","osm":"way/251846396"},"geometry":{"type":"LineString","coordinates":[[15.3437,47.55462],[15.34702,47.55241]]}},{"type":"Feature","properties":{"kind":"piste","difficulty":"advanced","name":"FIS Rennstrecke","aerialway":null,"osm":"way/888952271"},"geometry":{"type":"LineString","coordinates":[[15.35697,47.54973],[15.35568,47.55073],[15.35401,47.55121],[15.35355,47.55189],[15.35206,47.55173],[15.35034,47.55224],[15.34963,47.55217]]}},{"type":"Feature","properties":{"kind":"piste","difficulty":"intermediate","name":"Panoramaabfahrt","aerialway":null,"osm":"way/888952272"},"geometry":{"type":"LineString","coordinates":[[15.35685,47.54962],[15.35568,47.5492],[15.35226,47.54933],[15.35055,47.54984],[15.35035,47.55001],[15.35029,47.55142],[15.34975,47.55214]]}},{"type":"Feature","properties":{"kind":"piste","difficulty":"easy","name":"Kohlwiesenpiste","aerialway":null,"osm":"way/888952273"},"geometry":{"type":"LineString","coordinates":[[15.34702,47.55241],[15.34544,47.55284],[15.3449,47.55368],[15.3437,47.55451],[15.3437,47.55462]]}},{"type":"Feature","properties":{"kind":"piste","difficulty":"easy","name":"Kohlwiesenpiste","aerialway":null,"osm":"way/888952274"},"geometry":{"type":"LineString","coordinates":[[15.34702,47.55241],[15.34678,47.55306],[15.34452,47.5543],[15.3437,47.55462]]}},{"type":"Feature","properties":{"kind":"piste","difficulty":"intermediate","name":"Schwabenbergpiste","aerialway":null,"osm":"way/888952275"},"geometry":{"type":"LineString","coordinates":[[15.35002,47.5515],[15.34963,47.55217],[15.34842,47.55287],[15.34434,47.55493],[15.34376,47.55509]]}},{"type":"Feature","properties":{"kind":"piste","difficulty":"intermediate","name":"Schwabenbergpiste","aerialway":null,"osm":"way/888952276"},"geometry":{"type":"LineString","coordinates":[[15.35002,47.5515],[15.34922,47.55209],[15.34824,47.55226],[15.34678,47.55306]]}},{"type":"Feature","properties":{"kind":"lift","difficulty":null,"name":"\"Heldeco\" Gipfellift","aerialway":"drag_lift","osm":"way/1134351160"},"geometry":{"type":"LineString","coordinates":[[15.35709,47.5498],[15.3616,47.54866],[15.3627,47.54757],[15.35709,47.5498]]}},{"type":"Feature","properties":{"kind":"piste","difficulty":"intermediate","name":"Panoramapiste","aerialway":null,"osm":"way/1134351941"},"geometry":{"type":"LineString","coordinates":[[15.3624,47.54785],[15.36202,47.54795],[15.36126,47.54847],[15.35974,47.54899],[15.35709,47.54965]]}}]}