{"type":"FeatureCollection","features":[{"type":"Feature","properties":{"kind":"lift","difficulty":null,"name":"Eichfeldlift","aerialway":"platter","osm":"way/352281046"},"geometry":{"type":"LineString","coordinates":[[15.33993,47.56177],[15.34094,47.56448]]}},{"type":"Feature","properties":{"kind":"piste","difficulty":"easy","name":"Eichfeldpiste","aerialway":null,"osm":"way/888952277"},"geometry":{"type":"LineString","coordinates":[[15.34094,47.56448],[15.34123,47.5642],[15.34083,47.56262],[15.33995,47.56178]]}}]}