{"type":"FeatureCollection","features":[{"type":"Feature","properties":{"kind":"piste","difficulty":"easy","name":"Talabfahrt","aerialway":null,"osm":"way/42778047"},"geometry":{"type":"LineString","coordinates":[[15.83504,47.93328],[15.83691,47.93263],[15.83745,47.93216],[15.83891,47.9316],[15.83948,47.9315],[15.84127,47.93172],[15.84176,47.93164],[15.84226,47.93132],[15.84274,47.93052],[15.84295,47.93035],[15.84333,47.93032],[15.84407,47.93068],[15.84613,47.93129],[15.84683,47.93179],[15.84831,47.93179],[15.85123,47.93273],[15.85277,47.93369],[15.85378,47.93494]]}},{"type":"Feature","properties":{"kind":"lift","difficulty":null,"name":"Karnerbodenlift","aerialway":"t-bar","osm":"way/84162409"},"geometry":{"type":"LineString","coordinates":[[15.83484,47.93334],[15.82243,47.93453]]}},{"type":"Feature","properties":{"kind":"lift","difficulty":null,"name":"Gipfellift 1","aerialway":"t-bar","osm":"way/84162416"},"geometry":{"type":"LineString","coordinates":[[15.82621,47.93675],[15.81933,47.93845]]}},{"type":"Feature","properties":{"kind":"piste","difficulty":"intermediate","name":"Hüttenhang","aerialway":null,"osm":"way/84162417"},"geometry":{"type":"LineString","coordinates":[[15.81995,47.93824],[15.81878,47.93719],[15.81874,47.9367],[15.81986,47.93453],[15.82068,47.93419],[15.82356,47.93516],[15.82618,47.9367]]}},{"type":"Feature","properties":{"kind":"lift","difficulty":null,"name":"Gipfellift 2","aerialway":"t-bar","osm":"way/84162428"},"geometry":{"type":"LineString","coordinates":[[15.82618,47.9367],[15.81931,47.9384]]}},{"type":"Feature","properties":{"kind":"lift","difficulty":null,"name":"Schneidlift","aerialway":"t-bar","osm":"way/84286374"},"geometry":{"type":"LineString","coordinates":[[15.8335,47.94068],[15.824,47.94305]]}},{"type":"Feature","properties":{"kind":"piste","difficulty":"easy","name":null,"aerialway":null,"osm":"way/84286376"},"geometry":{"type":"LineString","coordinates":[[15.82332,47.93304],[15.82286,47.93249],[15.82269,47.93176]]}},{"type":"Feature","properties":{"kind":"piste","difficulty":"easy","name":"Karnerboden Abfahrt","aerialway":null,"osm":"way/84286377"},"geometry":{"type":"LineString","coordinates":[[15.82068,47.93419],[15.8222,47.93325],[15.82244,47.93301],[15.82248,47.93204],[15.82289,47.93161],[15.82336,47.93151],[15.82461,47.93149],[15.82566,47.93163],[15.82815,47.93208],[15.83057,47.93275],[15.83189,47.93286],[15.83309,47.93274],[15.83428,47.93282],[15.8347,47.93294],[15.83504,47.93328]]}},{"type":"Feature","properties":{"kind":"piste","difficulty":"intermediate","name":"Bischof Schlag","aerialway":null,"osm":"way/84286382"},"geometry":{"type":"LineString","coordinates":[[15.82167,47.93913],[15.82252,47.93899],[15.82312,47.93913],[15.82372,47.93945],[15.82441,47.93948],[15.8252,47.93916],[15.8261,47.93799]]}},{"type":"Feature","properties":{"kind":"piste","difficulty":"easy","name":"Schneid-Abfahrt","aerialway":null,"osm":"way/84286384"},"geometry":{"type":"LineString","coordinates":[[15.82465,47.9429],[15.82582,47.94327],[15.82674,47.94285],[15.8288,47.94255],[15.83077,47.94171],[15.83181,47.94166],[15.83312,47.9414],[15.83378,47.941],[15.83377,47.94083],[15.8335,47.94068]]}},{"type":"Feature","properties":{"kind":"piste","difficulty":"easy","name":null,"aerialway":null,"osm":"way/84286387"},"geometry":{"type":"LineString","coordinates":[[15.83189,47.93935],[15.8326,47.94008],[15.8334,47.94059]]}},{"type":"Feature","properties":{"kind":"piste","difficulty":"easy","name":"Wald-Abfahrt","aerialway":null,"osm":"way/84286391"},"geometry":{"type":"LineString","coordinates":[[15.82465,47.9429],[15.82547,47.94171],[15.82648,47.94128],[15.82772,47.94129],[15.8334,47.94059],[15.8335,47.94068]]}},{"type":"Feature","properties":{"kind":"piste","difficulty":"intermediate","name":"Karner Schlag","aerialway":null,"osm":"way/84286393"},"geometry":{"type":"LineString","coordinates":[[15.82393,47.93544],[15.8253,47.93495],[15.8268,47.93529],[15.82756,47.93489],[15.82794,47.93483],[15.82979,47.93497],[15.8304,47.93465],[15.83214,47.93434],[15.83296,47.93401],[15.83382,47.93392]]}},{"type":"Feature","properties":{"kind":"piste","difficulty":"intermediate","name":null,"aerialway":null,"osm":"way/84286395"},"geometry":{"type":"LineString","coordinates":[[15.82642,47.93525],[15.82746,47.93599],[15.82862,47.93649],[15.83174,47.93685],[15.83313,47.93723],[15.83392,47.93717]]}},{"type":"Feature","properties":{"kind":"piste","difficulty":"easy","name":null,"aerialway":null,"osm":"way/84286400"},"geometry":{"type":"LineString","coordinates":[[15.82372,47.93555],[15.82374,47.93525],[15.82308,47.93446],[15.8228,47.93359],[15.82244,47.93301]]}},{"type":"Feature","properties":{"kind":"piste","difficulty":"intermediate","name":null,"aerialway":null,"osm":"way/84286404"},"geometry":{"type":"LineString","coordinates":[[15.82332,47.93304],[15.82398,47.9326],[15.82546,47.93281],[15.827,47.93255],[15.82974,47.93297],[15.83067,47.93331],[15.83189,47.93286]]}},{"type":"Feature","properties":{"kind":"piste","difficulty":"easy","name":"Muldenabfahrt","aerialway":null,"osm":"way/84286406"},"geometry":{"type":"LineString","coordinates":[[15.8225,47.94038],[15.82465,47.94032],[15.82588,47.93985],[15.82626,47.93894],[15.8261,47.93799],[15.82621,47.93675]]}},{"type":"Feature","properties":{"kind":"piste","difficulty":"easy","name":null,"aerialway":null,"osm":"way/84286409"},"geometry":{"type":"LineString","coordinates":[[15.81998,47.93829],[15.82167,47.93913],[15.82206,47.93947],[15.82271,47.94077],[15.82465,47.9429]]}},{"type":"Feature","properties":{"kind":"piste","difficulty":"intermediate","name":"FIS-Piste Michaela Dorfmeister","aerialway":null,"osm":"way/84286411"},"geometry":{"type":"LineString","coordinates":[[15.81995,47.93824],[15.82,47.93798],[15.82029,47.93774],[15.82393,47.93544]]}},{"type":"Feature","properties":{"kind":"piste","difficulty":"easy","name":null,"aerialway":null,"osm":"way/84286413"},"geometry":{"type":"LineString","coordinates":[[15.8334,47.94059],[15.83355,47.94051],[15.83372,47.93956]]}},{"type":"Feature","properties":{"kind":"piste","difficulty":"easy","name":"Silbergraben","aerialway":null,"osm":"way/151710178"},"geometry":{"type":"LineString","coordinates":[[15.83396,47.9394],[15.83392,47.93908],[15.83415,47.9381],[15.83403,47.93733],[15.83354,47.93625],[15.83357,47.93506],[15.83382,47.93392],[15.83504,47.93328]]}},{"type":"Feature","properties":{"kind":"lift","difficulty":null,"name":"Zauberteppich","aerialway":"magic_carpet","osm":"way/151710180"},"geometry":{"type":"LineString","coordinates":[[15.8265,47.93795],[15.82665,47.93821]]}},{"type":"Feature","properties":{"kind":"piste","difficulty":"easy","name":"Lange Mulde","aerialway":null,"osm":"way/151715979"},"geometry":{"type":"LineString","coordinates":[[15.82588,47.93985],[15.82693,47.93962],[15.82784,47.93913],[15.82814,47.93909],[15.82936,47.93947],[15.82974,47.93939],[15.83036,47.93896],[15.83189,47.93935],[15.83296,47.93928],[15.83372,47.93956]]}},{"type":"Feature","properties":{"kind":"piste","difficulty":"unknown","name":null,"aerialway":null,"osm":"way/695801743"},"geometry":{"type":"LineString","coordinates":[[15.82665,47.93821],[15.82618,47.93731]]}},{"type":"Feature","properties":{"kind":"piste","difficulty":"unknown","name":null,"aerialway":null,"osm":"way/695801744"},"geometry":{"type":"LineString","coordinates":[[15.83362,47.94066],[15.83355,47.94051]]}},{"type":"Feature","properties":{"kind":"piste","difficulty":"easy","name":"Talabfahrt","aerialway":null,"osm":"way/1026701827"},"geometry":{"type":"LineString","coordinates":[[15.85378,47.93494],[15.85507,47.93596],[15.85711,47.93652]]}},{"type":"Feature","properties":{"kind":"piste","difficulty":"easy","name":null,"aerialway":null,"osm":"way/1139589436"},"geometry":{"type":"LineString","coordinates":[[15.823,47.93421],[15.82328,47.93355],[15.82332,47.93304]]}},{"type":"Feature","properties":{"kind":"piste","difficulty":"easy","name":"Silbergraben","aerialway":null,"osm":"way/1191316085"},"geometry":{"type":"LineString","coordinates":[[15.83372,47.93956],[15.83388,47.93944]]}},{"type":"Feature","properties":{"kind":"piste","difficulty":"easy","name":"Silbergraben","aerialway":null,"osm":"way/1191316086"},"geometry":{"type":"LineString","coordinates":[[15.83388,47.93944],[15.83396,47.9394]]}}]}