{"type":"FeatureCollection","features":[{"type":"Feature","properties":{"kind":"lift","difficulty":null,"name":"Sonnberglift II","aerialway":"t-bar","osm":"way/116585909"},"geometry":{"type":"LineString","coordinates":[[14.67248,47.45836],[14.67355,47.46228]]}},{"type":"Feature","properties":{"kind":"lift","difficulty":null,"name":"Sonnberglift III","aerialway":"t-bar","osm":"way/116585935"},"geometry":{"type":"LineString","coordinates":[[14.66963,47.45876],[14.66965,47.46314]]}},{"type":"Feature","properties":{"kind":"lift","difficulty":null,"name":"Sonnberglift I","aerialway":"t-bar","osm":"way/116585989"},"geometry":{"type":"LineString","coordinates":[[14.67275,47.45194],[14.67143,47.45925]]}},{"type":"Feature","properties":{"kind":"piste","difficulty":"advanced","name":null,"aerialway":null,"osm":"way/1078668508"},"geometry":{"type":"LineString","coordinates":[[14.66965,47.46296],[14.66978,47.46269],[14.66984,47.45876],[14.66963,47.45876]]}},{"type":"Feature","properties":{"kind":"piste","difficulty":"intermediate","name":null,"aerialway":null,"osm":"way/1078668509"},"geometry":{"type":"LineString","coordinates":[[14.67145,47.45913],[14.67172,47.45879],[14.67185,47.45811],[14.67143,47.4574],[14.67119,47.4567],[14.67122,47.45636],[14.67173,47.4551],[14.67172,47.45432],[14.67221,47.45238],[14.67275,47.45194]]}},{"type":"Feature","properties":{"kind":"piste","difficulty":"easy","name":null,"aerialway":null,"osm":"way/1078668510"},"geometry":{"type":"LineString","coordinates":[[14.67172,47.45879],[14.67192,47.45859],[14.67249,47.4584]]}},{"type":"Feature","properties":{"kind":"piste","difficulty":"easy","name":null,"aerialway":null,"osm":"way/1078668511"},"geometry":{"type":"LineString","coordinates":[[14.67145,47.45913],[14.67088,47.45884],[14.66984,47.45876]]}},{"type":"Feature","properties":{"kind":"piste","difficulty":"easy","name":null,"aerialway":null,"osm":"way/1078668512"},"geometry":{"type":"LineString","coordinates":[[14.6735,47.46209],[14.67298,47.46187],[14.67257,47.4615],[14.67223,47.46084],[14.67172,47.45879]]}},{"type":"Feature","properties":{"kind":"piste","difficulty":"easy","name":null,"aerialway":null,"osm":"way/1078668513"},"geometry":{"type":"LineString","coordinates":[[14.67201,47.45999],[14.67135,47.45943],[14.671,47.45889]]}},{"type":"Feature","properties":{"kind":"piste","difficulty":"easy","name":null,"aerialway":null,"osm":"way/1078668514"},"geometry":{"type":"LineString","coordinates":[[14.66965,47.46296],[14.67069,47.46261],[14.67187,47.4626],[14.67256,47.46228],[14.67298,47.46187]]}},{"type":"Feature","properties":{"kind":"piste","difficulty":"easy","name":null,"aerialway":null,"osm":"way/1078668515"},"geometry":{"type":"LineString","coordinates":[[14.67298,47.46187],[14.67219,47.4616],[14.67141,47.46091],[14.67084,47.45981],[14.67044,47.45941],[14.67043,47.45911],[14.66999,47.45898],[14.66984,47.45876]]}},{"type":"Feature","properties":{"kind":"piste","difficulty":"intermediate","name":null,"aerialway":null,"osm":"way/1078668516"},"geometry":{"type":"LineString","coordinates":[[14.67229,47.46096],[14.6723,47.46046],[14.67349,47.45841],[14.67383,47.45735],[14.67389,47.45653],[14.67324,47.45546],[14.67261,47.45388],[14.67206,47.45296]]}}]}