{"type":"FeatureCollection","features":[{"type":"Feature","properties":{"kind":"lift","difficulty":null,"name":"Skilift Wenigzell","aerialway":"drag_lift","osm":"way/132519328"},"geometry":{"type":"LineString","coordinates":[[15.76218,47.42757],[15.75074,47.42283]]}},{"type":"Feature","properties":{"kind":"piste","difficulty":"easy","name":"Krauser Schöckl","aerialway":null,"osm":"way/132519394"},"geometry":{"type":"LineString","coordinates":[[15.75127,47.42316],[15.75684,47.42552],[15.75892,47.42659],[15.76036,47.42717],[15.7616,47.42742]]}}]}