{"type":"FeatureCollection","features":[{"type":"Feature","properties":{"kind":"lift","difficulty":null,"name":null,"aerialway":"magic_carpet","osm":"way/1196904772"},"geometry":{"type":"LineString","coordinates":[[16.82446,46.81282],[16.82494,46.8129]]}},{"type":"Feature","properties":{"kind":"lift","difficulty":null,"name":null,"aerialway":"platter","osm":"way/1197155983"},"geometry":{"type":"LineString","coordinates":[[16.82457,46.81262],[16.82528,46.81273]]}},{"type":"Feature","properties":{"kind":"piste","difficulty":"novice","name":"Sípálya","aerialway":null,"osm":"way/1306357357"},"geometry":{"type":"LineString","coordinates":[[16.82521,46.81285],[16.82452,46.81274]]}}]}