{"type":"FeatureCollection","features":[{"type":"Feature","properties":{"kind":"lift","difficulty":null,"name":"Zellenberg","aerialway":"platter","osm":"way/660727024"},"geometry":{"type":"LineString","coordinates":[[16.19325,47.07297],[16.18955,47.0738]]}},{"type":"Feature","properties":{"kind":"piste","difficulty":"easy","name":"Zellenberg","aerialway":null,"osm":"way/660731721"},"geometry":{"type":"LineString","coordinates":[[16.18944,47.07381],[16.18985,47.07399],[16.19249,47.07365],[16.19255,47.0735],[16.19324,47.07313],[16.19328,47.07299],[16.18944,47.07381]]}}]}